Date/Time,Temp_C,Dew Point Temp_C,Rel Hum_%,Wind Speed_km/h,Visibility_km,Press_kPa,Weather,Clothing_Score
1/1/2012 0:00,-1.8,-3.9,86,4,8.0,101.24,Fog,1.7530322801745157
1/1/2012 1:00,-1.8,-3.7,87,4,8.0,101.24,Fog,1.755244623603565
1/1/2012 2:00,-1.8,-3.4,89,7,4.0,101.26,"Freezing Drizzle,Fog",1.7690758972665672
1/1/2012 3:00,-1.5,-3.2,88,6,4.0,101.27,"Freezing Drizzle,Fog",1.7690003763263102
1/1/2012 4:00,-1.5,-3.3,88,7,4.8,101.23,Fog,1.766497863248778
1/1/2012 5:00,-1.4,-3.3,87,9,6.4,101.27,Fog,1.7651787457405195
1/1/2012 6:00,-1.5,-3.1,89,7,6.4,101.29,Fog,1.7590894054480448
1/1/2012 7:00,-1.4,-3.6,85,7,8.0,101.26,Fog,1.7726385010464458
1/1/2012 8:00,-1.4,-3.6,85,9,8.0,101.23,Fog,1.7689005050010715
1/1/2012 9:00,-1.3,-3.1,88,15,4.0,101.2,Fog,1.7711759121396926
1/1/2012 10:00,-1.0,-2.3,91,9,1.2,101.15,Fog,1.7728943594820246
1/1/2012 11:00,-0.5,-2.1,89,7,4.0,100.98,Fog,1.7738913822593063
1/1/2012 12:00,-0.2,-2.0,88,9,4.8,100.79,Fog,1.7664024048164848
1/1/2012 13:00,0.2,-1.7,87,13,4.8,100.58,Fog,1.771144137996612
1/1/2012 14:00,0.8,-1.1,87,20,4.8,100.31,Fog,1.7625733140622977
1/1/2012 15:00,1.8,-0.4,85,22,6.4,100.07,Fog,1.7740205591625353
1/1/2012 16:00,2.6,-0.2,82,13,12.9,99.93,Mostly Cloudy,1.7556098874804478
1/1/2012 17:00,3.0,0.0,81,13,16.1,99.81,Cloudy,1.7408722768108806
1/1/2012 18:00,3.8,1.0,82,15,12.9,99.74,Rain,1.7606906001858653
1/1/2012 19:00,3.1,1.3,88,15,12.9,99.68,Rain,1.7571931537828946
1/1/2012 20:00,3.2,1.3,87,19,25.0,99.5,Cloudy,1.761755395676233
1/1/2012 21:00,4.0,1.7,85,20,25.0,99.39,Cloudy,1.7590565417556474
1/1/2012 22:00,4.4,1.9,84,24,19.3,99.32,Rain Showers,1.7514487056960546
1/1/2012 23:00,5.3,2.0,79,30,25.0,99.31,Cloudy,1.7417820899134997
1/2/2012 0:00,5.2,1.5,77,35,25.0,99.26,Rain Showers,1.7487500369010909
1/2/2012 1:00,4.6,0.0,72,39,25.0,99.26,Cloudy,1.7501990782037224
1/2/2012 2:00,3.9,-0.9,71,32,25.0,99.26,Mostly Cloudy,1.7593940289392709
1/2/2012 3:00,3.7,-1.5,69,33,25.0,99.3,Mostly Cloudy,1.7584157942887415
1/2/2012 4:00,2.9,-2.3,69,32,25.0,99.26,Mostly Cloudy,1.7647421825105567
1/2/2012 5:00,2.6,-2.3,70,32,25.0,99.21,Mostly Cloudy,1.7674357685065865
1/2/2012 6:00,2.3,-2.6,70,26,25.0,99.18,Mostly Cloudy,1.7627495937630204
1/2/2012 7:00,2.0,-2.9,70,33,25.0,99.14,Mostly Cloudy,1.7676516117687622
1/2/2012 8:00,1.9,-3.3,68,39,24.1,99.14,Mostly Cloudy,1.7649188197617978
1/2/2012 9:00,1.8,-3.7,67,44,24.1,99.14,Mostly Cloudy,1.7663546383472997
1/2/2012 10:00,1.5,-4.1,66,43,24.1,99.18,Mostly Cloudy,1.7684188333838189
1/2/2012 11:00,2.2,-3.5,66,30,24.1,99.19,Mostly Cloudy,1.7579988964894926
1/2/2012 12:00,1.7,-6.2,56,48,24.1,99.21,Mainly Clear,1.7659367099511847
1/2/2012 13:00,1.1,-6.5,57,37,24.1,99.27,Mostly Cloudy,1.7475209139938293
1/2/2012 14:00,1.1,-6.8,56,33,24.1,99.33,Mostly Cloudy,1.7550591678699843
1/2/2012 15:00,0.0,-7.0,59,33,24.1,99.41,Mostly Cloudy,1.744826667212209
1/2/2012 16:00,-0.7,-8.7,55,24,24.1,99.5,Mostly Cloudy,1.7570062518462946
1/2/2012 17:00,-2.1,-9.5,57,22,25.0,99.66,Snow Showers,1.7514487056960548
1/2/2012 18:00,-4.1,-11.4,57,28,25.0,99.86,Mostly Cloudy,1.7722588756956383
1/2/2012 19:00,-4.8,-12.1,57,24,25.0,100.0,Mostly Cloudy,1.7441728906669483
1/2/2012 20:00,-5.6,-13.4,54,24,25.0,100.07,Snow Showers,1.731860449928392
1/2/2012 21:00,-5.8,-12.8,58,26,25.0,100.15,Snow Showers,1.7457600101148236
1/2/2012 22:00,-7.0,-14.7,54,20,25.0,100.26,Cloudy,1.7295953902773358
1/2/2012 23:00,-7.4,-14.1,59,17,19.3,100.27,Snow Showers,1.7725914439583534
1/3/2012 0:00,-9.0,-16.0,57,28,25.0,100.35,Snow Showers,1.7530659647832063
1/3/2012 1:00,-9.7,-17.2,54,20,25.0,100.43,Cloudy,1.666270518527246
1/3/2012 2:00,-10.5,-15.8,65,22,12.9,100.53,Snow Showers,1.7398253104668522
1/3/2012 3:00,-11.3,-18.7,54,33,25.0,100.61,Snow Showers,1.7714509189054404
1/3/2012 4:00,-12.6,-20.1,53,24,25.0,100.68,Cloudy,1.7191949125530444
1/3/2012 5:00,-12.9,-19.1,60,22,25.0,100.76,Snow Showers,1.7086911119120385
1/3/2012 6:00,-13.3,-19.3,61,19,25.0,100.85,Snow Showers,1.6948435576684822
1/3/2012 7:00,-14.0,-19.5,63,19,25.0,100.95,Snow,1.693770635243723
1/3/2012 8:00,-14.8,-21.3,58,26,24.1,101.07,Mostly Cloudy,1.7554637776600723
1/3/2012 9:00,-15.0,-21.9,56,19,24.1,101.2,Mostly Cloudy,1.7504029895251905
1/3/2012 10:00,-15.3,-22.2,56,24,24.1,101.29,Cloudy,1.7458897828951585
1/3/2012 11:00,-14.9,-22.2,54,22,24.1,101.33,Mostly Cloudy,1.6790016106144265
1/3/2012 12:00,-14.9,-22.6,52,20,24.1,101.34,Mainly Clear,1.6894783186584452
1/3/2012 13:00,-15.1,-22.4,54,22,24.1,101.34,Mainly Clear,1.6746517524059568
1/3/2012 14:00,-14.9,-22.9,50,22,24.1,101.38,Mainly Clear,1.7100948700401222
1/3/2012 15:00,-14.8,-22.2,53,19,24.1,101.44,Mainly Clear,1.6841120805711904
1/3/2012 16:00,-15.3,-22.9,52,22,24.1,101.51,Mainly Clear,1.6499999999999997
1/3/2012 17:00,-15.8,-23.2,53,22,24.1,101.58,Mainly Clear,1.7185849932960644
1/3/2012 18:00,-16.3,-23.8,52,24,25.0,101.64,Mainly Clear,1.6499999999999997
1/3/2012 19:00,-16.9,-24.8,50,24,25.0,101.74,Clear,1.5
1/3/2012 20:00,-17.3,-25.4,49,24,25.0,101.82,Mainly Clear,1.7125882679104354
1/3/2012 21:00,-17.0,-24.6,52,15,25.0,101.86,Mostly Cloudy,1.7681799611319315
1/3/2012 22:00,-17.1,-24.6,52,20,25.0,101.86,Mostly Cloudy,1.6499999999999997
1/3/2012 23:00,-17.3,-24.2,55,17,25.0,101.87,Mostly Cloudy,1.6524507409216738
1/4/2012 0:00,-17.5,-24.2,56,13,25.0,101.88,Mostly Cloudy,1.659574703732418
1/4/2012 1:00,-17.9,-24.1,58,11,25.0,101.86,Mainly Clear,1.7280114821891197
1/4/2012 2:00,-18.1,-23.8,61,15,25.0,101.89,Mainly Clear,1.6768881290465567
1/4/2012 3:00,-18.5,-24.6,59,13,25.0,101.88,Mainly Clear,1.672110259985864
1/4/2012 4:00,-18.5,-24.6,59,13,25.0,101.82,Mainly Clear,1.672110259985864
1/4/2012 5:00,-18.6,-24.0,62,9,25.0,101.77,Mainly Clear,1.7687774559512985
1/4/2012 6:00,-18.5,-24.1,61,11,25.0,101.74,Cloudy,1.6876417165432789
1/4/2012 7:00,-18.2,-24.1,60,11,25.0,101.75,Cloudy,1.7273404172041018
1/4/2012 8:00,-17.8,-24.2,57,17,24.1,101.73,Mostly Cloudy,1.7572888605769263
1/4/2012 9:00,-16.8,-22.5,61,9,24.1,101.68,Mostly Cloudy,1.7418666486267007
1/4/2012 10:00,-15.2,-20.6,63,7,24.1,101.54,Mostly Cloudy,1.7016813227530698
1/4/2012 11:00,-14.2,-21.1,56,13,24.1,101.41,Mostly Cloudy,1.7397006429431496
1/4/2012 12:00,-13.7,-21.7,51,11,24.1,101.25,Snow,1.7523893253387923
1/4/2012 13:00,-12.4,-20.1,53,11,24.1,101.07,Cloudy,1.752739698663161
1/4/2012 14:00,-11.3,-19.0,53,7,19.3,100.97,Snow,1.7710858624766876
1/4/2012 15:00,-10.2,-16.3,61,11,9.7,100.89,Snow,1.698409117246854
1/4/2012 16:00,-9.4,-15.5,61,13,19.3,100.79,Snow,1.5742782794511396
1/4/2012 17:00,-8.9,-13.2,71,9,4.8,100.76,Snow,1.712430565280306
1/4/2012 18:00,-8.9,-12.6,75,11,9.7,100.69,Snow,1.7241591468416737
1/4/2012 19:00,-8.4,-12.7,71,9,16.1,100.65,Snow,1.7738939672446488
1/4/2012 20:00,-7.8,-12.1,71,9,16.1,100.61,Snow,1.7739611561236308
1/4/2012 21:00,-7.6,-11.6,73,7,11.3,100.54,Snow,1.718324698506683
1/4/2012 22:00,-9.5,-12.7,77,6,9.7,100.5,Snow,1.7302348458823897
1/4/2012 23:00,-9.6,-12.6,79,6,9.7,100.42,Snow,1.7357508862871274
1/5/2012 0:00,-8.8,-11.7,79,4,9.7,100.32,Snow,1.7357508862871274
1/5/2012 1:00,-7.5,-10.2,81,0,9.7,100.29,Snow,1.7408722768108806
1/5/2012 2:00,-5.4,-8.3,80,9,8.0,100.28,Snow,1.7383226557949913
1/5/2012 3:00,-5.0,-7.7,81,11,9.7,100.24,Snow,1.7408722768108806
1/5/2012 4:00,-4.1,-6.5,83,9,4.8,100.21,Snow,1.7459700090483987
1/5/2012 5:00,-7.0,-9.5,82,4,4.0,100.19,Snow,1.7434626346010758
1/5/2012 6:00,-8.2,-10.7,82,6,6.4,100.26,Snow,1.7434626346010758
1/5/2012 7:00,-7.1,-9.7,82,9,9.7,100.31,Snow,1.7434626346010758
1/5/2012 8:00,-6.1,-9.1,79,11,9.7,100.39,Snow,1.7357508862871274
1/5/2012 9:00,-6.6,-10.1,76,9,24.1,100.42,Mainly Clear,1.7572888605769266
1/5/2012 10:00,-6.0,-10.0,73,17,48.3,100.45,Mainly Clear,1.718324698506683
1/5/2012 11:00,-5.6,-10.2,70,22,48.3,100.41,Mainly Clear,1.7739120604872196
1/5/2012 12:00,-4.7,-9.6,69,20,48.3,100.38,Mainly Clear,1.7702108245040935
1/5/2012 13:00,-4.4,-9.7,66,26,48.3,100.4,Mainly Clear,1.7589860814439815
1/5/2012 14:00,-5.1,-10.7,65,22,48.3,100.46,Mainly Clear,1.7576612109575813
1/5/2012 15:00,-4.3,-12.0,55,26,48.3,100.52,Mainly Clear,1.7704588531729122
1/5/2012 16:00,-5.0,-12.7,55,19,24.1,100.6,Mainly Clear,1.7700772540727103
1/5/2012 17:00,-6.7,-14.1,56,11,25.0,100.65,Mainly Clear,1.7426686889737069
1/5/2012 18:00,-7.1,-14.4,56,11,25.0,100.71,Clear,1.7651875439976508
1/5/2012 19:00,-9.2,-15.4,61,7,25.0,100.8,Clear,1.7737879343562417
1/5/2012 20:00,-9.8,-15.7,62,9,25.0,100.83,Clear,1.733915243699287
1/5/2012 21:00,-9.0,-14.8,63,13,25.0,100.83,Clear,1.7634797904741812
1/5/2012 22:00,-9.9,-15.7,63,7,25.0,100.85,Cloudy,1.6980681959665527
1/5/2012 23:00,-9.4,-15.5,61,9,25.0,100.83,Cloudy,1.689803956826418
1/6/2012 0:00,-9.6,-16.8,56,13,25.0,100.81,Cloudy,1.76584503442489
1/6/2012 1:00,-10.0,-17.3,55,17,25.0,100.81,Cloudy,1.721652377744288
1/6/2012 2:00,-10.5,-16.5,61,9,25.0,100.84,Cloudy,1.712964446718792
1/6/2012 3:00,-10.6,-16.0,64,0,9.7,100.76,Snow,1.6895328361301014
1/6/2012 4:00,-11.3,-16.1,68,15,3.2,100.7,Snow,1.7018006700167505
1/6/2012 5:00,-11.8,-16.0,71,19,2.8,100.61,Snow,1.712430565280306
1/6/2012 6:00,-12.0,-16.2,71,22,4.8,100.58,Snow,1.712430565280306
1/6/2012 7:00,-14.4,-16.3,85,22,2.4,100.52,Snow,1.7507512632600475
1/6/2012 8:00,-12.3,-16.2,73,24,11.3,100.51,Snow,1.718324698506683
1/6/2012 9:00,-12.5,-16.7,71,26,19.3,100.53,Snow,1.712430565280306
1/6/2012 10:00,-12.3,-16.3,72,28,16.1,100.47,Snow,1.7154802667147235
1/6/2012 11:00,-12.0,-16.0,72,17,24.1,100.36,Snow,1.7154802667147235
1/6/2012 12:00,-11.7,-15.4,74,28,19.3,100.23,Snow,1.756640989629585
1/6/2012 13:00,-11.9,-15.6,74,20,24.1,100.13,Snow,1.7584110669837303
1/6/2012 14:00,-11.2,-14.8,75,19,19.3,100.07,Snow,1.7482278435600331
1/6/2012 15:00,-11.5,-14.4,79,19,12.9,100.06,Snow,1.7357508862871274
1/6/2012 16:00,-11.6,-14.7,78,19,19.3,100.1,Snow,1.733057876440812
1/6/2012 17:00,-11.2,-14.3,78,17,25.0,100.15,Snow,1.7407800606085342
1/6/2012 18:00,-10.5,-13.6,78,17,19.3,100.12,Cloudy,1.733057876440812
1/6/2012 19:00,-10.5,-13.4,79,15,25.0,100.13,Cloudy,1.7357508862871274
1/6/2012 20:00,-10.2,-13.0,80,11,25.0,100.15,Cloudy,1.7468896893422696
1/6/2012 21:00,-9.5,-12.5,79,9,25.0,100.13,Cloudy,1.764152431667732
1/6/2012 22:00,-9.3,-12.2,79,11,19.3,100.16,Cloudy,1.7357508862871274
1/6/2012 23:00,-9.0,-12.0,79,7,16.1,100.15,Cloudy,1.7357508862871274
1/7/2012 0:00,-8.7,-11.7,79,6,16.1,100.13,Cloudy,1.7357508862871274
1/7/2012 1:00,-8.5,-11.4,80,0,19.3,100.11,Cloudy,1.7630246493448944
1/7/2012 2:00,-8.1,-11.1,79,4,19.3,100.15,Cloudy,1.7357508862871274
1/7/2012 3:00,-7.8,-10.8,79,4,19.3,100.12,Cloudy,1.7357508862871274
1/7/2012 4:00,-7.5,-10.5,79,6,19.3,100.1,Cloudy,1.7357508862871274
1/7/2012 5:00,-6.9,-9.7,80,4,19.3,100.12,Cloudy,1.7383226557949913
1/7/2012 6:00,-6.7,-9.5,80,7,16.1,100.12,Cloudy,1.756876645787765
1/7/2012 7:00,-7.0,-9.7,81,7,16.1,100.16,Cloudy,1.7408722768108806
1/7/2012 8:00,-6.4,-9.0,82,9,8.0,100.1,"Freezing Drizzle,Fog",1.7434626346010758
1/7/2012 9:00,-6.1,-8.7,82,7,9.7,100.15,"Freezing Rain,Fog",1.7434626346010758
1/7/2012 10:00,-5.7,-8.0,84,7,8.0,100.13,Freezing Rain,1.7483983249034645
1/7/2012 11:00,-5.4,-7.7,84,9,9.7,100.08,Freezing Drizzle,1.7483983249034645
1/7/2012 12:00,-5.5,-7.8,84,13,9.7,100.05,Freezing Drizzle,1.7483983249034645
1/7/2012 13:00,-4.8,-7.2,83,15,9.7,100.07,Freezing Rain,1.7470114842578763
1/7/2012 14:00,-4.4,-6.9,83,6,8.0,100.09,Snow,1.7459700090483987
1/7/2012 15:00,-3.7,-6.1,83,11,8.0,100.09,Snow,1.7459700090483987
1/7/2012 16:00,-3.6,-5.9,84,0,8.0,100.15,Snow,1.7483983249034645
1/7/2012 17:00,-3.1,-5.4,84,13,8.0,100.27,Snow,1.7483983249034645
1/7/2012 18:00,-3.2,-5.3,85,6,9.7,100.33,Snow,1.7507512632600475
1/7/2012 19:00,-3.0,-5.0,86,6,8.0,100.41,Snow,1.772180174188285
1/7/2012 20:00,-1.8,-3.7,87,4,9.7,100.48,Snow,1.7719884397781023
1/7/2012 21:00,-1.3,-3.1,88,0,6.4,100.5,Snow,1.7701146694433751
1/7/2012 22:00,-1.5,-3.0,89,4,4.0,100.54,Fog,1.7720094675126619
1/7/2012 23:00,0.4,-1.5,87,22,9.7,100.62,Snow,1.755244623603565
1/8/2012 0:00,0.6,-3.2,76,32,25.0,100.72,Cloudy,1.7663850380666062
1/8/2012 1:00,-0.6,-4.6,74,32,25.0,100.8,Mostly Cloudy,1.76550810809897
1/8/2012 2:00,-1.7,-6.2,71,30,25.0,100.98,Mostly Cloudy,1.7726567957661699
1/8/2012 3:00,-3.5,-8.3,69,32,25.0,101.13,Mainly Clear,1.7727168862641585
1/8/2012 4:00,-4.4,-9.2,69,22,25.0,101.21,Mainly Clear,1.7577255101941283
1/8/2012 5:00,-5.9,-10.5,70,13,25.0,101.33,Mainly Clear,1.7633183495890619
1/8/2012 6:00,-5.8,-10.8,68,13,25.0,101.47,Cloudy,1.7714786472782567
1/8/2012 7:00,-5.6,-10.3,69,11,25.0,101.59,Cloudy,1.7732952613311888
1/8/2012 8:00,-5.9,-10.7,69,11,24.1,101.7,Snow,1.7521282916374905
1/8/2012 9:00,-6.4,-11.9,65,17,24.1,101.81,Snow,1.7712976313298072
1/8/2012 10:00,-6.5,-11.6,67,17,9.7,101.89,Snow,1.725109503075856
1/8/2012 11:00,-7.1,-12.6,65,22,24.1,101.92,Snow,1.705711230591579
1/8/2012 12:00,-6.7,-11.9,66,15,24.1,101.9,Snow,1.7703175691630242
1/8/2012 13:00,-6.5,-12.4,63,15,24.1,101.94,Cloudy,1.7497954490176455
1/8/2012 14:00,-6.5,-12.0,65,19,24.1,101.97,Mostly Cloudy,1.7183796356320753
1/8/2012 15:00,-6.6,-12.9,61,20,48.3,102.04,Mostly Cloudy,1.7453258512661711
1/8/2012 16:00,-6.6,-13.3,59,20,24.1,102.09,Mostly Cloudy,1.7109362118597737
1/8/2012 17:00,-7.2,-13.8,59,17,25.0,102.17,Mainly Clear,1.7515919936476045
1/8/2012 18:00,-8.1,-14.1,62,17,25.0,102.23,Mainly Clear,1.6843483610918863
1/8/2012 19:00,-8.0,-13.9,62,15,25.0,102.26,Mostly Cloudy,1.6888720732550788
1/8/2012 20:00,-8.3,-13.7,65,15,25.0,102.28,Mostly Cloudy,1.695929586195766
1/8/2012 21:00,-8.3,-13.9,64,11,25.0,102.26,Mostly Cloudy,1.7045054491959828
1/8/2012 22:00,-8.7,-14.0,65,7,25.0,102.22,Mostly Cloudy,1.6929583486014415
1/8/2012 23:00,-9.0,-13.9,68,7,25.0,102.22,Mostly Cloudy,1.7018006700167505
1/9/2012 0:00,-9.2,-14.3,66,6,25.0,102.17,Mostly Cloudy,1.6960165533823464
1/9/2012 1:00,-9.8,-14.5,68,0,25.0,102.13,Mostly Cloudy,1.7018006700167505
1/9/2012 2:00,-9.0,-14.1,66,4,25.0,102.15,Mostly Cloudy,1.6960165533823464
1/9/2012 3:00,-8.8,-13.2,70,0,25.0,102.11,Cloudy,1.7091525423728813
1/9/2012 4:00,-8.5,-13.2,69,9,25.0,102.02,Cloudy,1.7513970542764596
1/9/2012 5:00,-8.4,-12.7,71,11,25.0,101.93,Cloudy,1.7263699443245666
1/9/2012 6:00,-7.7,-11.9,72,11,25.0,101.86,Cloudy,1.7247469013738814
1/9/2012 7:00,-6.8,-11.0,72,15,25.0,101.8,Mostly Cloudy,1.7457847455871873
1/9/2012 8:00,-5.9,-10.5,70,13,16.1,101.74,Snow,1.737601574398599
1/9/2012 9:00,-5.4,-9.2,75,11,12.9,101.68,Snow,1.7368195041130121
1/9/2012 10:00,-4.8,-8.3,76,9,16.1,101.64,Snow,1.7652578999101654
1/9/2012 11:00,-3.7,-7.2,77,7,24.1,101.54,Snow,1.768635563192842
1/9/2012 12:00,-2.5,-6.6,73,9,24.1,101.4,Cloudy,1.7571835778748004
1/9/2012 13:00,-1.7,-5.8,74,7,24.1,101.27,Cloudy,1.7558868923426127
1/9/2012 14:00,-1.4,-5.1,76,7,24.1,101.2,Cloudy,1.764463294119204
1/9/2012 15:00,-1.0,-5.1,74,9,24.1,101.13,Mostly Cloudy,1.753964104278601
1/9/2012 16:00,-1.3,-5.7,72,11,24.1,101.05,Mostly Cloudy,1.759201995132966
1/9/2012 17:00,-1.4,-5.8,72,15,24.1,100.96,Mostly Cloudy,1.758022632474779
1/9/2012 18:00,-1.0,-5.6,71,20,25.0,100.9,Mostly Cloudy,1.7587649686735545
1/9/2012 19:00,-1.1,-5.8,70,19,25.0,100.83,Mostly Cloudy,1.7194964580694445
1/9/2012 20:00,-1.5,-6.2,70,15,25.0,100.77,Mostly Cloudy,1.7505076421934607
1/9/2012 21:00,-1.7,-6.3,71,11,25.0,100.64,Mostly Cloudy,1.754450387448337
1/9/2012 22:00,-0.3,-6.3,64,19,25.0,100.54,Mostly Cloudy,1.7485415913619538
1/9/2012 23:00,-0.2,-6.1,64,17,25.0,100.45,Cloudy,1.7498071790215246
1/10/2012 0:00,2.5,-5.2,57,30,25.0,100.38,Cloudy,1.7604456570406097
1/10/2012 1:00,2.3,-3.4,66,35,25.0,100.28,Snow,1.7553955178846126
1/10/2012 2:00,1.4,-2.5,75,19,6.4,100.23,Snow,1.7695548422997223
1/10/2012 3:00,1.6,-2.0,77,28,25.0,100.16,Snow,1.760976335257562
1/10/2012 4:00,1.2,-1.7,81,26,25.0,100.07,Cloudy,1.7612933183151909
1/10/2012 5:00,0.8,-1.2,86,30,9.7,100.02,"Rain,Snow",1.7582075719407744
1/10/2012 6:00,0.7,-1.2,87,30,8.0,100.04,Snow,1.755244623603565
1/10/2012 7:00,1.5,-0.7,85,20,8.0,100.08,Snow,1.7738707002485439
1/10/2012 8:00,1.2,-1.1,85,24,16.1,100.11,Cloudy,1.7555709463259197
1/10/2012 9:00,1.6,-0.8,84,17,19.3,100.23,Cloudy,1.7483983249034645
1/10/2012 10:00,2.0,-0.9,81,24,24.1,100.27,Mostly Cloudy,1.752247573634335
1/10/2012 11:00,2.6,-1.1,77,22,24.1,100.29,Mainly Clear,1.7420419820890833
1/10/2012 12:00,1.4,-3.1,72,30,24.1,100.32,Mostly Cloudy,1.7543732409589496
1/10/2012 13:00,0.7,-5.4,64,26,24.1,100.36,Mostly Cloudy,1.7507194056932023
1/10/2012 14:00,-0.2,-6.2,64,26,24.1,100.45,Mainly Clear,1.7567372452458314
1/10/2012 15:00,-1.4,-7.9,61,30,24.1,100.65,Mainly Clear,1.7739534055986517
1/10/2012 16:00,-3.1,-10.9,55,30,24.1,100.81,Mostly Cloudy,1.771567069032169
1/10/2012 17:00,-4.0,-12.0,54,17,24.1,100.91,Mostly Cloudy,0.9667356225179002
1/10/2012 18:00,-4.9,-12.7,54,15,25.0,101.04,Mostly Cloudy,1.761270384260667
1/10/2012 19:00,-5.7,-13.8,53,15,25.0,101.15,Mostly Cloudy,1.7674904502725068
1/10/2012 20:00,-6.4,-14.3,53,13,25.0,101.24,Mostly Cloudy,1.767725289149198
1/10/2012 21:00,-6.6,-13.6,57,9,25.0,101.32,Mostly Cloudy,1.7678942975327294
1/10/2012 22:00,-7.3,-14.7,55,13,25.0,101.34,Mostly Cloudy,1.7525703711203735
1/10/2012 23:00,-8.6,-15.6,57,19,25.0,101.44,Mostly Cloudy,1.7257117910376536
1/11/2012 0:00,-9.5,-16.8,55,17,25.0,101.43,Mostly Cloudy,1.730119086916944
1/11/2012 1:00,-10.7,-17.8,56,17,25.0,101.49,Clear,1.7296246045424999
1/11/2012 2:00,-12.0,-18.9,56,19,25.0,101.57,Clear,1.6738787568184719
1/11/2012 3:00,-12.7,-19.4,57,19,25.0,101.64,Clear,1.6648421508897826
1/11/2012 4:00,-13.4,-20.1,57,17,25.0,101.66,Clear,1.667703745126805
1/11/2012 5:00,-13.9,-21.0,55,19,25.0,101.66,Mainly Clear,1.7111644208770245
1/11/2012 6:00,-14.4,-21.1,57,20,25.0,101.72,Mainly Clear,1.6648421508897826
1/11/2012 7:00,-14.4,-21.0,57,13,25.0,101.77,Mostly Cloudy,1.7050472018154414
1/11/2012 8:00,-14.7,-21.4,57,15,24.1,101.8,Mostly Cloudy,1.7716461946364879
1/11/2012 9:00,-14.3,-20.8,58,15,24.1,101.81,Mostly Cloudy,1.7107396688660585
1/11/2012 10:00,-13.9,-20.9,55,11,19.3,101.89,Cloudy,1.6988416186906217
1/11/2012 11:00,-13.4,-20.8,54,15,24.1,101.78,Mostly Cloudy,1.770865737378952
1/11/2012 12:00,-12.7,-20.4,53,17,24.1,101.68,Cloudy,1.7471938137477605
1/11/2012 13:00,-12.2,-20.0,52,19,24.1,101.63,Mostly Cloudy,1.6500000000000001
1/11/2012 14:00,-11.4,-19.4,52,20,24.1,101.56,Mostly Cloudy,1.6788762338336214
1/11/2012 15:00,-11.6,-19.9,50,20,24.1,101.61,Mostly Cloudy,1.697343413179662
1/11/2012 16:00,-11.8,-20.9,47,20,24.1,101.6,Mostly Cloudy,1.7089651163157467
1/11/2012 17:00,-11.9,-20.1,51,26,24.1,101.56,Mostly Cloudy,1.7730715557574677
1/11/2012 18:00,-12.0,-19.9,52,24,25.0,101.51,Mostly Cloudy,1.6499999999999997
1/11/2012 19:00,-11.8,-19.2,54,30,25.0,101.43,Mostly Cloudy,1.650075280322172
1/11/2012 20:00,-11.2,-18.1,57,24,25.0,101.4,Cloudy,1.7497015429855274
1/11/2012 21:00,-11.2,-16.5,65,19,25.0,101.32,Cloudy,1.7156711615825506
1/11/2012 22:00,-10.8,-16.0,65,22,25.0,101.29,Cloudy,1.6959150644149268
1/11/2012 23:00,-10.7,-15.7,67,20,25.0,101.19,Mostly Cloudy,1.7654370652631142
1/12/2012 0:00,-10.0,-15.2,66,19,25.0,101.17,Mostly Cloudy,1.7737258201661983
1/12/2012 1:00,-9.8,-15.2,65,24,25.0,101.13,Mostly Cloudy,1.7690111680561904
1/12/2012 2:00,-9.4,-15.0,64,26,25.0,101.08,Cloudy,1.7530771895550665
1/12/2012 3:00,-9.0,-14.7,63,33,25.0,101.02,Cloudy,1.7614262259934466
1/12/2012 4:00,-8.5,-14.1,64,22,25.0,100.93,Cloudy,1.750635352334794
1/12/2012 5:00,-8.0,-13.7,64,30,25.0,100.81,Cloudy,1.7270440228887283
1/12/2012 6:00,-7.6,-13.1,65,28,25.0,100.76,Cloudy,1.7371413371559117
1/12/2012 7:00,-7.3,-12.7,65,28,16.1,100.69,Snow Showers,1.744751511566813
1/12/2012 8:00,-7.1,-11.3,72,33,6.4,100.61,Snow,1.7154802667147235
1/12/2012 9:00,-6.8,-10.5,75,33,3.2,100.54,Snow,1.7241591468416737
1/12/2012 10:00,-6.2,-9.6,77,35,4.8,100.46,Snow,1.7302348458823897
1/12/2012 11:00,-6.0,-9.5,76,32,2.0,100.35,Snow,1.7272721454173066
1/12/2012 12:00,-5.8,-8.9,79,32,4.8,100.22,Snow,1.7357508862871274
1/12/2012 13:00,-5.8,-8.6,81,33,1.2,100.09,Snow,1.7408722768108806
1/12/2012 14:00,-5.7,-8.5,81,28,1.2,99.97,Snow,1.7408722768108806
1/12/2012 15:00,-5.2,-7.6,83,26,0.8,99.9,Moderate Snow,1.7459700090483987
1/12/2012 16:00,-4.9,-7.3,83,33,0.6,99.88,Moderate Snow,1.7459700090483987
1/12/2012 17:00,-5.1,-7.6,83,33,1.0,99.83,Snow,1.7459700090483987
1/12/2012 18:00,-5.4,-8.1,81,35,1.2,99.76,Snow,1.7408722768108806
1/12/2012 19:00,-5.0,-7.6,82,30,4.0,99.72,Snow,1.7434626346010758
1/12/2012 20:00,-5.0,-7.8,81,28,6.4,99.64,Snow,1.7408722768108806
1/12/2012 21:00,-4.7,-7.6,80,24,6.4,99.56,Snow,1.7383226557949913
1/12/2012 22:00,-4.1,-6.8,81,26,25.0,99.47,Snow,1.7728891436375744
1/12/2012 23:00,-4.6,-7.0,83,28,3.2,99.4,Snow,1.7459700090483987
1/13/2012 0:00,-5.1,-7.5,83,28,2.4,99.3,Snow,1.7459700090483987
1/13/2012 1:00,-5.0,-7.7,81,24,4.8,99.24,Snow,1.7408722768108806
1/13/2012 2:00,-4.8,-7.5,81,22,25.0,99.22,Snow,1.761563519827681
1/13/2012 3:00,-4.5,-6.9,83,19,4.8,99.19,"Freezing Drizzle,Snow",1.7459700090483987
1/13/2012 4:00,-5.0,-7.4,83,24,11.3,99.13,Cloudy,1.7611694081605016
1/13/2012 5:00,-5.1,-7.7,82,20,12.9,99.06,Cloudy,1.7647377622593474
1/13/2012 6:00,-5.4,-7.8,83,22,16.1,98.94,Cloudy,1.753457814020355
1/13/2012 7:00,-5.1,-7.7,82,22,16.1,98.84,Cloudy,1.756443365560954
1/13/2012 8:00,-5.1,-7.5,83,26,8.0,98.69,Freezing Rain,1.7459700090483987
1/13/2012 9:00,-5.0,-7.3,84,32,4.8,98.56,"Freezing Rain,Snow Grains",1.7483983249034645
1/13/2012 10:00,-4.8,-7.2,83,26,12.9,98.44,Freezing Drizzle,1.7630066376724143
1/13/2012 11:00,-4.8,-7.3,83,28,9.7,98.22,Freezing Rain,1.7459700090483987
1/13/2012 12:00,-4.8,-7.5,81,24,2.0,98.07,Snow,1.7408722768108806
1/13/2012 13:00,-4.9,-7.3,83,20,1.2,97.99,Snow,1.7459700090483987
1/13/2012 14:00,-4.8,-7.0,85,6,2.0,98.07,Snow,1.7507512632600475
1/13/2012 15:00,-4.3,-6.5,85,13,8.0,98.1,Snow,1.7507512632600475
1/13/2012 16:00,-3.7,-6.0,84,11,6.4,98.16,Snow,1.7483983249034645
1/13/2012 17:00,-2.9,-4.8,87,15,1.6,98.23,Snow,1.764764280603043
1/13/2012 18:00,-1.7,-3.3,89,26,16.1,98.32,Snow,1.7686788604843469
1/13/2012 19:00,-2.5,-4.5,86,33,2.0,98.6,Snow,1.7561824629681595
1/13/2012 20:00,-3.2,-5.1,87,32,2.0,98.89,Snow,1.757365357628364
1/13/2012 21:00,-4.8,-7.9,79,37,4.8,99.09,"Snow,Blowing Snow",1.7357508862871274
1/13/2012 22:00,-5.5,-10.1,70,32,12.9,99.28,Snow,1.741371021017913
1/13/2012 23:00,-7.6,-11.2,75,35,9.7,99.51,"Snow,Blowing Snow",1.7241591468416737
1/14/2012 0:00,-8.9,-13.1,72,39,9.7,99.67,"Snow,Blowing Snow",1.7154802667147235
1/14/2012 1:00,-9.7,-14.3,69,24,12.9,99.85,Snow,1.733483576729103
1/14/2012 2:00,-11.2,-15.5,70,28,9.7,100.01,"Snow,Blowing Snow",1.7091525423728813
1/14/2012 3:00,-12.0,-16.2,71,24,8.0,100.16,"Snow,Blowing Snow",1.712430565280306
1/14/2012 4:00,-13.4,-18.9,63,20,16.1,100.26,Snow,1.7417625635202683
1/14/2012 5:00,-14.3,-19.8,63,24,25.0,100.39,Cloudy,1.6856696145686971
1/14/2012 6:00,-15.2,-20.6,63,24,25.0,100.6,Cloudy,1.7017708603728547
1/14/2012 7:00,-16.8,-22.2,63,26,25.0,100.73,Mostly Cloudy,1.758231256362604
1/14/2012 8:00,-17.9,-23.5,62,20,24.1,100.84,Mostly Cloudy,1.6981434177618457
1/14/2012 9:00,-18.0,-23.6,61,19,24.1,100.97,Cloudy,1.0147471754365818
1/14/2012 10:00,-18.0,-23.9,60,22,24.1,101.08,Mostly Cloudy,1.7617188780277122
1/14/2012 11:00,-17.8,-23.9,59,20,24.1,101.14,Mostly Cloudy,0.987994578192502
1/14/2012 12:00,-17.5,-23.8,58,20,48.3,101.16,Mostly Cloudy,1.7624707083120699
1/14/2012 13:00,-17.1,-24.1,55,17,48.3,101.18,Mainly Clear,1.7736533104846754
1/14/2012 14:00,-16.7,-23.4,56,17,48.3,101.2,Mostly Cloudy,1.753353525391114
1/14/2012 15:00,-16.7,-23.4,56,22,48.3,101.24,Mostly Cloudy,1.7186259408875586
1/14/2012 16:00,-16.7,-24.3,52,19,24.1,101.3,Mostly Cloudy,1.7450392135913815
1/14/2012 17:00,-17.4,-24.4,54,13,25.0,101.36,Mostly Cloudy,1.7059487420644255
1/14/2012 18:00,-17.7,-24.3,56,20,25.0,101.46,Mainly Clear,1.768795141697515
1/14/2012 19:00,-18.3,-24.4,59,17,25.0,101.56,Mainly Clear,1.672110259985864
1/14/2012 20:00,-19.6,-25.8,58,13,25.0,101.62,Mainly Clear,1.7269138676625198
1/14/2012 21:00,-20.0,-25.9,59,11,25.0,101.65,Mostly Cloudy,1.7175337310557814
1/14/2012 22:00,-19.9,-26.0,58,13,25.0,101.74,Mostly Cloudy,1.7480049430428344
1/14/2012 23:00,-20.3,-26.2,59,9,25.0,101.79,Mostly Cloudy,1.6802556511217412
1/15/2012 0:00,-21.2,-26.8,61,11,25.0,101.81,Cloudy,1.6768881290465567
1/15/2012 1:00,-21.1,-26.6,61,9,25.0,101.86,Cloudy,1.7736636718556729
1/15/2012 2:00,-21.4,-26.6,63,9,25.0,101.99,Cloudy,1.6856696145686971
1/15/2012 3:00,-20.7,-26.1,62,4,25.0,102.04,Cloudy,1.681279062923068
1/15/2012 4:00,-21.0,-26.6,61,0,25.0,102.12,Cloudy,1.6768881290465567
1/15/2012 5:00,-21.3,-26.5,63,6,25.0,102.19,Mostly Cloudy,1.6856696145686971
1/15/2012 6:00,-23.2,-28.5,62,7,25.0,102.28,Mostly Cloudy,1.681279062923068
1/15/2012 7:00,-22.8,-28.0,62,9,25.0,102.37,Mainly Clear,1.681279062923068
1/15/2012 8:00,-23.3,-28.5,62,7,24.1,102.45,Clear,1.681279062923068
1/15/2012 9:00,-22.2,-27.8,60,9,48.3,102.57,Mainly Clear,1.6747229916897506
1/15/2012 10:00,-20.6,-26.8,58,9,48.3,102.66,Mainly Clear,1.6688951382675015
1/15/2012 11:00,-19.3,-26.1,55,9,48.3,102.68,Mainly Clear,1.6524507409216738
1/15/2012 12:00,-18.0,-25.5,52,13,48.3,102.67,Mainly Clear,1.6499999999999997
1/15/2012 13:00,-16.8,-24.2,53,20,48.3,102.65,Mainly Clear,1.6500000000000004
1/15/2012 14:00,-16.0,-23.4,53,26,48.3,102.66,Mainly Clear,1.6500000000000004
1/15/2012 15:00,-15.4,-22.8,53,24,48.3,102.71,Clear,1.6500000000000004
1/15/2012 16:00,-15.1,-22.8,52,24,48.3,102.79,Clear,1.6499999999999997
1/15/2012 17:00,-16.2,-23.2,55,15,25.0,102.85,Clear,1.6732175942061953
1/15/2012 18:00,-16.3,-22.9,57,17,25.0,102.89,Clear,1.6648421508897826
1/15/2012 19:00,-16.3,-22.7,58,20,25.0,102.94,Clear,1.6688951382675015
1/15/2012 20:00,-16.7,-22.4,61,17,25.0,102.98,Clear,1.6768881290465567
1/15/2012 21:00,-16.9,-22.2,63,15,25.0,103.02,Clear,1.6856696145686971
1/15/2012 22:00,-16.9,-21.7,66,17,25.0,103.07,Clear,1.6960165533823464
1/15/2012 23:00,-16.9,-21.4,68,15,25.0,103.09,Clear,1.7018006700167505
1/16/2012 0:00,-17.1,-21.9,66,15,25.0,103.09,Clear,1.6960165533823464
1/16/2012 1:00,-17.8,-22.7,65,6,25.0,103.05,Clear,1.6929583486014415
1/16/2012 2:00,-18.5,-23.0,68,6,25.0,103.08,Clear,1.7018006700167505
1/16/2012 3:00,-19.2,-23.8,67,6,25.0,103.07,Clear,1.698763522260988
1/16/2012 4:00,-18.7,-23.5,66,0,25.0,103.05,Clear,1.6960165533823464
1/16/2012 5:00,-19.1,-23.3,69,0,25.0,103.02,Clear,1.7056195602958193
1/16/2012 6:00,-18.7,-23.2,68,0,25.0,103.01,Clear,1.7018006700167505
1/16/2012 7:00,-17.9,-21.5,73,4,48.3,102.96,Mainly Clear,1.718324698506683
1/16/2012 8:00,-17.9,-22.6,67,9,48.3,102.9,Mostly Cloudy,1.698763522260988
1/16/2012 9:00,-14.4,-20.7,59,22,48.3,102.75,Cloudy,1.672110259985864
1/16/2012 10:00,-13.6,-18.7,65,19,48.3,102.62,Mostly Cloudy,1.6929583486014415
1/16/2012 11:00,-12.7,-17.7,66,20,48.3,102.44,Mostly Cloudy,1.6960165533823464
1/16/2012 12:00,-10.7,-16.9,60,19,48.3,102.17,Mostly Cloudy,1.675929391342511
1/16/2012 13:00,-10.1,-16.1,61,13,48.3,101.92,Cloudy,1.7737879343562417
1/16/2012 14:00,-9.0,-13.8,68,13,48.3,101.71,Mostly Cloudy,1.7593519082978235
1/16/2012 15:00,-8.0,-13.8,63,17,48.3,101.49,Cloudy,1.7607644209366053
1/16/2012 16:00,-7.1,-14.1,57,9,48.3,101.41,Cloudy,1.754378754134492
1/16/2012 17:00,-7.6,-14.8,56,4,25.0,101.34,Mostly Cloudy,1.7711626739857091
1/16/2012 18:00,-12.5,-17.5,66,15,25.0,101.31,Mainly Clear,1.739712902698885
1/16/2012 19:00,-14.8,-19.1,70,15,25.0,101.23,Mainly Clear,1.7682505882983373
1/16/2012 20:00,-14.0,-18.3,70,13,25.0,101.19,Cloudy,1.7091525423728813
1/16/2012 21:00,-12.9,-17.1,71,11,25.0,101.12,Cloudy,1.712430565280306
1/16/2012 22:00,-12.2,-16.5,70,9,25.0,101.05,Cloudy,1.7720318052314181
1/16/2012 23:00,-11.5,-15.7,71,7,25.0,100.98,Cloudy,1.766697137738938
1/17/2012 0:00,-10.8,-15.0,71,9,25.0,100.94,Cloudy,1.7616549380391189
1/17/2012 1:00,-10.4,-14.6,71,9,25.0,100.88,Cloudy,1.767479515976551
1/17/2012 2:00,-9.7,-13.7,73,9,25.0,100.84,Cloudy,1.73490271803657
1/17/2012 3:00,-9.2,-13.2,73,6,25.0,100.84,Cloudy,1.7723453845736898
1/17/2012 4:00,-9.0,-12.2,78,6,6.4,100.8,Freezing Drizzle,1.733057876440812
1/17/2012 5:00,-8.3,-10.4,85,6,3.6,100.75,"Freezing Drizzle,Snow",1.7507512632600475
1/17/2012 6:00,-7.7,-9.9,84,6,2.4,100.72,"Freezing Drizzle,Snow",1.7483983249034645
1/17/2012 7:00,-7.5,-9.6,85,9,2.0,100.69,Snow,1.7507512632600475
1/17/2012 8:00,-7.4,-9.6,84,9,2.4,100.65,Snow,1.7483983249034645
1/17/2012 9:00,-7.0,-9.5,82,15,4.0,100.59,Snow,1.7434626346010758
1/17/2012 10:00,-6.5,-9.0,82,15,1.2,100.6,Snow,1.7434626346010758
1/17/2012 11:00,-6.1,-8.5,83,15,2.4,100.53,Snow,1.7459700090483987
1/17/2012 12:00,-5.3,-7.9,82,19,2.8,100.38,Snow,1.7434626346010758
1/17/2012 13:00,-5.1,-7.7,82,22,2.4,100.23,Snow,1.7434626346010758
1/17/2012 14:00,-4.3,-6.5,85,22,1.6,100.05,Snow,1.7507512632600475
1/17/2012 15:00,-3.7,-6.0,84,24,1.2,99.9,Snow,1.7483983249034645
1/17/2012 16:00,-3.5,-6.0,83,28,1.2,99.69,Snow,1.7459700090483987
1/17/2012 17:00,-3.6,-5.9,84,22,1.6,99.57,Snow,1.7483983249034645
1/17/2012 18:00,-3.5,-5.8,84,22,2.4,99.38,Snow,1.7483983249034645
1/17/2012 19:00,-3.3,-5.6,84,24,4.8,99.22,"Freezing Drizzle,Snow",1.7483983249034645
1/17/2012 20:00,-3.6,-5.7,85,24,3.2,98.98,Freezing Rain,1.7507512632600475
1/17/2012 21:00,-2.9,-4.9,86,26,2.8,98.71,Freezing Rain,1.7583353983634742
1/17/2012 22:00,-1.6,-3.2,89,17,3.2,98.47,Freezing Rain,1.7720804074918461
1/17/2012 23:00,-0.6,-2.1,90,7,2.8,98.32,"Freezing Rain,Fog",1.7735652005141767
1/18/2012 0:00,2.1,0.7,90,11,8.0,98.31,Fog,1.7676188512610016
1/18/2012 1:00,3.7,-2.1,66,83,25.0,98.36,Mostly Cloudy,1.763670766613477
1/18/2012 2:00,0.5,-4.0,72,70,25.0,98.62,Mostly Cloudy,1.7671073160455968
1/18/2012 3:00,-3.5,-8.2,70,57,25.0,99.0,Mostly Cloudy,1.7701173415038916
1/18/2012 4:00,-6.1,-10.9,69,48,25.0,99.36,Snow,1.7679542091448992
1/18/2012 5:00,-7.7,-12.4,69,46,19.3,99.7,Snow,1.75631783353234
1/18/2012 6:00,-8.5,-13.9,65,39,19.3,100.0,Mostly Cloudy,1.7437678213275558
1/18/2012 7:00,-9.8,-15.4,64,39,19.3,100.22,Mainly Clear,1.7688707968705397
1/18/2012 8:00,-10.9,-16.6,63,35,24.1,100.43,Mainly Clear,1.7365088128052388
1/18/2012 9:00,-11.2,-17.2,61,43,24.1,100.65,Mainly Clear,1.6910376986268851
1/18/2012 10:00,-11.2,-17.2,61,35,24.1,100.78,Mainly Clear,1.6855873085756878
1/18/2012 11:00,-11.1,-17.7,58,39,24.1,100.92,Mainly Clear,1.6997855941643765
1/18/2012 12:00,-11.0,-17.8,57,37,24.1,101.0,Mainly Clear,1.6983031648536795
1/18/2012 13:00,-10.6,-17.8,55,32,24.1,101.09,Mainly Clear,1.7312809093356076
1/18/2012 14:00,-10.3,-17.6,55,28,48.3,101.19,Mainly Clear,1.7246994502132067
1/18/2012 15:00,-10.4,-18.0,54,30,48.3,101.32,Mainly Clear,1.7209453020291905
1/18/2012 16:00,-10.6,-18.4,53,26,48.3,101.45,Mainly Clear,1.6967164497044929
1/18/2012 17:00,-11.3,-18.8,54,26,48.3,101.54,Clear,1.6840257381559247
1/18/2012 18:00,-12.0,-18.2,60,22,25.0,101.67,Clear,1.6747229916897506
1/18/2012 19:00,-12.7,-18.7,61,22,25.0,101.78,Clear,1.6768881290465567
1/18/2012 20:00,-13.4,-19.2,62,17,25.0,101.83,Clear,1.7058940379910181
1/18/2012 21:00,-13.7,-19.3,63,17,25.0,101.89,Clear,1.6856696145686971
1/18/2012 22:00,-14.2,-19.8,62,13,25.0,101.92,Clear,1.681279062923068
1/18/2012 23:00,-14.9,-19.9,66,6,25.0,101.93,Clear,1.6960165533823464
1/19/2012 0:00,-16.6,-20.9,69,7,25.0,101.94,Clear,1.7056195602958193
1/19/2012 1:00,-15.2,-18.4,76,4,25.0,101.89,Clear,1.7272721454173066
1/19/2012 2:00,-14.3,-17.4,77,6,25.0,101.86,Clear,1.7302348458823897
1/19/2012 3:00,-18.0,-21.6,73,6,25.0,101.83,Clear,1.7708683920080908
1/19/2012 4:00,-15.4,-18.3,78,7,25.0,101.81,Clear,1.733057876440812
1/19/2012 5:00,-16.6,-19.9,76,6,25.0,101.85,Clear,1.7272721454173066
1/19/2012 6:00,-15.3,-19.7,69,6,25.0,101.83,Clear,1.7056195602958193
1/19/2012 7:00,-14.6,-19.2,68,6,24.1,101.84,Clear,1.7018006700167505
1/19/2012 8:00,-13.7,-18.4,68,19,48.3,101.84,Clear,1.718365908280443
1/19/2012 9:00,-12.7,-17.2,69,17,48.3,101.73,Clear,1.73394692425305
1/19/2012 10:00,-11.7,-17.2,64,20,48.3,101.68,Mainly Clear,1.7107396688660585
1/19/2012 11:00,-11.0,-16.9,62,26,48.3,101.56,Mostly Cloudy,1.681279062923068
1/19/2012 12:00,-8.8,-15.4,59,15,48.3,101.42,Mostly Cloudy,1.7184070764898867
1/19/2012 13:00,-7.3,-14.7,55,20,48.3,101.22,Mostly Cloudy,1.7434435208372725
1/19/2012 14:00,-7.0,-14.9,53,20,48.3,101.03,Mostly Cloudy,1.7715485985004127
1/19/2012 15:00,-6.7,-15.0,52,26,48.3,100.88,Cloudy,1.029834563129765
1/19/2012 16:00,-6.7,-14.9,52,24,24.1,100.76,Cloudy,1.7646050565683153
1/19/2012 17:00,-6.9,-14.7,54,17,24.1,100.7,Cloudy,1.6966505757796586
1/19/2012 18:00,-5.0,-12.9,54,19,25.0,100.66,Cloudy,1.7715354034345843
1/19/2012 19:00,-3.6,-12.7,49,30,25.0,100.61,Snow,1.766710118868771
1/19/2012 20:00,-3.7,-11.9,53,30,16.1,100.63,Snow,1.77095330767515
1/19/2012 21:00,-5.0,-8.4,77,24,2.0,100.6,Snow,1.7302348458823897
1/19/2012 22:00,-4.2,-9.3,68,32,25.0,100.51,Snow,1.7718990286163174
1/19/2012 23:00,-4.1,-8.9,69,26,25.0,100.47,Snow,1.7539030903165203
1/20/2012 0:00,-4.1,-8.6,71,26,25.0,100.5,Mostly Cloudy,1.771226203159302
1/20/2012 1:00,-4.1,-8.3,73,20,25.0,100.54,Snow,1.718324698506683
1/20/2012 2:00,-3.9,-8.1,73,22,9.7,100.64,Snow,1.718324698506683
1/20/2012 3:00,-4.8,-9.9,67,19,25.0,100.75,Mostly Cloudy,1.7701948042470252
1/20/2012 4:00,-6.0,-10.2,72,19,16.1,100.87,Snow,1.772405639784673
1/20/2012 5:00,-6.3,-12.2,63,33,25.0,100.98,Snow,1.763688650578124
1/20/2012 6:00,-7.6,-14.3,59,28,25.0,101.13,Cloudy,1.7494780448709997
1/20/2012 7:00,-8.6,-15.6,57,28,25.0,101.27,Mostly Cloudy,1.7093222612398589
1/20/2012 8:00,-10.4,-16.2,62,33,24.1,101.47,Mainly Clear,1.681279062923068
1/20/2012 9:00,-12.2,-18.1,61,32,24.1,101.59,Clear,1.7166987113166308
1/20/2012 10:00,-13.7,-20.3,57,33,24.1,101.72,Mainly Clear,1.6648421508897826
1/20/2012 11:00,-14.2,-21.2,55,32,24.1,101.84,Clear,1.6524507409216738
1/20/2012 12:00,-15.2,-22.1,56,30,24.1,101.88,Clear,1.6822500891484373
1/20/2012 13:00,-15.8,-23.7,51,30,24.1,101.96,Clear,1.6499999999999997
1/20/2012 14:00,-15.5,-24.1,48,30,48.3,101.98,Mainly Clear,1.5
1/20/2012 15:00,-15.0,-23.9,47,30,48.3,102.09,Mainly Clear,1.5
1/20/2012 16:00,-14.8,-24.1,45,24,48.3,102.15,Mainly Clear,1.7189385092852352
1/20/2012 17:00,-15.4,-24.3,46,17,48.3,102.21,Mainly Clear,1.7076487373450835
1/20/2012 18:00,-15.9,-24.3,48,13,25.0,102.27,Mainly Clear,1.5
1/20/2012 19:00,-16.3,-24.2,51,13,25.0,102.33,Mainly Clear,1.6499999999999997
1/20/2012 20:00,-16.9,-24.8,50,9,25.0,102.34,Mainly Clear,1.7178686296472796
1/20/2012 21:00,-18.5,-25.6,54,9,25.0,102.37,Mainly Clear,1.6499999999999997
1/20/2012 22:00,-18.1,-25.1,54,9,25.0,102.36,Mainly Clear,1.6499999999999997
1/20/2012 23:00,-17.4,-24.5,54,6,25.0,102.37,Mostly Cloudy,1.6499999999999997
1/21/2012 0:00,-16.4,-23.7,53,6,25.0,102.29,Cloudy,1.6500000000000004
1/21/2012 1:00,-16.1,-23.6,52,0,25.0,102.26,Cloudy,1.6499999999999997
1/21/2012 2:00,-15.3,-22.8,53,0,25.0,102.27,Cloudy,1.6500000000000004
1/21/2012 3:00,-15.9,-21.9,60,7,25.0,102.23,Cloudy,1.6747229916897506
1/21/2012 4:00,-15.3,-21.8,58,7,25.0,102.18,Cloudy,1.6688951382675015
1/21/2012 5:00,-14.8,-22.9,50,11,25.0,102.08,Cloudy,1.6967868486260183
1/21/2012 6:00,-14.3,-22.0,52,9,25.0,101.98,Cloudy,1.7720935396807092
1/21/2012 7:00,-13.9,-22.1,50,9,25.0,102.04,Cloudy,1.7737568815245237
1/21/2012 8:00,-14.0,-21.8,52,9,25.0,102.06,Cloudy,1.6770844156761426
1/21/2012 9:00,-15.9,-21.0,65,13,24.1,102.11,Snow,1.6929583486014415
1/21/2012 10:00,-16.3,-21.4,65,17,24.1,102.12,Snow,1.6929583486014415
1/21/2012 11:00,-15.9,-21.2,64,19,24.1,102.09,Snow,1.7019197278847549
1/21/2012 12:00,-14.6,-20.3,62,15,24.1,102.03,Mostly Cloudy,1.681279062923068
1/21/2012 13:00,-13.4,-19.8,59,15,24.1,102.01,Mainly Clear,1.672110259985864
1/21/2012 14:00,-12.5,-19.7,55,13,24.1,102.01,Clear,1.676828585653371
1/21/2012 15:00,-11.8,-18.9,56,11,24.1,102.06,Clear,1.668895138267502
1/21/2012 16:00,-11.6,-18.8,55,7,48.3,102.11,Clear,1.694719907787598
1/21/2012 17:00,-12.1,-19.8,53,11,48.3,102.16,Clear,1.723983343785432
1/21/2012 18:00,-13.0,-20.2,55,6,25.0,102.24,Clear,1.6524507409216738
1/21/2012 19:00,-13.4,-19.9,58,4,25.0,102.27,Clear,1.6688951382675015
1/21/2012 20:00,-18.5,-24.4,60,4,25.0,102.36,Clear,1.6747229916897506
1/21/2012 21:00,-16.0,-20.8,66,9,25.0,102.47,Clear,1.6960165533823464
1/21/2012 22:00,-17.6,-23.3,61,0,25.0,102.52,Clear,1.6768881290465567
1/21/2012 23:00,-17.4,-21.7,69,0,25.0,102.54,Mainly Clear,1.7056195602958193
1/22/2012 0:00,-18.3,-22.5,70,0,25.0,102.57,Clear,1.7091525423728813
1/22/2012 1:00,-17.5,-21.3,72,4,25.0,102.64,Clear,1.7154802667147235
1/22/2012 2:00,-18.5,-22.6,70,0,25.0,102.71,Clear,1.7091525423728813
1/22/2012 3:00,-18.4,-23.0,67,0,16.1,102.75,Cloudy,1.698763522260988
1/22/2012 4:00,-17.2,-21.5,69,0,25.0,102.79,Mainly Clear,1.7056195602958193
1/22/2012 5:00,-19.5,-23.4,71,6,16.1,102.84,Mainly Clear,1.7518549225221178
1/22/2012 6:00,-19.0,-22.9,71,6,0.8,102.85,Freezing Fog,1.7212275568344648
1/22/2012 7:00,-18.6,-22.8,69,6,12.9,102.91,Mainly Clear,1.7125094876605034
1/22/2012 8:00,-18.5,-22.0,74,4,24.1,102.98,Mainly Clear,1.7209839103698092
1/22/2012 9:00,-16.2,-19.2,78,7,48.3,103.01,Mostly Cloudy,1.733057876440812
1/22/2012 10:00,-14.5,-17.2,80,9,8.0,103.02,Fog,1.7383226557949913
1/22/2012 11:00,-13.0,-15.5,81,6,8.0,103.04,Fog,1.7408722768108806
1/22/2012 12:00,-11.5,-15.4,73,9,8.0,102.97,Haze,1.718324698506683
1/22/2012 13:00,-11.2,-16.0,68,11,8.0,102.86,Haze,1.7018006700167505
1/22/2012 14:00,-9.4,-14.8,65,9,16.1,102.74,Cloudy,1.720302772994068
1/22/2012 15:00,-8.7,-14.5,63,9,16.1,102.65,Cloudy,1.6856696145686971
1/22/2012 16:00,-8.0,-14.7,59,6,19.3,102.6,Cloudy,1.706672099186266
1/22/2012 17:00,-9.5,-15.8,60,19,19.3,102.57,Cloudy,1.6747229916897506
1/22/2012 18:00,-10.4,-16.1,63,19,19.3,102.52,Mostly Cloudy,1.6856696145686971
1/22/2012 19:00,-10.4,-16.2,62,19,19.3,102.47,Mostly Cloudy,1.681279062923068
1/22/2012 20:00,-12.3,-16.8,69,15,19.3,102.44,Mainly Clear,1.7056195602958193
1/22/2012 21:00,-12.9,-17.2,70,15,16.1,102.38,Clear,1.7091525423728813
1/22/2012 22:00,-13.2,-17.0,73,13,16.1,102.33,Mostly Cloudy,1.718324698506683
1/22/2012 23:00,-13.3,-17.1,73,9,16.1,102.28,Mainly Clear,1.718324698506683
1/23/2012 0:00,-12.9,-17.0,71,11,25.0,102.22,Mostly Cloudy,1.712430565280306
1/23/2012 1:00,-12.9,-17.2,70,11,25.0,102.14,Mainly Clear,1.7091525423728813
1/23/2012 2:00,-13.2,-17.1,72,13,25.0,102.1,Mostly Cloudy,1.7606582854934247
1/23/2012 3:00,-12.1,-16.0,73,13,25.0,101.99,Cloudy,1.718324698506683
1/23/2012 4:00,-11.2,-15.2,72,11,25.0,101.88,Cloudy,1.754543955512106
1/23/2012 5:00,-9.9,-13.9,73,11,25.0,101.79,Cloudy,1.7733550148338464
1/23/2012 6:00,-8.8,-12.8,73,7,25.0,101.76,Cloudy,1.7281762330884152
1/23/2012 7:00,-8.1,-12.1,73,13,25.0,101.67,Mostly Cloudy,1.7495369245833186
1/23/2012 8:00,-7.2,-11.1,74,11,24.1,101.69,Mostly Cloudy,1.7518777418808251
1/23/2012 9:00,-4.9,-9.2,72,11,48.3,101.59,Mostly Cloudy,1.7718779805041622
1/23/2012 10:00,-3.6,-7.9,72,9,48.3,101.58,Mostly Cloudy,1.7387733278730273
1/23/2012 11:00,1.2,-3.2,72,11,48.3,101.49,Cloudy,1.7558480621019654
1/23/2012 12:00,2.3,-2.4,71,6,48.3,101.33,Cloudy,1.712430565280306
1/23/2012 13:00,2.5,-1.5,75,22,48.3,101.14,Cloudy,1.7614170659574622
1/23/2012 14:00,2.7,-1.1,76,26,48.3,101.01,Rain,1.761796461102433
1/23/2012 15:00,2.7,-0.9,77,30,24.1,100.86,Rain,1.7720094675126619
1/23/2012 16:00,3.1,-0.3,78,28,24.1,100.71,Cloudy,1.733057876440812
1/23/2012 17:00,3.1,-0.4,78,28,16.1,100.61,Rain,1.7611923667609355
1/23/2012 18:00,3.0,1.2,88,19,4.0,100.54,"Rain,Fog",1.7618557462082602
1/23/2012 19:00,3.2,1.4,88,22,8.0,100.43,"Rain,Fog",1.7616320918030242
1/23/2012 20:00,2.9,1.2,89,26,9.7,100.32,"Drizzle,Fog",1.7672235582449927
1/23/2012 21:00,3.3,1.7,89,24,11.3,100.22,Drizzle,1.7607920888774056
1/23/2012 22:00,3.6,2.2,91,28,25.0,100.1,Cloudy,1.762772169746578
1/23/2012 23:00,4.0,2.5,90,22,25.0,100.08,Cloudy,1.7609487211792867
1/24/2012 0:00,3.5,2.3,92,17,12.9,100.04,Rain,1.764560779079539
1/24/2012 1:00,3.1,1.9,92,19,16.1,100.04,Cloudy,1.764560779079539
1/24/2012 2:00,3.1,2.1,93,9,9.7,100.09,Rain,1.7663155381997573
1/24/2012 3:00,5.0,3.6,91,19,9.7,100.19,Rain,1.762772169746578
1/24/2012 4:00,4.2,1.2,81,30,25.0,100.25,Cloudy,1.7461178996349196
1/24/2012 5:00,3.7,-0.2,76,41,25.0,100.37,Cloudy,1.759004875944498
1/24/2012 6:00,3.4,-0.6,75,28,25.0,100.45,Cloudy,1.754246322603673
1/24/2012 7:00,2.9,-1.1,75,26,16.1,100.49,Cloudy,1.7559935954613493
1/24/2012 8:00,3.0,-1.7,71,28,19.3,100.52,Mostly Cloudy,1.7676707177996147
1/24/2012 9:00,2.9,-1.8,71,30,24.1,100.6,Cloudy,1.7640322490141027
1/24/2012 10:00,3.0,-2.0,70,35,24.1,100.65,Cloudy,1.767133160421291
1/24/2012 11:00,3.1,-1.9,70,33,24.1,100.7,Cloudy,1.7630246493448947
1/24/2012 12:00,3.2,-2.3,67,30,24.1,100.72,Cloudy,1.7468896893422696
1/24/2012 13:00,2.8,-2.4,69,39,24.1,100.73,Cloudy,1.7648791057544286
1/24/2012 14:00,2.4,-2.4,71,35,24.1,100.75,Rain,1.7677116487153464
1/24/2012 15:00,1.9,-2.2,74,26,19.3,100.8,Snow,1.7392574691649911
1/24/2012 16:00,1.7,-2.4,74,30,24.1,100.82,Cloudy,1.7710885120077986
1/24/2012 17:00,1.6,-2.8,73,26,24.1,100.88,Snow Showers,1.7656307693139441
1/24/2012 18:00,1.5,-2.9,72,22,25.0,100.95,Snow Showers,1.7597209996907412
1/24/2012 19:00,1.5,-3.2,71,32,25.0,101.01,Snow Showers,1.7649144079357992
1/24/2012 20:00,1.3,-3.2,72,19,25.0,101.06,Cloudy,1.7507802128874543
1/24/2012 21:00,1.1,-3.0,74,20,25.0,101.11,Mostly Cloudy,1.770767472840039
1/24/2012 22:00,1.1,-3.4,72,22,25.0,101.13,Mostly Cloudy,1.7735263066571427
1/24/2012 23:00,1.0,-3.4,72,28,25.0,101.16,Snow Showers,1.7728056575314568
1/25/2012 0:00,0.5,-4.6,69,28,25.0,101.2,Cloudy,1.7728108772112638
1/25/2012 1:00,-0.1,-5.2,68,22,25.0,101.26,Mostly Cloudy,1.767779834868496
1/25/2012 2:00,-0.4,-5.9,66,20,25.0,101.37,Mostly Cloudy,1.7689221061178073
1/25/2012 3:00,-0.5,-6.2,65,24,25.0,101.45,Cloudy,1.773264073081344
1/25/2012 4:00,-0.7,-6.0,67,24,25.0,101.52,Cloudy,1.7740670267229588
1/25/2012 5:00,-1.7,-7.7,64,33,25.0,101.58,Mostly Cloudy,1.7527735175077213
1/25/2012 6:00,-2.8,-9.0,62,35,25.0,101.66,Mostly Cloudy,1.7361311107472186
1/25/2012 7:00,-3.9,-10.0,63,37,25.0,101.79,Mostly Cloudy,1.7337429612956525
1/25/2012 8:00,-4.7,-10.9,62,26,24.1,101.94,Mostly Cloudy,1.7145126801254509
1/25/2012 9:00,-5.2,-11.3,62,28,24.1,102.05,Cloudy,1.7183109526680336
1/25/2012 10:00,-5.3,-11.4,62,22,24.1,102.09,Mostly Cloudy,1.6908645551387371
1/25/2012 11:00,-5.3,-11.9,60,19,24.1,102.14,Mostly Cloudy,1.7277047616918633
1/25/2012 12:00,-5.0,-11.8,59,20,24.1,102.06,Mostly Cloudy,1.7276051980928753
1/25/2012 13:00,-4.7,-11.7,58,20,24.1,102.01,Mainly Clear,1.73815397152998
1/25/2012 14:00,-4.5,-11.0,60,22,24.1,101.98,Mainly Clear,1.7422764496063852
1/25/2012 15:00,-4.4,-11.2,59,22,24.1,101.94,Mainly Clear,1.7262157125996753
1/25/2012 16:00,-4.4,-11.3,59,19,24.1,101.96,Mostly Cloudy,1.7403836347130093
1/25/2012 17:00,-4.8,-11.4,60,20,24.1,102.01,Mainly Clear,1.7602069720119637
1/25/2012 18:00,-5.1,-11.4,61,11,25.0,102.07,Mainly Clear,1.7487738227215877
1/25/2012 19:00,-5.4,-11.5,62,13,25.0,102.14,Mostly Cloudy,1.6968149561354358
1/25/2012 20:00,-4.9,-11.6,59,7,25.0,102.07,Mostly Cloudy,1.7164980827051775
1/25/2012 21:00,-5.4,-11.1,64,7,25.0,102.01,Mostly Cloudy,1.736534768883011
1/25/2012 22:00,-5.5,-11.3,64,0,25.0,101.99,Mostly Cloudy,1.7323088577698706
1/25/2012 23:00,-5.4,-11.4,63,6,25.0,102.01,Mostly Cloudy,1.6905503207163803
1/26/2012 0:00,-5.9,-11.7,64,6,25.0,101.99,Mostly Cloudy,1.7105752191824741
1/26/2012 1:00,-7.0,-12.1,67,4,25.0,101.95,Clear,1.7739947355911372
1/26/2012 2:00,-8.2,-12.6,71,6,25.0,101.99,Clear,1.7263853463611685
1/26/2012 3:00,-8.1,-12.5,71,0,25.0,101.97,Clear,1.7225590361541878
1/26/2012 4:00,-8.5,-13.5,67,0,25.0,101.95,Clear,1.7606813685421827
1/26/2012 5:00,-9.0,-13.9,68,6,25.0,102.02,Clear,1.7018006700167505
1/26/2012 6:00,-11.2,-15.0,73,6,25.0,102.06,Clear,1.718324698506683
1/26/2012 7:00,-10.6,-14.4,74,6,24.1,102.01,Mainly Clear,1.7209839103698092
1/26/2012 8:00,-9.2,-13.3,72,6,24.1,102.08,Clear,1.7341095800581445
1/26/2012 9:00,-7.9,-12.4,70,11,24.1,102.01,Mainly Clear,1.7470601479861099
1/26/2012 10:00,-5.7,-12.4,59,11,24.1,102.04,Mainly Clear,1.6996852255998125
1/26/2012 11:00,-5.0,-12.1,57,7,24.1,102.05,Mainly Clear,1.7726907638643024
1/26/2012 12:00,-4.6,-12.5,54,11,24.1,101.88,Mainly Clear,1.7641835647808815
1/26/2012 13:00,-4.0,-12.0,54,15,24.1,101.71,Mostly Cloudy,1.7703709043113118
1/26/2012 14:00,-3.4,-12.5,49,11,24.1,101.6,Mostly Cloudy,1.7604271450388056
1/26/2012 15:00,-3.0,-14.1,42,13,24.1,101.53,Mostly Cloudy,1.7496427920659268
1/26/2012 16:00,-3.8,-12.2,52,19,24.1,101.52,Cloudy,1.7293318223852527
1/26/2012 17:00,-4.3,-12.2,54,20,24.1,101.4,Cloudy,1.744008584844133
1/26/2012 18:00,-4.7,-13.7,49,24,25.0,101.28,Cloudy,1.77186745499135
1/26/2012 19:00,-4.5,-13.5,49,17,25.0,101.25,Cloudy,1.771714725833686
1/26/2012 20:00,-4.6,-13.0,52,17,25.0,101.15,Snow Showers,1.7567516753232388
1/26/2012 21:00,-5.2,-12.1,58,20,25.0,100.99,Snow,1.7690462342156104
1/26/2012 22:00,-5.3,-10.2,68,22,16.1,100.92,Snow,1.7663676680309266
1/26/2012 23:00,-5.8,-9.1,77,22,6.4,100.81,Snow,1.7302348458823897
1/27/2012 0:00,-5.7,-8.8,79,28,4.8,100.68,Snow,1.7357508862871274
1/27/2012 1:00,-5.5,-8.3,81,24,2.4,100.58,Snow,1.7408722768108806
1/27/2012 2:00,-5.5,-8.2,81,26,3.2,100.47,Snow,1.7408722768108806
1/27/2012 3:00,-5.3,-8.1,81,28,4.0,100.33,Snow,1.7408722768108806
1/27/2012 4:00,-4.9,-7.6,81,26,2.4,100.13,Snow,1.7408722768108806
1/27/2012 5:00,-4.0,-6.6,82,22,16.1,99.98,Snow,1.773050723489889
1/27/2012 6:00,-2.1,-4.2,86,19,19.3,99.8,Snow,1.7530322801745157
1/27/2012 7:00,-0.8,-2.9,86,22,16.1,99.61,Freezing Rain,1.7693209996518537
1/27/2012 8:00,0.3,-1.7,86,20,12.9,99.47,Freezing Rain,1.7690165635430175
1/27/2012 9:00,0.7,-1.4,86,17,12.9,99.34,Rain,1.7575277123857296
1/27/2012 10:00,0.6,-1.2,88,17,8.0,99.18,"Rain,Fog",1.7677689277741921
1/27/2012 11:00,0.7,-1.0,88,20,2.4,99.08,"Drizzle,Fog",1.7721906708652448
1/27/2012 12:00,0.7,-0.9,89,20,2.8,98.91,"Drizzle,Fog",1.7725574461676519
1/27/2012 13:00,0.7,-1.0,88,22,3.2,98.76,"Drizzle,Fog",1.7704486403495137
1/27/2012 14:00,0.5,-1.3,88,20,2.4,98.69,"Drizzle,Fog",1.772803047601611
1/27/2012 15:00,0.3,-1.6,87,19,2.4,98.65,"Drizzle,Fog",1.7697372860279816
1/27/2012 16:00,-0.3,-2.3,86,19,8.0,98.74,"Freezing Drizzle,Fog",1.7714667645138114
1/27/2012 17:00,-0.6,-2.3,88,22,2.8,98.97,Snow,1.7711335446545582
1/27/2012 18:00,-0.3,-1.8,90,11,2.4,99.13,Snow,1.769951556203688
1/27/2012 19:00,0.1,-1.6,88,30,12.9,99.31,Snow,1.7696112160638247
1/27/2012 20:00,-0.7,-2.7,86,32,16.1,99.54,Cloudy,1.766450146443853
1/27/2012 21:00,-1.3,-3.9,82,19,24.1,99.75,Cloudy,1.7647466025508423
1/27/2012 22:00,-1.5,-4.4,81,19,25.0,99.88,Mostly Cloudy,1.7718911360294416
1/27/2012 23:00,-1.6,-4.5,81,20,25.0,100.03,Mainly Clear,1.751980342060154
1/28/2012 0:00,-1.5,-4.3,81,19,25.0,100.19,Mainly Clear,1.768289957836366
1/28/2012 1:00,-0.2,-2.9,82,22,25.0,100.34,Snow Showers,1.762591409305108
1/28/2012 2:00,0.2,-2.6,81,24,25.0,100.49,Mostly Cloudy,1.7574799894020972
1/28/2012 3:00,0.4,-3.0,78,17,25.0,100.59,Mostly Cloudy,1.7538420253497244
1/28/2012 4:00,0.1,-3.4,77,15,25.0,100.64,Mostly Cloudy,1.758807349035213
1/28/2012 5:00,0.3,-2.7,80,19,25.0,100.72,Mostly Cloudy,1.7608013097265152
1/28/2012 6:00,-1.7,-5.4,76,9,25.0,100.79,Mostly Cloudy,1.7596650272552894
1/28/2012 7:00,-1.2,-4.6,78,11,25.0,100.85,Mainly Clear,1.7564385404150173
1/28/2012 8:00,-2.1,-5.1,80,7,48.3,100.91,Mainly Clear,1.773323843023796
1/28/2012 9:00,-1.6,-4.5,81,13,24.1,100.93,Mostly Cloudy,1.7633572405231843
1/28/2012 10:00,-1.1,-4.4,78,13,48.3,100.94,Cloudy,1.7562453371126145
1/28/2012 11:00,-0.6,-3.6,80,6,48.3,100.9,Cloudy,1.7684134099360613
1/28/2012 12:00,-0.3,-3.4,80,7,48.3,100.74,Mostly Cloudy,1.7598933743184892
1/28/2012 13:00,0.9,-3.5,72,4,48.3,100.58,Cloudy,1.7593519082978235
1/28/2012 14:00,1.2,-3.5,71,9,48.3,100.48,Cloudy,1.7526437941751647
1/28/2012 15:00,1.2,-3.7,70,15,48.3,100.28,Cloudy,1.755091929874631
1/28/2012 16:00,1.4,-3.7,69,22,48.3,100.14,Cloudy,1.7056195602958193
1/28/2012 17:00,1.2,-3.5,71,11,48.3,100.16,Cloudy,1.712430565280306
1/28/2012 18:00,1.6,-3.4,69,9,25.0,100.08,Cloudy,1.742468942584256
1/28/2012 19:00,2.2,-2.6,71,19,19.3,100.09,Snow,1.7484759611953733
1/28/2012 20:00,1.7,-1.2,81,24,19.3,100.05,Snow,1.7408722768108806
1/28/2012 21:00,2.1,-1.7,76,24,25.0,99.95,Mainly Clear,1.759230121807298
1/28/2012 22:00,2.3,-2.0,73,37,25.0,99.85,Mostly Cloudy,1.7553955178846123
1/28/2012 23:00,1.2,-1.7,81,52,16.1,99.87,"Rain,Snow",1.7682533038683963
1/29/2012 0:00,1.5,-5.0,62,57,25.0,99.96,Mainly Clear,1.76947157344593
1/29/2012 1:00,0.9,-5.3,63,52,25.0,100.09,Mainly Clear,1.7707222960044444
1/29/2012 2:00,0.3,-5.8,64,52,25.0,100.21,Mainly Clear,1.7706957130762617
1/29/2012 3:00,-0.2,-6.0,65,43,25.0,100.34,Mainly Clear,1.7390345441106498
1/29/2012 4:00,-0.9,-7.0,63,43,25.0,100.47,Mainly Clear,1.7591269501043474
1/29/2012 5:00,-1.5,-7.8,62,43,25.0,100.59,Mainly Clear,1.7694984409407075
1/29/2012 6:00,-2.0,-8.1,63,44,25.0,100.68,Mainly Clear,1.7725914439583534
1/29/2012 7:00,-1.9,-8.2,62,32,24.1,100.74,Mainly Clear,1.771609276177091
1/29/2012 8:00,-2.2,-8.3,63,32,24.1,100.81,Mostly Cloudy,1.760727517759196
1/29/2012 9:00,-2.1,-8.5,62,32,24.1,100.88,Cloudy,1.7681120097866196
1/29/2012 10:00,-1.8,-8.3,61,24,24.1,100.87,Mostly Cloudy,1.7593050857463084
1/29/2012 11:00,-0.8,-7.7,59,33,24.1,100.84,Mainly Clear,1.7679895969254795
1/29/2012 12:00,0.1,-7.6,56,37,24.1,100.77,Mainly Clear,1.7724789509172298
1/29/2012 13:00,0.5,-8.8,50,33,24.1,100.7,Mostly Cloudy,1.76410793769017
1/29/2012 14:00,0.4,-7.9,54,19,24.1,100.63,Mostly Cloudy,1.7604502844761625
1/29/2012 15:00,0.2,-7.5,56,17,24.1,100.65,Mostly Cloudy,1.755493017192836
1/29/2012 16:00,0.7,-8.3,51,20,24.1,100.67,Mostly Cloudy,1.7486131230970143
1/29/2012 17:00,-0.7,-8.4,56,11,24.1,100.74,Mainly Clear,1.757217089392395
1/29/2012 18:00,-1.1,-9.3,54,17,25.0,100.77,Mainly Clear,1.7737646455316851
1/29/2012 19:00,-1.6,-9.3,56,17,25.0,100.81,Mainly Clear,1.7534094127525204
1/29/2012 20:00,-2.0,-9.1,58,17,25.0,100.83,Mainly Clear,1.748199891947934
1/29/2012 21:00,-1.7,-8.4,60,9,25.0,100.85,Mainly Clear,1.7590377574224005
1/29/2012 22:00,-2.3,-7.0,70,15,25.0,100.84,Mainly Clear,1.7563854479276857
1/29/2012 23:00,-3.4,-7.6,73,15,25.0,100.85,Clear,1.7602591377343588
1/30/2012 0:00,-3.7,-8.8,68,11,25.0,100.89,Clear,1.3579319565140906
1/30/2012 1:00,-4.4,-10.0,65,15,25.0,100.92,Mainly Clear,1.7708099759545366
1/30/2012 2:00,-5.1,-10.0,68,15,25.0,100.99,Clear,1.7718727178691644
1/30/2012 3:00,-6.1,-10.3,72,11,25.0,101.07,Clear,1.7720331190785628
1/30/2012 4:00,-7.7,-11.8,72,11,25.0,101.19,Clear,1.7222555023194286
1/30/2012 5:00,-7.9,-13.8,63,13,25.0,101.33,Clear,1.769199860239706
1/30/2012 6:00,-8.9,-15.1,61,15,25.0,101.47,Clear,1.7087426133080126
1/30/2012 7:00,-9.8,-16.0,61,15,25.0,101.55,Clear,1.7051373382997776
1/30/2012 8:00,-10.5,-17.0,59,9,48.3,101.68,Clear,1.7615818105688354
1/30/2012 9:00,-9.5,-16.6,56,13,48.3,101.75,Mainly Clear,1.741030113458875
1/30/2012 10:00,-8.8,-16.0,56,17,48.3,101.82,Mostly Cloudy,1.7659977762770245
1/30/2012 11:00,-7.7,-14.7,57,19,48.3,101.86,Mostly Cloudy,1.7471573826256943
1/30/2012 12:00,-7.0,-14.2,56,22,48.3,101.83,Mainly Clear,1.7213194769967206
1/30/2012 13:00,-7.5,-15.2,54,22,48.3,101.8,Mainly Clear,1.7313093114934217
1/30/2012 14:00,-6.7,-15.0,52,22,48.3,101.81,Clear,1.7715406816438228
1/30/2012 15:00,-6.9,-15.3,51,22,48.3,101.83,Mainly Clear,1.7429256789819272
1/30/2012 16:00,-7.3,-15.8,51,17,48.3,101.86,Mostly Cloudy,1.7182524811989697
1/30/2012 17:00,-7.4,-15.7,51,13,48.3,101.9,Mostly Cloudy,1.7725731387187376
1/30/2012 18:00,-7.4,-15.6,52,15,25.0,101.94,Mainly Clear,1.7583353983634742
1/30/2012 19:00,-8.8,-15.9,56,7,25.0,101.96,Mainly Clear,1.6944530678975012
1/30/2012 20:00,-9.5,-16.0,59,4,25.0,101.95,Mainly Clear,1.6750271237934549
1/30/2012 21:00,-8.4,-15.5,57,4,25.0,101.96,Mostly Cloudy,1.7040903227851438
1/30/2012 22:00,-7.8,-15.2,55,4,25.0,101.98,Mostly Cloudy,1.6875450190748482
1/30/2012 23:00,-8.6,-13.8,66,6,25.0,101.96,Mostly Cloudy,1.7163685960511803
1/31/2012 0:00,-7.0,-13.1,62,7,25.0,101.92,Mostly Cloudy,1.7055460956199775
1/31/2012 1:00,-7.1,-13.2,62,6,25.0,101.88,Cloudy,1.7454253029213511
1/31/2012 2:00,-6.5,-13.1,59,11,25.0,101.81,Snow,1.7000966810018492
1/31/2012 3:00,-6.8,-12.4,64,15,19.3,101.76,Snow,1.7698658960044336
1/31/2012 4:00,-7.1,-12.4,66,17,8.0,101.71,Snow,1.7175897370229645
1/31/2012 5:00,-7.1,-12.2,67,17,9.7,101.7,Snow,1.7061669238406538
1/31/2012 6:00,-7.0,-11.8,69,13,6.4,101.65,Snow,1.7074020830088996
1/31/2012 7:00,-9.6,-13.5,73,17,12.9,101.6,Snow,1.718324698506683
1/31/2012 8:00,-9.8,-13.9,72,19,16.1,101.61,Snow,1.7357903375647497
1/31/2012 9:00,-10.1,-14.4,71,17,24.1,101.59,Snow,1.7545769508184141
1/31/2012 10:00,-9.7,-14.2,70,19,19.3,101.54,Cloudy,1.768878899845422
1/31/2012 11:00,-9.3,-14.2,67,20,19.3,101.46,Cloudy,1.713151324558037
1/31/2012 12:00,-8.6,-13.3,69,22,4.0,101.36,Snow,1.7056195602958193
1/31/2012 13:00,-8.3,-12.3,73,20,1.6,101.29,Snow,1.718324698506683
1/31/2012 14:00,-8.4,-12.1,75,20,1.2,101.23,Snow,1.7241591468416737
1/31/2012 15:00,-8.2,-12.0,74,17,1.0,101.22,Snow,1.7209839103698092
1/31/2012 16:00,-8.0,-11.5,76,20,1.0,101.2,Snow,1.7272721454173066
1/31/2012 17:00,-7.7,-11.1,77,19,1.0,101.19,Snow,1.7302348458823897
1/31/2012 18:00,-7.8,-11.2,77,20,1.6,101.18,Snow,1.7302348458823897
1/31/2012 19:00,-7.7,-10.9,78,19,1.6,101.14,Snow,1.733057876440812
1/31/2012 20:00,-7.4,-10.7,77,20,1.6,101.09,Snow,1.7302348458823897
1/31/2012 21:00,-7.1,-10.5,77,20,12.9,101.02,Cloudy,1.7302348458823897
1/31/2012 22:00,-7.1,-10.4,77,19,9.7,100.95,Snow,1.7302348458823897
1/31/2012 23:00,-6.8,-9.9,79,22,9.7,100.86,"Freezing Drizzle,Snow",1.7357508862871274
2/1/2012 0:00,-6.7,-9.7,79,19,11.3,100.82,Snow,1.7357508862871274
2/1/2012 1:00,-6.7,-9.5,80,15,9.7,100.69,Snow,1.7677771081909714
2/1/2012 2:00,-6.8,-9.3,82,19,4.8,100.61,Freezing Drizzle,1.7434626346010758
2/1/2012 3:00,-6.5,-9.0,82,15,4.8,100.56,Freezing Rain,1.7434626346010758
2/1/2012 4:00,-5.8,-8.2,83,17,8.0,100.48,Freezing Rain,1.7732016708307676
2/1/2012 5:00,-5.8,-8.5,81,19,8.0,100.42,Freezing Drizzle,1.7408722768108806
2/1/2012 6:00,-5.4,-8.0,82,15,8.0,100.34,Freezing Rain,1.7434626346010758
2/1/2012 7:00,-5.5,-8.2,81,13,9.7,100.33,Freezing Rain,1.7408722768108806
2/1/2012 8:00,-5.5,-8.5,79,11,11.3,100.36,Cloudy,1.7357508862871274
2/1/2012 9:00,-5.7,-8.6,80,15,12.9,100.36,Cloudy,1.7482547871531826
2/1/2012 10:00,-5.7,-8.5,81,13,8.0,100.35,Haze,1.7408722768108806
2/1/2012 11:00,-5.8,-8.3,82,9,4.0,100.36,"Freezing Drizzle,Haze",1.7434626346010758
2/1/2012 12:00,-5.5,-8.0,83,11,2.0,100.31,"Freezing Drizzle,Haze",1.7459700090483987
2/1/2012 13:00,-5.0,-7.7,81,11,2.0,100.28,"Freezing Drizzle,Haze",1.7408722768108806
2/1/2012 14:00,-4.9,-7.4,83,9,2.0,100.34,"Freezing Rain,Haze",1.7459700090483987
2/1/2012 15:00,-4.9,-7.5,82,6,2.8,100.41,"Freezing Rain,Haze",1.7434626346010758
2/1/2012 16:00,-4.5,-7.2,81,0,4.8,100.47,Haze,1.7408722768108806
2/1/2012 17:00,-4.3,-7.1,81,0,6.4,100.61,"Snow,Haze",1.7408722768108806
2/1/2012 18:00,-4.0,-6.9,80,0,4.0,100.68,"Snow,Haze",1.7383226557949913
2/1/2012 19:00,-3.9,-6.7,81,6,4.0,100.78,"Snow,Haze",1.7408722768108806
2/1/2012 20:00,-3.6,-6.4,81,4,4.8,100.85,"Snow,Haze",1.7408722768108806
2/1/2012 21:00,-4.3,-7.2,80,15,4.0,100.99,"Snow,Haze",1.7383226557949913
2/1/2012 22:00,-5.0,-8.2,78,15,12.9,101.12,Snow,1.7701333725626216
2/1/2012 23:00,-4.9,-8.1,78,0,12.9,101.22,Snow,1.747702031962222
2/2/2012 0:00,-5.0,-8.2,78,7,12.9,101.32,Snow,1.7460563130839053
2/2/2012 1:00,-5.5,-9.2,75,9,25.0,101.36,Mostly Cloudy,1.7704588531729124
2/2/2012 2:00,-6.3,-9.6,77,4,16.1,101.45,Snow Showers,1.764596202762189
2/2/2012 3:00,-5.6,-9.1,76,6,25.0,101.52,Snow Showers,1.7721591779321915
2/2/2012 4:00,-5.5,-8.8,78,4,16.1,101.59,Snow Showers,1.7661502649647776
2/2/2012 5:00,-5.2,-9.5,72,9,16.1,101.62,Snow Showers,1.7424237683465462
2/2/2012 6:00,-6.0,-11.8,63,13,25.0,101.63,Snow Showers,1.7696004803305527
2/2/2012 7:00,-6.9,-12.8,63,22,24.1,101.67,Snow,1.749324741735513
2/2/2012 8:00,-7.6,-13.2,64,19,12.9,101.74,Snow,1.762419363297189
2/2/2012 9:00,-7.7,-13.6,63,19,19.3,101.82,Snow,1.73697421273192
2/2/2012 10:00,-8.2,-13.7,65,17,24.1,101.87,Mostly Cloudy,1.6929583486014415
2/2/2012 11:00,-8.3,-14.2,62,19,24.1,101.89,Mostly Cloudy,1.681279062923068
2/2/2012 12:00,-8.1,-13.3,66,13,24.1,101.86,Mostly Cloudy,1.6999851347681065
2/2/2012 13:00,-7.4,-12.7,66,9,24.1,101.86,Mostly Cloudy,1.7191410678034045
2/2/2012 14:00,-6.7,-12.0,66,9,24.1,101.85,Mostly Cloudy,1.7472059535960371
2/2/2012 15:00,-6.7,-12.1,65,9,24.1,101.9,Mostly Cloudy,1.7310959634637504
2/2/2012 16:00,-6.6,-11.7,67,11,24.1,101.94,Mostly Cloudy,1.733579274014317
2/2/2012 17:00,-7.1,-12.0,68,13,24.1,101.99,Mostly Cloudy,1.7206480465926246
2/2/2012 18:00,-7.7,-12.5,68,7,25.0,102.08,Mostly Cloudy,1.7625008981338184
2/2/2012 19:00,-7.0,-12.2,66,6,25.0,102.13,Mostly Cloudy,1.6960165533823464
2/2/2012 20:00,-8.9,-12.8,73,4,25.0,102.22,Mostly Cloudy,1.718324698506683
2/2/2012 21:00,-7.2,-11.0,74,4,25.0,102.26,Snow,1.7209839103698092
2/2/2012 22:00,-8.0,-11.5,76,7,25.0,102.29,Snow,1.7272721454173066
2/2/2012 23:00,-7.2,-11.1,74,7,25.0,102.31,Mostly Cloudy,1.7209839103698092
2/3/2012 0:00,-9.7,-12.5,80,4,25.0,102.33,Mostly Cloudy,1.7383226557949913
2/3/2012 1:00,-11.0,-13.5,82,0,25.0,102.35,Mainly Clear,1.7434626346010758
2/3/2012 2:00,-10.2,-12.7,82,0,25.0,102.39,Mainly Clear,1.7434626346010758
2/3/2012 3:00,-11.6,-14.0,82,0,25.0,102.4,Mainly Clear,1.7434626346010758
2/3/2012 4:00,-12.6,-15.1,82,7,16.1,102.42,Mainly Clear,1.7434626346010758
2/3/2012 5:00,-11.2,-13.2,85,9,9.7,102.47,Fog,1.7507512632600475
2/3/2012 6:00,-11.8,-14.1,83,7,16.1,102.51,Mainly Clear,1.7459700090483987
2/3/2012 7:00,-11.3,-13.7,82,9,16.1,102.59,Mostly Cloudy,1.7434626346010758
2/3/2012 8:00,-10.6,-13.3,80,9,19.3,102.62,Mostly Cloudy,1.7383226557949913
2/3/2012 9:00,-8.8,-11.9,78,6,24.1,102.62,Mostly Cloudy,1.733057876440812
2/3/2012 10:00,-6.8,-10.2,77,7,19.3,102.61,Cloudy,1.7302348458823897
2/3/2012 11:00,-6.3,-10.0,75,11,6.4,102.57,Snow,1.7241591468416737
2/3/2012 12:00,-6.2,-9.5,77,11,16.1,102.46,Snow,1.7302348458823897
2/3/2012 13:00,-4.8,-8.3,76,6,16.1,102.34,Snow,1.7306238872691062
2/3/2012 14:00,-3.8,-7.4,76,7,16.1,102.27,Snow,1.7316773067101618
2/3/2012 15:00,-2.9,-7.8,69,19,19.3,102.25,Snow,1.7514200148966428
2/3/2012 16:00,-3.3,-7.3,74,13,16.1,102.21,Snow,1.741645303872543
2/3/2012 17:00,-3.4,-7.0,76,11,19.3,102.19,Cloudy,1.7652110019219251
2/3/2012 18:00,-3.7,-7.1,77,7,19.3,102.17,Snow,1.76060933080937
2/3/2012 19:00,-3.8,-7.2,77,9,25.0,102.17,Snow,1.7681337585508643
2/3/2012 20:00,-4.2,-7.7,77,11,25.0,102.16,Mostly Cloudy,1.7353681140723276
2/3/2012 21:00,-4.7,-8.0,78,7,25.0,102.17,Mostly Cloudy,1.7440085848441331
2/3/2012 22:00,-5.3,-8.6,78,0,25.0,102.1,Cloudy,1.7592676111426102
2/3/2012 23:00,-3.7,-6.7,80,6,25.0,102.03,Snow,1.7654116168709109
2/4/2012 0:00,-4.5,-6.8,84,9,2.0,102.02,Snow,1.7483983249034645
2/4/2012 1:00,-4.5,-6.7,85,11,25.0,101.98,Mostly Cloudy,1.761965097564174
2/4/2012 2:00,-4.0,-7.4,77,20,25.0,102.07,Mostly Cloudy,1.7570302338805142
2/4/2012 3:00,-4.9,-10.5,65,15,25.0,102.11,Mostly Cloudy,1.738310084987725
2/4/2012 4:00,-7.1,-12.7,64,13,25.0,102.16,Mainly Clear,1.700084311552564
2/4/2012 5:00,-8.1,-13.3,66,15,25.0,102.21,Mainly Clear,1.7104597433974802
2/4/2012 6:00,-9.4,-13.9,70,9,25.0,102.27,Clear,1.7091525423728813
2/4/2012 7:00,-11.0,-14.7,74,7,48.3,102.25,Clear,1.7209839103698092
2/4/2012 8:00,-11.6,-15.6,72,9,48.3,102.31,Clear,1.7154802667147235
2/4/2012 9:00,-9.6,-14.1,70,13,48.3,102.37,Clear,1.7091525423728813
2/4/2012 10:00,-8.4,-13.7,66,6,48.3,102.32,Mainly Clear,1.6960165533823464
2/4/2012 11:00,-7.6,-13.6,62,0,48.3,102.29,Clear,1.7303792305904777
2/4/2012 12:00,-6.6,-13.2,59,4,48.3,102.21,Mainly Clear,1.7695736366195245
2/4/2012 13:00,-6.3,-12.7,60,13,48.3,102.11,Mainly Clear,1.717238446359175
2/4/2012 14:00,-6.0,-12.7,59,6,48.3,102.05,Mainly Clear,1.7695091861851515
2/4/2012 15:00,-5.4,-12.6,57,11,48.3,102.01,Mainly Clear,1.772072527452081
2/4/2012 16:00,-5.7,-12.8,57,9,48.3,101.99,Clear,1.7586942929701879
2/4/2012 17:00,-6.2,-13.5,56,11,48.3,101.97,Clear,1.7695924278739752
2/4/2012 18:00,-6.6,-13.7,57,9,25.0,101.96,Clear,1.74706014798611
2/4/2012 19:00,-7.7,-14.0,61,7,25.0,101.97,Clear,1.7306956547708674
2/4/2012 20:00,-8.8,-14.4,64,6,25.0,101.97,Clear,1.6905854004715768
2/4/2012 21:00,-9.9,-14.5,69,6,25.0,101.97,Clear,1.7273631575901012
2/4/2012 22:00,-10.3,-14.9,69,0,25.0,101.93,Clear,1.7056195602958193
2/4/2012 23:00,-10.1,-14.3,71,0,25.0,101.89,Clear,1.7245251545982605
2/5/2012 0:00,-11.9,-15.3,76,6,25.0,101.89,Clear,1.7431306673003344
2/5/2012 1:00,-12.1,-15.0,79,6,25.0,101.87,Clear,1.7357508862871274
2/5/2012 2:00,-14.4,-17.1,80,6,25.0,101.88,Clear,1.7383226557949913
2/5/2012 3:00,-12.9,-15.7,79,6,25.0,101.86,Clear,1.7357508862871274
2/5/2012 4:00,-14.9,-17.9,78,6,25.0,101.86,Clear,1.733057876440812
2/5/2012 5:00,-14.2,-17.0,79,7,25.0,101.91,Clear,1.7357508862871274
2/5/2012 6:00,-14.7,-17.5,79,4,19.3,101.93,Clear,1.7357508862871274
2/5/2012 7:00,-15.7,-18.6,78,4,24.1,101.93,Clear,1.733057876440812
2/5/2012 8:00,-15.0,-17.5,81,4,24.1,101.95,Clear,1.7408722768108806
2/5/2012 9:00,-13.5,-16.1,81,0,24.1,101.97,Clear,1.7408722768108806
2/5/2012 10:00,-11.1,-13.4,83,9,0.8,101.97,Freezing Fog,1.7459700090483987
2/5/2012 11:00,-10.5,-12.4,86,11,12.9,101.95,Cloudy,1.7530322801745157
2/5/2012 12:00,-8.7,-11.7,79,9,24.1,101.82,Mainly Clear,1.7357508862871274
2/5/2012 13:00,-7.2,-12.1,68,13,24.1,101.72,Mainly Clear,1.7677907409383102
2/5/2012 14:00,-5.5,-11.8,61,20,24.1,101.63,Cloudy,1.7373335599392807
2/5/2012 15:00,-5.3,-11.4,62,15,24.1,101.55,Cloudy,1.7737223683776755
2/5/2012 16:00,-4.7,-10.7,63,6,19.3,101.48,Cloudy,1.7111806767786235
2/5/2012 17:00,-4.2,-10.0,64,9,25.0,101.43,Cloudy,1.7591973065475428
2/5/2012 18:00,-3.9,-9.7,64,15,25.0,101.41,Cloudy,1.7650775055403574
2/5/2012 19:00,-3.1,-8.6,66,15,25.0,101.34,Cloudy,1.7635454826624637
2/5/2012 20:00,-2.8,-8.0,67,24,25.0,101.25,Mostly Cloudy,1.7737956962323005
2/5/2012 21:00,-2.5,-7.7,67,26,25.0,101.18,Cloudy,1.7700531949023888
2/5/2012 22:00,-2.1,-6.7,71,28,25.0,101.06,Cloudy,1.7507917895940754
2/5/2012 23:00,-1.5,-5.7,73,30,25.0,100.93,Cloudy,1.7688978045775166
2/6/2012 0:00,-0.7,-5.2,72,30,25.0,100.86,Cloudy,1.7714033688935074
2/6/2012 1:00,-0.8,-5.2,72,24,25.0,100.8,Cloudy,1.7683862888864432
2/6/2012 2:00,0.1,-4.7,70,32,25.0,100.75,Snow,1.7639386660995753
2/6/2012 3:00,0.1,-3.3,78,30,25.0,100.77,Cloudy,1.7641212881202724
2/6/2012 4:00,0.8,-3.7,72,35,25.0,100.68,Snow,1.7655212581782145
2/6/2012 5:00,1.0,-3.8,70,26,25.0,100.7,Cloudy,1.76947157344593
2/6/2012 6:00,1.1,-3.6,71,32,25.0,100.63,Cloudy,1.7673016894174374
2/6/2012 7:00,1.2,-3.5,71,37,24.1,100.62,Mostly Cloudy,1.7704268795646017
2/6/2012 8:00,1.1,-3.8,70,33,24.1,100.63,Mostly Cloudy,1.7695064999679622
2/6/2012 9:00,1.1,-3.6,71,32,24.1,100.62,Cloudy,1.7696782917360698
2/6/2012 10:00,1.4,-3.3,71,32,24.1,100.6,Cloudy,1.7681935466223608
2/6/2012 11:00,1.9,-2.8,71,35,24.1,100.57,Cloudy,1.764139085711083
2/6/2012 12:00,2.6,-2.4,70,22,24.1,100.5,Cloudy,1.749795449017645
2/6/2012 13:00,2.6,-2.9,67,32,24.1,100.47,Cloudy,1.7462347784281946
2/6/2012 14:00,3.0,-3.3,63,33,24.1,100.45,Mostly Cloudy,1.7699756366463657
2/6/2012 15:00,3.3,-3.3,62,30,24.1,100.46,Cloudy,1.7624057672630689
2/6/2012 16:00,3.3,-3.1,63,17,24.1,100.47,Cloudy,1.7043643331470497
2/6/2012 17:00,2.9,-2.8,66,13,25.0,100.51,Cloudy,1.7477562834796434
2/6/2012 18:00,3.2,-2.8,65,11,25.0,100.57,Cloudy,1.7403770108895271
2/6/2012 19:00,3.1,-2.6,66,13,25.0,100.62,Cloudy,1.7499419425039096
2/6/2012 20:00,2.6,-2.6,69,11,25.0,100.65,Cloudy,1.7600840196270986
2/6/2012 21:00,3.0,-2.2,69,15,25.0,100.67,Cloudy,1.7574513442507547
2/6/2012 22:00,2.7,-2.6,68,13,25.0,100.68,Mostly Cloudy,1.7607874781158
2/6/2012 23:00,2.2,-2.9,69,13,25.0,100.7,Mostly Cloudy,1.7659061615858056
2/7/2012 0:00,1.9,-3.1,69,13,25.0,100.77,Cloudy,1.7564674876826165
2/7/2012 1:00,1.8,-3.4,68,15,25.0,100.82,Mostly Cloudy,1.751442968422638
2/7/2012 2:00,1.5,-4.4,65,15,25.0,100.89,Mostly Cloudy,1.7669089328765026
2/7/2012 3:00,0.8,-5.0,65,19,25.0,100.94,Snow Showers,1.7671159316491363
2/7/2012 4:00,-1.0,-8.3,58,19,25.0,101.03,Mostly Cloudy,1.7568862522059112
2/7/2012 5:00,-1.9,-8.4,61,15,25.0,101.14,Mainly Clear,1.7647466025508423
2/7/2012 6:00,-2.9,-8.8,64,20,25.0,101.27,Mostly Cloudy,1.7726907638643024
2/7/2012 7:00,-5.5,-12.6,57,17,24.1,101.39,Mainly Clear,1.7723768260550994
2/7/2012 8:00,-6.1,-12.8,59,17,24.1,101.53,Mainly Clear,1.771672557658056
2/7/2012 9:00,-6.2,-13.3,57,19,24.1,101.64,Mainly Clear,1.7177015210522448
2/7/2012 10:00,-6.2,-13.4,57,19,24.1,101.69,Mainly Clear,1.7618375086157543
2/7/2012 11:00,-6.0,-13.7,54,11,24.1,101.74,Mainly Clear,1.7712606000692683
2/7/2012 12:00,-5.6,-13.1,55,13,24.1,101.73,Mainly Clear,1.754444879695593
2/7/2012 13:00,-5.2,-14.3,49,15,24.1,101.73,Clear,1.7686653318216485
2/7/2012 14:00,-5.1,-15.1,45,15,24.1,101.79,Clear,1.772245762554051
2/7/2012 15:00,-4.8,-15.4,43,19,24.1,101.85,Clear,1.7723820654576656
2/7/2012 16:00,-5.0,-16.4,40,22,24.1,101.88,Clear,1.767577887632666
2/7/2012 17:00,-5.9,-17.6,39,19,48.3,101.94,Clear,1.765932346519717
2/7/2012 18:00,-7.3,-17.4,44,11,25.0,102.03,Clear,1.7718332403657269
2/7/2012 19:00,-8.2,-17.8,46,9,25.0,102.09,Clear,1.7295515422820416
2/7/2012 20:00,-9.2,-18.4,47,11,25.0,102.12,Clear,1.6834149463626735
2/7/2012 21:00,-9.6,-18.9,47,13,25.0,102.15,Clear,1.6804002788757988
2/7/2012 22:00,-10.8,-20.1,46,9,25.0,102.21,Clear,1.6839824820324918
2/7/2012 23:00,-11.8,-20.8,47,9,25.0,102.21,Clear,1.5
2/8/2012 0:00,-13.8,-21.5,52,4,25.0,102.21,Clear,1.6499999999999997
2/8/2012 1:00,-11.9,-20.6,48,9,25.0,102.21,Clear,1.5
2/8/2012 2:00,-12.1,-20.4,50,6,25.0,102.2,Clear,1.6722821615205776
2/8/2012 3:00,-12.4,-20.4,51,11,25.0,102.15,Clear,1.65
2/8/2012 4:00,-14.0,-21.0,55,4,25.0,102.13,Clear,1.6524507409216738
2/8/2012 5:00,-12.6,-21.2,49,0,25.0,102.11,Clear,1.5
2/8/2012 6:00,-12.4,-21.1,48,9,25.0,102.06,Mainly Clear,1.745932991974733
2/8/2012 7:00,-11.7,-18.0,59,15,24.1,102.07,Mainly Clear,1.672110259985864
2/8/2012 8:00,-10.8,-17.0,60,13,48.3,102.09,Mainly Clear,1.722280167024904
2/8/2012 9:00,-9.6,-15.1,64,15,48.3,102.07,Mainly Clear,1.6960454803096043
2/8/2012 10:00,-8.2,-14.6,60,17,48.3,102.04,Mainly Clear,1.7535693873605824
2/8/2012 11:00,-6.3,-13.7,56,17,48.3,101.93,Mainly Clear,1.7562888414755924
2/8/2012 12:00,-4.6,-12.9,52,20,48.3,101.76,Clear,1.76732085303755
2/8/2012 13:00,-3.3,-12.9,47,32,48.3,101.63,Clear,1.7349560973268414
2/8/2012 14:00,-2.4,-12.2,47,24,48.3,101.54,Mainly Clear,1.7705999634742562
2/8/2012 15:00,-1.8,-12.8,43,32,48.3,101.45,Mainly Clear,1.7138220814149352
2/8/2012 16:00,-1.6,-11.9,45,22,48.3,101.37,Mainly Clear,1.76942050794635
2/8/2012 17:00,-2.1,-12.0,47,17,48.3,101.31,Mainly Clear,1.7593097690363864
2/8/2012 18:00,-2.5,-12.6,46,19,24.1,101.27,Mainly Clear,1.766835508398956
2/8/2012 19:00,-3.2,-12.4,49,22,25.0,101.28,Clear,1.7702028146547713
2/8/2012 20:00,-3.3,-12.1,51,22,25.0,101.26,Clear,1.7687383678068926
2/8/2012 21:00,-3.1,-10.3,57,26,25.0,101.25,Mainly Clear,1.7628804587340619
2/8/2012 22:00,-3.6,-8.6,68,17,25.0,101.22,Mainly Clear,1.7683727259793898
2/8/2012 23:00,-3.6,-8.1,71,20,25.0,101.19,Clear,1.762835353549402
2/9/2012 0:00,-4.0,-8.3,72,13,25.0,101.17,Clear,1.773419928576887
2/9/2012 1:00,-3.4,-7.9,71,13,25.0,101.16,Clear,1.7635141353457984
2/9/2012 2:00,-3.9,-8.0,73,11,25.0,101.17,Clear,1.7660588020965864
2/9/2012 3:00,-3.5,-7.9,72,24,25.0,101.12,Clear,1.757708844150101
2/9/2012 4:00,-3.4,-8.0,70,26,25.0,101.1,Clear,1.7722798535816657
2/9/2012 5:00,-4.1,-8.3,73,20,25.0,101.11,Clear,1.7523099779114006
2/9/2012 6:00,-4.9,-8.9,73,20,25.0,101.13,Clear,1.7439832762665437
2/9/2012 7:00,-5.4,-9.1,75,17,24.1,101.19,Mainly Clear,1.770714321773174
2/9/2012 8:00,-4.9,-8.8,74,20,24.1,101.23,Clear,1.77399990077756
2/9/2012 9:00,-3.5,-8.0,71,22,24.1,101.25,Mainly Clear,1.7706611460528172
2/9/2012 10:00,-2.5,-7.8,67,28,24.1,101.26,Mainly Clear,1.760911889855325
2/9/2012 11:00,-1.2,-7.3,63,24,24.1,101.27,Clear,1.7728578435389915
2/9/2012 12:00,-0.1,-7.3,58,24,48.3,101.19,Clear,1.766497863248778
2/9/2012 13:00,0.7,-7.1,56,26,48.3,101.13,Clear,1.753980735606421
2/9/2012 14:00,1.5,-6.3,56,30,24.1,101.05,Clear,1.7708949349168077
2/9/2012 15:00,2.4,-6.2,53,24,48.3,101.03,Clear,1.7370449795874672
2/9/2012 16:00,2.7,-6.5,51,22,48.3,101.01,Clear,1.7316067157239867
2/9/2012 17:00,2.0,-6.3,54,20,48.3,101.02,Clear,1.7579086461912172
2/9/2012 18:00,1.6,-6.6,54,22,24.1,101.06,Clear,1.7370128238235305
2/9/2012 19:00,0.4,-5.9,63,20,25.0,101.1,Clear,1.7708790099095726
2/9/2012 20:00,0.5,-6.6,59,17,25.0,101.11,Clear,1.758882645537999
2/9/2012 21:00,0.2,-5.5,65,22,25.0,101.13,Clear,1.771027557270819
2/9/2012 22:00,0.8,-4.7,67,28,25.0,101.11,Clear,1.7715063689236825
2/9/2012 23:00,0.1,-4.9,69,26,25.0,101.1,Clear,1.7731730583184264
2/10/2012 0:00,0.4,-3.5,75,22,25.0,101.12,Clear,1.7719148121516772
2/10/2012 1:00,0.1,-4.1,73,19,25.0,101.13,Clear,1.7616320918030242
2/10/2012 2:00,0.0,-4.3,73,22,25.0,101.15,Clear,1.7712844072561187
2/10/2012 3:00,-1.0,-4.3,78,17,25.0,101.13,Clear,1.773290063885401
2/10/2012 4:00,-0.8,-4.4,77,20,25.0,101.1,Clear,1.770026456584852
2/10/2012 5:00,-0.8,-4.3,77,22,25.0,101.07,Clear,1.7619742044397393
2/10/2012 6:00,-0.7,-4.0,78,22,25.0,101.07,Clear,1.7668009353224887
2/10/2012 7:00,-0.5,-3.9,78,20,24.1,101.09,Mostly Cloudy,1.7680630601463705
2/10/2012 8:00,-0.9,-4.2,78,17,24.1,101.12,Mostly Cloudy,1.7718779805041622
2/10/2012 9:00,-0.1,-3.5,78,19,24.1,101.12,Cloudy,1.7634917379512307
2/10/2012 10:00,0.9,-3.7,71,28,24.1,101.1,Mostly Cloudy,1.748761930746562
2/10/2012 11:00,1.4,-4.1,67,20,24.1,101.08,Cloudy,1.7614262259934463
2/10/2012 12:00,1.4,-3.9,68,24,24.1,100.97,Cloudy,1.7561389108049392
2/10/2012 13:00,1.3,-4.7,64,24,24.1,100.92,Cloudy,1.7615177774347146
2/10/2012 14:00,1.1,-3.5,71,30,24.1,100.91,Cloudy,1.7691352005153202
2/10/2012 15:00,1.3,-4.0,68,28,24.1,100.94,Cloudy,1.759520279267009
2/10/2012 16:00,1.0,-4.1,69,30,24.1,100.9,Cloudy,1.7726907638643024
2/10/2012 17:00,0.9,-4.8,66,22,25.0,100.87,Cloudy,1.758840298554381
2/10/2012 18:00,0.4,-4.8,68,17,25.0,100.92,Cloudy,1.7618785382279138
2/10/2012 19:00,0.0,-5.2,68,17,25.0,100.91,Mostly Cloudy,1.7670124908029878
2/10/2012 20:00,-0.2,-5.2,69,15,25.0,100.88,Snow Showers,1.7683374549860111
2/10/2012 21:00,-0.4,-4.7,73,13,25.0,100.84,Cloudy,1.7708051066055468
2/10/2012 22:00,-0.7,-3.0,84,11,16.1,100.78,Snow,1.7483983249034645
2/10/2012 23:00,-0.9,-2.4,90,6,9.7,100.76,"Snow,Fog",1.7619195499506202
2/11/2012 0:00,-1.4,-2.3,94,9,6.4,100.78,"Snow,Fog",1.7714667645138114
2/11/2012 1:00,-7.4,-8.9,89,24,3.6,100.83,Snow,1.7590894054480448
2/11/2012 2:00,-8.6,-11.0,83,30,8.0,100.91,Snow,1.7500413949633615
2/11/2012 3:00,-9.5,-12.4,79,22,6.4,100.93,Snow,1.7357508862871274
2/11/2012 4:00,-10.8,-13.4,81,22,16.1,100.98,Snow,1.7408722768108806
2/11/2012 5:00,-11.5,-14.4,79,20,16.1,100.99,Snow,1.7357508862871274
2/11/2012 6:00,-12.2,-14.8,81,24,9.7,101.0,Snow,1.7408722768108806
2/11/2012 7:00,-13.0,-15.7,80,20,12.9,100.96,Snow,1.7383226557949913
2/11/2012 8:00,-13.7,-17.1,75,20,16.1,101.01,Snow,1.7241591468416737
2/11/2012 9:00,-13.7,-19.1,64,20,24.1,101.04,Cloudy,1.7473514814624291
2/11/2012 10:00,-13.4,-18.8,64,19,24.1,101.05,Snow,1.727028784563409
2/11/2012 11:00,-13.1,-18.8,62,11,24.1,101.03,Snow,1.761022340799074
2/11/2012 12:00,-12.8,-17.2,70,9,19.3,100.97,Snow,1.7649629264565805
2/11/2012 13:00,-12.1,-16.4,70,7,24.1,100.85,Mostly Cloudy,1.7091525423728813
2/11/2012 14:00,-11.3,-17.4,61,6,48.3,100.76,Mainly Clear,1.7696568317707473
2/11/2012 15:00,-10.8,-18.8,52,11,48.3,100.73,Mainly Clear,1.7695843748545113
2/11/2012 16:00,-10.4,-18.3,52,6,48.3,100.7,Mainly Clear,1.7222143733006345
2/11/2012 17:00,-10.5,-17.0,59,4,25.0,100.68,Mainly Clear,1.712446361145226
2/11/2012 18:00,-12.8,-17.9,66,4,25.0,100.72,Clear,1.7636752379265075
2/11/2012 19:00,-14.0,-21.2,54,7,25.0,100.74,Clear,1.6995718302844807
2/11/2012 20:00,-14.4,-19.9,63,9,25.0,100.73,Clear,1.6856696145686971
2/11/2012 21:00,-13.9,-18.6,68,7,25.0,100.71,Clear,1.765901796705832
2/11/2012 22:00,-13.5,-18.2,68,6,25.0,100.7,Clear,1.7453009683535037
2/11/2012 23:00,-14.5,-20.8,59,13,25.0,100.68,Clear,1.6835687021244783
2/12/2012 0:00,-15.0,-22.4,53,11,25.0,100.66,Clear,1.6500000000000004
2/12/2012 1:00,-15.3,-23.1,51,11,25.0,100.62,Mostly Cloudy,1.7603947403336702
2/12/2012 2:00,-15.9,-23.7,51,6,25.0,100.6,Clear,1.739189448263861
2/12/2012 3:00,-16.8,-23.9,54,9,25.0,100.57,Mainly Clear,1.6499999999999997
2/12/2012 4:00,-16.6,-23.8,54,11,25.0,100.6,Cloudy,1.6499999999999997
2/12/2012 5:00,-16.4,-22.8,58,11,25.0,100.59,Snow,1.7138908791805498
2/12/2012 6:00,-16.7,-23.3,57,15,25.0,100.6,Snow,1.6648421508897826
2/12/2012 7:00,-16.7,-23.5,56,19,24.1,100.64,Snow,1.7044114181478187
2/12/2012 8:00,-16.9,-24.1,54,17,24.1,100.68,Cloudy,1.7733515517227756
2/12/2012 9:00,-16.7,-24.6,50,17,24.1,100.72,Snow,0.9344008199497583
2/12/2012 10:00,-16.6,-25.1,48,17,48.3,100.73,Mostly Cloudy,0.9571196200050814
2/12/2012 11:00,-16.1,-25.3,45,20,48.3,100.72,Mainly Clear,1.729008112608585
2/12/2012 12:00,-14.8,-23.8,46,24,48.3,100.61,Mainly Clear,1.7075255746501774
2/12/2012 13:00,-13.9,-23.2,45,20,48.3,100.55,Mainly Clear,1.754851330661817
2/12/2012 14:00,-13.2,-23.0,44,26,48.3,100.52,Mainly Clear,1.7555076336633557
2/12/2012 15:00,-12.5,-22.8,42,28,48.3,100.51,Mainly Clear,1.7541800164698114
2/12/2012 16:00,-12.0,-21.9,44,32,48.3,100.54,Mainly Clear,1.7698364355757532
2/12/2012 17:00,-12.0,-22.1,43,26,25.0,100.56,Mainly Clear,1.6931355265485861
2/12/2012 18:00,-12.3,-20.1,52,24,25.0,100.57,Mostly Cloudy,1.6683478098743996
2/12/2012 19:00,-11.9,-19.3,54,24,25.0,100.58,Mostly Cloudy,1.7488985756420843
2/12/2012 20:00,-11.3,-18.9,53,22,25.0,100.58,Cloudy,1.7735522373795845
2/12/2012 21:00,-10.8,-18.8,52,24,25.0,100.55,Cloudy,1.6757781336769966
2/12/2012 22:00,-10.6,-17.9,55,26,25.0,100.55,Cloudy,1.6885174813758652
2/12/2012 23:00,-10.3,-17.3,56,20,25.0,100.53,Cloudy,1.7211123329261395
2/13/2012 0:00,-10.0,-16.3,60,19,25.0,100.48,Snow,1.7364048696321859
2/13/2012 1:00,-9.4,-16.5,56,22,25.0,100.37,Cloudy,1.672785382544321
2/13/2012 2:00,-8.8,-15.7,57,24,25.0,100.33,Cloudy,1.7162387071828438
2/13/2012 3:00,-8.8,-14.6,63,20,25.0,100.31,Cloudy,1.7123831434695664
2/13/2012 4:00,-8.4,-14.6,61,20,25.0,100.3,Cloudy,1.7103439689950712
2/13/2012 5:00,-8.0,-15.0,57,22,25.0,100.33,Cloudy,1.704618042544624
2/13/2012 6:00,-7.9,-14.5,59,22,25.0,100.37,Cloudy,1.7158757786591294
2/13/2012 7:00,-7.9,-14.5,59,22,24.1,100.44,Cloudy,1.7557023102357878
2/13/2012 8:00,-8.0,-13.5,65,24,48.3,100.54,Cloudy,1.7598095554189033
2/13/2012 9:00,-7.5,-14.6,57,20,48.3,100.56,Cloudy,1.7495251523262616
2/13/2012 10:00,-6.8,-19.1,37,26,48.3,100.59,Mostly Cloudy,0.9772817230654458
2/13/2012 11:00,-6.5,-13.0,60,20,48.3,100.59,Cloudy,1.7670642258486908
2/13/2012 12:00,-5.2,-13.1,54,17,48.3,100.56,Mostly Cloudy,0.9472289954341503
2/13/2012 13:00,-4.9,-14.0,49,24,48.3,100.52,Mostly Cloudy,1.7723480050288933
2/13/2012 14:00,-4.3,-13.4,49,22,48.3,100.52,Cloudy,1.6909252709104456
2/13/2012 15:00,-3.4,-12.4,50,24,48.3,100.54,Cloudy,1.7731652536529698
2/13/2012 16:00,-3.4,-12.8,48,24,48.3,100.56,Cloudy,1.771384871878403
2/13/2012 17:00,-3.6,-13.7,45,15,24.1,100.6,Mostly Cloudy,1.75058313365997
2/13/2012 18:00,-4.9,-13.4,51,0,25.0,100.64,Mostly Cloudy,1.7690839858671785
2/13/2012 19:00,-5.6,-12.0,61,15,25.0,100.69,Mostly Cloudy,1.7697748121175434
2/13/2012 20:00,-7.2,-12.0,69,7,25.0,100.73,Cloudy,1.766245985700374
2/13/2012 21:00,-7.5,-12.1,70,11,19.3,100.76,Snow,1.733181786959219
2/13/2012 22:00,-9.0,-12.9,73,13,25.0,100.78,Cloudy,1.7549316191238118
2/13/2012 23:00,-10.8,-14.8,72,19,25.0,100.8,Cloudy,1.7286158759830907
2/14/2012 0:00,-11.8,-15.6,73,15,25.0,100.83,Mostly Cloudy,1.7582997503546607
2/14/2012 1:00,-11.9,-16.0,72,13,25.0,100.86,Mainly Clear,1.7380022672118183
2/14/2012 2:00,-12.9,-17.9,66,11,25.0,100.93,Mainly Clear,1.7519917333068913
2/14/2012 3:00,-13.2,-19.1,61,9,25.0,100.96,Mostly Cloudy,1.6768881290465567
2/14/2012 4:00,-13.4,-19.4,61,11,25.0,101.01,Mostly Cloudy,1.7596650272552894
2/14/2012 5:00,-13.4,-19.7,59,4,25.0,101.03,Mostly Cloudy,1.6971430088904438
2/14/2012 6:00,-14.2,-19.6,64,6,25.0,101.04,Mainly Clear,1.7517178585824573
2/14/2012 7:00,-13.7,-19.9,59,7,24.1,101.07,Mainly Clear,1.7450641807735563
2/14/2012 8:00,-13.6,-20.0,58,9,24.1,101.12,Mainly Clear,1.7456981367046698
2/14/2012 9:00,-11.6,-18.0,59,4,24.1,101.12,Mainly Clear,1.7524572695907719
2/14/2012 10:00,-8.8,-14.3,64,4,24.1,101.15,Mainly Clear,1.7699676103923
2/14/2012 11:00,-5.0,-10.6,65,0,19.3,101.14,Mostly Cloudy,1.7713134981998269
2/14/2012 12:00,-3.2,-8.3,68,4,24.1,101.09,Cloudy,1.7301408087651298
2/14/2012 13:00,-2.1,-6.5,72,4,24.1,101.02,Cloudy,1.7695064999679622
2/14/2012 14:00,0.1,-5.1,68,9,24.1,100.98,Mostly Cloudy,1.754052760941351
2/14/2012 15:00,1.1,-5.3,62,9,24.1,100.98,Mostly Cloudy,1.6787119499643277
2/14/2012 16:00,2.3,-4.9,59,7,24.1,100.97,Mostly Cloudy,1.731578455739832
2/14/2012 17:00,1.1,-3.7,70,9,24.1,101.01,Mostly Cloudy,1.753206151274451
2/14/2012 18:00,1.3,-3.9,68,9,25.0,101.08,Cloudy,1.3579319565140906
2/14/2012 19:00,1.8,-6.1,56,7,25.0,101.13,Cloudy,1.7116656025102792
2/14/2012 20:00,-0.2,-5.1,69,4,25.0,101.16,Mostly Cloudy,1.7056195602958193
2/14/2012 21:00,-0.6,-6.0,67,7,25.0,101.18,Mainly Clear,1.760690600185865
2/14/2012 22:00,-0.5,-5.7,68,0,25.0,101.21,Cloudy,1.7517978433529129
2/14/2012 23:00,-1.2,-5.6,72,0,25.0,101.22,Cloudy,1.76610236719026
2/15/2012 0:00,-1.9,-5.6,76,4,25.0,101.26,Cloudy,1.767531444725013
2/15/2012 1:00,-1.8,-5.2,78,4,25.0,101.31,Cloudy,1.7694366363375102
2/15/2012 2:00,-1.2,-5.2,74,0,25.0,101.33,Cloudy,1.7600422034192909
2/15/2012 3:00,-1.6,-5.4,75,4,25.0,101.36,Cloudy,1.755522247937295
2/15/2012 4:00,-0.7,-3.5,81,0,25.0,101.39,Snow,1.7408722768108806
2/15/2012 5:00,-1.3,-3.0,88,7,4.8,101.45,Snow,1.7697372860279816
2/15/2012 6:00,-1.0,-2.3,91,0,4.8,101.48,Snow,1.7703202365088602
2/15/2012 7:00,-0.3,-1.6,91,4,6.4,101.51,Snow,1.762772169746578
2/15/2012 8:00,0.1,-1.5,89,4,4.8,101.57,Snow,1.7725600617432191
2/15/2012 9:00,0.6,-1.2,88,4,3.2,101.61,Snow,1.7735833464094088
2/15/2012 10:00,1.0,-0.7,88,0,6.4,101.62,Snow,1.7571931537828946
2/15/2012 11:00,2.0,-0.2,85,0,8.0,101.65,Snow,1.7715934503256543
2/15/2012 12:00,2.1,-0.3,84,0,9.7,101.67,Snow,1.7733498201275533
2/15/2012 13:00,1.7,-0.3,87,6,9.7,101.67,Snow,1.7665672252391273
2/15/2012 14:00,1.5,0.0,90,7,9.7,101.68,Snow,1.768932905161936
2/15/2012 15:00,1.9,0.1,88,6,12.9,101.72,Cloudy,1.7690651115842395
2/15/2012 16:00,2.2,0.2,87,6,12.9,101.75,Rain,1.7677607467810565
2/15/2012 17:00,2.1,0.3,88,6,11.3,101.8,Rain,1.768356448394035
2/15/2012 18:00,1.5,0.2,91,7,9.7,101.85,Rain,1.7702054846665898
2/15/2012 19:00,1.5,0.2,91,7,9.7,101.89,Rain,1.7697989295740575
2/15/2012 20:00,1.5,0.2,91,7,6.4,101.91,Rain,1.7716962791735171
2/15/2012 21:00,1.3,0.1,92,13,8.0,101.95,Snow,1.7735859384427441
2/15/2012 22:00,1.2,0.0,92,7,6.4,101.98,Fog,1.7712817622578645
2/15/2012 23:00,1.4,0.0,90,7,8.0,101.97,Fog,1.7724449194800636
2/16/2012 0:00,0.8,-0.4,92,9,9.7,101.96,Fog,1.7720226078773498
2/16/2012 1:00,1.1,-0.5,89,7,12.9,102.0,Cloudy,1.7728056575314568
2/16/2012 2:00,0.7,-0.8,90,4,12.9,101.97,Cloudy,1.7709082040652255
2/16/2012 3:00,0.7,-0.7,90,6,25.0,101.94,Cloudy,1.7677825614819898
2/16/2012 4:00,0.9,-0.7,89,7,12.9,101.94,Cloudy,1.7740954141590728
2/16/2012 5:00,0.7,-0.9,89,4,12.9,101.92,Cloudy,1.7712553089102192
2/16/2012 6:00,1.3,-0.9,85,6,12.9,101.93,Cloudy,1.770493481199704
2/16/2012 7:00,1.7,-0.9,83,7,12.9,101.96,Cloudy,1.7698069676034027
2/16/2012 8:00,1.2,-1.2,84,7,16.1,101.95,Cloudy,1.7697453283626963
2/16/2012 9:00,1.8,-1.3,80,0,16.1,101.91,Mostly Cloudy,1.7728395811636168
2/16/2012 10:00,2.7,-1.1,76,11,24.1,101.83,Mainly Clear,1.771220910408789
2/16/2012 11:00,3.3,-2.1,68,11,24.1,101.76,Mostly Cloudy,1.7242787315920585
2/16/2012 12:00,3.6,-3.1,62,19,24.1,101.65,Mostly Cloudy,1.7666235432578252
2/16/2012 13:00,3.3,-2.7,65,19,24.1,101.53,Mostly Cloudy,1.7609533240859419
2/16/2012 14:00,3.5,-2.7,64,19,24.1,101.39,Mostly Cloudy,1.7495133782269348
2/16/2012 15:00,3.6,-2.8,63,19,24.1,101.29,Mostly Cloudy,1.7452200435670875
2/16/2012 16:00,3.7,-2.5,64,15,24.1,101.22,Cloudy,1.7471027033596185
2/16/2012 17:00,3.6,-2.7,63,15,24.1,101.17,Cloudy,1.7369806497463294
2/16/2012 18:00,3.0,-2.1,69,19,24.1,101.13,Rain,1.749707415552374
2/16/2012 19:00,2.5,-1.4,75,17,25.0,101.02,Rain,1.7241591468416737
2/16/2012 20:00,1.7,-0.7,84,17,16.1,100.94,Rain,1.7531332876992771
2/16/2012 21:00,1.5,-0.5,87,15,25.0,100.88,Rain,1.755244623603565
2/16/2012 22:00,1.5,-0.6,86,17,12.9,100.8,Rain,1.7618420683453433
2/16/2012 23:00,1.3,-0.3,89,19,16.1,100.71,Rain,1.7590894054480448
2/17/2012 0:00,1.3,-0.3,89,19,12.9,100.64,Rain,1.7590894054480448
2/17/2012 1:00,1.3,-0.2,90,19,12.9,100.57,Rain,1.7609487211792867
2/17/2012 2:00,1.3,0.1,92,17,9.7,100.5,Rain,1.7676679885590165
2/17/2012 3:00,1.4,0.2,92,19,12.9,100.45,Rain,1.764560779079539
2/17/2012 4:00,2.3,1.1,92,20,8.0,100.47,Drizzle,1.765586980465401
2/17/2012 5:00,2.8,1.6,92,24,12.9,100.49,Cloudy,1.764560779079539
2/17/2012 6:00,3.0,0.9,86,30,16.1,100.54,Cloudy,1.7610315392202118
2/17/2012 7:00,3.0,-0.3,79,24,24.1,100.58,Mostly Cloudy,1.752874880906175
2/17/2012 8:00,2.8,-1.2,75,32,24.1,100.67,Cloudy,1.76062134090503
2/17/2012 9:00,2.3,-2.4,71,32,24.1,100.74,Mostly Cloudy,1.7652622953761372
2/17/2012 10:00,2.5,-3.0,67,41,48.3,100.76,Mostly Cloudy,1.7519518562706136
2/17/2012 11:00,2.6,-4.0,62,32,48.3,100.77,Cloudy,1.3623469017683094
2/17/2012 12:00,2.6,-4.1,61,24,24.1,100.71,Cloudy,1.7544558947842732
2/17/2012 13:00,3.0,-4.3,59,22,24.1,100.66,Mostly Cloudy,1.7471513090830662
2/17/2012 14:00,3.5,-5.1,53,28,24.1,100.62,Mostly Cloudy,1.70621225102471
2/17/2012 15:00,3.0,-4.4,58,30,24.1,100.63,Mostly Cloudy,1.765700788233788
2/17/2012 16:00,3.1,-4.9,56,26,24.1,100.64,Cloudy,1.735235528267447
2/17/2012 17:00,2.6,-3.9,62,26,24.1,100.66,Mostly Cloudy,1.761650369235256
2/17/2012 18:00,2.3,-3.7,64,22,25.0,100.69,Mostly Cloudy,1.7648923456504557
2/17/2012 19:00,2.0,-3.5,67,28,25.0,100.68,Mostly Cloudy,1.7557752135129712
2/17/2012 20:00,1.8,-3.4,68,24,25.0,100.68,Mostly Cloudy,1.7458218339237046
2/17/2012 21:00,1.7,-3.6,68,19,25.0,100.7,Mostly Cloudy,1.7368711206897829
2/17/2012 22:00,1.2,-3.9,69,15,25.0,100.72,Mainly Clear,1.7651127321005977
2/17/2012 23:00,0.9,-4.1,69,26,25.0,100.7,Mainly Clear,1.7709957419108828
2/18/2012 0:00,0.7,-3.9,71,24,25.0,100.71,Mainly Clear,1.768970693869048
2/18/2012 1:00,0.7,-4.5,68,22,25.0,100.71,Mainly Clear,1.7562308313155772
2/18/2012 2:00,0.3,-4.4,71,22,25.0,100.74,Mainly Clear,1.7677416555553451
2/18/2012 3:00,0.3,-4.7,69,26,25.0,100.72,Mostly Cloudy,1.7706292287797905
2/18/2012 4:00,-0.3,-4.9,71,22,25.0,100.74,Mostly Cloudy,1.7677416555553451
2/18/2012 5:00,-0.6,-5.1,72,19,25.0,100.79,Cloudy,1.7171890265307421
2/18/2012 6:00,-0.2,-5.0,70,20,25.0,100.82,Mostly Cloudy,1.754807499485641
2/18/2012 7:00,-0.6,-5.2,71,24,25.0,100.84,Mostly Cloudy,1.7711812069724353
2/18/2012 8:00,-0.6,-5.3,70,19,24.1,100.85,Mostly Cloudy,1.7546593736304559
2/18/2012 9:00,-0.6,-5.4,70,24,48.3,100.85,Mainly Clear,1.7533069200273237
2/18/2012 10:00,0.1,-5.3,67,24,48.3,100.83,Cloudy,1.7178686296472794
2/18/2012 11:00,0.5,-5.1,66,17,48.3,100.81,Cloudy,1.1750318113220146
2/18/2012 12:00,1.1,-5.7,60,15,48.3,100.75,Mostly Cloudy,1.7502690532503846
2/18/2012 13:00,1.8,-6.1,56,20,48.3,100.7,Mostly Cloudy,1.753880890778783
2/18/2012 14:00,1.2,-5.4,61,15,48.3,100.7,Mostly Cloudy,1.7249836191052415
2/18/2012 15:00,1.5,-5.8,58,19,48.3,100.71,Mostly Cloudy,1.7443683419594622
2/18/2012 16:00,1.5,-6.3,56,19,48.3,100.73,Mostly Cloudy,1.7004161486640659
2/18/2012 17:00,1.0,-6.2,59,13,48.3,100.78,Mostly Cloudy,1.7404895411746029
2/18/2012 18:00,0.8,-6.9,56,15,25.0,100.88,Mostly Cloudy,1.7606536682081892
2/18/2012 19:00,-0.6,-7.8,58,11,25.0,100.99,Mainly Clear,1.760985538157743
2/18/2012 20:00,-1.7,-7.8,63,11,25.0,101.09,Clear,1.7024078051906848
2/18/2012 21:00,-2.4,-8.1,65,9,25.0,101.16,Clear,1.7592160595067887
2/18/2012 22:00,-3.5,-8.3,69,9,25.0,101.21,Clear,1.7703255710146786
2/18/2012 23:00,-3.9,-8.7,69,9,25.0,101.29,Clear,1.7221567481610451
2/19/2012 0:00,-3.9,-8.8,69,13,25.0,101.37,Clear,1.7083679065186574
2/19/2012 1:00,-4.5,-9.8,66,19,25.0,101.46,Mainly Clear,1.7540029048184376
2/19/2012 2:00,-5.2,-10.2,68,9,25.0,101.49,Mainly Clear,1.7591363339611714
2/19/2012 3:00,-6.0,-10.3,72,0,25.0,101.43,Clear,1.7723794457865327
2/19/2012 4:00,-5.8,-10.5,69,7,25.0,101.44,Mainly Clear,1.7056195602958193
2/19/2012 5:00,-5.9,-9.7,74,9,25.0,101.48,Mainly Clear,1.7581554456141146
2/19/2012 6:00,-6.7,-10.3,76,6,25.0,101.5,Clear,1.7563226646980976
2/19/2012 7:00,-6.3,-10.5,72,7,25.0,101.53,Mainly Clear,1.7154802667147235
2/19/2012 8:00,-5.8,-9.9,73,7,24.1,101.57,Mostly Cloudy,1.7734971274948823
2/19/2012 9:00,-5.2,-9.7,71,9,24.1,101.59,Mostly Cloudy,1.7712182639416942
2/19/2012 10:00,-4.7,-9.7,68,15,48.3,101.59,Cloudy,1.7710089993852682
2/19/2012 11:00,-4.0,-9.1,68,17,48.3,101.59,Mostly Cloudy,1.7570206417820826
2/19/2012 12:00,-3.2,-9.0,64,17,48.3,101.56,Mainly Clear,1.7703282381746648
2/19/2012 13:00,-2.7,-8.6,64,19,48.3,101.51,Mainly Clear,1.771609276177091
2/19/2012 14:00,-2.3,-9.5,58,15,48.3,101.45,Clear,1.7664241086345969
2/19/2012 15:00,-1.6,-9.3,56,17,48.3,101.43,Clear,1.7622379206447754
2/19/2012 16:00,-1.6,-9.7,54,20,48.3,101.37,Clear,1.741783391501705
2/19/2012 17:00,-2.1,-9.8,56,15,48.3,101.36,Clear,1.7289158325718543
2/19/2012 18:00,-2.9,-9.8,59,13,48.3,101.39,Clear,1.7714720458950144
2/19/2012 19:00,-3.2,-10.0,59,15,25.0,101.43,Clear,1.7674111533198205
2/19/2012 20:00,-3.8,-10.1,62,13,25.0,101.47,Clear,1.774005065727895
2/19/2012 21:00,-4.8,-10.0,67,11,25.0,101.51,Clear,1.5042422077362136
2/19/2012 22:00,-5.4,-10.2,69,9,25.0,101.52,Clear,1.7724737159740644
2/19/2012 23:00,-6.3,-11.8,65,7,25.0,101.52,Clear,1.6929583486014415
2/20/2012 0:00,-6.7,-12.4,64,4,25.0,101.55,Clear,1.762210673967819
2/20/2012 1:00,-7.6,-12.6,67,0,25.0,101.63,Clear,1.698763522260988
2/20/2012 2:00,-8.8,-12.3,76,4,25.0,101.66,Clear,1.7536919219668814
2/20/2012 3:00,-8.8,-12.7,73,7,25.0,101.68,Clear,1.7605180505163203
2/20/2012 4:00,-9.8,-13.0,77,6,25.0,101.69,Clear,1.7598212013523735
2/20/2012 5:00,-10.2,-13.7,75,6,25.0,101.77,Clear,1.7241591468416737
2/20/2012 6:00,-10.7,-14.3,75,4,25.0,101.81,Clear,1.7241591468416737
2/20/2012 7:00,-11.0,-14.4,76,4,24.1,101.87,Clear,1.7272721454173066
2/20/2012 8:00,-9.9,-14.4,70,4,48.3,101.98,Mainly Clear,1.753520130090546
2/20/2012 9:00,-8.7,-14.1,65,6,48.3,102.04,Mostly Cloudy,1.758845004701483
2/20/2012 10:00,-8.0,-13.7,64,9,48.3,102.07,Mostly Cloudy,1.727627840416174
2/20/2012 11:00,-7.1,-13.3,61,9,48.3,102.09,Mostly Cloudy,1.7582596699485082
2/20/2012 12:00,-6.0,-12.1,62,11,48.3,102.1,Mostly Cloudy,1.722640824875655
2/20/2012 13:00,-4.7,-11.7,58,20,48.3,102.08,Mostly Cloudy,1.7498540807220149
2/20/2012 14:00,-3.1,-10.5,57,17,48.3,102.07,Mainly Clear,1.772046256717128
2/20/2012 15:00,-2.0,-9.7,56,19,48.3,102.07,Mostly Cloudy,1.7634827774869422
2/20/2012 16:00,-1.8,-8.5,60,20,48.3,102.06,Mainly Clear,1.7663242285602299
2/20/2012 17:00,-1.9,-8.9,59,17,48.3,102.08,Clear,1.7652095359761197
2/20/2012 18:00,-3.2,-8.8,65,9,48.3,102.1,Clear,1.7684215450124412
2/20/2012 19:00,-3.6,-8.7,68,7,25.0,102.13,Clear,1.731337700064715
2/20/2012 20:00,-4.0,-9.0,68,6,25.0,102.16,Mainly Clear,1.7284895249890968
2/20/2012 21:00,-3.5,-8.9,66,6,25.0,102.18,Clear,1.7415278703086836
2/20/2012 22:00,-3.3,-8.8,66,0,25.0,102.2,Clear,1.7286826613639232
2/20/2012 23:00,-5.8,-9.3,76,4,25.0,102.2,Clear,1.7272721454173066
2/21/2012 0:00,-4.0,-8.1,73,9,25.0,102.21,Clear,1.7334972574008862
2/21/2012 1:00,-4.3,-8.4,73,6,25.0,102.18,Clear,1.7424108566623566
2/21/2012 2:00,-4.1,-8.1,74,7,25.0,102.21,Clear,1.724967865763414
2/21/2012 3:00,-5.3,-8.9,76,4,25.0,102.19,Clear,1.7272721454173066
2/21/2012 4:00,-5.2,-8.2,79,4,25.0,102.12,Clear,1.7357508862871274
2/21/2012 5:00,-6.1,-8.6,82,7,25.0,102.05,Mainly Clear,1.7434626346010758
2/21/2012 6:00,-6.1,-8.9,81,6,25.0,102.03,Mainly Clear,1.7586188479505125
2/21/2012 7:00,-6.2,-9.1,80,7,48.3,102.03,Mainly Clear,1.773733586305341
2/21/2012 8:00,-5.0,-8.2,78,7,48.3,101.98,Mostly Cloudy,1.7635320493887179
2/21/2012 9:00,-3.1,-7.2,73,9,48.3,101.87,Mostly Cloudy,1.7579086461912172
2/21/2012 10:00,-1.4,-7.0,66,11,48.3,101.72,Mostly Cloudy,1.7542187023774622
2/21/2012 11:00,-0.1,-6.2,63,15,48.3,101.55,Cloudy,1.7630658058551847
2/21/2012 12:00,0.0,-6.8,60,19,48.3,101.38,Cloudy,1.7691908818884061
2/21/2012 13:00,1.0,-6.2,59,24,48.3,101.19,Cloudy,1.7659585240057605
2/21/2012 14:00,1.9,-6.2,55,22,48.3,100.95,Mostly Cloudy,1.7421327427540478
2/21/2012 15:00,2.2,-5.8,55,19,48.3,100.82,Cloudy,1.7312240642213896
2/21/2012 16:00,2.0,-5.9,56,17,48.3,100.66,Cloudy,1.7204529770452142
2/21/2012 17:00,2.2,-6.4,53,9,48.3,100.59,Cloudy,1.7329129815232256
2/21/2012 18:00,1.9,-6.1,55,9,25.0,100.54,Cloudy,1.739183260401856
2/21/2012 19:00,2.1,-6.5,53,0,25.0,100.5,Cloudy,1.7349027180365693
2/21/2012 20:00,-0.2,-4.9,71,4,25.0,100.43,Cloudy,1.712430565280306
2/21/2012 21:00,-0.5,-4.9,72,6,25.0,100.4,Cloudy,1.7493542473548207
2/21/2012 22:00,-0.6,-4.5,75,6,25.0,100.35,Snow,1.7662503342746856
2/21/2012 23:00,0.5,-4.4,70,0,25.0,100.2,Cloudy,1.751649231459863
2/22/2012 0:00,0.5,-2.1,83,19,9.7,100.1,Snow,1.7695816903895942
2/22/2012 1:00,0.8,-2.2,80,15,12.9,99.97,Snow,1.7712262031593025
2/22/2012 2:00,1.4,-2.5,75,19,12.9,99.87,Snow,1.773061140101762
2/22/2012 3:00,1.3,-1.5,82,20,9.7,99.77,"Rain,Snow",1.7737724090059888
2/22/2012 4:00,1.2,-1.0,85,15,12.9,99.68,Rain,1.7593589296974532
2/22/2012 5:00,1.4,-0.6,87,15,9.7,99.64,Rain,1.755244623603565
2/22/2012 6:00,1.5,-0.3,88,13,12.9,99.59,Rain,1.765249108350703
2/22/2012 7:00,1.6,0.1,90,15,6.4,99.57,"Rain,Fog",1.7614994742587802
2/22/2012 8:00,2.6,0.9,89,17,19.3,99.57,Rain,1.7590894054480448
2/22/2012 9:00,2.9,0.7,85,26,24.1,99.57,Cloudy,1.7537030513082423
2/22/2012 10:00,4.0,1.2,82,28,24.1,99.54,Mostly Cloudy,1.746504764641815
2/22/2012 11:00,4.6,0.4,74,26,24.1,99.56,Mostly Cloudy,1.7516721142244447
2/22/2012 12:00,5.2,-0.6,66,28,24.1,99.52,Mostly Cloudy,1.7241671262355556
2/22/2012 13:00,5.8,-1.1,61,22,24.1,99.4,Mostly Cloudy,1.7222143733006345
2/22/2012 14:00,6.1,-1.4,59,17,24.1,99.32,Mostly Cloudy,1.7441413202799245
2/22/2012 15:00,5.4,-1.4,62,28,24.1,99.3,Rain Showers,1.5660827973063565
2/22/2012 16:00,2.9,0.3,83,19,24.1,99.31,Mainly Clear,1.7618420683453435
2/22/2012 17:00,2.6,0.1,84,19,24.1,99.29,Mostly Cloudy,1.7605890025614348
2/22/2012 18:00,2.4,-0.2,83,9,24.1,99.33,Mostly Cloudy,1.757105977949006
2/22/2012 19:00,1.9,-0.2,86,6,25.0,99.34,Mainly Clear,1.7637467497613106
2/22/2012 20:00,1.6,-0.8,84,13,25.0,99.32,Mostly Cloudy,1.7650907170733927
2/22/2012 21:00,2.3,-0.9,79,15,25.0,99.33,Mostly Cloudy,1.7677907409383102
2/22/2012 22:00,2.7,-0.8,78,15,25.0,99.26,Cloudy,1.7621516123648053
2/22/2012 23:00,2.6,-1.0,77,13,25.0,99.27,Cloudy,1.7600189642349147
2/23/2012 0:00,2.3,-0.9,79,20,25.0,99.23,Rain Showers,1.768649095337456
2/23/2012 1:00,1.7,-1.1,82,11,25.0,99.18,Cloudy,1.7649496966556275
2/23/2012 2:00,1.1,-1.1,85,7,25.0,99.17,Snow,1.7659236190361107
2/23/2012 3:00,0.6,-1.0,89,6,6.4,99.14,Snow,1.7682071305205669
2/23/2012 4:00,0.5,-1.0,90,4,6.4,99.13,Fog,1.7691001613685995
2/23/2012 5:00,0.4,-1.1,90,4,6.4,99.11,Fog,1.7687140276031519
2/23/2012 6:00,0.5,-1.1,89,9,8.0,99.16,Fog,1.7706957130762617
2/23/2012 7:00,0.6,-1.0,89,7,8.0,99.2,Fog,1.7694258843274457
2/23/2012 8:00,0.4,-1.6,86,7,19.3,99.26,Mainly Clear,1.766969355906869
2/23/2012 9:00,1.1,-1.8,81,17,24.1,99.32,Mostly Cloudy,1.7437233890671442
2/23/2012 10:00,1.6,-1.9,78,19,24.1,99.38,Mainly Clear,1.7563902757209566
2/23/2012 11:00,2.3,-1.9,74,22,24.1,99.42,Mostly Cloudy,1.762042477898942
2/23/2012 12:00,2.1,-2.3,73,20,24.1,99.47,Cloudy,1.7554735251477163
2/23/2012 13:00,2.1,-2.1,74,20,16.1,99.49,Snow Showers,1.7697828518311862
2/23/2012 14:00,1.4,-1.5,81,13,19.3,99.53,Snow,1.7590377574224008
2/23/2012 15:00,1.9,-1.8,76,22,24.1,99.6,Mostly Cloudy,1.7272721454173066
2/23/2012 16:00,2.7,-2.3,70,22,24.1,99.7,Mostly Cloudy,1.748242813404025
2/23/2012 17:00,2.3,-3.7,64,24,24.1,99.82,Mostly Cloudy,1.7388729837038828
2/23/2012 18:00,1.6,-3.8,67,15,24.1,99.9,Mainly Clear,1.7351558294646416
2/23/2012 19:00,1.6,-4.8,62,19,25.0,100.05,Clear,1.7654642609585007
2/23/2012 20:00,1.1,-5.0,64,15,25.0,100.12,Clear,1.747145235057727
2/23/2012 21:00,0.5,-5.2,66,13,25.0,100.23,Clear,1.7466821923291458
2/23/2012 22:00,-0.2,-5.4,68,9,25.0,100.28,Clear,1.7508033645045584
2/23/2012 23:00,-1.0,-5.2,73,7,25.0,100.31,Clear,1.718324698506683
2/24/2012 0:00,-0.9,-5.1,73,6,25.0,100.34,Clear,1.7683401685207079
2/24/2012 1:00,-1.7,-5.1,78,4,25.0,100.29,Clear,1.733057876440812
2/24/2012 2:00,-1.8,-5.4,76,0,25.0,100.2,Clear,1.7272721454173066
2/24/2012 3:00,-3.8,-6.1,84,0,25.0,100.29,Mainly Clear,1.760190799674194
2/24/2012 4:00,-2.8,-5.0,85,0,25.0,100.31,Cloudy,1.7673427504530639
2/24/2012 5:00,-3.1,-5.1,86,0,25.0,100.29,Cloudy,1.7639832411359233
2/24/2012 6:00,-3.0,-5.1,85,6,25.0,100.26,Cloudy,1.7709957419108828
2/24/2012 7:00,-1.3,-3.8,83,11,24.1,100.21,Cloudy,1.767948763912791
2/24/2012 8:00,-0.7,-3.6,81,9,24.1,100.21,Cloudy,1.7673482241629688
2/24/2012 9:00,0.3,-3.3,77,7,19.3,100.27,Cloudy,1.7646316129137467
2/24/2012 10:00,0.7,-3.0,76,9,19.3,100.25,Cloudy,1.7550427813117058
2/24/2012 11:00,0.9,-3.2,74,15,19.3,100.13,Cloudy,1.7582075719407741
2/24/2012 12:00,1.1,-3.3,72,20,19.3,99.91,Cloudy,1.761077517897273
2/24/2012 13:00,1.0,-3.5,72,20,19.3,99.75,Cloudy,1.7668614296440013
2/24/2012 14:00,1.1,-3.3,72,20,16.1,99.64,Snow,1.7693102368537128
2/24/2012 15:00,1.0,-2.6,77,19,6.4,99.53,"Snow,Fog",1.773746528685989
2/24/2012 16:00,-0.1,-1.6,90,22,1.2,99.38,"Snow,Fog",1.7720935396807092
2/24/2012 17:00,-0.1,-1.5,90,26,1.0,99.16,Snow,1.7609487211792867
2/24/2012 18:00,0.0,-1.4,90,24,1.0,99.07,Snow,1.770623908370553
2/24/2012 19:00,0.0,-1.3,91,22,1.2,98.88,Snow,1.7732380763172535
2/24/2012 20:00,0.0,-1.2,92,15,2.0,98.81,Snow,1.7710885120077986
2/24/2012 21:00,0.3,-1.1,90,17,2.4,98.69,Snow,1.7727168862641585
2/24/2012 22:00,0.6,-0.8,90,19,16.1,98.55,Rain,1.7658319304658447
2/24/2012 23:00,0.8,-0.5,91,17,19.3,98.39,Cloudy,1.762772169746578
2/25/2012 0:00,1.0,-0.6,89,11,12.9,98.29,Rain,1.7590894054480448
2/25/2012 1:00,0.8,-0.7,90,15,8.0,98.18,"Rain,Snow",1.7703522398272487
2/25/2012 2:00,0.4,-0.9,91,11,6.4,98.06,Snow,1.7659192549839433
2/25/2012 3:00,0.7,-0.8,90,19,4.0,98.0,Snow,1.7609487211792867
2/25/2012 4:00,0.4,-1.0,90,19,3.2,97.97,Snow,1.7734666434522333
2/25/2012 5:00,0.6,-1.1,88,22,12.9,97.99,Snow,1.770671783169991
2/25/2012 6:00,0.0,-1.6,89,33,2.8,98.03,Snow,1.7711017587434097
2/25/2012 7:00,-1.4,-2.9,89,33,1.2,98.11,"Snow,Blowing Snow",1.7661589709705157
2/25/2012 8:00,-1.8,-3.2,90,32,1.2,98.2,"Snow,Blowing Snow",1.767034050627733
2/25/2012 9:00,-1.4,-2.9,89,33,1.2,98.33,"Snow,Blowing Snow",1.7636349883821507
2/25/2012 10:00,-1.7,-3.3,89,32,1.6,98.45,Snow,1.764560779079539
2/25/2012 11:00,-2.1,-3.5,90,33,2.0,98.6,Snow,1.7609487211792867
2/25/2012 12:00,-2.5,-4.2,88,33,3.2,98.75,Snow,1.7571931537828946
2/25/2012 13:00,-2.7,-5.0,84,32,2.0,98.89,Snow,1.7483983249034645
2/25/2012 14:00,-3.2,-6.3,79,35,3.2,99.05,Snow,1.7357508862871274
2/25/2012 15:00,-3.3,-7.5,73,33,19.3,99.22,Snow,1.7731652536529698
2/25/2012 16:00,-3.6,-7.4,75,24,9.7,99.39,Snow,1.737601574398599
2/25/2012 17:00,-3.2,-8.4,67,24,25.0,99.59,Cloudy,1.7715538760999852
2/25/2012 18:00,-3.6,-9.0,66,30,25.0,99.8,Cloudy,1.771846401051584
2/25/2012 19:00,-4.7,-10.5,64,35,25.0,100.04,Cloudy,1.7698739293579497
2/25/2012 20:00,-5.3,-11.2,63,26,25.0,100.24,Cloudy,1.7531557149639168
2/25/2012 21:00,-5.6,-11.1,65,32,25.0,100.42,Mostly Cloudy,1.7562405020882572
2/25/2012 22:00,-6.6,-12.8,61,28,25.0,100.62,Cloudy,1.7594267765729945
2/25/2012 23:00,-7.6,-13.8,61,26,25.0,100.76,Cloudy,1.7198487379914629
2/26/2012 0:00,-8.3,-14.3,62,19,25.0,100.89,Mostly Cloudy,1.7195253770317591
2/26/2012 1:00,-9.0,-14.5,64,20,25.0,101.09,Mainly Clear,1.7524629287885036
2/26/2012 2:00,-9.2,-14.6,65,22,25.0,101.26,Clear,1.758041617037973
2/26/2012 3:00,-9.9,-15.1,66,28,25.0,101.42,Mainly Clear,1.6960165533823464
2/26/2012 4:00,-10.8,-15.3,69,30,25.0,101.6,Mostly Cloudy,1.7056195602958193
2/26/2012 5:00,-11.6,-15.9,70,20,25.0,101.77,Clear,1.7731730583184264
2/26/2012 6:00,-11.3,-16.8,64,22,25.0,101.92,Clear,1.6895328361301014
2/26/2012 7:00,-12.1,-17.8,62,22,48.3,102.07,Clear,1.683083061116086
2/26/2012 8:00,-12.1,-18.0,61,26,48.3,102.23,Mainly Clear,1.6768881290465567
2/26/2012 9:00,-11.6,-18.6,56,32,48.3,102.32,Mainly Clear,1.676515991282929
2/26/2012 10:00,-11.2,-20.3,47,22,48.3,102.35,Clear,1.6872139925944774
2/26/2012 11:00,-10.1,-20.1,44,26,48.3,102.39,Clear,1.7586377147836008
2/26/2012 12:00,-9.3,-18.6,47,28,48.3,102.42,Clear,1.6561947455597306
2/26/2012 13:00,-8.3,-17.4,48,26,48.3,102.41,Mainly Clear,1.665449907868393
2/26/2012 14:00,-7.6,-17.2,46,28,48.3,102.42,Mainly Clear,1.6860982931402546
2/26/2012 15:00,-7.1,-16.3,48,26,48.3,102.49,Mainly Clear,1.67178950565746
2/26/2012 16:00,-6.8,-16.4,46,24,48.3,102.52,Mainly Clear,1.6963044343108917
2/26/2012 17:00,-7.6,-17.1,46,24,48.3,102.55,Mostly Cloudy,1.6842840891788833
2/26/2012 18:00,-7.9,-16.7,49,19,25.0,102.6,Cloudy,1.6956669952242804
2/26/2012 19:00,-7.8,-16.8,48,13,25.0,102.63,Cloudy,1.6852975715945533
2/26/2012 20:00,-7.9,-16.4,50,11,25.0,102.64,Cloudy,1.689587255472302
2/26/2012 21:00,-8.5,-16.6,52,9,25.0,102.72,Cloudy,1.7011621230425142
2/26/2012 22:00,-8.6,-16.5,53,0,25.0,102.68,Mostly Cloudy,1.6500000000000006
2/26/2012 23:00,-9.5,-16.2,58,0,25.0,102.64,Cloudy,1.6688951382675015
2/27/2012 0:00,-8.2,-16.2,52,7,25.0,102.63,Cloudy,1.7137276242522257
2/27/2012 1:00,-8.6,-15.5,57,4,25.0,102.61,Cloudy,1.6648421508897826
2/27/2012 2:00,-8.5,-14.2,63,13,25.0,102.6,Cloudy,1.6856696145686971
2/27/2012 3:00,-8.3,-13.7,65,9,25.0,102.59,Cloudy,1.6929583486014415
2/27/2012 4:00,-8.2,-14.4,61,9,25.0,102.58,Cloudy,1.6768881290465567
2/27/2012 5:00,-8.4,-15.1,58,13,25.0,102.54,Mostly Cloudy,1.7669736703115806
2/27/2012 6:00,-9.0,-15.2,61,17,25.0,102.42,Mostly Cloudy,1.6768881290465567
2/27/2012 7:00,-9.4,-14.6,66,20,48.3,102.31,Cloudy,1.6960165533823464
2/27/2012 8:00,-9.8,-14.8,67,19,48.3,102.25,Cloudy,1.698763522260988
2/27/2012 9:00,-9.4,-14.9,64,22,48.3,102.1,Cloudy,1.6895328361301014
2/27/2012 10:00,-8.7,-14.6,62,22,24.1,101.94,Cloudy,1.681279062923068
2/27/2012 11:00,-8.7,-14.2,64,28,48.3,101.74,Mostly Cloudy,1.7004308647335253
2/27/2012 12:00,-6.3,-12.8,60,15,48.3,101.59,Mostly Cloudy,1.7708498083122972
2/27/2012 13:00,-4.9,-11.6,59,19,48.3,101.41,Cloudy,1.761910437779866
2/27/2012 14:00,-5.5,-11.5,63,22,24.1,101.34,Cloudy,1.7690543248943396
2/27/2012 15:00,-5.1,-9.4,72,20,1.6,101.19,Snow,1.7154802667147235
2/27/2012 16:00,-4.9,-7.9,79,19,19.3,101.13,Snow,1.765801347307879
2/27/2012 17:00,-5.2,-7.9,81,20,24.1,101.01,Cloudy,1.7408722768108806
2/27/2012 18:00,-6.3,-8.9,82,24,25.0,101.1,Cloudy,1.7601351033305375
2/27/2012 19:00,-7.1,-9.6,82,22,2.0,101.14,Snow,1.7434626346010758
2/27/2012 20:00,-7.2,-9.6,83,9,25.0,101.25,Snow,1.7620779605069656
2/27/2012 21:00,-7.3,-9.7,83,4,25.0,101.29,Snow,1.7459700090483987
2/27/2012 22:00,-7.1,-9.6,82,0,8.0,101.33,Snow,1.7434626346010758
2/27/2012 23:00,-6.8,-9.1,84,4,6.4,101.38,Snow,1.7483983249034645
2/28/2012 0:00,-6.7,-9.0,84,0,6.4,101.4,Snow,1.7483983249034645
2/28/2012 1:00,-6.5,-8.7,84,0,8.0,101.48,Snow,1.7483983249034645
2/28/2012 2:00,-6.6,-8.9,84,0,9.7,101.55,Snow,1.7483983249034645
2/28/2012 3:00,-5.9,-8.3,83,9,12.9,101.66,Cloudy,1.7741031549491004
2/28/2012 4:00,-5.5,-8.3,81,15,16.1,101.82,Cloudy,1.765941073175782
2/28/2012 5:00,-5.4,-9.7,72,20,12.9,101.98,Snow,1.7500881505203705
2/28/2012 6:00,-6.9,-10.3,77,22,8.0,102.19,Snow,1.7395041155034945
2/28/2012 7:00,-8.1,-13.4,66,19,24.1,102.35,Mainly Clear,1.6960165533823464
2/28/2012 8:00,-8.4,-13.7,66,19,24.1,102.5,Mainly Clear,1.7149694455439015
2/28/2012 9:00,-8.3,-13.8,64,20,48.3,102.63,Clear,1.6895328361301014
2/28/2012 10:00,-7.5,-13.6,62,13,24.1,102.65,Clear,1.7583637810994581
2/28/2012 11:00,-6.5,-13.1,59,9,48.3,102.69,Clear,1.672110259985864
2/28/2012 12:00,-5.8,-13.3,55,11,48.3,102.65,Mainly Clear,1.6866012342531451
2/28/2012 13:00,-5.5,-12.3,59,17,48.3,102.62,Mainly Clear,1.672110259985864
2/28/2012 14:00,-4.8,-12.1,57,15,48.3,102.58,Mostly Cloudy,1.7079464853075037
2/28/2012 15:00,-4.2,-11.8,55,19,48.3,102.58,Mostly Cloudy,1.7187349333656776
2/28/2012 16:00,-4.3,-12.4,53,17,48.3,102.54,Mostly Cloudy,1.7423979428620455
2/28/2012 17:00,-4.4,-12.6,53,15,48.3,102.53,Mainly Clear,1.7471209341281124
2/28/2012 18:00,-5.3,-12.5,57,17,24.1,102.56,Clear,1.7541468407747876
2/28/2012 19:00,-5.9,-12.9,58,7,25.0,102.58,Clear,1.7123039928796078
2/28/2012 20:00,-6.8,-13.4,59,11,25.0,102.56,Clear,1.7328231045949691
2/28/2012 21:00,-8.7,-14.6,62,11,25.0,102.53,Clear,1.693974002017416
2/28/2012 22:00,-8.3,-14.0,63,0,25.0,102.52,Clear,1.6856696145686971
2/28/2012 23:00,-10.0,-15.3,65,9,25.0,102.52,Clear,1.6929583486014415
2/29/2012 0:00,-8.2,-13.8,64,9,25.0,102.51,Clear,1.689857889472967
2/29/2012 1:00,-9.5,-14.8,65,4,25.0,102.47,Clear,1.6929583486014415
2/29/2012 2:00,-9.7,-13.9,71,4,25.0,102.46,Mainly Clear,1.712430565280306
2/29/2012 3:00,-11.5,-14.7,77,0,25.0,102.45,Clear,1.7302348458823897
2/29/2012 4:00,-10.3,-14.2,73,7,25.0,102.41,Mainly Clear,1.7438185701260924
2/29/2012 5:00,-13.1,-16.0,79,0,25.0,102.4,Clear,1.7357508862871274
2/29/2012 6:00,-12.2,-15.2,78,0,25.0,102.41,Clear,1.733057876440812
2/29/2012 7:00,-11.7,-14.6,79,9,24.1,102.4,Mainly Clear,1.7357508862871274
2/29/2012 8:00,-10.6,-13.7,78,11,24.1,102.44,Cloudy,1.733057876440812
2/29/2012 9:00,-8.5,-12.3,74,11,24.1,102.36,Mostly Cloudy,1.7209839103698092
2/29/2012 10:00,-6.6,-11.6,68,17,24.1,102.3,Mostly Cloudy,1.7483624659295796
2/29/2012 11:00,-4.7,-12.5,54,15,24.1,102.24,Mostly Cloudy,1.7740205591625353
2/29/2012 12:00,-3.9,-12.2,52,17,24.1,102.08,Mostly Cloudy,1.761673211038272
2/29/2012 13:00,-2.9,-10.8,54,11,24.1,101.99,Mostly Cloudy,1.7406217267821147
2/29/2012 14:00,-2.9,-11.7,51,13,24.1,101.89,Mostly Cloudy,1.7300683719734955
2/29/2012 15:00,-3.1,-11.5,52,20,24.1,101.81,Cloudy,1.7409775360446165
2/29/2012 16:00,-3.6,-11.2,56,26,24.1,101.72,Cloudy,1.7485415913619538
2/29/2012 17:00,-4.1,-12.0,54,28,24.1,101.6,Cloudy,1.7406085180809265
2/29/2012 18:00,-4.7,-12.8,53,28,24.1,101.54,Cloudy,1.7471938137477605
2/29/2012 19:00,-4.6,-13.2,51,30,25.0,101.46,Mostly Cloudy,1.7413710210179132
2/29/2012 20:00,-4.5,-13.0,51,30,25.0,101.42,Cloudy,1.7660631595347778
2/29/2012 21:00,-4.6,-12.7,53,26,25.0,101.23,Cloudy,1.745667181380459
2/29/2012 22:00,-4.5,-12.3,54,30,25.0,101.14,Snow,1.7639787845934143
2/29/2012 23:00,-5.1,-11.2,62,30,8.0,101.01,Snow,1.7191949125530446
3/1/2012 0:00,-5.5,-9.7,72,24,4.0,100.97,Snow,1.7154802667147235
3/1/2012 1:00,-5.7,-8.7,79,26,2.4,100.87,Snow,1.7357508862871274
3/1/2012 2:00,-5.4,-8.3,80,28,4.8,100.8,Snow,1.7383226557949913
3/1/2012 3:00,-4.7,-7.7,79,28,4.0,100.69,Snow,1.7357508862871274
3/1/2012 4:00,-5.4,-7.8,83,35,1.6,100.62,Snow,1.7459700090483987
3/1/2012 5:00,-5.3,-7.9,82,33,2.4,100.58,Snow,1.7434626346010758
3/1/2012 6:00,-5.2,-7.8,82,33,4.0,100.57,Snow,1.7434626346010758
3/1/2012 7:00,-4.9,-7.4,83,30,1.6,100.59,Snow,1.7459700090483987
3/1/2012 8:00,-5.0,-7.5,83,32,1.2,100.59,Snow,1.7459700090483987
3/1/2012 9:00,-4.9,-7.5,82,32,1.6,100.6,Snow,1.7434626346010758
3/1/2012 10:00,-4.7,-7.3,82,32,1.2,100.62,Snow,1.7434626346010758
3/1/2012 11:00,-4.4,-6.8,83,28,1.0,100.66,Snow,1.7459700090483987
3/1/2012 12:00,-4.3,-6.8,83,30,1.2,100.66,Snow,1.7459700090483987
3/1/2012 13:00,-4.3,-6.9,82,28,1.2,100.65,Snow,1.7434626346010758
3/1/2012 14:00,-3.9,-6.6,81,28,1.2,100.67,Snow,1.7408722768108806
3/1/2012 15:00,-3.3,-6.2,80,24,1.6,100.71,Snow,1.7400783687706762
3/1/2012 16:00,-2.7,-5.7,80,19,2.4,100.74,Snow,1.7606351968150875
3/1/2012 17:00,-2.9,-5.9,80,20,4.0,100.8,Snow,1.7465843519478796
3/1/2012 18:00,-3.0,-6.0,80,19,4.0,100.87,Snow,1.7479308313045228
3/1/2012 19:00,-3.6,-6.4,81,17,3.2,100.93,Snow,1.7408722768108806
3/1/2012 20:00,-3.7,-6.4,81,20,4.8,100.95,Snow,1.7408722768108806
3/1/2012 21:00,-3.9,-6.7,81,22,6.4,100.98,Snow,1.7408722768108806
3/1/2012 22:00,-4.3,-6.9,82,22,2.4,101.0,Snow,1.7434626346010758
3/1/2012 23:00,-4.3,-7.1,81,22,4.8,101.04,Snow,1.7408722768108806
3/2/2012 0:00,-4.8,-7.3,83,22,3.2,101.04,Snow,1.7459700090483987
3/2/2012 1:00,-5.3,-7.9,82,20,4.8,101.09,Snow,1.7434626346010758
3/2/2012 2:00,-5.2,-7.8,82,19,6.4,101.11,Snow,1.770751530107576
3/2/2012 3:00,-5.5,-7.9,83,19,4.8,101.15,Snow,1.7459700090483987
3/2/2012 4:00,-5.6,-8.2,82,24,6.4,101.15,Snow,1.7492538810703708
3/2/2012 5:00,-5.5,-8.3,81,19,12.9,101.15,Snow,1.7574322427470264
3/2/2012 6:00,-5.6,-8.6,79,19,16.1,101.14,Snow,1.7613712524257432
3/2/2012 7:00,-5.7,-8.7,79,22,24.1,101.17,Cloudy,1.7726332734428438
3/2/2012 8:00,-5.7,-8.8,79,17,24.1,101.2,Snow,1.7628227202006908
3/2/2012 9:00,-6.1,-8.4,84,13,2.0,101.19,Snow,1.7483983249034645
3/2/2012 10:00,-5.9,-8.3,83,15,4.0,101.22,Snow,1.7459700090483987
3/2/2012 11:00,-5.5,-7.5,86,15,2.8,101.21,Snow,1.7530322801745157
3/2/2012 12:00,-5.2,-7.1,86,13,2.4,101.18,"Freezing Drizzle,Snow",1.7530322801745157
3/2/2012 13:00,-4.6,-6.5,87,13,4.8,101.09,Snow,1.7597909189583187
3/2/2012 14:00,-4.1,-6.1,86,15,8.0,101.03,Fog,1.7735859384427441
3/2/2012 15:00,-3.3,-5.7,83,15,11.3,100.98,Cloudy,1.7459700090483987
3/2/2012 16:00,-2.9,-5.3,83,15,11.3,100.93,Cloudy,1.7459700090483987
3/2/2012 17:00,-2.7,-5.1,84,15,12.9,100.89,Cloudy,1.7640990363379707
3/2/2012 18:00,-2.4,-4.8,84,20,12.9,100.81,Cloudy,1.7692483312690759
3/2/2012 19:00,-1.8,-4.2,84,17,16.1,100.75,Cloudy,1.765090717073393
3/2/2012 20:00,-2.3,-4.7,84,15,16.1,100.74,Cloudy,1.7627134608627144
3/2/2012 21:00,-1.4,-4.0,82,15,19.3,100.62,Cloudy,1.7646316129137463
3/2/2012 22:00,0.2,-4.2,72,13,25.0,100.49,Cloudy,1.7357245702901165
3/2/2012 23:00,0.5,-3.6,74,17,25.0,100.29,Cloudy,1.7483564877846136
3/3/2012 0:00,1.0,-3.2,73,22,25.0,100.12,Cloudy,1.718324698506683
3/3/2012 1:00,1.2,-2.8,75,19,25.0,99.96,Snow,1.7625567236864066
3/3/2012 2:00,-0.6,-2.9,84,19,2.4,99.75,Snow,1.7610407367459344
3/3/2012 3:00,-0.3,-2.4,86,22,2.8,99.55,Snow,1.7633572405231843
3/3/2012 4:00,0.3,-1.7,86,24,11.3,99.4,"Snow,Ice Pellets",1.770021108175133
3/3/2012 5:00,0.8,-1.5,85,41,19.3,99.18,Cloudy,1.7672106497424394
3/3/2012 6:00,1.5,-1.6,80,43,25.0,99.02,Mainly Clear,1.7564481904663314
3/3/2012 7:00,2.0,-1.6,77,41,24.1,98.89,Mostly Cloudy,1.7595342967580685
3/3/2012 8:00,2.7,-1.5,74,32,24.1,98.79,Mostly Cloudy,1.7612474446309854
3/3/2012 9:00,3.0,-1.0,75,37,24.1,98.7,Cloudy,1.756794952629193
3/3/2012 10:00,3.7,0.4,79,15,24.1,98.86,Cloudy,1.7569438706512353
3/3/2012 11:00,4.0,-0.7,71,32,24.1,98.82,Rain Showers,1.756967868190379
3/3/2012 12:00,5.2,-3.0,55,37,48.3,98.82,Mostly Cloudy,1.7494957136227385
3/3/2012 13:00,5.8,-4.0,49,50,48.3,98.73,Mostly Cloudy,1.723557794350078
3/3/2012 14:00,6.5,-5.5,42,48,48.3,98.68,Mostly Cloudy,1.0062401169993866
3/3/2012 15:00,5.3,-5.6,45,57,24.1,98.67,Mostly Cloudy,1.7460378275046828
3/3/2012 16:00,5.0,-5.0,48,63,48.3,98.67,Mainly Clear,1.7136150269331403
3/3/2012 17:00,4.3,-4.9,51,57,48.3,98.71,Mainly Clear,1.7409775360446162
3/3/2012 18:00,3.7,-4.3,56,48,25.0,98.82,Mostly Cloudy,1.7604225164733736
3/3/2012 19:00,3.4,-4.0,58,44,25.0,98.92,Mainly Clear,1.760441029379114
3/3/2012 20:00,3.2,-3.9,60,50,25.0,98.96,Mainly Clear,1.7611464439759572
3/3/2012 21:00,2.9,-3.6,62,46,25.0,98.98,Snow,1.7592160595067892
3/3/2012 22:00,2.8,-3.4,64,57,25.0,99.07,Snow,1.7620697734019237
3/3/2012 23:00,2.3,-3.1,67,33,25.0,99.18,Snow,1.7658319304658447
3/4/2012 0:00,0.5,-4.8,68,32,25.0,99.34,Mostly Cloudy,1.7581744039200178
3/4/2012 1:00,-0.8,-6.0,68,24,25.0,99.46,Mostly Cloudy,1.7259758914596628
3/4/2012 2:00,-1.8,-7.8,64,26,25.0,99.56,Mostly Cloudy,1.769758731005547
3/4/2012 3:00,-2.1,-8.2,63,19,25.0,99.63,Mostly Cloudy,1.7714667645138114
3/4/2012 4:00,-2.9,-9.0,63,20,25.0,99.7,Mostly Cloudy,1.7587743881553033
3/4/2012 5:00,-4.3,-10.5,62,19,25.0,99.77,Cloudy,1.773344625183129
3/4/2012 6:00,-4.8,-11.6,59,17,25.0,99.84,Mostly Cloudy,1.7585197360099052
3/4/2012 7:00,-5.7,-12.6,58,22,24.1,99.88,Mostly Cloudy,1.772227401618678
3/4/2012 8:00,-5.9,-13.8,54,13,24.1,99.97,Mostly Cloudy,1.7705387482426431
3/4/2012 9:00,-6.3,-13.5,57,15,24.1,99.95,Cloudy,1.7588638269729124
3/4/2012 10:00,-6.3,-13.5,57,17,24.1,99.95,Cloudy,1.7438819597798623
3/4/2012 11:00,-6.5,-14.0,55,17,24.1,99.96,Cloudy,1.7582786076618795
3/4/2012 12:00,-5.8,-12.9,57,19,48.3,99.95,Mostly Cloudy,1.7551792228553424
3/4/2012 13:00,-5.5,-12.8,56,19,48.3,99.88,Mainly Clear,1.7589296757426451
3/4/2012 14:00,-5.7,-13.4,55,19,48.3,99.9,Mostly Cloudy,1.7569822638504218
3/4/2012 15:00,-5.6,-13.5,54,22,48.3,99.9,Mostly Cloudy,1.763929748528628
3/4/2012 16:00,-5.5,-13.3,54,20,48.3,99.93,Mainly Clear,1.7531669260278675
3/4/2012 17:00,-6.9,-14.6,54,22,48.3,99.94,Mainly Clear,1.7707834133552307
3/4/2012 18:00,-7.9,-15.7,53,28,25.0,100.04,Mainly Clear,1.7245251545982605
3/4/2012 19:00,-7.9,-15.5,54,22,25.0,100.09,Mostly Cloudy,1.7520941756841961
3/4/2012 20:00,-8.5,-14.6,61,24,25.0,100.13,Cloudy,1.767520514284525
3/4/2012 21:00,-9.0,-13.7,69,15,25.0,100.18,Snow Showers,1.7212403387169226
3/4/2012 22:00,-10.1,-15.5,65,17,25.0,100.21,Cloudy,1.771596088119867
3/4/2012 23:00,-11.1,-16.3,65,24,25.0,100.23,Mostly Cloudy,1.7461425204601129
3/5/2012 0:00,-12.4,-17.4,66,19,25.0,100.26,Mainly Clear,1.7692806339796323
3/5/2012 1:00,-13.6,-18.5,66,24,25.0,100.33,Mainly Clear,1.6960165533823464
3/5/2012 2:00,-14.5,-22.3,52,24,25.0,100.39,Clear,1.6499999999999997
3/5/2012 3:00,-15.0,-21.5,58,22,25.0,100.47,Clear,1.6688951382675015
3/5/2012 4:00,-15.5,-21.9,58,26,25.0,100.55,Clear,1.6688951382675015
3/5/2012 5:00,-15.9,-22.1,59,20,25.0,100.69,Clear,1.7281313451741367
3/5/2012 6:00,-16.2,-22.6,58,26,24.1,100.77,Mostly Cloudy,1.7571261024452827
3/5/2012 7:00,-16.2,-22.3,59,22,24.1,100.88,Mostly Cloudy,1.7014117278264744
3/5/2012 8:00,-15.7,-22.5,56,24,24.1,101.0,Mostly Cloudy,1.684036543331246
3/5/2012 9:00,-15.1,-22.1,55,24,24.1,101.11,Mostly Cloudy,1.7340215314707272
3/5/2012 10:00,-14.4,-21.5,55,26,24.1,101.21,Mostly Cloudy,1.6950292492655166
3/5/2012 11:00,-13.4,-20.7,54,26,48.3,101.31,Mostly Cloudy,1.6943609859233293
3/5/2012 12:00,-12.2,-19.9,53,6,48.3,101.39,Mostly Cloudy,1.7414494844548687
3/5/2012 13:00,-11.3,-19.5,51,24,48.3,101.46,Mostly Cloudy,1.7522078343566616
3/5/2012 14:00,-10.8,-19.8,47,28,48.3,101.55,Mostly Cloudy,1.6861792992705718
3/5/2012 15:00,-10.0,-18.6,49,30,48.3,101.64,Mostly Cloudy,1.6748993502628047
3/5/2012 16:00,-9.9,-18.9,48,26,48.3,101.73,Mostly Cloudy,1.700330541207783
3/5/2012 17:00,-9.5,-18.8,47,24,48.3,101.82,Mainly Clear,1.7278162011575442
3/5/2012 18:00,-9.8,-19.0,47,22,25.0,101.9,Mainly Clear,1.7112294088072642
3/5/2012 19:00,-10.1,-19.1,48,20,25.0,102.01,Clear,1.7122722925878038
3/5/2012 20:00,-10.5,-19.2,49,17,25.0,102.11,Mainly Clear,1.6737899483374745
3/5/2012 21:00,-11.0,-19.6,49,17,25.0,102.23,Clear,1.6500000000000004
3/5/2012 22:00,-11.6,-20.2,49,15,25.0,102.29,Clear,1.6500000000000004
3/5/2012 23:00,-12.6,-20.3,53,11,25.0,102.34,Clear,1.6500000000000001
3/6/2012 0:00,-13.4,-20.5,55,11,25.0,102.41,Clear,1.6524507409216738
3/6/2012 1:00,-13.4,-20.3,56,11,25.0,102.5,Clear,1.7737102862884597
3/6/2012 2:00,-13.7,-20.7,55,4,25.0,102.55,Clear,1.7213041859587122
3/6/2012 3:00,-14.8,-21.1,59,9,25.0,102.61,Clear,1.672110259985864
3/6/2012 4:00,-14.5,-21.1,57,9,25.0,102.7,Clear,1.6648421508897826
3/6/2012 5:00,-14.6,-21.0,58,13,25.0,102.85,Clear,1.6688951382675015
3/6/2012 6:00,-15.3,-21.3,60,11,24.1,102.9,Clear,1.6747229916897506
3/6/2012 7:00,-14.8,-20.7,61,11,48.3,103.0,Clear,1.6768881290465567
3/6/2012 8:00,-13.0,-19.4,59,0,48.3,103.06,Clear,1.672110259985864
3/6/2012 9:00,-11.3,-19.1,52,6,48.3,103.1,Clear,1.6962231802505725
3/6/2012 10:00,-10.0,-16.8,57,9,48.3,103.12,Mainly Clear,1.6648421508897826
3/6/2012 11:00,-9.0,-17.8,49,15,48.3,103.12,Mainly Clear,1.6760327333764709
3/6/2012 12:00,-7.8,-15.3,55,13,48.3,103.09,Mainly Clear,1.6729355200815197
3/6/2012 13:00,-6.7,-16.0,48,9,48.3,103.01,Mainly Clear,1.7072676323849707
3/6/2012 14:00,-5.8,-15.8,45,9,48.3,102.98,Mainly Clear,1.727891383191327
3/6/2012 15:00,-5.3,-15.7,44,6,48.3,102.96,Mainly Clear,1.754576950818414
3/6/2012 16:00,-4.9,-16.2,41,11,48.3,102.94,Mainly Clear,1.7577754909971866
3/6/2012 17:00,-4.8,-15.1,44,6,48.3,102.9,Mainly Clear,1.7565012485537568
3/6/2012 18:00,-6.3,-14.6,52,6,48.3,102.84,Mainly Clear,1.7144071554888007
3/6/2012 19:00,-5.4,-13.4,53,11,25.0,102.81,Mostly Cloudy,1.7206696619460555
3/6/2012 20:00,-5.3,-13.6,52,9,25.0,102.72,Mainly Clear,1.7011621230425142
3/6/2012 21:00,-5.4,-14.4,49,9,25.0,102.69,Mostly Cloudy,1.7168167256674736
3/6/2012 22:00,-5.0,-15.1,45,9,25.0,102.59,Mostly Cloudy,1.7462532167463898
3/6/2012 23:00,-4.5,-15.7,41,6,25.0,102.55,Mostly Cloudy,1.7599585157361124
3/7/2012 0:00,-3.6,-13.3,47,6,25.0,102.44,Mostly Cloudy,1.7522691374368569
3/7/2012 1:00,-3.9,-11.3,56,9,25.0,102.46,Mostly Cloudy,1.7514773854172172
3/7/2012 2:00,-5.7,-11.9,62,17,25.0,102.37,Cloudy,1.681279062923068
3/7/2012 3:00,-5.3,-11.6,61,13,25.0,102.22,Cloudy,1.7310674590954243
3/7/2012 4:00,-5.2,-11.2,63,15,25.0,102.16,Cloudy,1.7208550690092335
3/7/2012 5:00,-5.3,-11.2,63,17,25.0,102.13,Mostly Cloudy,1.7114399644626896
3/7/2012 6:00,-4.3,-10.3,63,15,24.1,101.98,Cloudy,1.7179380581065042
3/7/2012 7:00,-3.9,-9.2,67,11,48.3,101.92,Cloudy,1.766132850479369
3/7/2012 8:00,-4.6,-9.5,69,11,48.3,101.91,Mostly Cloudy,1.7496427920659268
3/7/2012 9:00,-2.5,-7.7,67,11,24.1,101.85,Clear,1.7692806339796323
3/7/2012 10:00,-0.1,-6.5,62,6,24.1,101.76,Clear,1.758830123520499
3/7/2012 11:00,3.0,-4.7,57,6,24.1,101.67,Mainly Clear,1.7010802083432202
3/7/2012 12:00,6.4,-3.6,49,4,24.1,101.58,Mainly Clear,1.7253448535058247
3/7/2012 13:00,8.9,-4.4,39,13,24.1,101.49,Mainly Clear,1.0009114953151215
3/7/2012 14:00,9.3,-4.1,39,13,24.1,101.41,Mainly Clear,1.7043549105799984
3/7/2012 15:00,9.7,-2.7,42,13,24.1,101.36,Mainly Clear,1.687699591432053
3/7/2012 16:00,11.4,-2.3,38,15,24.1,101.31,Mostly Cloudy,1.6944683852690683
3/7/2012 17:00,9.9,-1.9,44,9,24.1,101.25,Mostly Cloudy,1.7191478023211177
3/7/2012 18:00,5.5,-1.6,60,7,24.1,101.25,Mainly Clear,1.7333374493936258
3/7/2012 19:00,6.0,-1.8,57,11,25.0,101.22,Mostly Cloudy,1.7295314346092168
3/7/2012 20:00,7.6,-2.1,50,20,25.0,101.18,Mostly Cloudy,1.7535303560225486
3/7/2012 21:00,6.8,-2.1,53,22,25.0,101.16,Mostly Cloudy,1.7403505100971233
3/7/2012 22:00,6.0,-1.7,58,17,25.0,101.12,Cloudy,1.7536640912038879
3/7/2012 23:00,4.8,-1.7,63,15,25.0,101.05,Cloudy,1.7336270637325413
3/8/2012 0:00,6.2,-1.5,58,20,25.0,100.98,Cloudy,1.768022252990397
3/8/2012 1:00,5.5,-1.4,61,11,25.0,100.92,Cloudy,1.7530771895550665
3/8/2012 2:00,7.9,-1.2,53,17,25.0,100.81,Mostly Cloudy,1.7580558529964951
3/8/2012 3:00,10.1,-0.9,46,24,25.0,100.69,Mostly Cloudy,1.7179172418968163
3/8/2012 4:00,10.0,-0.7,47,28,25.0,100.64,Mostly Cloudy,1.7263930459404506
3/8/2012 5:00,5.7,-0.8,63,19,25.0,100.57,Mostly Cloudy,1.7502632244934984
3/8/2012 6:00,7.6,-0.4,57,19,24.1,100.52,Cloudy,1.709144039750936
3/8/2012 7:00,10.3,0.8,52,26,48.3,100.47,Cloudy,1.73791265078178
3/8/2012 8:00,6.7,0.2,63,19,48.3,100.39,Cloudy,1.724262800092033
3/8/2012 9:00,10.2,1.6,55,26,48.3,100.29,Cloudy,1.762287852356296
3/8/2012 10:00,12.1,2.9,53,30,24.1,100.22,Cloudy,1.0102000863355092
3/8/2012 11:00,12.7,3.8,55,26,24.1,100.13,Cloudy,1.4378218474045346
3/8/2012 12:00,11.7,4.0,59,20,24.1,100.08,Rain,1.5136406794872381
3/8/2012 13:00,11.5,5.2,65,20,24.1,99.99,Cloudy,1.697191521875884
3/8/2012 14:00,11.7,5.9,68,26,24.1,99.88,Cloudy,1.7018006700167505
3/8/2012 15:00,11.7,6.6,71,37,19.3,99.82,Rain,1.7711785595866945
3/8/2012 16:00,11.6,6.4,70,32,24.1,99.75,Rain,1.7199478807790953
3/8/2012 17:00,11.3,6.9,74,37,19.3,99.66,Rain,1.7437868559913932
3/8/2012 18:00,10.5,7.8,83,46,6.4,99.64,Rain,1.76837272597939
3/8/2012 19:00,6.1,3.2,82,30,16.1,99.78,Rain,1.7438439321638435
3/8/2012 20:00,5.0,1.6,79,41,25.0,99.9,Rain,1.74834453008048
3/8/2012 21:00,3.7,1.0,82,41,12.9,100.04,Rain,1.7636305151371177
3/8/2012 22:00,2.0,-0.5,83,46,9.7,100.13,"Rain,Fog",1.7705041338753509
3/8/2012 23:00,0.8,-1.4,85,35,2.4,100.25,Snow,1.7507512632600475
3/9/2012 0:00,-0.1,-2.0,87,28,2.8,100.33,Snow,1.755244623603565
3/9/2012 1:00,0.0,-3.7,76,22,25.0,100.41,Mostly Cloudy,1.7644189488827788
3/9/2012 2:00,-1.2,-6.6,67,20,25.0,100.62,Mainly Clear,1.7584913994546822
3/9/2012 3:00,-2.6,-8.5,64,24,25.0,100.81,Mainly Clear,1.771424504674599
3/9/2012 4:00,-3.9,-8.7,69,11,25.0,100.97,Mainly Clear,1.7475511302314808
3/9/2012 5:00,-3.9,-9.1,67,20,25.0,101.13,Mainly Clear,1.7719910684570421
3/9/2012 6:00,-4.3,-9.0,70,15,25.0,101.26,Mainly Clear,1.7739430707385189
3/9/2012 7:00,-5.0,-9.7,70,15,24.1,101.31,Clear,1.771183854296919
3/9/2012 8:00,-4.7,-10.2,65,15,24.1,101.41,Clear,1.7707568445981223
3/9/2012 9:00,-4.0,-9.5,66,20,24.1,101.46,Clear,1.7643657066097316
3/9/2012 10:00,-3.7,-10.1,61,19,48.3,101.48,Mainly Clear,1.7578658664300277
3/9/2012 11:00,-3.0,-10.0,58,17,48.3,101.47,Mainly Clear,1.736832412672468
3/9/2012 12:00,-2.1,-8.5,62,20,48.3,101.44,Mainly Clear,1.7702295119811902
3/9/2012 13:00,-1.5,-8.8,57,15,48.3,101.42,Mainly Clear,1.7722405168745825
3/9/2012 14:00,-1.0,-7.6,61,19,48.3,101.43,Mainly Clear,1.7737051078552424
3/9/2012 15:00,-1.1,-7.9,60,17,48.3,101.45,Mostly Cloudy,1.7719621496547018
3/9/2012 16:00,-0.7,-8.4,56,11,48.3,101.44,Mostly Cloudy,1.752099862769564
3/9/2012 17:00,-0.9,-7.9,59,7,48.3,101.47,Mostly Cloudy,1.3018013401233144
3/9/2012 18:00,-2.0,-8.7,60,7,25.0,101.52,Mainly Clear,1.7664371284625702
3/9/2012 19:00,-2.6,-8.2,65,4,25.0,101.57,Mostly Cloudy,1.76942050794635
3/9/2012 20:00,-2.0,-9.0,59,4,25.0,101.61,Mostly Cloudy,1.7568670384138307
3/9/2012 21:00,-1.9,-8.6,60,6,25.0,101.63,Mostly Cloudy,1.7656745373721103
3/9/2012 22:00,-2.2,-8.9,60,7,25.0,101.64,Mostly Cloudy,1.7729908094093767
3/9/2012 23:00,-2.6,-8.6,63,6,25.0,101.68,Cloudy,1.7637378137840531
3/10/2012 0:00,-2.2,-8.7,61,4,25.0,101.77,Cloudy,1.7653170746332931
3/10/2012 1:00,-2.7,-8.6,64,15,25.0,101.89,Cloudy,1.7586377147836008
3/10/2012 2:00,-3.8,-10.6,59,19,25.0,102.01,Cloudy,1.733892604140538
3/10/2012 3:00,-4.1,-12.7,51,24,25.0,102.1,Cloudy,1.6681046064048355
3/10/2012 4:00,-5.7,-13.1,56,26,25.0,102.27,Mainly Clear,1.7098611255923775
3/10/2012 5:00,-6.4,-14.0,55,20,25.0,102.42,Mainly Clear,1.6934071924005194
3/10/2012 6:00,-6.8,-14.1,56,26,24.1,102.6,Mostly Cloudy,1.69300677926428
3/10/2012 7:00,-7.1,-14.6,55,20,48.3,102.73,Mainly Clear,1.6692467070411297
3/10/2012 8:00,-6.8,-14.6,54,19,48.3,102.84,Mainly Clear,1.6941965285939022
3/10/2012 9:00,-6.3,-14.1,54,15,48.3,102.95,Mostly Cloudy,1.6724097034317136
3/10/2012 10:00,-6.1,-14.5,51,6,48.3,103.01,Mainly Clear,1.711879429514817
3/10/2012 11:00,-4.0,-13.2,49,0,48.3,103.02,Mainly Clear,1.725563715028253
3/10/2012 12:00,-4.1,-12.1,54,7,48.3,102.99,Clear,1.7330992091440502
3/10/2012 13:00,-3.2,-11.3,53,7,48.3,102.89,Mainly Clear,1.732173760470265
3/10/2012 14:00,-2.6,-11.1,52,15,48.3,102.84,Mostly Cloudy,1.6892348246130973
3/10/2012 15:00,-2.7,-10.2,56,11,48.3,102.75,Mostly Cloudy,1.698387079661393
3/10/2012 16:00,-1.8,-10.3,52,13,48.3,102.71,Mainly Clear,1.719436329148117
3/10/2012 17:00,-1.6,-10.0,53,17,48.3,102.68,Mainly Clear,1.7108544242293495
3/10/2012 18:00,-2.1,-10.1,54,9,25.0,102.66,Mainly Clear,1.7415844341291205
3/10/2012 19:00,-1.9,-9.4,56,9,25.0,102.67,Mainly Clear,1.7400916654807994
3/10/2012 20:00,-2.3,-8.0,65,11,25.0,102.6,Mostly Cloudy,1.7265391559205836
3/10/2012 21:00,-2.3,-8.1,64,11,25.0,102.54,Mostly Cloudy,1.7493601470920477
3/10/2012 22:00,-2.0,-7.1,68,11,25.0,102.5,Snow Showers,1.7547087824859842
3/10/2012 23:00,-1.7,-7.1,67,7,25.0,102.45,Cloudy,1.7582123092931523
3/11/2012 0:00,-3.1,-7.2,73,7,25.0,102.36,Mainly Clear,1.718324698506683
3/11/2012 1:00,-3.2,-6.9,76,7,25.0,102.28,Mainly Clear,1.7283181602530795
3/11/2012 2:00,-3.1,-7.1,74,7,25.0,102.18,Mainly Clear,1.7575277123857296
3/11/2012 3:00,-2.2,-7.0,70,17,25.0,102.05,Cloudy,1.7718727178691644
3/11/2012 4:00,-1.7,-6.9,68,13,25.0,102.02,Cloudy,1.7709771788675872
3/11/2012 5:00,-2.1,-7.0,69,11,25.0,101.98,Mainly Clear,1.772096165936889
3/11/2012 6:00,-1.5,-6.7,68,7,48.3,101.98,Cloudy,1.7731427038243859
3/11/2012 7:00,-1.8,-6.9,68,11,48.3,101.97,Clear,1.7724117508501362
3/11/2012 8:00,0.1,-6.2,63,7,48.3,102.0,Clear,1.7567661032459465
3/11/2012 9:00,2.7,-5.9,53,7,48.3,101.98,Mainly Clear,1.7353416214249422
3/11/2012 10:00,3.8,-5.7,50,13,48.3,101.97,Clear,1.729383162030952
3/11/2012 11:00,5.9,-4.2,48,11,48.3,101.92,Clear,0.9725903069472948
3/11/2012 12:00,6.8,-3.2,49,24,48.3,101.86,Clear,1.7579324044946123
3/11/2012 13:00,9.0,-1.9,46,20,48.3,101.79,Clear,1.7167344364467043
3/11/2012 14:00,9.5,-1.6,46,24,48.3,101.74,Clear,1.7431242695144045
3/11/2012 15:00,10.5,-1.3,44,20,48.3,101.69,Clear,1.6960815954028732
3/11/2012 16:00,10.9,-0.7,45,15,48.3,101.65,Clear,1.704580540940848
3/11/2012 17:00,10.7,-0.6,45,11,48.3,101.65,Clear,1.7070385241325092
3/11/2012 18:00,9.1,-1.0,49,7,25.0,101.68,Clear,1.7208292503002665
3/11/2012 19:00,7.4,-1.2,54,6,25.0,101.69,Clear,1.049576937145516
3/11/2012 20:00,4.8,-1.5,64,9,48.3,101.7,Clear,1.7430410507831535
3/11/2012 21:00,4.8,-1.6,63,13,25.0,101.72,Mainly Clear,1.719262117729691
3/11/2012 22:00,5.2,-1.9,60,6,25.0,101.72,Clear,1.7383289401375421
3/11/2012 23:00,6.1,-2.0,56,7,25.0,101.75,Clear,1.7345478252355127
3/12/2012 0:00,6.0,-1.8,57,20,25.0,101.77,Clear,1.767594274816912
3/12/2012 1:00,5.2,-1.8,61,17,25.0,101.77,Mainly Clear,1.7643701446326268
3/12/2012 2:00,4.6,-2.1,62,9,25.0,101.77,Mainly Clear,1.7687774559512985
3/12/2012 3:00,1.5,-2.8,73,11,25.0,101.78,Mainly Clear,1.767842530783681
3/12/2012 4:00,1.8,-2.6,73,4,25.0,101.8,Mainly Clear,1.7639876974649051
3/12/2012 5:00,2.3,-1.9,74,9,25.0,101.82,Clear,1.7725888291045364
3/12/2012 6:00,3.1,-1.8,70,11,48.3,101.89,Clear,1.7700166509769961
3/12/2012 7:00,2.6,-2.3,70,4,48.3,101.98,Mainly Clear,1.753520130090546
3/12/2012 8:00,4.4,-1.0,68,6,48.3,102.03,Mainly Clear,1.7588849975980871
3/12/2012 9:00,6.5,-0.2,62,0,48.3,102.03,Mostly Cloudy,1.7480389701675967
3/12/2012 10:00,8.3,0.2,57,9,24.1,102.0,Cloudy,1.7622878523562957
3/12/2012 11:00,10.6,0.3,49,6,24.1,101.99,Cloudy,1.7176107196534556
3/12/2012 12:00,10.8,0.4,49,9,48.3,101.94,Mostly Cloudy,1.7074638700301448
3/12/2012 13:00,11.6,0.6,47,13,48.3,101.84,Mostly Cloudy,1.6940816051740442
3/12/2012 14:00,12.3,1.4,47,6,48.3,101.79,Mostly Cloudy,0.9627685589726537
3/12/2012 15:00,12.4,0.6,44,4,48.3,101.71,Cloudy,1.6891215447484347
3/12/2012 16:00,11.8,1.2,48,4,25.0,101.64,Cloudy,1.7044114181478185
3/12/2012 17:00,11.6,1.0,48,6,24.1,101.57,Cloudy,0.9756917396532555
3/12/2012 18:00,9.0,1.1,58,13,25.0,101.54,Cloudy,1.7325943345720118
3/12/2012 19:00,8.7,1.1,59,13,25.0,101.5,Cloudy,1.7280114821891197
3/12/2012 20:00,9.2,1.4,58,13,25.0,101.44,Cloudy,1.7422557512456667
3/12/2012 21:00,8.4,1.0,60,13,25.0,101.39,Mostly Cloudy,1.7171960901194325
3/12/2012 22:00,7.9,0.7,60,11,25.0,101.35,Mostly Cloudy,1.7211507783313433
3/12/2012 23:00,6.6,-0.3,61,11,25.0,101.22,Mostly Cloudy,1.7372631543284374
3/13/2012 0:00,7.5,-0.7,56,13,25.0,101.11,Mostly Cloudy,1.7099614504461613
3/13/2012 1:00,5.1,-0.9,65,13,25.0,101.07,Rain Showers,1.1899223205174854
3/13/2012 2:00,4.8,-1.0,66,6,25.0,101.05,Rain Showers,1.7028618976829248
3/13/2012 3:00,4.6,-0.2,71,15,25.0,100.87,Cloudy,1.755616376156386
3/13/2012 4:00,6.5,1.1,68,7,25.0,100.74,Cloudy,1.7646316129137463
3/13/2012 5:00,5.8,1.1,72,6,25.0,100.71,Cloudy,1.7304152723885182
3/13/2012 6:00,7.4,1.8,68,9,19.3,100.6,Cloudy,1.716260383338628
3/13/2012 7:00,4.0,1.0,81,11,9.7,100.61,"Rain,Haze",1.7678316295782202
3/13/2012 8:00,5.5,2.9,83,7,6.4,100.5,"Rain,Haze",1.7697801719890298
3/13/2012 9:00,4.4,2.3,86,17,4.0,100.51,"Rain,Haze",1.7654423295716615
3/13/2012 10:00,3.5,1.5,87,11,2.4,100.54,"Drizzle,Fog",1.7694850079761988
3/13/2012 11:00,3.5,1.6,87,11,4.8,100.57,"Drizzle,Fog",1.7627270123343692
3/13/2012 12:00,3.9,2.2,89,9,4.8,100.64,Fog,1.7590894054480448
3/13/2012 13:00,4.9,3.0,87,7,6.4,100.63,Fog,1.755244623603565
3/13/2012 14:00,6.5,4.5,87,7,6.4,100.61,Fog,1.755244623603565
3/13/2012 15:00,5.3,3.3,87,11,8.0,100.63,Fog,1.755244623603565
3/13/2012 16:00,5.5,2.8,83,11,8.0,100.67,Haze,1.7583826982538309
3/13/2012 17:00,4.9,2.2,83,17,8.0,100.68,Haze,1.751694989930888
3/13/2012 18:00,4.0,1.5,84,13,8.0,100.73,Haze,1.7483983249034645
3/13/2012 19:00,3.1,0.9,85,17,6.4,100.79,"Drizzle,Fog",1.76879243881102
3/13/2012 20:00,2.6,0.3,85,17,6.4,100.77,Haze,1.7625416389776218
3/13/2012 21:00,1.1,-1.0,86,20,4.8,100.87,"Rain,Fog",1.7740670267229588
3/13/2012 22:00,1.4,-0.7,86,6,6.4,100.93,Haze,1.7726881512940562
3/13/2012 23:00,1.1,-0.9,86,9,4.8,100.98,Haze,1.7697721320882096
3/14/2012 0:00,0.7,-1.0,88,7,3.2,101.02,Fog,1.7724449194800636
3/14/2012 1:00,0.7,-0.9,89,7,1.0,101.06,Fog,1.7729986260833905
3/14/2012 2:00,0.6,-1.0,89,7,0.8,101.05,Fog,1.7729986260833905
3/14/2012 3:00,0.8,-0.3,92,6,0.6,101.06,Fog,1.7695387304424113
3/14/2012 4:00,0.8,-0.6,90,4,0.6,101.13,Fog,1.7738500144538956
3/14/2012 5:00,0.7,-0.9,89,6,0.6,101.23,Fog,1.7735548301252415
3/14/2012 6:00,0.6,-0.9,90,7,0.6,101.28,Fog,1.7656526559408987
3/14/2012 7:00,0.8,-0.4,92,6,2.4,101.36,Fog,1.764560779079539
3/14/2012 8:00,1.1,-0.1,92,6,3.2,101.46,"Rain,Fog",1.7650686968027867
3/14/2012 9:00,1.6,0.4,92,7,4.8,101.51,"Rain,Fog",1.7699114109266165
3/14/2012 10:00,1.1,0.5,96,7,2.4,101.57,"Snow,Fog",1.7699087340766253
3/14/2012 11:00,0.4,0.1,98,6,1.6,101.6,"Snow,Fog",1.7720304913691292
3/14/2012 12:00,1.0,0.8,99,4,2.0,101.65,"Snow,Fog",1.7730767632267987
3/14/2012 13:00,2.1,1.8,98,4,4.8,101.67,"Rain,Fog",1.7720304913691292
3/14/2012 14:00,2.2,1.8,97,7,8.0,101.7,"Drizzle,Fog",1.7709745267585884
3/14/2012 15:00,1.7,1.3,97,13,4.8,101.77,"Drizzle,Fog",1.7709745267585884
3/14/2012 16:00,1.5,1.2,98,13,8.0,101.82,"Drizzle,Fog",1.7720304913691292
3/14/2012 17:00,1.0,0.6,97,15,9.7,101.89,Fog,1.771754244355087
3/14/2012 18:00,0.5,0.1,97,17,9.7,101.99,"Drizzle,Fog",1.7736351758025362
3/14/2012 19:00,0.3,-0.2,96,15,8.0,102.07,"Snow,Fog",1.7737801719474895
3/14/2012 20:00,0.2,-0.5,95,15,12.9,102.13,Cloudy,1.7737982834059527
3/14/2012 21:00,-0.1,-0.9,94,17,12.9,102.17,Cloudy,1.7731548465968556
3/14/2012 22:00,-0.3,-1.3,93,20,12.9,102.18,Cloudy,1.7731080030245145
3/14/2012 23:00,-0.6,-1.6,93,15,12.9,102.23,Cloudy,1.770144058693011
3/15/2012 0:00,-0.6,-1.7,92,19,12.9,102.24,Cloudy,1.7712394339642408
3/15/2012 1:00,-0.6,-1.7,92,19,12.9,102.27,Cloudy,1.7703202365088602
3/15/2012 2:00,-0.4,-1.5,92,13,12.9,102.29,Cloudy,1.7691621464695173
3/15/2012 3:00,-0.3,-1.5,92,11,12.9,102.25,Cloudy,1.76942050794635
3/15/2012 4:00,-0.2,-1.3,92,17,12.9,102.26,Cloudy,1.7713557990917403
3/15/2012 5:00,-0.3,-1.5,92,15,12.9,102.34,Cloudy,1.770666464734749
3/15/2012 6:00,-0.3,-1.6,91,20,16.1,102.36,Cloudy,1.7700050614532397
3/15/2012 7:00,-0.5,-1.9,90,13,16.1,102.4,Cloudy,1.7609487211792867
3/15/2012 8:00,-0.5,-2.1,89,17,19.3,102.42,Cloudy,1.7590894054480448
3/15/2012 9:00,-0.3,-2.0,88,20,16.1,102.39,Cloudy,1.7676925494162383
3/15/2012 10:00,0.4,-1.6,86,22,19.3,102.31,Cloudy,1.773852600385193
3/15/2012 11:00,1.1,-1.3,84,19,24.1,102.23,Cloudy,1.7728056575314568
3/15/2012 12:00,2.2,-0.7,81,19,24.1,102.18,Cloudy,1.7719253332951417
3/15/2012 13:00,3.4,0.0,78,22,24.1,102.12,Cloudy,1.7676325025952115
3/15/2012 14:00,3.4,-0.1,78,22,24.1,102.05,Cloudy,1.7679297035877286
3/15/2012 15:00,4.0,0.6,78,24,24.1,102.0,Mostly Cloudy,1.7678970214589742
3/15/2012 16:00,3.5,0.1,78,20,24.1,101.99,Mostly Cloudy,1.767124546440996
3/15/2012 17:00,3.0,-0.3,79,26,24.1,101.98,Mostly Cloudy,1.7700157595166364
3/15/2012 18:00,2.6,-0.3,81,22,24.1,101.98,Rain Showers,1.7734147368458497
3/15/2012 19:00,2.4,-0.4,82,28,25.0,101.88,Mostly Cloudy,1.7629165272320222
3/15/2012 20:00,2.3,-0.2,84,24,25.0,101.86,Mostly Cloudy,1.773427715727367
3/15/2012 21:00,2.0,0.4,89,28,25.0,101.8,Rain Showers,1.7672962135175967
3/15/2012 22:00,2.1,0.5,89,20,25.0,101.77,Mostly Cloudy,1.7684188333838189
3/15/2012 23:00,1.8,0.2,89,19,25.0,101.7,Mostly Cloudy,1.7693317614457682
3/16/2012 0:00,1.8,0.4,90,19,25.0,101.67,Cloudy,1.7705866585937822
3/16/2012 1:00,1.9,0.6,91,15,25.0,101.54,Rain Showers,1.7683781513328196
3/16/2012 2:00,1.1,0.2,94,17,12.9,101.56,Rain,1.7677471105115399
3/16/2012 3:00,1.1,0.5,96,19,6.4,101.46,Rain,1.7699087340766253
3/16/2012 4:00,1.0,0.5,96,17,4.8,101.39,Rain,1.7704268795646017
3/16/2012 5:00,0.7,0.3,97,20,4.8,101.36,Rain,1.7719042900374813
3/16/2012 6:00,0.6,0.2,97,24,6.4,101.39,"Rain,Fog",1.7709745267585884
3/16/2012 7:00,1.1,0.6,96,19,4.8,101.37,"Rain,Fog",1.7699087340766253
3/16/2012 8:00,1.1,0.7,97,15,4.0,101.38,"Rain,Fog",1.7709745267585884
3/16/2012 9:00,1.1,0.7,97,17,4.0,101.41,"Rain,Fog",1.7709745267585884
3/16/2012 10:00,1.5,1.1,97,13,4.8,101.41,"Rain,Fog",1.7709745267585884
3/16/2012 11:00,1.8,1.3,96,13,8.0,101.4,"Rain,Fog",1.7699087340766253
3/16/2012 12:00,2.5,2.0,96,6,8.0,101.42,Fog,1.7699087340766253
3/16/2012 13:00,3.3,2.8,97,6,9.7,101.38,Fog,1.7709745267585884
3/16/2012 14:00,4.0,3.2,95,11,9.7,101.4,Fog,1.768832975474038
3/16/2012 15:00,3.7,3.2,97,7,6.4,101.48,Fog,1.7709745267585884
3/16/2012 16:00,4.3,3.5,95,4,8.0,101.53,Fog,1.768832975474038
3/16/2012 17:00,4.1,3.2,94,7,8.0,101.61,Fog,1.7677471105115399
3/16/2012 18:00,3.8,3.2,96,7,4.8,101.71,"Drizzle,Fog",1.7699087340766253
3/16/2012 19:00,3.8,3.2,96,0,3.2,101.77,"Drizzle,Fog",1.7699087340766253
3/16/2012 20:00,3.7,3.3,97,0,2.0,101.93,"Drizzle,Fog",1.7709745267585884
3/16/2012 21:00,4.0,3.7,98,7,3.2,101.93,"Drizzle,Fog",1.7720304913691292
3/16/2012 22:00,3.8,3.4,97,0,6.4,102.04,"Drizzle,Fog",1.7709745267585884
3/16/2012 23:00,3.7,3.3,97,0,3.2,102.07,"Drizzle,Fog",1.7709745267585884
3/17/2012 0:00,3.8,3.5,98,4,1.6,102.05,"Drizzle,Fog",1.7720304913691292
3/17/2012 1:00,3.0,2.7,98,6,0.6,102.05,Fog,1.7720304913691292
3/17/2012 2:00,2.7,2.5,99,4,0.2,102.09,Fog,1.7730767632267987
3/17/2012 3:00,1.8,1.6,99,4,0.2,102.1,Fog,1.7730767632267987
3/17/2012 4:00,0.3,0.1,99,0,0.2,102.15,Fog,1.7732744701180558
3/17/2012 5:00,-0.1,-0.3,99,0,0.8,102.2,Freezing Fog,1.7730767632267987
3/17/2012 6:00,-0.1,-0.4,98,4,0.2,102.26,Freezing Fog,1.7733108522388004
3/17/2012 7:00,0.5,0.4,99,0,0.2,102.34,Fog,1.7730767632267987
3/17/2012 8:00,1.0,0.9,99,0,0.2,102.39,Fog,1.7730767632267987
3/17/2012 9:00,1.6,1.5,99,4,0.2,102.38,Fog,1.7730767632267987
3/17/2012 10:00,2.6,2.6,100,0,0.2,102.37,Fog,1.774113475177305
3/17/2012 11:00,4.1,3.8,98,4,0.6,102.34,Fog,1.7720304913691292
3/17/2012 12:00,5.7,5.3,97,4,9.7,102.32,Fog,1.7709745267585884
3/17/2012 13:00,8.1,6.2,88,7,16.1,102.18,Cloudy,1.7571931537828946
3/17/2012 14:00,9.2,4.3,71,7,24.1,102.13,Cloudy,1.7592160595067892
3/17/2012 15:00,10.2,4.4,67,6,24.1,102.07,Cloudy,1.768640976240648
3/17/2012 16:00,10.5,4.1,65,7,48.3,102.02,Cloudy,1.7339197705516114
3/17/2012 17:00,10.1,4.7,69,9,48.3,101.97,Cloudy,1.7473393647291227
3/17/2012 18:00,10.1,5.4,73,7,48.3,101.95,Cloudy,1.730946162908024
3/17/2012 19:00,9.8,5.9,77,6,25.0,101.93,Cloudy,1.747199883913024
3/17/2012 20:00,9.3,5.2,76,0,25.0,101.92,Cloudy,1.7685570455259256
3/17/2012 21:00,8.8,5.5,80,4,25.0,101.8,Mostly Cloudy,1.7551137629840488
3/17/2012 22:00,7.7,4.9,82,0,25.0,101.77,Mainly Clear,1.7474918951345795
3/17/2012 23:00,6.7,4.7,87,7,25.0,101.78,Mainly Clear,1.7615589465875106
3/18/2012 0:00,3.8,2.8,93,4,25.0,101.75,Mainly Clear,1.7663155381997573
3/18/2012 1:00,5.2,3.5,89,0,25.0,101.74,Mostly Cloudy,1.7590894054480448
3/18/2012 2:00,4.3,3.0,91,6,25.0,101.71,Mainly Clear,1.762772169746578
3/18/2012 3:00,3.9,2.4,90,7,25.0,101.66,Clear,1.7609487211792867
3/18/2012 4:00,3.2,2.3,94,6,25.0,101.69,Clear,1.7677471105115399
3/18/2012 5:00,3.5,2.4,92,6,25.0,101.7,Clear,1.764560779079539
3/18/2012 6:00,3.6,2.6,93,7,24.1,101.72,Clear,1.7663155381997573
3/18/2012 7:00,5.1,3.7,91,4,48.3,101.78,Mainly Clear,1.762772169746578
3/18/2012 8:00,8.8,5.8,81,11,48.3,101.79,Mainly Clear,1.7408722768108806
3/18/2012 9:00,10.4,6.6,77,11,48.3,101.81,Mainly Clear,1.7328646033935973
3/18/2012 10:00,11.9,6.7,70,13,48.3,101.78,Mainly Clear,1.7201913875190988
3/18/2012 11:00,14.1,7.6,65,13,48.3,101.71,Clear,1.7212211643373334
3/18/2012 12:00,17.3,8.7,57,11,48.3,101.63,Clear,1.6878150195236872
3/18/2012 13:00,20.0,9.9,52,15,48.3,101.55,Mainly Clear,0.9965206592781398
3/18/2012 14:00,21.7,10.5,49,13,48.3,101.45,Mainly Clear,1.722189683174555
3/18/2012 15:00,22.2,10.4,47,15,48.3,101.39,Mainly Clear,0.9910836555416841
3/18/2012 16:00,22.7,10.7,47,11,48.3,101.35,Mainly Clear,1.1715280335315041
3/18/2012 17:00,21.8,11.0,50,6,48.3,101.32,Mostly Cloudy,0.9585190469595112
3/18/2012 18:00,18.4,10.1,58,9,48.3,101.32,Mostly Cloudy,1.0066886691865495
3/18/2012 19:00,17.1,9.8,62,0,25.0,101.3,Mainly Clear,1.6966599963107452
3/18/2012 20:00,12.8,8.6,76,7,25.0,101.34,Clear,1.7272721454173066
3/18/2012 21:00,13.4,9.2,76,4,25.0,101.37,Mainly Clear,1.7272721454173066
3/18/2012 22:00,12.6,8.9,78,7,25.0,101.39,Mainly Clear,1.733057876440812
3/18/2012 23:00,10.6,7.9,83,6,25.0,101.37,Mainly Clear,1.7459700090483987
3/19/2012 0:00,9.8,7.6,86,6,25.0,101.37,Mainly Clear,1.7530322801745157
3/19/2012 1:00,10.8,8.5,86,6,25.0,101.39,Clear,1.7530322801745157
3/19/2012 2:00,10.6,8.6,87,4,25.0,101.42,Clear,1.755244623603565
3/19/2012 3:00,10.2,8.3,88,11,25.0,101.42,Clear,1.7571931537828946
3/19/2012 4:00,11.2,9.0,86,6,25.0,101.49,Clear,1.7530322801745157
3/19/2012 5:00,9.7,8.1,90,7,25.0,101.5,Clear,1.7609487211792867
3/19/2012 6:00,11.3,9.4,88,4,24.1,101.56,Mainly Clear,1.7571931537828946
3/19/2012 7:00,9.9,8.5,91,0,12.9,101.59,Mostly Cloudy,1.762772169746578
3/19/2012 8:00,11.9,9.9,88,7,12.9,101.67,Mostly Cloudy,1.7688518877194115
3/19/2012 9:00,13.9,10.5,80,6,12.9,101.71,Mainly Clear,1.7383226557949913
3/19/2012 10:00,15.6,11.0,74,6,16.1,101.75,Mainly Clear,1.7209839103698092
3/19/2012 11:00,17.8,11.6,67,4,16.1,101.75,Mainly Clear,1.2523873978786297
3/19/2012 12:00,19.8,12.0,61,4,19.3,101.75,Mainly Clear,1.051491212207147
3/19/2012 13:00,18.5,11.0,62,19,19.3,101.72,Mainly Clear,1.7060488678600616
3/19/2012 14:00,17.0,9.9,63,15,24.1,101.72,Mainly Clear,1.7145653449304656
3/19/2012 15:00,16.3,10.0,66,17,24.1,101.71,Mainly Clear,1.6960165533823464
3/19/2012 16:00,16.6,9.7,64,11,24.1,101.66,Mainly Clear,1.2475086980921797
3/19/2012 17:00,15.9,9.1,64,13,24.1,101.66,Mainly Clear,1.3162421183467423
3/19/2012 18:00,13.9,7.9,67,19,24.1,101.67,Mainly Clear,1.7339672811937967
3/19/2012 19:00,12.5,6.7,68,15,25.0,101.71,Mainly Clear,1.7155537900075737
3/19/2012 20:00,10.6,5.4,70,13,25.0,101.8,Mainly Clear,1.7349360858961873
3/19/2012 21:00,9.5,4.1,69,15,25.0,101.8,Clear,1.7287493732947157
3/19/2012 22:00,8.8,2.7,66,17,25.0,101.83,Clear,1.7515232499443296
3/19/2012 23:00,7.2,1.8,69,9,25.0,101.86,Clear,1.7585150138330519
3/20/2012 0:00,7.1,1.0,65,11,25.0,101.85,Clear,1.742533432297188
3/20/2012 1:00,6.1,0.7,68,11,25.0,101.85,Clear,1.7563371567493884
3/20/2012 2:00,5.7,0.4,69,11,25.0,101.85,Clear,1.7569582698906718
3/20/2012 3:00,5.2,0.2,70,7,25.0,101.86,Clear,1.7573414588244691
3/20/2012 4:00,5.2,-0.2,68,4,25.0,101.88,Clear,1.7499887600883193
3/20/2012 5:00,5.0,-0.3,69,7,25.0,101.92,Clear,1.765818824641784
3/20/2012 6:00,3.2,-0.6,76,4,24.1,101.97,Clear,1.771242079941586
3/20/2012 7:00,5.5,-0.1,67,4,24.1,102.0,Clear,1.762083418180707
3/20/2012 8:00,8.0,0.6,60,6,24.1,102.08,Clear,1.7451764336037399
3/20/2012 9:00,10.6,1.3,53,0,19.3,102.09,Mainly Clear,1.7509767729090344
3/20/2012 10:00,12.6,2.6,50,4,24.1,102.07,Mainly Clear,1.7237909975628662
3/20/2012 11:00,14.9,4.0,48,6,24.1,102.02,Clear,1.7089053184653802
3/20/2012 12:00,16.5,6.7,52,9,24.1,101.98,Clear,1.7174285144295982
3/20/2012 13:00,20.0,10.8,55,13,24.1,101.93,Clear,1.728183711192797
3/20/2012 14:00,21.5,11.8,54,11,24.1,101.83,Clear,1.0268860609795454
3/20/2012 15:00,22.5,12.3,52,9,24.1,101.78,Clear,0.9672786540722194
3/20/2012 16:00,23.3,12.1,49,7,24.1,101.73,Clear,1.018572100174801
3/20/2012 17:00,22.0,12.1,53,7,24.1,101.72,Clear,0.9752285597376648
3/20/2012 18:00,19.7,11.7,60,4,24.1,101.74,Clear,1.5168595994511977
3/20/2012 19:00,17.5,10.9,65,6,25.0,101.79,Clear,1.7410870331045283
3/20/2012 20:00,18.1,11.6,66,4,25.0,101.85,Clear,1.7181042084658247
3/20/2012 21:00,16.0,10.9,72,6,25.0,101.89,Clear,1.7154802667147235
3/20/2012 22:00,14.2,10.3,77,4,25.0,101.9,Clear,1.7579371554500731
3/20/2012 23:00,14.3,10.7,79,6,25.0,101.91,Clear,1.7625733140622977
3/21/2012 0:00,14.0,11.0,82,9,25.0,101.9,Clear,1.7434626346010758
3/21/2012 1:00,12.4,10.5,88,4,25.0,101.92,Clear,1.7571931537828946
3/21/2012 2:00,11.8,10.3,91,6,25.0,101.93,Clear,1.7635633906836614
3/21/2012 3:00,11.4,9.8,90,4,25.0,101.93,Clear,1.7609487211792867
3/21/2012 4:00,10.6,9.1,90,0,25.0,101.95,Clear,1.7609487211792867
3/21/2012 5:00,10.0,8.8,92,0,25.0,102.02,Clear,1.764560779079539
3/21/2012 6:00,9.5,8.6,94,4,9.7,102.07,Fog,1.7677471105115399
3/21/2012 7:00,11.3,9.9,91,4,9.7,102.1,Fog,1.762772169746578
3/21/2012 8:00,13.8,11.5,86,9,12.9,102.15,Clear,1.7530322801745157
3/21/2012 9:00,15.9,11.8,77,7,19.3,102.17,Clear,1.76060933080937
3/21/2012 10:00,18.2,12.5,69,13,24.1,102.09,Clear,1.505906587803386
3/21/2012 11:00,20.2,12.3,60,15,24.1,102.01,Clear,1.743957959475322
3/21/2012 12:00,22.3,12.6,54,15,24.1,101.94,Clear,1.6950442505577363
3/21/2012 13:00,23.8,12.1,48,17,24.1,101.85,Clear,1.3168281178261099
3/21/2012 14:00,24.7,12.1,45,13,24.1,101.77,Clear,1.7423074869647341
3/21/2012 15:00,25.4,12.0,43,17,48.3,101.72,Clear,0.945948721343493
3/21/2012 16:00,25.5,11.0,40,17,48.3,101.69,Clear,0.9557861893691004
3/21/2012 17:00,25.2,10.7,40,13,48.3,101.68,Clear,0.9557861893691004
3/21/2012 18:00,20.7,9.7,49,9,48.3,101.67,Clear,0.9543182044691277
3/21/2012 19:00,17.2,9.1,59,6,25.0,101.67,Clear,1.704823775589074
3/21/2012 20:00,18.4,8.9,54,7,25.0,101.7,Clear,1.0106632754641283
3/21/2012 21:00,16.4,9.7,65,13,25.0,101.68,Clear,1.697868220461612
3/21/2012 22:00,18.0,10.5,62,7,25.0,101.66,Clear,1.6863809189074683
3/21/2012 23:00,16.5,9.5,63,7,25.0,101.66,Clear,1.4042481976309784
3/22/2012 0:00,17.0,9.1,60,13,25.0,101.63,Clear,1.7147828381902803
3/22/2012 1:00,15.5,8.7,64,11,25.0,101.62,Clear,1.104797624830667
3/22/2012 2:00,15.0,8.7,66,7,25.0,101.59,Clear,1.6960165533823464
3/22/2012 3:00,11.0,7.4,78,9,25.0,101.56,Clear,1.733057876440812
3/22/2012 4:00,13.2,8.4,73,6,25.0,101.54,Clear,1.718324698506683
3/22/2012 5:00,12.8,8.5,75,13,25.0,101.59,Clear,1.7397312872233286
3/22/2012 6:00,13.7,9.0,73,15,48.3,101.57,Mostly Cloudy,1.718324698506683
3/22/2012 7:00,14.2,9.5,73,22,24.1,101.55,Mainly Clear,1.722041341824205
3/22/2012 8:00,15.4,9.9,70,15,24.1,101.55,Mainly Clear,1.7091525423728813
3/22/2012 9:00,17.3,10.4,64,22,24.1,101.53,Mainly Clear,1.43604586772062
3/22/2012 10:00,19.6,11.4,59,17,24.1,101.57,Mainly Clear,1.7414364126062043
3/22/2012 11:00,20.4,11.9,58,15,24.1,101.52,Mainly Clear,1.0240407417916515
3/22/2012 12:00,23.0,12.0,50,20,24.1,101.5,Mostly Cloudy,1.6837653477886563
3/22/2012 13:00,23.3,12.1,49,19,24.1,101.43,Mostly Cloudy,0.9903033181899836
3/22/2012 14:00,22.8,12.6,53,17,24.1,101.4,Cloudy,1.1253481053090884
3/22/2012 15:00,21.4,12.8,58,6,24.1,101.38,Cloudy,0.9954964194980768
3/22/2012 16:00,22.2,12.3,53,13,24.1,101.33,Mostly Cloudy,0.9686632035791294
3/22/2012 17:00,20.0,12.2,61,11,24.1,101.39,Mostly Cloudy,1.024453427296921
3/22/2012 18:00,18.2,11.5,65,19,24.1,101.48,Rain Showers,1.7647112363218334
3/22/2012 19:00,16.7,9.4,62,13,25.0,101.52,Rain Showers,1.7125252550686156
3/22/2012 20:00,15.1,8.5,65,11,25.0,101.58,Mainly Clear,1.5568220605836678
3/22/2012 21:00,12.1,7.4,73,7,25.0,101.59,Mainly Clear,1.7482128707623972
3/22/2012 22:00,11.0,6.8,75,7,25.0,101.61,Mainly Clear,1.7241591468416737
3/22/2012 23:00,11.3,7.2,76,6,25.0,101.62,Clear,1.7272721454173066
3/23/2012 0:00,10.4,7.1,80,7,25.0,101.67,Mainly Clear,1.7383226557949913
3/23/2012 1:00,10.3,7.5,83,0,25.0,101.7,Mainly Clear,1.7459700090483987
3/23/2012 2:00,8.9,6.5,85,9,25.0,101.71,Mainly Clear,1.7507512632600475
3/23/2012 3:00,8.8,6.4,85,9,25.0,101.72,Mainly Clear,1.7507512632600475
3/23/2012 4:00,9.2,6.3,82,7,25.0,101.76,Clear,1.7494921802042414
3/23/2012 5:00,8.0,5.2,82,9,25.0,101.85,Clear,1.7548622843212052
3/23/2012 6:00,6.6,2.9,77,7,25.0,101.9,Clear,1.7652666906329564
3/23/2012 7:00,8.4,3.0,69,0,48.3,101.93,Clear,1.7545906944450933
3/23/2012 8:00,11.3,1.8,52,0,48.3,101.93,Clear,1.7033647209115452
3/23/2012 9:00,12.8,2.3,49,4,48.3,101.94,Clear,1.6916273385547491
3/23/2012 10:00,14.5,0.1,37,17,48.3,101.93,Clear,1.7183315696913917
3/23/2012 11:00,14.9,-3.0,29,15,48.3,101.87,Clear,1.6930631778659386
3/23/2012 12:00,16.2,-2.5,28,11,48.3,101.81,Mainly Clear,1.6748935113010797
3/23/2012 13:00,16.8,-2.3,27,7,48.3,101.71,Mostly Cloudy,1.6648192304833178
3/23/2012 14:00,16.6,-6.8,19,15,48.3,101.66,Mostly Cloudy,1.6744960146092418
3/23/2012 15:00,16.4,-6.8,20,15,48.3,101.63,Mostly Cloudy,1.6759669110455955
3/23/2012 16:00,15.5,-9.0,18,22,48.3,101.6,Cloudy,1.6750790206277004
3/23/2012 17:00,14.7,-5.1,25,13,48.3,101.62,Cloudy,1.681906460181391
3/23/2012 18:00,13.4,-5.8,26,13,48.3,101.64,Cloudy,1.687007776302339
3/23/2012 19:00,11.8,-5.5,29,11,25.0,101.68,Mostly Cloudy,1.707047425384625
3/23/2012 20:00,10.9,-5.9,30,6,25.0,101.72,Cloudy,1.710887157300318
3/23/2012 21:00,10.8,-8.0,26,15,25.0,101.7,Mostly Cloudy,1.7158611960896089
3/23/2012 22:00,10.6,-8.9,24,19,25.0,101.73,Cloudy,1.7203746804217004
3/23/2012 23:00,9.9,-8.7,26,19,25.0,101.78,Mostly Cloudy,1.7287567812027802
3/24/2012 0:00,8.4,-9.1,28,22,25.0,101.8,Mostly Cloudy,1.7684432357555633
3/24/2012 1:00,7.3,-9.4,29,20,25.0,101.85,Mainly Clear,1.7537586726271484
3/24/2012 2:00,6.2,-10.6,29,19,25.0,101.86,Mostly Cloudy,1.7550318548809063
3/24/2012 3:00,5.3,-9.4,34,22,25.0,101.86,Mostly Cloudy,1.7718095473046511
3/24/2012 4:00,4.4,-8.9,37,13,25.0,101.88,Cloudy,1.7526268568850818
3/24/2012 5:00,3.6,-8.5,41,19,25.0,101.89,Cloudy,1.7656701615014385
3/24/2012 6:00,3.2,-8.8,41,19,24.1,101.93,Cloudy,1.764896758528288
3/24/2012 7:00,3.1,-9.3,40,15,24.1,101.97,Cloudy,1.756790144996882
3/24/2012 8:00,2.7,-9.4,40,19,24.1,101.98,Cloudy,1.7692806339796323
3/24/2012 9:00,3.0,-11.2,34,22,48.3,101.94,Cloudy,1.7610407367459338
3/24/2012 10:00,3.7,-9.5,37,22,48.3,101.89,Cloudy,1.7466944136028664
3/24/2012 11:00,3.7,-11.1,33,22,48.3,101.86,Cloudy,1.7491178783321415
3/24/2012 12:00,4.8,-10.3,33,19,48.3,101.8,Cloudy,1.7414233386019187
3/24/2012 13:00,4.7,-10.9,31,19,48.3,101.74,Cloudy,1.7157004535144844
3/24/2012 14:00,6.1,-8.7,34,9,48.3,101.68,Cloudy,0.982139433707547
3/24/2012 15:00,5.8,-9.8,32,4,48.3,101.61,Cloudy,1.7053803812071113
3/24/2012 16:00,6.1,-9.5,32,7,48.3,101.53,Cloudy,1.7257273574880787
3/24/2012 17:00,6.1,-10.3,30,13,48.3,101.47,Cloudy,1.7177503312620754
3/24/2012 18:00,6.1,-9.9,31,13,48.3,101.46,Cloudy,1.721527742009616
3/24/2012 19:00,6.2,-8.4,34,13,25.0,101.38,Cloudy,1.7424947448071426
3/24/2012 20:00,6.3,-7.4,37,9,25.0,101.35,Cloudy,1.7418211282462688
3/24/2012 21:00,6.6,-8.1,34,9,25.0,101.28,Cloudy,1.7482547871531828
3/24/2012 22:00,6.6,-7.8,35,11,25.0,101.22,Cloudy,1.7439326344664696
3/24/2012 23:00,6.5,-7.2,37,7,25.0,101.15,Rain Showers,1.7419283843963578
3/25/2012 0:00,5.8,-5.7,43,20,25.0,101.05,Rain,1.7451265635445714
3/25/2012 1:00,5.9,-6.2,41,13,25.0,101.03,Cloudy,1.7395901823647741
3/25/2012 2:00,5.9,-5.0,45,9,25.0,100.91,Rain Showers,0.9829601826783753
3/25/2012 3:00,5.8,-4.2,49,7,25.0,100.84,Cloudy,1.7470114842578761
3/25/2012 4:00,5.3,-4.3,50,19,25.0,100.79,Cloudy,1.7445947032474012
3/25/2012 5:00,4.5,-2.9,59,11,25.0,100.73,Cloudy,1.7725574461676519
3/25/2012 6:00,3.8,-0.9,71,15,24.1,100.76,Rain Showers,1.712430565280306
3/25/2012 7:00,2.5,0.9,89,17,24.1,100.76,Rain,1.7590894054480448
3/25/2012 8:00,3.0,1.5,90,6,24.1,100.74,Rain,1.7609487211792867
3/25/2012 9:00,3.1,2.0,92,0,6.4,100.71,"Rain,Fog",1.764560779079539
3/25/2012 10:00,3.9,2.7,92,0,12.9,100.66,Cloudy,1.764560779079539
3/25/2012 11:00,5.2,3.6,89,6,16.1,100.58,Cloudy,1.7590894054480448
3/25/2012 12:00,5.9,3.7,86,6,24.1,100.54,Cloudy,1.7530322801745157
3/25/2012 13:00,6.6,4.0,83,6,24.1,100.47,Cloudy,1.7459700090483987
3/25/2012 14:00,7.5,4.1,79,11,24.1,100.39,Cloudy,1.7378999874965375
3/25/2012 15:00,7.6,4.6,81,9,24.1,100.29,Mostly Cloudy,1.7408722768108806
3/25/2012 16:00,8.4,4.8,78,9,24.1,100.27,Cloudy,1.734655193091643
3/25/2012 17:00,9.2,5.3,77,7,24.1,100.26,Cloudy,1.737083542352689
3/25/2012 18:00,8.9,5.7,80,7,24.1,100.28,Mostly Cloudy,1.7383226557949913
3/25/2012 19:00,8.7,5.2,79,4,25.0,100.25,Mainly Clear,1.7357508862871274
3/25/2012 20:00,7.3,4.9,85,7,25.0,100.22,Mostly Cloudy,1.7507512632600475
3/25/2012 21:00,8.2,5.7,84,13,25.0,100.21,Mainly Clear,1.7483983249034645
3/25/2012 22:00,7.5,5.5,87,11,25.0,100.17,Mainly Clear,1.755244623603565
3/25/2012 23:00,6.4,4.8,89,11,25.0,100.12,Mostly Cloudy,1.7590894054480448
3/26/2012 0:00,7.3,3.7,78,24,25.0,100.19,Rain Showers,1.7501231980591023
3/26/2012 1:00,4.6,-1.9,63,33,25.0,100.29,Rain Showers,1.7510921547417608
3/26/2012 2:00,2.6,-3.7,63,26,25.0,100.4,Cloudy,1.7715565148083323
3/26/2012 3:00,0.8,-8.9,48,26,25.0,100.6,Mostly Cloudy,1.755687723012349
3/26/2012 4:00,-1.1,-10.4,49,22,25.0,100.74,Clear,1.7614033242347955
3/26/2012 5:00,-1.9,-10.9,50,20,25.0,100.86,Clear,1.7648305432607154
3/26/2012 6:00,-3.8,-13.4,47,32,24.1,101.03,Clear,1.755375248050906
3/26/2012 7:00,-3.8,-13.6,46,26,48.3,101.19,Mainly Clear,1.772237893944232
3/26/2012 8:00,-4.0,-12.6,51,26,48.3,101.27,Mostly Cloudy,1.7734303113252479
3/26/2012 9:00,-3.0,-13.1,46,22,48.3,101.33,Mainly Clear,1.7705627059193334
3/26/2012 10:00,-2.1,-13.0,43,26,48.3,101.32,Mainly Clear,1.765897431618871
3/26/2012 11:00,-0.6,-11.4,44,28,48.3,101.3,Mainly Clear,1.7620197255888885
3/26/2012 12:00,0.2,-11.4,41,30,48.3,101.28,Mainly Clear,1.7475027785010855
3/26/2012 13:00,0.6,-12.6,36,28,48.3,101.26,Mainly Clear,1.7634110627654467
3/26/2012 14:00,1.3,-13.3,33,28,48.3,101.24,Mainly Clear,1.7540084460696646
3/26/2012 15:00,1.4,-14.8,29,30,48.3,101.26,Mainly Clear,1.7628804587340619
3/26/2012 16:00,1.3,-15.7,27,30,48.3,101.29,Clear,1.7566698763804927
3/26/2012 17:00,1.2,-16.3,26,32,48.3,101.34,Clear,1.7470297367846515
3/26/2012 18:00,0.1,-17.3,26,24,48.3,101.43,Clear,1.7517178585824573
3/26/2012 19:00,-0.7,-18.0,26,28,25.0,101.56,Clear,1.7698899943825646
3/26/2012 20:00,-1.4,-18.7,25,28,25.0,101.68,Clear,1.7717173608275145
3/26/2012 21:00,-2.3,-18.4,28,24,25.0,101.79,Clear,1.7723453845736898
3/26/2012 22:00,-2.9,-17.8,31,28,25.0,101.84,Clear,1.7723191767032835
3/26/2012 23:00,-3.6,-17.4,33,26,25.0,101.9,Clear,1.7733290389209078
3/27/2012 0:00,-4.3,-17.6,35,22,25.0,101.94,Clear,1.7591832394085887
3/27/2012 1:00,-5.0,-17.7,36,19,25.0,101.96,Clear,1.7550045315960403
3/27/2012 2:00,-5.4,-16.8,40,17,25.0,102.02,Clear,1.7573653576283643
3/27/2012 3:00,-6.0,-17.0,41,17,25.0,102.06,Clear,1.745300968353504
3/27/2012 4:00,-6.5,-17.3,42,13,25.0,102.14,Clear,1.7733264410021272
3/27/2012 5:00,-7.4,-16.4,49,11,25.0,102.24,Clear,1.6869979226852543
3/27/2012 6:00,-7.5,-16.4,49,9,48.3,102.31,Clear,1.7645784926127355
3/27/2012 7:00,-6.1,-17.7,39,9,48.3,102.39,Clear,1.7584394273149546
3/27/2012 8:00,-5.1,-18.7,34,13,48.3,102.41,Clear,1.7364113716582155
3/27/2012 9:00,-4.3,-20.3,27,9,48.3,102.44,Clear,1.7461425204601126
3/27/2012 10:00,-2.5,-21.7,21,0,48.3,102.48,Clear,1.7637333454738726
3/27/2012 11:00,-1.6,-20.6,22,6,48.3,102.43,Clear,1.7705813362094505
3/27/2012 12:00,0.2,-16.7,27,9,48.3,102.31,Clear,1.7664718389766356
3/27/2012 13:00,1.0,-16.1,27,6,48.3,102.2,Mainly Clear,1.7635723434043404
3/27/2012 14:00,1.7,-18.4,21,13,48.3,102.06,Mainly Clear,1.7543346370383321
3/27/2012 15:00,2.1,-16.5,24,15,48.3,101.98,Mainly Clear,1.755988747864567
3/27/2012 16:00,2.7,-13.0,30,17,48.3,101.93,Mostly Cloudy,1.7450267269825428
3/27/2012 17:00,2.7,-12.3,32,19,48.3,101.88,Mostly Cloudy,1.759047150050985
3/27/2012 18:00,2.6,-11.9,33,15,48.3,101.79,Mostly Cloudy,1.733236774052806
3/27/2012 19:00,2.8,-11.7,33,11,25.0,101.74,Mostly Cloudy,1.7072339587005683
3/27/2012 20:00,2.6,-11.4,35,13,25.0,101.68,Cloudy,1.752598619414213
3/27/2012 21:00,2.1,-10.7,38,9,25.0,101.67,Cloudy,1.7480089470248985
3/27/2012 22:00,1.0,-10.1,43,20,25.0,101.47,Cloudy,1.74713916054962
3/27/2012 23:00,1.0,-10.8,41,13,25.0,101.44,Cloudy,1.721975301748956
3/28/2012 0:00,1.0,-10.8,41,6,16.1,101.58,Snow,1.0055543593662843
3/28/2012 1:00,-1.1,-4.5,78,11,16.1,101.39,Snow,1.7667490512290518
3/28/2012 2:00,-1.0,-4.8,75,13,9.7,101.28,Snow,1.7501815742214757
3/28/2012 3:00,-1.6,-4.1,83,20,25.0,101.08,Snow,1.7711997369575205
3/28/2012 4:00,-1.5,-3.8,84,20,25.0,100.88,Snow,1.762930049334167
3/28/2012 5:00,-1.0,-3.9,81,19,25.0,100.68,Cloudy,1.756583190223048
3/28/2012 6:00,-0.3,-3.5,79,20,24.1,100.51,Snow,1.7421197833309963
3/28/2012 7:00,0.5,-2.7,79,22,24.1,100.4,Snow,1.7587225695194033
3/28/2012 8:00,0.8,-2.9,76,19,8.0,100.25,"Snow,Ice Pellets",1.773435502342604
3/28/2012 9:00,2.1,-3.3,67,15,48.3,100.08,Cloudy,1.750047241002881
3/28/2012 10:00,2.3,-3.3,66,11,48.3,99.94,Cloudy,1.7496604221639844
3/28/2012 11:00,2.8,-2.1,70,13,48.3,99.74,Cloudy,1.7520714229684327
3/28/2012 12:00,3.8,-3.2,60,7,48.3,99.64,Cloudy,1.7487083937058077
3/28/2012 13:00,4.3,-2.9,59,9,48.3,99.51,Cloudy,1.7526832993827797
3/28/2012 14:00,4.4,-1.2,67,13,24.1,99.45,Rain,1.7462716506431577
3/28/2012 15:00,2.5,0.6,87,19,19.3,99.42,Rain,1.7612244994241122
3/28/2012 16:00,2.2,0.7,90,20,12.9,99.48,Rain,1.7615818105688354
3/28/2012 17:00,1.5,0.2,91,19,16.1,99.53,Drizzle,1.762772169746578
3/28/2012 18:00,1.3,-0.2,90,13,16.1,99.63,Drizzle,1.7609487211792867
3/28/2012 19:00,1.3,-0.2,90,11,12.9,99.74,Cloudy,1.7609487211792867
3/28/2012 20:00,1.2,-0.3,90,13,9.7,99.86,Fog,1.7609487211792867
3/28/2012 21:00,1.0,-0.5,90,15,9.7,99.92,Fog,1.7644544267674314
3/28/2012 22:00,1.0,-0.7,88,13,9.7,99.95,Fog,1.758297541634759
3/28/2012 23:00,0.8,-1.0,88,17,11.3,99.99,Cloudy,1.7571931537828946
3/29/2012 0:00,0.6,-1.2,88,15,12.9,100.05,Cloudy,1.7571931537828946
3/29/2012 1:00,0.5,-1.5,86,11,12.9,100.12,Cloudy,1.7598188722797794
3/29/2012 2:00,0.4,-1.8,85,17,25.0,100.15,Cloudy,1.7600236125266668
3/29/2012 3:00,0.5,-1.9,84,11,25.0,100.19,Cloudy,1.7483983249034645
3/29/2012 4:00,0.6,-2.1,82,11,25.0,100.27,Cloudy,1.7507917895940757
3/29/2012 5:00,0.6,-2.1,82,9,25.0,100.35,Snow,1.751706425138328
3/29/2012 6:00,0.7,-1.9,83,6,24.1,100.44,Snow,1.7602835543341326
3/29/2012 7:00,0.8,-1.6,84,7,24.1,100.52,Snow,1.7535861087095894
3/29/2012 8:00,1.5,-1.1,83,6,16.1,100.59,Snow,1.7583306670900722
3/29/2012 9:00,2.5,-1.2,77,9,24.1,100.64,Snow,1.739719031554807
3/29/2012 10:00,3.2,-2.4,67,13,24.1,100.7,Cloudy,1.7432585135227843
3/29/2012 11:00,3.6,-2.2,66,9,24.1,100.71,Cloudy,1.7259681398212612
3/29/2012 12:00,3.9,-2.2,64,6,24.1,100.71,Cloudy,1.0754917436180753
3/29/2012 13:00,4.2,-2.5,62,13,24.1,100.72,Cloudy,1.727582547389081
3/29/2012 14:00,4.0,-2.8,61,15,24.1,100.76,Cloudy,1.713453295400719
3/29/2012 15:00,4.1,-3.5,58,19,24.1,100.81,Cloudy,0.9771086735653381
3/29/2012 16:00,3.9,-2.8,62,13,24.1,100.87,Cloudy,1.7156638354186042
3/29/2012 17:00,3.5,-4.1,57,24,24.1,100.92,Cloudy,1.732099091179214
3/29/2012 18:00,3.4,-5.6,52,20,24.1,100.97,Mostly Cloudy,1.732476134381109
3/29/2012 19:00,2.9,-5.6,54,19,25.0,101.01,Cloudy,1.7613437536205998
3/29/2012 20:00,2.2,-4.7,60,19,25.0,101.07,Cloudy,1.7539641042786012
3/29/2012 21:00,1.9,-6.3,55,24,25.0,101.11,Mostly Cloudy,1.7308889966978922
3/29/2012 22:00,1.4,-7.4,52,17,25.0,101.14,Mostly Cloudy,1.7726045173254967
3/29/2012 23:00,0.8,-8.2,51,24,25.0,101.17,Mostly Cloudy,1.767828904116891
3/30/2012 0:00,0.1,-9.1,50,19,25.0,101.18,Mostly Cloudy,1.7688005472809232
3/30/2012 1:00,-1.0,-9.8,51,20,25.0,101.21,Mainly Clear,1.7666581833147523
3/30/2012 2:00,-2.2,-9.7,56,15,25.0,101.22,Clear,1.7306860907567658
3/30/2012 3:00,-3.5,-11.4,54,19,25.0,101.25,Mainly Clear,1.7739921529093874
3/30/2012 4:00,-4.3,-10.8,60,4,25.0,101.33,Mainly Clear,1.7687978445208152
3/30/2012 5:00,-5.1,-10.4,66,11,24.1,101.32,Clear,1.7705829329506801
3/30/2012 6:00,-4.8,-10.8,63,13,48.3,101.39,Clear,1.767722561190588
3/30/2012 7:00,-4.3,-10.9,60,15,48.3,101.52,Clear,1.772701213544772
3/30/2012 8:00,-3.0,-10.4,57,11,48.3,101.56,Clear,1.7566506195056535
3/30/2012 9:00,-2.0,-10.1,54,13,48.3,101.63,Clear,1.184314353879573
3/30/2012 10:00,-0.8,-9.5,52,9,48.3,101.62,Clear,1.7416192225684226
3/30/2012 11:00,0.9,-9.6,45,4,48.3,101.57,Mostly Cloudy,1.7392389262934156
3/30/2012 12:00,1.6,-8.0,49,17,48.3,101.52,Mainly Clear,1.7449267616215571
3/30/2012 13:00,3.1,-9.1,40,6,48.3,101.38,Mainly Clear,0.9557861893691004
3/30/2012 14:00,4.4,-8.8,38,17,48.3,101.3,Mainly Clear,1.738928961671876
3/30/2012 15:00,4.8,-8.9,36,17,48.3,101.26,Mostly Cloudy,1.7199742774463227
3/30/2012 16:00,4.8,-9.3,35,15,48.3,101.26,Mostly Cloudy,1.7115045500152608
3/30/2012 17:00,4.4,-8.6,38,15,48.3,101.24,Mostly Cloudy,1.728459757106499
3/30/2012 18:00,3.9,-7.9,42,11,24.1,101.26,Mostly Cloudy,1.7270516406352505
3/30/2012 19:00,3.1,-6.7,49,7,25.0,101.29,Mostly Cloudy,1.7589813822408888
3/30/2012 20:00,3.0,-8.4,43,7,25.0,101.3,Mostly Cloudy,1.760107242899539
3/30/2012 21:00,1.7,-9.0,45,4,25.0,101.32,Cloudy,1.7022653368466067
3/30/2012 22:00,0.4,-8.1,53,0,25.0,101.3,Mostly Cloudy,1.7519461577969802
3/30/2012 23:00,1.4,-7.7,51,6,25.0,101.34,Mainly Clear,1.7491297143983209
3/31/2012 0:00,1.5,-8.6,47,13,25.0,101.33,Mostly Cloudy,1.7453445081982233
3/31/2012 1:00,1.3,-9.6,44,13,25.0,101.31,Mostly Cloudy,1.768649095337456
3/31/2012 2:00,1.3,-9.7,44,11,25.0,101.29,Cloudy,1.7628984947213184
3/31/2012 3:00,0.7,-8.8,49,13,25.0,101.3,Cloudy,1.770613266811581
3/31/2012 4:00,-0.9,-8.5,56,13,25.0,101.32,Cloudy,1.7695924278739752
3/31/2012 5:00,-0.6,-9.2,52,13,25.0,101.3,Cloudy,1.7647952090772938
3/31/2012 6:00,-0.5,-9.2,52,15,48.3,101.32,Cloudy,1.0403711270440228
3/31/2012 7:00,-0.3,-9.2,51,19,48.3,101.32,Cloudy,1.7426751239722669
3/31/2012 8:00,0.7,-8.5,50,17,48.3,101.33,Cloudy,1.7652403159544512
3/31/2012 9:00,1.5,-7.8,50,17,48.3,101.34,Mostly Cloudy,1.7646758565869027
3/31/2012 10:00,2.9,-8.1,44,15,48.3,101.3,Mainly Clear,1.735605998123461
3/31/2012 11:00,4.6,-9.7,35,7,48.3,101.24,Clear,1.7357443084242272
3/31/2012 12:00,6.4,-7.1,37,11,48.3,101.16,Clear,1.7185713349396252
3/31/2012 13:00,6.5,-9.7,30,9,48.3,101.08,Clear,1.721809902944052
3/31/2012 14:00,7.7,-8.5,31,4,48.3,101.01,Mainly Clear,1.727718325997363
3/31/2012 15:00,7.7,-8.6,30,6,48.3,100.94,Mainly Clear,1.7116414820163217
3/31/2012 16:00,8.4,-7.7,31,4,48.3,100.89,Mainly Clear,1.7136688032027214
3/31/2012 17:00,7.9,-8.1,31,6,48.3,100.88,Mainly Clear,1.0000000000000002
3/31/2012 18:00,7.0,-8.2,33,7,48.3,100.87,Mainly Clear,1.7048890501110747
3/31/2012 19:00,5.9,-8.0,36,4,25.0,100.88,Clear,1.7493424464938945
3/31/2012 20:00,4.4,-7.2,43,9,25.0,100.85,Clear,1.745082900881036
3/31/2012 21:00,2.6,-6.3,52,7,25.0,100.86,Clear,1.7520315888670492
3/31/2012 22:00,2.7,-6.7,50,0,25.0,100.82,Clear,1.7497954490176455
3/31/2012 23:00,1.5,-6.9,54,0,25.0,100.79,Clear,1.7503331396389123
4/1/2012 0:00,0.4,-6.6,59,0,25.0,100.75,Clear,1.7711123550280936
4/1/2012 1:00,-1.5,-7.3,65,4,25.0,100.77,Clear,1.760297459714839
4/1/2012 2:00,0.1,-6.9,59,0,25.0,100.7,Clear,1.757756453755498
4/1/2012 3:00,-1.0,-6.2,68,0,25.0,100.67,Clear,1.7720620198847563
4/1/2012 4:00,-1.0,-5.3,73,0,25.0,100.66,Mainly Clear,1.768188112617272
4/1/2012 5:00,-0.4,-4.5,74,4,25.0,100.65,Mostly Cloudy,1.723903270820921
4/1/2012 6:00,0.5,-3.2,76,6,48.3,100.62,Cloudy,1.764843790103811
4/1/2012 7:00,1.2,-3.6,70,6,48.3,100.6,Cloudy,1.7168057948577689
4/1/2012 8:00,3.2,-4.5,57,11,48.3,100.53,Cloudy,1.732469174016493
4/1/2012 9:00,3.7,-3.9,58,9,48.3,100.49,Cloudy,1.7401846805764762
4/1/2012 10:00,4.1,-2.8,61,7,48.3,100.46,Cloudy,1.7436217346504521
4/1/2012 11:00,4.8,-0.3,70,4,24.1,100.43,Rain Showers,1.7341839783558428
4/1/2012 12:00,5.8,0.2,67,0,24.1,100.35,Rain,1.7225344790494963
4/1/2012 13:00,5.9,0.0,66,7,24.1,100.24,Rain,1.7172172736572546
4/1/2012 14:00,4.7,1.1,77,9,24.1,100.2,Rain,1.7526494390734175
4/1/2012 15:00,3.8,1.5,85,19,24.1,100.14,Rain,1.7507512632600475
4/1/2012 16:00,3.0,0.7,85,17,24.1,100.1,Rain,1.7511670571696032
4/1/2012 17:00,2.8,0.5,85,22,24.1,100.12,Rain,1.753351661745152
4/1/2012 18:00,2.5,0.3,85,11,24.1,100.11,Rain,1.7532061512744512
4/1/2012 19:00,2.6,0.2,84,0,25.0,100.14,Rain,1.7568141807661148
4/1/2012 20:00,2.6,0.2,84,11,19.3,100.18,Rain,1.7516435096655003
4/1/2012 21:00,2.6,0.7,87,13,16.1,100.21,Rain,1.755244623603565
4/1/2012 22:00,2.5,0.7,88,13,25.0,100.22,Cloudy,1.7607957773249012
4/1/2012 23:00,2.0,0.3,88,7,25.0,100.21,Cloudy,1.7571931537828946
4/2/2012 0:00,0.4,-1.2,89,11,16.1,100.22,Mainly Clear,1.7590894054480448
4/2/2012 1:00,-0.1,-1.4,91,7,9.7,100.27,Fog,1.762772169746578
4/2/2012 2:00,-0.4,-1.8,90,0,12.9,100.31,Clear,1.7609487211792867
4/2/2012 3:00,-1.4,-2.8,90,0,8.0,100.33,Fog,1.7698578620900334
4/2/2012 4:00,-1.2,-2.2,93,4,9.7,100.38,Fog,1.7692321765215657
4/2/2012 5:00,-1.7,-2.5,94,6,25.0,100.47,Clear,1.7677471105115399
4/2/2012 6:00,-1.8,-3.5,88,6,24.1,100.56,Clear,1.7571931537828946
4/2/2012 7:00,0.2,-2.1,84,6,48.3,100.65,Clear,1.7483983249034645
4/2/2012 8:00,2.1,-4.5,62,13,48.3,100.69,Clear,1.7260843127505932
4/2/2012 9:00,3.4,-7.3,45,22,48.3,100.72,Clear,1.7686030795860557
4/2/2012 10:00,4.5,-8.5,38,28,48.3,100.73,Clear,1.7229018447626114
4/2/2012 11:00,4.6,-7.8,40,24,48.3,100.72,Clear,1.7204660115146226
4/2/2012 12:00,6.2,-7.8,36,17,48.3,100.65,Clear,1.710772486249046
4/2/2012 13:00,6.7,-7.2,36,24,48.3,100.64,Clear,1.4697797743195589
4/2/2012 14:00,7.3,-8.5,32,26,48.3,100.62,Clear,1.7167201500724207
4/2/2012 15:00,7.9,-10.0,27,19,48.3,100.6,Clear,1.701481764673756
4/2/2012 16:00,7.9,-12.0,23,28,48.3,100.59,Clear,1.7318534164426005
4/2/2012 17:00,8.0,-12.2,22,30,48.3,100.61,Mainly Clear,1.719416266208966
4/2/2012 18:00,6.9,-13.6,22,19,48.3,100.65,Clear,1.7213041859587124
4/2/2012 19:00,4.9,-12.6,27,13,25.0,100.69,Clear,1.7391585020414637
4/2/2012 20:00,3.5,-13.1,28,13,25.0,100.75,Clear,1.7461609809093188
4/2/2012 21:00,3.1,-13.0,30,11,25.0,100.78,Clear,1.7501173579407026
4/2/2012 22:00,0.6,-12.8,36,9,25.0,100.84,Clear,1.7687032080901353
4/2/2012 23:00,1.0,-12.8,35,13,25.0,100.83,Clear,1.7665932224686933
4/3/2012 0:00,-0.3,-11.9,41,6,25.0,100.84,Clear,1.7695897435966996
4/3/2012 1:00,-1.1,-11.4,45,9,25.0,100.86,Clear,1.6938646799811956
4/3/2012 2:00,-0.9,-13.2,39,6,25.0,100.84,Clear,1.7727299452127239
4/3/2012 3:00,-3.0,-12.0,50,9,25.0,100.87,Clear,1.7616960473017518
4/3/2012 4:00,-2.1,-11.8,47,13,25.0,100.92,Clear,1.758708432289749
4/3/2012 5:00,-2.6,-12.4,47,6,25.0,100.99,Clear,1.7496133993786778
4/3/2012 6:00,-2.0,-12.4,45,6,48.3,101.03,Clear,1.7483265899879368
4/3/2012 7:00,0.3,-11.3,41,11,48.3,101.09,Clear,1.7191881858813884
4/3/2012 8:00,1.7,-11.7,36,19,48.3,101.08,Clear,1.7326151687525562
4/3/2012 9:00,2.5,-11.0,36,15,48.3,101.07,Clear,1.7478887357260333
4/3/2012 10:00,4.3,-10.3,34,17,48.3,100.98,Clear,1.7163830032853993
4/3/2012 11:00,6.4,-9.1,32,11,48.3,100.91,Mainly Clear,1.7250387245543122
4/3/2012 12:00,7.1,-8.6,32,11,48.3,100.82,Mostly Cloudy,1.7107396688660585
4/3/2012 13:00,8.7,-9.1,27,11,48.3,100.76,Mostly Cloudy,1.5
4/3/2012 14:00,10.0,-8.9,25,13,48.3,100.65,Mostly Cloudy,1.705711230591579
4/3/2012 15:00,10.9,-9.0,24,24,48.3,100.54,Mainly Clear,1.7209581756675052
4/3/2012 16:00,10.8,-9.1,24,30,48.3,100.51,Mainly Clear,1.7328991632786441
4/3/2012 17:00,9.7,-9.0,26,28,48.3,100.52,Mostly Cloudy,1.7411351640546577
4/3/2012 18:00,8.9,-9.6,26,20,48.3,100.49,Mostly Cloudy,1.71689837814516
4/3/2012 19:00,8.4,-9.7,27,13,25.0,100.5,Cloudy,1.738133796063681
4/3/2012 20:00,7.8,-9.2,29,9,25.0,100.42,Mostly Cloudy,1.7454811882960872
4/3/2012 21:00,7.1,-8.2,33,7,25.0,100.36,Mostly Cloudy,1.7445570221042883
4/3/2012 22:00,6.9,-8.5,32,11,25.0,100.34,Cloudy,1.7430410507831533
4/3/2012 23:00,6.9,-9.2,31,11,25.0,100.29,Cloudy,1.7439832762665437
4/4/2012 0:00,6.0,-8.2,35,9,25.0,100.22,Mostly Cloudy,1.750420441810726
4/4/2012 1:00,5.6,-8.6,35,4,25.0,100.2,Cloudy,1.75419659865837
4/4/2012 2:00,6.0,-7.8,36,9,25.0,100.15,Mostly Cloudy,1.751218868569868
4/4/2012 3:00,5.4,-4.1,50,11,25.0,100.05,Mostly Cloudy,1.7166772615200294
4/4/2012 4:00,5.2,-3.6,53,7,25.0,100.01,Mostly Cloudy,1.6894783186584459
4/4/2012 5:00,4.6,-2.8,59,9,24.1,99.94,Mostly Cloudy,1.756250171895674
4/4/2012 6:00,4.2,-3.0,59,11,48.3,99.89,Mostly Cloudy,1.7420938581007617
4/4/2012 7:00,4.8,-4.1,52,17,48.3,99.85,Mostly Cloudy,1.7048983677345915
4/4/2012 8:00,5.5,-5.9,44,20,48.3,99.83,Mostly Cloudy,1.7287197326078447
4/4/2012 9:00,6.5,-6.5,39,28,48.3,99.83,Mostly Cloudy,1.7212147708025975
4/4/2012 10:00,8.7,-3.7,41,30,48.3,99.78,Mainly Clear,1.6979154119522866
4/4/2012 11:00,9.3,-2.6,43,28,48.3,99.75,Mainly Clear,1.7200204297495016
4/4/2012 12:00,8.9,-2.9,43,24,48.3,99.71,Mostly Cloudy,1.7015716659664493
4/4/2012 13:00,8.7,-3.5,42,33,24.1,99.71,Cloudy,1.7287049068293172
4/4/2012 14:00,8.5,-3.4,43,26,24.1,99.72,Cloudy,1.7300611234785588
4/4/2012 15:00,8.0,-3.2,45,26,24.1,99.75,Cloudy,1.7321341041896103
4/4/2012 16:00,8.3,-3.0,45,20,24.1,99.75,Cloudy,1.7292877821766126
4/4/2012 17:00,8.1,-4.6,40,26,24.1,99.81,Mostly Cloudy,1.7247943166087707
4/4/2012 18:00,7.6,-4.6,42,22,24.1,99.87,Mostly Cloudy,1.7277258604225554
4/4/2012 19:00,6.5,-3.8,48,19,24.1,99.98,Mainly Clear,1.717659637597066
4/4/2012 20:00,6.0,-3.8,49,19,25.0,100.07,Mostly Cloudy,1.7056654177140078
4/4/2012 21:00,4.9,-4.4,51,19,25.0,100.13,Mostly Cloudy,1.7426751239722669
4/4/2012 22:00,3.7,-4.5,55,19,25.0,100.2,Mostly Cloudy,1.7615955262946505
4/4/2012 23:00,3.6,-4.6,55,19,25.0,100.24,Mostly Cloudy,1.764081231075904
4/5/2012 0:00,3.2,-4.9,55,15,25.0,100.34,Mostly Cloudy,1.7402510537072733
4/5/2012 1:00,2.3,-5.8,55,17,25.0,100.37,Mainly Clear,1.7473090644785576
4/5/2012 2:00,2.3,-5.9,55,11,25.0,100.4,Mostly Cloudy,1.7562791755277858
4/5/2012 3:00,1.9,-4.6,62,13,25.0,100.41,Mostly Cloudy,1.7452200435670877
4/5/2012 4:00,1.5,-5.2,61,17,25.0,100.47,Mostly Cloudy,1.762419363297189
4/5/2012 5:00,1.5,-6.7,54,17,25.0,100.51,Mostly Cloudy,1.7461363659924596
4/5/2012 6:00,1.5,-7.2,52,19,24.1,100.6,Cloudy,1.7540195273103198
4/5/2012 7:00,2.3,-6.9,51,19,24.1,100.68,Mostly Cloudy,1.7553752480509057
4/5/2012 8:00,2.7,-6.5,51,20,24.1,100.72,Mostly Cloudy,1.7198884245606036
4/5/2012 9:00,3.9,-6.1,48,22,24.1,100.76,Mostly Cloudy,1.7020483818859993
4/5/2012 10:00,4.5,-7.6,41,17,24.1,100.76,Mostly Cloudy,1.7382283057079713
4/5/2012 11:00,4.8,-7.1,42,26,24.1,100.77,Mostly Cloudy,1.7271505855128029
4/5/2012 12:00,5.2,-6.6,42,22,24.1,100.74,Mostly Cloudy,1.742880766352937
4/5/2012 13:00,6.6,-5.3,42,22,24.1,100.73,Mostly Cloudy,1.7403240005038747
4/5/2012 14:00,6.7,-6.2,39,20,24.1,100.7,Mainly Clear,1.7421327427540474
4/5/2012 15:00,7.6,-5.9,38,19,24.1,100.67,Mainly Clear,1.7396454402956296
4/5/2012 16:00,8.9,-5.7,35,24,48.3,100.65,Mainly Clear,1.710144800504454
4/5/2012 17:00,7.7,-6.9,35,24,48.3,100.7,Mainly Clear,1.6980564751802552
4/5/2012 18:00,6.6,-7.0,37,20,48.3,100.75,Mostly Cloudy,1.6976513943813356
4/5/2012 19:00,5.6,-7.7,38,26,25.0,100.82,Mostly Cloudy,1.7332505127387845
4/5/2012 20:00,5.3,-7.9,38,19,25.0,100.87,Mostly Cloudy,1.7292069582461607
4/5/2012 21:00,4.9,-7.7,40,19,25.0,100.88,Mostly Cloudy,1.2356967568996131
4/5/2012 22:00,4.4,-7.4,42,22,25.0,100.89,Mostly Cloudy,1.68707666541359
4/5/2012 23:00,3.5,-7.8,43,19,25.0,100.93,Mostly Cloudy,1.690942595380712
4/6/2012 0:00,3.0,-8.2,44,22,25.0,100.97,Mostly Cloudy,1.7489579094799335
4/6/2012 1:00,2.8,-8.4,43,17,25.0,100.98,Mostly Cloudy,1.7523043069736428
4/6/2012 2:00,2.3,-8.2,46,22,25.0,101.04,Cloudy,1.7392389262934156
4/6/2012 3:00,1.5,-8.2,48,19,25.0,101.09,Cloudy,1.760130460493106
4/6/2012 4:00,1.1,-8.3,49,17,25.0,101.13,Mostly Cloudy,1.7674931836858145
4/6/2012 5:00,-0.1,-8.7,52,15,24.1,101.17,Mostly Cloudy,1.7493306437839784
4/6/2012 6:00,-0.5,-9.4,51,15,48.3,101.23,Mainly Clear,1.751534711650451
4/6/2012 7:00,0.4,-8.9,50,15,48.3,101.3,Clear,1.7541339350384826
4/6/2012 8:00,1.1,-8.8,48,19,48.3,101.34,Clear,1.2970057090769218
4/6/2012 9:00,2.1,-8.4,46,17,48.3,101.37,Clear,1.7359609787313508
4/6/2012 10:00,3.9,-7.9,42,6,48.3,101.35,Mainly Clear,0.9497071032947849
4/6/2012 11:00,5.7,-7.7,37,19,48.3,101.32,Clear,1.7186122962677277
4/6/2012 12:00,6.6,-8.3,34,20,48.3,101.24,Mainly Clear,0.9966353839385137
4/6/2012 13:00,7.6,-7.7,33,15,48.3,101.18,Clear,1.0102681965696167
4/6/2012 14:00,8.6,-8.5,29,9,48.3,101.13,Mainly Clear,1.6724519569676923
4/6/2012 15:00,9.3,-8.3,28,19,48.3,101.1,Mainly Clear,1.5
4/6/2012 16:00,8.5,-9.3,27,28,48.3,101.08,Mostly Cloudy,1.6954831347057457
4/6/2012 17:00,7.7,-11.0,25,32,48.3,101.11,Mostly Cloudy,1.658991016083246
4/6/2012 18:00,7.3,-11.6,25,19,25.0,101.16,Mostly Cloudy,1.7393068864826968
4/6/2012 19:00,7.3,-11.7,24,13,25.0,101.21,Mostly Cloudy,1.7298796259166518
4/6/2012 20:00,6.7,-10.6,28,11,25.0,101.24,Mostly Cloudy,1.7471330855586864
4/6/2012 21:00,6.7,-10.3,28,9,25.0,101.24,Cloudy,1.7463944304135863
4/6/2012 22:00,6.8,-10.8,27,11,25.0,101.26,Cloudy,1.7463637538612304
4/6/2012 23:00,6.1,-9.9,31,11,25.0,101.27,Cloudy,1.7501348769306597
4/7/2012 0:00,5.6,-9.7,32,11,25.0,101.28,Cloudy,1.7516206180736498
4/7/2012 1:00,5.5,-10.6,30,17,25.0,101.29,Mostly Cloudy,1.7493896388480044
4/7/2012 2:00,3.1,-10.3,37,7,25.0,101.3,Mostly Cloudy,1.7595810068317017
4/7/2012 3:00,2.4,-10.0,39,11,25.0,101.32,Mainly Clear,1.7462137006485112
4/7/2012 4:00,2.5,-10.2,39,11,25.0,101.35,Mostly Cloudy,1.7409512342933102
4/7/2012 5:00,0.2,-10.4,45,7,25.0,101.39,Mainly Clear,1.0764643969694232
4/7/2012 6:00,1.5,-9.3,44,9,48.3,101.46,Mostly Cloudy,1.7316843611792352
4/7/2012 7:00,2.4,-10.1,39,11,48.3,101.5,Mainly Clear,1.732878429795239
4/7/2012 8:00,4.5,-9.3,36,11,48.3,101.51,Mostly Cloudy,1.7427265850167275
4/7/2012 9:00,4.5,-9.5,35,11,48.3,101.52,Mostly Cloudy,1.7359609787313512
4/7/2012 10:00,5.7,-8.5,35,17,48.3,101.54,Mostly Cloudy,1.704449052779929
4/7/2012 11:00,6.0,-9.2,33,13,48.3,101.51,Mostly Cloudy,1.7221732177892553
4/7/2012 12:00,6.6,-8.1,34,11,48.3,101.47,Mostly Cloudy,1.7014117278264742
4/7/2012 13:00,6.8,-7.8,34,9,48.3,101.44,Mostly Cloudy,1.0992144454706094
4/7/2012 14:00,7.8,-7.8,32,9,48.3,101.39,Cloudy,1.6945295703714263
4/7/2012 15:00,8.0,-6.7,35,7,48.3,101.36,Mostly Cloudy,1.687395517039097
4/7/2012 16:00,8.4,-6.4,34,4,24.1,101.34,Mostly Cloudy,1.707762809310794
4/7/2012 17:00,8.4,-6.3,35,9,24.1,101.35,Mostly Cloudy,1.72520374981004
4/7/2012 18:00,8.0,-6.1,36,7,25.0,101.35,Mostly Cloudy,1.738922744682774
4/7/2012 19:00,8.0,-5.2,39,13,25.0,101.37,Mostly Cloudy,1.7354805713758015
4/7/2012 20:00,7.7,-5.4,39,15,25.0,101.43,Cloudy,1.7192755453526423
4/7/2012 21:00,7.5,-5.2,40,17,25.0,101.41,Mostly Cloudy,1.7225754023012187
4/7/2012 22:00,6.2,-5.1,44,15,25.0,101.36,Mostly Cloudy,1.7126826171384102
4/7/2012 23:00,5.9,-5.0,45,11,25.0,101.31,Mostly Cloudy,1.7461055862671526
4/8/2012 0:00,5.8,-5.2,45,9,25.0,101.24,Cloudy,1.7407536934877796
4/8/2012 1:00,4.8,-4.8,50,7,25.0,101.18,Cloudy,1.7407471003430206
4/8/2012 2:00,4.2,-4.5,53,4,25.0,101.11,Cloudy,1.6984685248342817
4/8/2012 3:00,3.7,-3.9,58,4,25.0,101.06,Cloudy,1.7316349622234977
4/8/2012 4:00,3.7,-4.4,55,4,25.0,101.0,Cloudy,1.7392821833380225
4/8/2012 5:00,4.0,-4.5,54,7,25.0,100.95,Cloudy,1.7486369519961935
4/8/2012 6:00,4.8,-4.1,52,7,48.3,100.91,Mostly Cloudy,1.7344873429302714
4/8/2012 7:00,5.7,-4.1,49,11,48.3,100.87,Mostly Cloudy,1.7092714122006252
4/8/2012 8:00,6.6,-3.9,47,13,48.3,100.81,Mostly Cloudy,1.706030679029777
4/8/2012 9:00,7.4,-3.7,45,19,48.3,100.73,Mostly Cloudy,1.7163397666833826
4/8/2012 10:00,7.3,-4.8,42,22,48.3,100.61,Mostly Cloudy,1.7021273859547326
4/8/2012 11:00,9.4,-3.6,40,15,48.3,100.46,Mostly Cloudy,1.450203609376411
4/8/2012 12:00,10.4,-3.8,37,17,48.3,100.25,Mostly Cloudy,1.0484573415284089
4/8/2012 13:00,11.7,-3.9,33,20,48.3,100.11,Mostly Cloudy,1.6890016835274113
4/8/2012 14:00,12.1,-3.5,33,20,48.3,99.97,Mostly Cloudy,1.6967023475618663
4/8/2012 15:00,12.3,-3.8,32,22,48.3,99.86,Mostly Cloudy,1.7018503125709168
4/8/2012 16:00,12.4,-4.2,31,22,48.3,99.8,Cloudy,1.705555284958358
4/8/2012 17:00,12.3,-4.5,31,7,48.3,99.75,Mostly Cloudy,1.7048983677345917
4/8/2012 18:00,11.9,-4.7,31,19,25.0,99.69,Mostly Cloudy,1.6972675769050727
4/8/2012 19:00,11.5,-4.9,31,17,48.3,99.64,Mostly Cloudy,1.7044208295849121
4/8/2012 20:00,10.9,-3.9,35,15,25.0,99.59,Mostly Cloudy,1.1542581332234014
4/8/2012 21:00,10.4,-3.9,36,17,25.0,99.5,Mostly Cloudy,1.2270252584740202
4/8/2012 22:00,10.2,-3.7,37,19,25.0,99.42,Mostly Cloudy,1.6941759030444212
4/8/2012 23:00,8.5,-3.2,44,7,25.0,99.38,Cloudy,1.0609420068291724
4/9/2012 0:00,7.5,-3.5,46,4,25.0,99.31,Mostly Cloudy,1.7157150918507817
4/9/2012 1:00,4.8,-2.4,60,9,25.0,99.24,Cloudy,1.7312880111493312
4/9/2012 2:00,5.4,-1.3,62,9,25.0,99.19,Cloudy,1.7528748809061752
4/9/2012 3:00,5.5,-1.1,62,0,25.0,99.14,Cloudy,1.752784787004343
4/9/2012 4:00,5.7,-0.9,62,11,25.0,99.12,Cloudy,1.7508612121295117
4/9/2012 5:00,5.9,-1.4,59,7,25.0,99.09,Cloudy,1.744185515240945
4/9/2012 6:00,6.1,0.1,65,13,24.1,99.1,Rain,1.745207586084669
4/9/2012 7:00,6.3,1.5,71,13,24.1,99.11,Rain,1.747545087942044
4/9/2012 8:00,6.6,3.6,81,20,24.1,99.05,Rain,1.7408722768108806
4/9/2012 9:00,7.4,1.6,67,19,24.1,99.05,Rain,1.7362811895521326
4/9/2012 10:00,7.0,2.3,72,28,24.1,99.07,Rain,1.7384858191618002
4/9/2012 11:00,7.4,2.8,73,24,24.1,99.1,Rain,1.7381337960636807
4/9/2012 12:00,7.9,4.1,77,17,24.1,99.07,Rain,1.739331578606395
4/9/2012 13:00,8.8,2.6,65,17,24.1,99.08,Rain,1.7368517699916295
4/9/2012 14:00,9.0,1.3,58,19,24.1,99.11,Rain,1.7271809980589157
4/9/2012 15:00,8.6,0.7,58,22,24.1,99.14,Cloudy,1.7327746521505927
4/9/2012 16:00,8.7,0.2,55,17,24.1,99.19,Cloudy,1.7361180416935658
4/9/2012 17:00,8.3,1.0,60,22,24.1,99.24,Cloudy,1.7222883864769887
4/9/2012 18:00,6.2,2.2,76,30,24.1,99.31,Rain Showers,1.7316420217425301
4/9/2012 19:00,6.4,1.7,72,28,25.0,99.34,Cloudy,1.7526099157009685
4/9/2012 20:00,5.7,1.4,74,19,25.0,99.4,Mostly Cloudy,1.7533628429104575
4/9/2012 21:00,5.8,1.4,73,22,25.0,99.43,Cloudy,1.7495133782269348
4/9/2012 22:00,5.4,1.3,75,19,25.0,99.42,Cloudy,1.7515060540665461
4/9/2012 23:00,5.3,0.9,73,20,25.0,99.42,Mostly Cloudy,1.7493483471554536
4/10/2012 0:00,5.1,1.7,79,19,25.0,99.43,Cloudy,1.7567035666831148
4/10/2012 1:00,4.9,2.2,83,20,25.0,99.41,Cloudy,1.7568430157964894
4/10/2012 2:00,4.6,1.8,82,19,25.0,99.4,Mostly Cloudy,1.75830700721886
4/10/2012 3:00,4.3,1.6,83,17,25.0,99.37,Mostly Cloudy,1.7485773656773442
4/10/2012 4:00,4.0,1.5,84,13,25.0,99.39,Mostly Cloudy,1.752202155571912
4/10/2012 5:00,4.0,1.6,84,9,24.1,99.39,Cloudy,1.7587790975482116
4/10/2012 6:00,4.3,1.7,83,9,24.1,99.45,Mostly Cloudy,1.7562405020882577
4/10/2012 7:00,5.0,1.5,78,9,24.1,99.48,Cloudy,1.7488629529583233
4/10/2012 8:00,5.3,1.5,76,17,24.1,99.51,Rain Showers,1.748714344137589
4/10/2012 9:00,5.7,1.8,76,15,24.1,99.53,Mostly Cloudy,1.7510171768844003
4/10/2012 10:00,6.9,0.9,66,20,24.1,99.56,Mostly Cloudy,1.7032780666646647
4/10/2012 11:00,6.9,2.5,74,15,24.1,99.58,Rain Showers,1.7423010218557882
4/10/2012 12:00,8.0,0.5,59,19,24.1,99.58,Cloudy,1.7215859354621386
4/10/2012 13:00,8.8,1.0,58,22,24.1,99.6,Mostly Cloudy,1.7452387260315645
4/10/2012 14:00,7.6,2.4,70,33,16.1,99.63,Rain Showers,1.7588214716484822
4/10/2012 15:00,6.2,3.2,81,19,24.1,99.71,Rain Showers,1.7513338759646861
4/10/2012 16:00,6.7,2.9,77,20,24.1,99.77,Mostly Cloudy,1.7302348458823897
4/10/2012 17:00,6.8,2.4,73,19,24.1,99.83,Mostly Cloudy,1.729273094962493
4/10/2012 18:00,6.0,2.5,78,24,24.1,99.91,Mostly Cloudy,1.733057876440812
4/10/2012 19:00,5.8,2.3,78,19,25.0,100.01,Mostly Cloudy,1.7500238541095268
4/10/2012 20:00,5.2,1.8,79,20,25.0,100.12,Mostly Cloudy,1.7460563130839053
4/10/2012 21:00,5.1,2.3,82,22,25.0,100.15,Mostly Cloudy,1.7480869825326601
4/10/2012 22:00,4.4,1.9,84,11,25.0,100.16,Mostly Cloudy,1.7572051223305503
4/10/2012 23:00,4.7,2.4,85,15,25.0,100.21,Mostly Cloudy,1.753664091203888
4/11/2012 0:00,4.3,1.9,84,17,25.0,100.24,Mostly Cloudy,1.7486488636329316
4/11/2012 1:00,4.0,1.7,85,9,25.0,100.26,Mostly Cloudy,1.7507512632600475
4/11/2012 2:00,3.2,1.4,88,11,25.0,100.26,Mostly Cloudy,1.7571931537828946
4/11/2012 3:00,3.0,1.3,89,0,25.0,100.3,Mostly Cloudy,1.763916370569333
4/11/2012 4:00,1.6,0.1,90,0,25.0,100.34,Mainly Clear,1.7609487211792867
4/11/2012 5:00,0.7,-0.8,90,6,24.1,100.4,Mostly Cloudy,1.7609487211792867
4/11/2012 6:00,2.4,0.8,89,6,24.1,100.5,Mostly Cloudy,1.7590894054480448
4/11/2012 7:00,3.2,1.2,87,4,24.1,100.58,Cloudy,1.755244623603565
4/11/2012 8:00,4.6,1.7,81,4,24.1,100.65,Cloudy,1.7408722768108806
4/11/2012 9:00,6.1,1.4,72,0,24.1,100.72,Cloudy,1.7306884819040438
4/11/2012 10:00,6.7,2.2,73,4,24.1,100.76,Mostly Cloudy,1.7208421617600551
4/11/2012 11:00,6.7,2.0,72,11,24.1,100.78,Cloudy,1.7154802667147235
4/11/2012 12:00,8.8,2.5,65,9,24.1,100.76,Mainly Clear,1.1136122370198804
4/11/2012 13:00,11.0,1.9,53,4,24.1,100.74,Mostly Cloudy,1.710583456056666
4/11/2012 14:00,8.4,0.3,57,32,24.1,100.79,Rain Showers,1.7611142847324073
4/11/2012 15:00,7.5,3.1,74,7,24.1,100.79,Mostly Cloudy,1.7209839103698092
4/11/2012 16:00,9.5,1.4,57,20,24.1,100.82,Mostly Cloudy,1.6935420542483488
4/11/2012 17:00,9.3,1.3,57,33,24.1,100.91,Rain Showers,1.7699435282690243
4/11/2012 18:00,8.4,-0.2,55,17,24.1,100.92,Mainly Clear,0.965455557172386
4/11/2012 19:00,6.4,-0.4,62,11,24.1,101.0,Mainly Clear,1.7174776489135846
4/11/2012 20:00,7.4,0.8,63,13,25.0,101.07,Mostly Cloudy,1.7125488955277457
4/11/2012 21:00,6.9,0.9,66,7,25.0,101.08,Mostly Cloudy,1.7332505127387845
4/11/2012 22:00,3.3,-0.9,74,11,25.0,101.09,Mostly Cloudy,1.7209839103698092
4/11/2012 23:00,6.6,-0.3,61,13,25.0,101.11,Mostly Cloudy,1.7409446574959853
4/12/2012 0:00,5.5,-1.5,61,13,25.0,101.14,Mainly Clear,1.7530884126120632
4/12/2012 1:00,5.8,-2.2,56,15,25.0,101.15,Mostly Cloudy,1.7447389785474872
4/12/2012 2:00,4.8,-2.6,59,17,25.0,101.18,Mainly Clear,1.7456176270193522
4/12/2012 3:00,4.3,-2.8,60,13,25.0,101.21,Mostly Cloudy,1.7343594497288892
4/12/2012 4:00,3.1,-3.0,64,13,25.0,101.24,Mainly Clear,1.7481469553413476
4/12/2012 5:00,3.8,-2.9,62,15,24.1,101.3,Mostly Cloudy,1.0690857112408925
4/12/2012 6:00,3.5,-2.9,63,13,48.3,101.36,Mainly Clear,1.7636662950858415
4/12/2012 7:00,4.0,-2.3,63,6,48.3,101.43,Mainly Clear,1.6974875874768804
4/12/2012 8:00,6.5,-2.1,54,13,48.3,101.46,Mostly Cloudy,1.7102029826634557
4/12/2012 9:00,7.7,-1.8,51,13,48.3,101.5,Mostly Cloudy,1.7308103034597644
4/12/2012 10:00,8.7,-1.4,49,9,48.3,101.51,Mostly Cloudy,0.9976215725519009
4/12/2012 11:00,9.8,-1.2,46,9,48.3,101.46,Mostly Cloudy,1.7072250931396271
4/12/2012 12:00,10.4,-1.5,43,4,48.3,101.42,Mostly Cloudy,1.4266234923587118
4/12/2012 13:00,10.0,-1.0,46,15,48.3,101.4,Mostly Cloudy,1.7104562037197737
4/12/2012 14:00,10.3,-1.1,45,13,48.3,101.38,Mostly Cloudy,1.7133296643199227
4/12/2012 15:00,11.3,-1.4,41,15,48.3,101.33,Mostly Cloudy,1.6925351427749449
4/12/2012 16:00,12.4,-1.8,37,15,48.3,101.32,Mostly Cloudy,1.7026866221338657
4/12/2012 17:00,11.4,-1.5,41,11,48.3,101.32,Mainly Clear,1.3882159908388167
4/12/2012 18:00,11.3,-2.2,39,17,48.3,101.33,Mainly Clear,1.3433526990604099
4/12/2012 19:00,9.9,-1.8,44,11,48.3,101.34,Mainly Clear,1.702393086350381
4/12/2012 20:00,9.1,-1.1,49,7,25.0,101.38,Mainly Clear,1.696404468604897
4/12/2012 21:00,6.6,-0.8,59,0,25.0,101.39,Mainly Clear,1.7278988963063142
4/12/2012 22:00,6.7,-0.6,60,4,25.0,101.44,Clear,1.7186804736472283
4/12/2012 23:00,5.9,-2.2,56,11,25.0,101.47,Clear,1.716014061377112
4/13/2012 0:00,4.6,-4.0,54,11,25.0,101.49,Clear,1.7424818447523311
4/13/2012 1:00,4.0,-5.1,51,11,25.0,101.48,Clear,1.6977193460305913
4/13/2012 2:00,2.0,-5.4,58,6,25.0,101.5,Clear,1.7407009330389227
4/13/2012 3:00,1.5,-5.1,61,9,25.0,101.52,Clear,1.7603669560534743
4/13/2012 4:00,1.2,-4.5,66,6,25.0,101.56,Clear,1.7568814491163025
4/13/2012 5:00,1.3,-4.1,67,6,48.3,101.6,Clear,1.754510945229667
4/13/2012 6:00,1.8,-3.4,68,6,48.3,101.67,Clear,1.7056103834615908
4/13/2012 7:00,4.1,-2.1,64,7,48.3,101.75,Mainly Clear,1.744500466115083
4/13/2012 8:00,6.1,-1.5,58,7,48.3,101.77,Mainly Clear,1.7381716190941638
4/13/2012 9:00,8.0,-0.8,54,13,48.3,101.73,Mainly Clear,1.7634558909274543
4/13/2012 10:00,9.8,-1.8,44,17,48.3,101.69,Mainly Clear,1.6972744801371
4/13/2012 11:00,12.2,-1.0,40,19,48.3,101.6,Mainly Clear,1.6876706674223596
4/13/2012 12:00,13.5,-3.0,32,24,48.3,101.52,Mainly Clear,1.6933833263411133
4/13/2012 13:00,14.7,-6.1,23,24,48.3,101.48,Mainly Clear,1.7064742875332366
4/13/2012 14:00,15.0,-5.6,24,22,48.3,101.36,Mainly Clear,1.673036940361267
4/13/2012 15:00,15.9,-4.9,24,32,48.3,101.27,Mainly Clear,1.7129488372567843
4/13/2012 16:00,16.1,-5.2,23,30,48.3,101.22,Mostly Cloudy,1.6854117071467227
4/13/2012 17:00,15.0,-4.3,26,28,48.3,101.22,Cloudy,1.6965325377558136
4/13/2012 18:00,14.3,-5.1,26,22,48.3,101.24,Cloudy,1.6889184258192733
4/13/2012 19:00,13.6,-6.8,24,19,48.3,101.25,Mostly Cloudy,1.6896415769497515
4/13/2012 20:00,12.2,-5.9,28,15,25.0,101.31,Mostly Cloudy,1.7476960016290386
4/13/2012 21:00,11.7,-5.1,30,19,25.0,101.32,Mainly Clear,1.7211891862825497
4/13/2012 22:00,10.3,-1.3,44,20,25.0,101.36,Mainly Clear,1.721259503764885
4/13/2012 23:00,9.1,-1.3,48,20,25.0,101.37,Mainly Clear,1.7371413371559115
4/14/2012 0:00,7.9,-1.6,51,22,25.0,101.35,Clear,1.7666581833147523
4/14/2012 1:00,7.5,-1.8,52,11,25.0,101.35,Clear,1.7262002682596536
4/14/2012 2:00,6.8,-1.8,54,17,25.0,101.34,Clear,1.7536807909320935
4/14/2012 3:00,5.4,-1.0,63,19,25.0,101.36,Mainly Clear,1.7546593736304559
4/14/2012 4:00,5.7,-0.5,64,11,25.0,101.35,Mainly Clear,1.744052855102882
4/14/2012 5:00,6.2,0.0,64,17,25.0,101.36,Mostly Cloudy,1.7539918210539474
4/14/2012 6:00,6.7,-0.9,58,19,24.1,101.42,Mostly Cloudy,1.7446072595690618
4/14/2012 7:00,7.5,-1.2,54,20,48.3,101.49,Mostly Cloudy,1.7357048253351428
4/14/2012 8:00,9.2,-0.5,51,19,48.3,101.46,Mostly Cloudy,1.7337361501825779
4/14/2012 9:00,10.8,-0.3,46,20,48.3,101.45,Mostly Cloudy,1.6979490678842797
4/14/2012 10:00,12.8,-0.2,41,26,48.3,101.38,Cloudy,1.7050472018154408
4/14/2012 11:00,13.8,-0.8,37,24,48.3,101.28,Cloudy,1.1153398636532956
4/14/2012 12:00,15.3,-0.3,34,24,48.3,101.21,Cloudy,0.982139433707547
4/14/2012 13:00,14.8,-1.1,34,26,48.3,101.2,Cloudy,1.0272604688501488
4/14/2012 14:00,14.7,-0.7,35,17,48.3,101.08,Cloudy,1.73353144502931
4/14/2012 15:00,15.6,-3.0,28,20,48.3,101.02,Cloudy,1.6550639676731422
4/14/2012 16:00,15.9,-3.5,26,19,48.3,100.98,Cloudy,1.6701510937324149
4/14/2012 17:00,15.4,-3.1,28,24,48.3,101.0,Mostly Cloudy,1.6500000000000001
4/14/2012 18:00,14.5,-2.7,30,13,48.3,100.95,Mostly Cloudy,1.6848475079415934
4/14/2012 19:00,11.9,-0.6,42,7,48.3,100.91,Mostly Cloudy,1.5454788383156277
4/14/2012 20:00,12.8,-0.9,39,7,25.0,100.9,Mostly Cloudy,1.7168556730158764
4/14/2012 21:00,12.0,0.0,44,7,25.0,100.86,Mostly Cloudy,1.7117940230576816
4/14/2012 22:00,11.0,0.1,47,9,25.0,100.82,Mostly Cloudy,1.7146029229380146
4/14/2012 23:00,11.6,0.3,46,9,25.0,100.76,Mostly Cloudy,1.6911324960659935
4/15/2012 0:00,12.9,0.1,41,9,25.0,100.77,Mostly Cloudy,1.7095250887025484
4/15/2012 1:00,13.1,0.6,42,13,25.0,100.74,Mostly Cloudy,1.7115045500152604
4/15/2012 2:00,12.4,1.8,48,15,25.0,100.7,Mostly Cloudy,1.6889276878977302
4/15/2012 3:00,11.3,2.3,54,15,25.0,100.7,Clear,1.7734303113252479
4/15/2012 4:00,10.9,4.3,64,15,25.0,100.72,Clear,1.7285935978462794
4/15/2012 5:00,9.9,4.5,69,6,25.0,100.72,Clear,1.741016972365007
4/15/2012 6:00,10.6,5.4,70,13,24.1,100.74,Mainly Clear,1.7091525423728813
4/15/2012 7:00,11.7,6.2,69,9,24.1,100.81,Cloudy,1.7056195602958193
4/15/2012 8:00,13.5,8.0,69,11,24.1,100.84,Cloudy,1.7056195602958193
4/15/2012 9:00,14.1,8.9,71,26,24.1,100.79,Cloudy,1.712430565280306
4/15/2012 10:00,15.5,9.4,67,32,24.1,100.72,Cloudy,1.7079813883038264
4/15/2012 11:00,17.3,9.7,61,28,24.1,100.68,Mainly Clear,1.7621970476637445
4/15/2012 12:00,18.4,10.1,58,28,48.3,100.65,Mainly Clear,1.0054643587301775
4/15/2012 13:00,19.8,10.1,54,32,48.3,100.68,Mostly Cloudy,0.9741059853114246
4/15/2012 14:00,19.4,10.1,55,26,24.1,100.68,Mostly Cloudy,1.707118574081973
4/15/2012 15:00,18.1,10.6,62,24,48.3,100.65,Mostly Cloudy,1.0952938728887662
4/15/2012 16:00,17.5,10.9,65,22,48.3,100.69,Cloudy,1.4283824682309625
4/15/2012 17:00,17.0,11.0,68,20,24.1,100.73,Cloudy,1.3579319565140906
4/15/2012 18:00,16.6,11.2,70,20,24.1,100.77,Cloudy,1.7091525423728813
4/15/2012 19:00,16.3,11.5,73,17,24.1,100.78,Cloudy,1.718324698506683
4/15/2012 20:00,15.5,11.0,75,11,25.0,100.8,Cloudy,1.7241591468416737
4/15/2012 21:00,14.6,10.5,76,6,25.0,100.83,Mostly Cloudy,1.7272721454173066
4/15/2012 22:00,14.8,10.6,76,6,25.0,100.82,Cloudy,1.7272721454173066
4/15/2012 23:00,14.9,11.1,78,13,25.0,100.74,Cloudy,1.733057876440812
4/16/2012 0:00,15.7,11.6,77,17,25.0,100.77,Cloudy,1.7302348458823897
4/16/2012 1:00,14.6,12.8,89,9,8.0,100.7,Rain Showers,1.7590894054480448
4/16/2012 2:00,14.9,13.3,90,4,9.7,100.66,Rain Showers,1.7609487211792867
4/16/2012 3:00,14.4,12.8,90,9,25.0,100.66,Cloudy,1.7609487211792867
4/16/2012 4:00,15.2,12.6,84,11,25.0,100.66,Cloudy,1.7483983249034645
4/16/2012 5:00,15.3,12.3,82,13,25.0,100.64,Cloudy,1.7434626346010758
4/16/2012 6:00,15.7,12.0,79,15,24.1,100.61,Cloudy,1.7357508862871274
4/16/2012 7:00,17.0,12.8,76,17,24.1,100.55,Cloudy,1.7272721454173066
4/16/2012 8:00,19.3,13.5,69,17,24.1,100.52,Mostly Cloudy,1.505906587803386
4/16/2012 9:00,22.2,13.6,58,15,24.1,100.52,Mostly Cloudy,0.9771086735653381
4/16/2012 10:00,24.9,12.8,47,22,24.1,100.44,Cloudy,0.9365197406993433
4/16/2012 11:00,24.1,12.1,47,22,24.1,100.44,Cloudy,0.9365197406993433
4/16/2012 12:00,24.8,11.7,44,30,24.1,100.39,Cloudy,0.9432590533134183
4/16/2012 13:00,25.4,12.3,44,22,24.1,100.36,Cloudy,0.9432590533134183
4/16/2012 14:00,26.6,12.4,41,24,24.1,100.26,Cloudy,0.9526517417795389
4/16/2012 15:00,27.4,11.5,37,28,24.1,100.12,Mostly Cloudy,0.9681708609999456
4/16/2012 16:00,27.8,11.6,37,26,48.3,100.06,Mostly Cloudy,0.9681708609999456
4/16/2012 17:00,27.3,11.5,37,26,48.3,100.03,Mainly Clear,0.9681708609999456
4/16/2012 18:00,26.7,11.3,38,11,48.3,99.99,Mostly Cloudy,0.9638948809679477
4/16/2012 19:00,26.4,11.9,40,20,16.1,100.1,Rain Showers,0.9557861893691004
4/16/2012 20:00,20.5,15.6,73,4,25.0,100.22,Mostly Cloudy,1.718324698506683
4/16/2012 21:00,19.3,15.8,80,13,25.0,100.26,Mostly Cloudy,1.7383226557949913
4/16/2012 22:00,19.4,14.7,74,24,25.0,100.25,Rain Showers,1.7209839103698092
4/16/2012 23:00,19.5,14.2,71,30,25.0,100.31,Mostly Cloudy,1.712430565280306
4/17/2012 0:00,19.0,11.6,62,28,25.0,100.34,Mainly Clear,1.5784154170572324
4/17/2012 1:00,18.9,9.6,55,35,25.0,100.42,Mainly Clear,1.724802215657999
4/17/2012 2:00,17.4,4.7,43,30,25.0,100.51,Mainly Clear,1.6677853045628923
4/17/2012 3:00,15.4,6.3,55,37,25.0,100.61,Mainly Clear,1.7050286230365326
4/17/2012 4:00,14.5,6.1,57,37,25.0,100.8,Mainly Clear,1.7268914694776718
4/17/2012 5:00,13.5,5.9,60,33,48.3,100.99,Mostly Cloudy,1.6927556650593516
4/17/2012 6:00,11.9,2.3,52,37,48.3,101.19,Mainly Clear,1.7285713115303665
4/17/2012 7:00,10.9,1.9,54,48,48.3,101.32,Mainly Clear,1.7574513442507547
4/17/2012 8:00,10.2,0.6,51,43,48.3,101.42,Mainly Clear,1.731656138254638
4/17/2012 9:00,10.2,-1.1,45,44,48.3,101.5,Mainly Clear,1.7383603512442436
4/17/2012 10:00,10.9,-1.3,43,41,48.3,101.51,Mainly Clear,1.7209710451136955
4/17/2012 11:00,11.5,-1.0,42,30,48.3,101.57,Mostly Cloudy,1.7042416947790795
4/17/2012 12:00,12.0,-0.8,41,37,48.3,101.58,Mostly Cloudy,1.7110178495537611
4/17/2012 13:00,12.2,-0.2,42,32,48.3,101.61,Mainly Clear,1.704505449195983
4/17/2012 14:00,12.6,-0.3,41,35,48.3,101.64,Mostly Cloudy,1.7163325562355276
4/17/2012 15:00,12.7,-0.5,40,30,48.3,101.63,Mainly Clear,1.6979154119522868
4/17/2012 16:00,11.6,-1.2,41,32,48.3,101.69,Mainly Clear,1.720309315399248
4/17/2012 17:00,11.1,-1.7,41,24,48.3,101.72,Mostly Cloudy,0.9920727745315188
4/17/2012 18:00,9.5,-2.8,42,24,48.3,101.79,Mostly Cloudy,0.9522025967504522
4/17/2012 19:00,8.5,-4.1,41,28,24.1,101.89,Mostly Cloudy,1.7507744238604603
4/17/2012 20:00,7.4,-5.1,41,19,25.0,102.04,Mostly Cloudy,1.773464048686737
4/17/2012 21:00,6.1,-5.6,43,17,25.0,102.12,Mostly Cloudy,1.7704215497638622
4/17/2012 22:00,5.4,-5.4,46,11,25.0,102.17,Mostly Cloudy,1.7646094831542818
4/17/2012 23:00,3.9,-4.8,53,17,25.0,102.17,Mostly Cloudy,1.7703442398338005
4/18/2012 0:00,2.9,-5.1,56,13,25.0,102.2,Clear,1.7729308636861558
4/18/2012 1:00,2.4,-5.7,55,15,25.0,102.18,Clear,1.7700932907227935
4/18/2012 2:00,0.9,-6.5,58,15,25.0,102.22,Clear,1.7679542091448992
4/18/2012 3:00,1.1,-7.0,55,11,25.0,102.25,Clear,1.7581554456141146
4/18/2012 4:00,0.4,-7.0,58,9,25.0,102.29,Clear,1.7441855152409451
4/18/2012 5:00,-1.0,-7.0,64,11,48.3,102.34,Clear,1.7733835814625996
4/18/2012 6:00,0.9,-6.3,59,9,48.3,102.41,Clear,1.767850706015992
4/18/2012 7:00,2.5,-6.2,53,13,48.3,102.44,Clear,1.7702054846665898
4/18/2012 8:00,3.3,-5.9,51,11,48.3,102.43,Clear,1.7634558909274545
4/18/2012 9:00,4.5,-5.7,47,9,48.3,102.41,Clear,1.7638521295778489
4/18/2012 10:00,5.3,-5.1,47,9,48.3,102.36,Clear,1.758701834200726
4/18/2012 11:00,6.9,-3.4,48,6,48.3,102.24,Clear,1.7740943820136525
4/18/2012 12:00,7.3,-4.6,43,11,48.3,102.13,Mainly Clear,1.7195298242588841
4/18/2012 13:00,8.6,-3.3,43,15,48.3,102.05,Mainly Clear,0.974130875472651
4/18/2012 14:00,9.3,-3.2,41,7,48.3,101.97,Mainly Clear,1.7113024066668823
4/18/2012 15:00,10.4,-3.2,38,11,48.3,101.86,Mainly Clear,1.6857106887381377
4/18/2012 16:00,10.3,-3.6,37,9,48.3,101.8,Mainly Clear,1.6903919478328713
4/18/2012 17:00,10.2,-4.1,36,13,48.3,101.75,Mainly Clear,1.0449871581684196
4/18/2012 18:00,10.0,-5.5,33,7,48.3,101.7,Mainly Clear,1.6968500487938174
4/18/2012 19:00,8.4,-3.9,42,9,48.3,101.66,Mainly Clear,0.949155270668292
4/18/2012 20:00,7.6,-4.0,44,7,25.0,101.62,Mainly Clear,1.7235336206829748
4/18/2012 21:00,7.9,-4.2,42,4,25.0,101.56,Mostly Cloudy,1.7305448432244515
4/18/2012 22:00,8.4,-4.1,41,0,25.0,101.53,Mostly Cloudy,1.2918884050348585
4/18/2012 23:00,6.8,-2.6,51,6,25.0,101.5,Mainly Clear,1.7175407359643158
4/19/2012 0:00,6.5,-2.7,52,4,25.0,101.44,Mainly Clear,1.7272037975886319
4/19/2012 1:00,5.5,-2.7,55,6,25.0,101.42,Clear,1.716361390572132
4/19/2012 2:00,3.3,-2.8,64,7,25.0,101.33,Clear,1.746718850306145
4/19/2012 3:00,4.4,-3.3,57,4,25.0,101.28,Mainly Clear,1.7359871859705078
4/19/2012 4:00,3.4,-3.2,62,0,25.0,101.27,Mainly Clear,1.7482847132612547
4/19/2012 5:00,3.4,-2.9,63,4,24.1,101.25,Mainly Clear,1.7476054892912791
4/19/2012 6:00,4.7,-0.8,67,4,48.3,101.28,Mostly Cloudy,1.7409709614223545
4/19/2012 7:00,7.1,-0.4,59,4,48.3,101.24,Mostly Cloudy,1.6917202509648293
4/19/2012 8:00,8.6,-1.1,50,7,48.3,101.18,Mostly Cloudy,1.7114641950893068
4/19/2012 9:00,11.8,-0.5,43,7,48.3,101.14,Mainly Clear,1.686088152912721
4/19/2012 10:00,14.0,-0.4,37,13,48.3,101.05,Mainly Clear,1.4411294754365742
4/19/2012 11:00,15.8,0.5,35,19,48.3,101.02,Mostly Cloudy,1.0350469879969417
4/19/2012 12:00,16.6,0.9,35,15,48.3,100.95,Mostly Cloudy,1.0858523389193055
4/19/2012 13:00,18.4,1.7,33,20,48.3,100.88,Mostly Cloudy,1.0018577193770986
4/19/2012 14:00,19.3,2.6,33,17,48.3,100.78,Mostly Cloudy,0.986478005269463
4/19/2012 15:00,20.2,3.9,34,28,48.3,100.69,Mostly Cloudy,0.9857424774972984
4/19/2012 16:00,20.7,4.0,33,26,48.3,100.65,Mostly Cloudy,1.01658448680191
4/19/2012 17:00,20.0,4.3,36,24,48.3,100.62,Mainly Clear,0.9865958782977482
4/19/2012 18:00,18.7,4.5,39,22,48.3,100.63,Mainly Clear,0.9687274091032194
4/19/2012 19:00,18.0,4.1,40,15,48.3,100.69,Mainly Clear,0.9557861893691004
4/19/2012 20:00,16.6,4.5,45,17,25.0,100.73,Mainly Clear,1.0237516842642915
4/19/2012 21:00,16.1,4.5,46,11,25.0,100.72,Clear,1.390379763252307
4/19/2012 22:00,13.9,4.8,54,13,25.0,100.73,Mainly Clear,1.7491474650161642
4/19/2012 23:00,12.6,4.6,58,9,25.0,100.78,Mainly Clear,1.7179195553305033
4/20/2012 0:00,12.5,2.5,50,19,25.0,100.88,Mainly Clear,1.720816334627806
4/20/2012 1:00,10.9,1.8,53,19,25.0,100.91,Clear,1.7367355266425142
4/20/2012 2:00,9.9,1.3,55,20,25.0,100.94,Mainly Clear,1.731394436486721
4/20/2012 3:00,9.1,1.5,59,15,25.0,101.0,Mainly Clear,1.7251095030758559
4/20/2012 4:00,8.8,1.1,58,19,25.0,101.02,Mainly Clear,1.7609441180484835
4/20/2012 5:00,8.7,-0.6,52,22,25.0,101.04,Mostly Cloudy,1.708224970146209
4/20/2012 6:00,7.8,-0.4,56,28,24.1,101.11,Mostly Cloudy,1.7567180017900323
4/20/2012 7:00,6.9,0.3,63,22,24.1,101.17,Rain Showers,1.7363267872185666
4/20/2012 8:00,6.1,1.4,72,26,24.1,101.12,Cloudy,1.7403306287275055
4/20/2012 9:00,6.3,1.4,71,19,48.3,101.13,Cloudy,1.7297923118328487
4/20/2012 10:00,6.6,1.6,70,24,24.1,101.07,Rain,1.7401049599799925
4/20/2012 11:00,6.9,1.0,66,20,24.1,101.06,Cloudy,1.7517064251383283
4/20/2012 12:00,7.2,1.7,68,26,24.1,100.98,Rain Showers,1.7453320707436544
4/20/2012 13:00,7.5,2.0,68,24,24.1,100.91,Rain Showers,1.7457290796136362
4/20/2012 14:00,9.6,3.2,64,24,24.1,100.8,Cloudy,1.7209646109144883
4/20/2012 15:00,9.5,3.0,64,24,24.1,100.7,Cloudy,1.7194964580694445
4/20/2012 16:00,8.4,2.9,68,33,24.1,100.67,Cloudy,1.7364503681887524
4/20/2012 17:00,7.8,2.6,70,26,24.1,100.59,Cloudy,1.7475330019261441
4/20/2012 18:00,7.4,2.9,73,28,24.1,100.54,Cloudy,1.7425527689160758
4/20/2012 19:00,7.0,3.2,77,26,24.1,100.5,Cloudy,1.7370256883258208
4/20/2012 20:00,6.9,3.5,79,24,25.0,100.46,Cloudy,1.7374038776665888
4/20/2012 21:00,6.6,3.5,81,17,25.0,100.35,Cloudy,1.7451702016028043
4/20/2012 22:00,6.5,3.4,81,17,25.0,100.32,Cloudy,1.7408722768108806
4/20/2012 23:00,6.6,3.5,81,20,25.0,100.27,Cloudy,1.7663720108479413
4/21/2012 0:00,6.3,3.7,83,19,25.0,100.18,Cloudy,1.7579727801255858
4/21/2012 1:00,6.4,4.0,85,15,25.0,100.13,Cloudy,1.756308170477725
4/21/2012 2:00,5.7,3.5,86,19,25.0,100.21,Cloudy,1.753513621935803
4/21/2012 3:00,5.5,3.3,86,20,25.0,100.21,Cloudy,1.7530322801745157
4/21/2012 4:00,5.7,3.4,85,13,25.0,100.2,Cloudy,1.7507512632600475
4/21/2012 5:00,6.0,3.5,84,7,25.0,100.32,Cloudy,1.7483983249034645
4/21/2012 6:00,6.2,3.4,82,15,25.0,100.36,Cloudy,1.7434626346010758
4/21/2012 7:00,6.4,3.3,81,17,25.0,100.38,Rain Showers,1.741964104130561
4/21/2012 8:00,6.2,3.3,82,17,24.1,100.42,Cloudy,1.7434626346010758
4/21/2012 9:00,5.5,3.4,86,19,24.1,100.49,Rain Showers,1.7530322801745157
4/21/2012 10:00,5.5,3.3,86,17,9.7,100.53,"Rain,Fog",1.7530322801745157
4/21/2012 11:00,5.6,3.5,86,11,12.9,100.59,Rain,1.7530322801745157
4/21/2012 12:00,5.5,3.3,86,15,9.7,100.61,"Rain,Fog",1.7530322801745157
4/21/2012 13:00,6.1,3.7,85,19,24.1,100.65,Rain,1.7507512632600475
4/21/2012 14:00,6.1,3.9,86,19,16.1,100.69,Rain,1.753597254154133
4/21/2012 15:00,5.7,3.3,85,17,16.1,100.73,Rain,1.7569534703828609
4/21/2012 16:00,5.3,2.5,82,19,16.1,100.8,Rain,1.7434626346010758
4/21/2012 17:00,4.8,2.6,86,17,16.1,100.84,Rain,1.7530322801745157
4/21/2012 18:00,3.8,1.6,86,24,16.1,100.96,Rain,1.7636484068289384
4/21/2012 19:00,3.4,1.0,84,20,19.3,100.96,Rain,1.7523553297408672
4/21/2012 20:00,2.6,0.5,86,24,16.1,101.06,Rain,1.773624811822293
4/21/2012 21:00,2.6,0.3,85,26,25.0,101.06,Rain,1.7602464633506947
4/21/2012 22:00,1.9,-0.2,86,19,19.3,101.04,Rain,1.7635410051196072
4/21/2012 23:00,1.6,-0.3,87,13,25.0,101.08,Rain,1.7608704374580646
4/22/2012 0:00,1.5,-0.6,86,24,25.0,101.04,Rain,1.7620151744658603
4/22/2012 1:00,1.4,-0.5,87,17,25.0,101.06,"Rain,Snow",1.7625597403368407
4/22/2012 2:00,0.6,-1.0,89,13,9.7,101.07,"Rain,Snow",1.767484983253079
4/22/2012 3:00,0.8,-0.8,89,15,25.0,101.05,"Rain,Snow",1.7590894054480448
4/22/2012 4:00,1.2,-0.3,90,11,25.0,101.05,Rain,1.7609487211792867
4/22/2012 5:00,1.8,-0.3,86,19,25.0,101.06,Rain,1.7619058813633794
4/22/2012 6:00,1.9,-0.3,85,19,24.1,101.1,Cloudy,1.7566024605309682
4/22/2012 7:00,2.4,-0.5,81,20,24.1,101.17,Cloudy,1.7609533240859419
4/22/2012 8:00,2.8,-1.1,75,20,24.1,101.24,Cloudy,1.7682451569672915
4/22/2012 9:00,3.3,-1.0,73,28,24.1,101.27,Cloudy,1.7734977760023976
4/22/2012 10:00,4.0,-0.3,74,22,48.3,101.3,Cloudy,1.7697319241593839
4/22/2012 11:00,4.6,-0.2,71,22,48.3,101.24,Cloudy,1.7604595386695068
4/22/2012 12:00,5.0,-0.5,68,24,48.3,101.22,Cloudy,1.7551530460060816
4/22/2012 13:00,5.2,-0.4,67,20,48.3,101.3,Cloudy,1.7567661032459463
4/22/2012 14:00,5.9,-0.1,65,22,48.3,101.27,Cloudy,1.7443945749215217
4/22/2012 15:00,6.0,-0.6,63,28,48.3,101.2,Cloudy,1.7472150572164624
4/22/2012 16:00,6.4,0.0,64,22,48.3,101.2,Cloudy,1.6906883538198028
4/22/2012 17:00,6.3,-0.3,63,26,48.3,101.17,Cloudy,1.741403723552538
4/22/2012 18:00,6.5,0.0,63,24,48.3,101.13,Cloudy,1.7042057872112837
4/22/2012 19:00,6.1,0.4,67,32,24.1,101.16,Cloudy,1.7468348183401707
4/22/2012 20:00,5.3,-0.6,66,32,25.0,101.19,Cloudy,1.7629886225294058
4/22/2012 21:00,4.3,-1.0,68,35,25.0,101.07,Rain,1.750687534523277
4/22/2012 22:00,2.8,-1.1,75,32,25.0,101.05,Rain,1.7578801284674401
4/22/2012 23:00,2.0,-0.7,82,41,19.3,100.89,Rain,1.766028294247571
4/23/2012 0:00,1.9,-0.8,82,46,19.3,100.73,Rain,1.7633482671305367
4/23/2012 1:00,1.1,-1.1,85,44,11.3,100.59,"Rain,Snow",1.7685895420576547
4/23/2012 2:00,1.1,-1.1,85,44,25.0,100.32,"Rain,Snow",1.7603715873323038
4/23/2012 3:00,1.7,-0.7,84,52,25.0,100.11,"Rain,Snow",1.7603206308201105
4/23/2012 4:00,2.0,-0.7,82,44,25.0,99.82,Rain,1.7434626346010758
4/23/2012 5:00,1.9,-0.2,86,46,8.0,99.74,Rain,1.7604225164733736
4/23/2012 6:00,2.1,-0.3,84,52,16.1,99.66,Rain,1.7624827854073242
4/23/2012 7:00,2.3,-0.4,82,48,24.1,99.52,Rain,1.7603901101857125
4/23/2012 8:00,2.8,0.3,84,48,19.3,99.4,Rain,1.763420030121381
4/23/2012 9:00,3.1,0.6,84,44,12.9,99.29,Rain,1.765770753990879
4/23/2012 10:00,3.7,1.1,83,46,24.1,99.23,Cloudy,1.7584913994546827
4/23/2012 11:00,4.1,1.7,84,48,19.3,99.15,Cloudy,1.7635230927974894
4/23/2012 12:00,4.6,1.9,83,46,24.1,99.09,Cloudy,1.755741198793006
4/23/2012 13:00,5.0,2.4,83,41,24.1,99.06,Cloudy,1.7540638354559932
4/23/2012 14:00,5.3,2.2,80,44,24.1,98.97,Cloudy,1.7549443840994652
4/23/2012 15:00,5.7,2.4,79,43,24.1,98.9,Cloudy,1.755935408306954
4/23/2012 16:00,5.6,2.4,80,39,24.1,98.81,Cloudy,1.744889241354323
4/23/2012 17:00,5.9,2.9,81,35,24.1,98.8,Cloudy,1.741684409726711
4/23/2012 18:00,5.9,2.8,80,43,24.1,98.66,Cloudy,1.754988132680721
4/23/2012 19:00,5.4,3.2,86,39,9.7,98.61,"Rain,Fog",1.761339169706892
4/23/2012 20:00,5.7,3.6,86,41,25.0,98.54,Cloudy,1.753401963565655
4/23/2012 21:00,5.6,3.5,86,37,25.0,98.51,Rain,1.7530322801745157
4/23/2012 22:00,5.5,3.7,88,19,25.0,98.58,Cloudy,1.7571931537828946
4/23/2012 23:00,5.6,3.9,89,9,25.0,98.64,Cloudy,1.7590894054480448
4/24/2012 0:00,5.7,4.2,90,13,25.0,98.6,Cloudy,1.7609487211792867
4/24/2012 1:00,6.7,5.1,90,7,16.1,98.56,Cloudy,1.7609487211792867
4/24/2012 2:00,6.1,4.5,89,6,9.7,98.5,Fog,1.7590894054480448
4/24/2012 3:00,7.0,5.5,90,15,12.9,98.53,Cloudy,1.7609487211792867
4/24/2012 4:00,7.5,4.2,80,19,25.0,98.51,Rain Showers,1.7480389701675967
4/24/2012 5:00,7.1,3.1,76,19,24.1,98.47,Cloudy,1.742681558444454
4/24/2012 6:00,6.8,3.4,79,19,19.3,98.51,Rain Showers,1.7525025310201894
4/24/2012 7:00,5.5,3.0,84,13,11.3,98.6,Rain Showers,1.7637735525493525
4/24/2012 8:00,6.6,3.7,82,13,24.1,98.63,Rain Showers,1.750420441810727
4/24/2012 9:00,7.7,1.4,64,17,48.3,98.64,Mostly Cloudy,1.7305735986218789
4/24/2012 10:00,7.2,1.2,66,19,24.1,98.72,Rain Showers,1.7392203772111152
4/24/2012 11:00,8.8,1.2,59,26,24.1,98.78,Mostly Cloudy,1.7309247320107857
4/24/2012 12:00,8.9,3.6,69,17,24.1,98.82,Mostly Cloudy,1.740687737463679
4/24/2012 13:00,8.0,1.2,62,24,24.1,98.9,Rain Showers,1.7046929573887095
4/24/2012 14:00,8.0,0.5,59,28,24.1,99.01,Cloudy,1.7247310883140927
4/24/2012 15:00,8.4,1.9,64,19,48.3,99.08,Cloudy,1.7223458930328488
4/24/2012 16:00,8.1,-0.3,55,32,48.3,99.19,Cloudy,1.725602716596633
4/24/2012 17:00,8.0,0.4,59,28,48.3,99.26,Cloudy,1.0363756070529428
4/24/2012 18:00,7.7,0.4,60,20,48.3,99.3,Mostly Cloudy,1.537643830631122
4/24/2012 19:00,7.1,0.1,61,19,24.1,99.37,Cloudy,1.7400783687706758
4/24/2012 20:00,6.9,0.0,61,28,25.0,99.45,Cloudy,1.719709524810709
4/24/2012 21:00,6.6,-0.2,62,20,25.0,99.54,Cloudy,1.744179203209657
4/24/2012 22:00,6.0,-0.9,61,24,25.0,99.56,Mostly Cloudy,1.7492420644791693
4/24/2012 23:00,5.4,-0.9,64,19,25.0,99.61,Mostly Cloudy,1.7509998635780144
4/25/2012 0:00,4.9,-0.6,68,19,25.0,99.67,Mostly Cloudy,1.7205246138045909
4/25/2012 1:00,5.5,-0.7,64,19,25.0,99.71,Mostly Cloudy,1.7488926396943076
4/25/2012 2:00,4.5,-0.2,71,13,25.0,99.74,Mostly Cloudy,1.742726585016728
4/25/2012 3:00,4.4,-0.3,71,15,25.0,99.77,Mostly Cloudy,1.749277508696451
4/25/2012 4:00,4.8,-0.3,70,15,25.0,99.8,Mostly Cloudy,1.7545659540463632
4/25/2012 5:00,4.5,0.0,73,13,24.1,99.84,Mostly Cloudy,1.7253135247110876
4/25/2012 6:00,5.2,0.1,70,20,24.1,99.93,Rain Showers,1.7201125748385693
4/25/2012 7:00,5.5,0.6,71,19,19.3,100.01,Rain Showers,1.7364503681887526
4/25/2012 8:00,4.9,1.5,79,19,24.1,100.08,Rain,1.7466072944895115
4/25/2012 9:00,5.1,2.9,86,15,24.1,100.15,Rain,1.7530322801745157
4/25/2012 10:00,6.1,2.9,80,9,24.1,100.22,Rain,1.7589484813441467
4/25/2012 11:00,7.8,2.7,70,17,48.3,100.23,Mostly Cloudy,1.7367678404132223
4/25/2012 12:00,8.0,1.9,65,20,48.3,100.26,Mostly Cloudy,1.735062707509017
4/25/2012 13:00,8.7,0.1,55,20,48.3,100.29,Mostly Cloudy,1.739485655144382
4/25/2012 14:00,9.8,1.7,57,19,24.1,100.31,Mostly Cloudy,1.7001584364050464
4/25/2012 15:00,7.7,0.5,60,15,24.1,100.38,Rain Showers,1.6431611990254456
4/25/2012 16:00,8.8,-1.5,48,17,24.1,100.41,Mostly Cloudy,1.427085751384613
4/25/2012 17:00,8.8,-1.5,48,22,48.3,100.45,Mostly Cloudy,1.6968079320421787
4/25/2012 18:00,8.0,-1.9,50,22,48.3,100.5,Mostly Cloudy,1.7154066152838512
4/25/2012 19:00,7.3,0.1,60,17,24.1,100.56,Mostly Cloudy,1.6980832577789096
4/25/2012 20:00,7.3,-0.2,59,17,25.0,100.61,Mostly Cloudy,1.7452449525175253
4/25/2012 21:00,7.0,0.0,61,13,25.0,100.67,Mostly Cloudy,1.7605658969819977
4/25/2012 22:00,6.2,0.2,65,9,25.0,100.69,Mostly Cloudy,1.7512188685698677
4/25/2012 23:00,6.0,0.2,66,9,25.0,100.69,Cloudy,1.746043989857682
4/26/2012 0:00,5.8,0.9,71,7,25.0,100.68,Mostly Cloudy,1.7358888466613154
4/26/2012 1:00,4.9,0.2,72,9,25.0,100.67,Mainly Clear,1.7523949897498083
4/26/2012 2:00,3.7,-0.5,74,7,25.0,100.67,Mainly Clear,1.7551683169847265
4/26/2012 3:00,3.5,-0.6,74,11,25.0,100.66,Clear,1.757875374690234
4/26/2012 4:00,2.7,-1.5,74,7,25.0,100.66,Clear,1.7621334320890059
4/26/2012 5:00,2.6,-1.3,75,9,24.1,100.69,Clear,1.7426236292399016
4/26/2012 6:00,3.2,-0.6,76,4,48.3,100.71,Clear,1.7557266174084487
4/26/2012 7:00,5.5,0.9,72,7,48.3,100.72,Mostly Cloudy,1.7421003402065007
4/26/2012 8:00,6.2,0.8,68,7,48.3,100.72,Cloudy,1.719901644684806
4/26/2012 9:00,6.9,-0.3,60,7,48.3,100.65,Cloudy,1.7275145449481701
4/26/2012 10:00,8.8,0.3,55,11,48.3,100.6,Mostly Cloudy,0.9935776781775152
4/26/2012 11:00,9.6,0.3,52,7,48.3,100.49,Cloudy,1.7450766613478637
4/26/2012 12:00,9.8,0.5,52,13,48.3,100.39,Cloudy,1.700878200125646
4/26/2012 13:00,10.3,0.8,52,13,48.3,100.24,Cloudy,1.7001830957909732
4/26/2012 14:00,11.0,-0.4,45,17,24.1,100.08,Cloudy,1.013533776612186
4/26/2012 15:00,11.2,-0.6,44,19,48.3,99.98,Cloudy,1.1090871436523304
4/26/2012 16:00,11.4,-0.6,43,19,24.1,99.84,Cloudy,1.7212147708025975
4/26/2012 17:00,11.0,1.3,51,15,19.3,99.8,Rain,1.6908471848453275
4/26/2012 18:00,8.6,5.4,80,19,19.3,99.72,Rain,1.7383226557949913
4/26/2012 19:00,8.3,5.6,83,15,19.3,99.7,Rain,1.7459700090483987
4/26/2012 20:00,8.1,5.8,85,7,25.0,99.69,Rain,1.7507512632600475
4/26/2012 21:00,8.0,6.2,88,9,9.7,99.67,"Rain,Fog",1.7571931537828946
4/26/2012 22:00,7.6,5.8,88,6,9.7,99.61,"Drizzle,Fog",1.7571931537828946
4/26/2012 23:00,6.9,5.3,90,13,9.7,99.59,"Rain,Fog",1.7629525818277918
4/27/2012 0:00,5.8,4.1,89,22,9.7,99.67,"Rain,Fog",1.7590894054480448
4/27/2012 1:00,4.8,2.6,86,15,25.0,99.74,Rain,1.7530322801745157
4/27/2012 2:00,4.7,2.8,87,15,25.0,99.79,Rain,1.755244623603565
4/27/2012 3:00,4.4,1.8,83,22,25.0,99.87,Mostly Cloudy,1.757875374690234
4/27/2012 4:00,4.2,1.0,80,24,25.0,99.94,Mostly Cloudy,1.7545329537491439
4/27/2012 5:00,3.3,-0.6,76,26,24.1,100.03,Rain Showers,1.7478752000544515
4/27/2012 6:00,2.5,-1.7,74,28,24.1,100.16,Mostly Cloudy,1.7504378900247004
4/27/2012 7:00,1.8,-2.9,71,32,12.9,100.25,Snow,1.7723820654576656
4/27/2012 8:00,2.3,-2.7,69,26,24.1,100.33,Snow,1.7230563197140312
4/27/2012 9:00,2.7,-3.2,65,32,24.1,100.4,Snow,1.7580890620229803
4/27/2012 10:00,3.7,-3.1,61,30,24.1,100.48,Snow,1.7583070072188607
4/27/2012 11:00,3.0,-3.7,61,30,24.1,100.58,Cloudy,1.7696138998408184
4/27/2012 12:00,2.7,-4.1,61,35,24.1,100.65,Snow,1.7381590142595074
4/27/2012 13:00,2.7,-5.0,57,37,24.1,100.76,Cloudy,1.7708418429484176
4/27/2012 14:00,1.9,-5.3,59,37,24.1,100.86,Cloudy,1.7737568815245237
4/27/2012 15:00,2.5,-5.1,57,30,24.1,100.92,Cloudy,1.765661409136769
4/27/2012 16:00,2.1,-5.9,55,30,24.1,100.97,Cloudy,1.7637869510507882
4/27/2012 17:00,1.7,-6.3,55,33,24.1,101.09,Cloudy,1.7386734931442034
4/27/2012 18:00,1.0,-7.2,54,28,24.1,101.18,Cloudy,1.7598328458596995
4/27/2012 19:00,0.7,-7.7,53,22,24.1,101.25,Cloudy,1.7621334320890056
4/27/2012 20:00,0.5,-7.2,56,24,25.0,101.36,Cloudy,1.7674713145796597
4/27/2012 21:00,0.2,-7.1,58,19,25.0,101.42,Cloudy,1.7641168381899777
4/27/2012 22:00,0.2,-7.8,55,20,25.0,101.47,Cloudy,1.771144137996612
4/27/2012 23:00,0.3,-7.7,55,17,25.0,101.5,Cloudy,1.7738448424138793
4/28/2012 0:00,0.2,-7.4,57,17,25.0,101.52,Cloudy,1.7708205992705537
4/28/2012 1:00,-0.2,-8.2,55,19,25.0,101.51,Cloudy,1.7735703853524567
4/28/2012 2:00,-0.4,-8.1,56,22,25.0,101.5,Cloudy,1.771128247615762
4/28/2012 3:00,-0.8,-9.1,53,17,25.0,101.54,Cloudy,1.773539272760659
4/28/2012 4:00,-1.3,-9.8,52,24,25.0,101.6,Cloudy,1.7174776489135843
4/28/2012 5:00,-1.5,-9.6,54,26,24.1,101.67,Cloudy,1.756433715028503
4/28/2012 6:00,-2.1,-10.7,52,22,48.3,101.74,Mainly Clear,1.759548312186173
4/28/2012 7:00,-1.3,-10.0,52,30,48.3,101.75,Mainly Clear,1.7459946772169295
4/28/2012 8:00,-0.4,-10.0,48,24,48.3,101.78,Mainly Clear,1.7732224753971306
4/28/2012 9:00,0.6,-9.7,46,32,48.3,101.79,Mainly Clear,1.7663850380666062
4/28/2012 10:00,2.0,-7.4,50,28,48.3,101.73,Mainly Clear,1.7655913602862445
4/28/2012 11:00,3.9,-9.9,36,24,48.3,101.71,Mainly Clear,1.7289712174777554
4/28/2012 12:00,5.0,-9.7,34,30,48.3,101.68,Mainly Clear,1.7470540667131984
4/28/2012 13:00,5.4,-11.1,29,32,48.3,101.62,Mainly Clear,1.7479789120164322
4/28/2012 14:00,6.4,-10.7,28,24,48.3,101.57,Mainly Clear,1.7340283091886926
4/28/2012 15:00,7.2,-10.5,27,35,48.3,101.5,Mainly Clear,1.740687737463679
4/28/2012 16:00,7.4,-11.0,26,30,48.3,101.46,Mainly Clear,1.7330027206824956
4/28/2012 17:00,7.7,-11.2,25,28,48.3,101.45,Mainly Clear,1.7342380262387271
4/28/2012 18:00,7.2,-11.3,25,24,48.3,101.43,Clear,1.7406943355245539
4/28/2012 19:00,6.1,-11.4,27,19,48.3,101.46,Clear,1.7021964100452003
4/28/2012 20:00,4.1,-10.2,34,11,25.0,101.51,Mainly Clear,1.7335587806888841
4/28/2012 21:00,2.3,-9.7,41,11,25.0,101.55,Clear,1.7489519781931364
4/28/2012 22:00,1.9,-9.9,41,9,25.0,101.56,Mostly Cloudy,1.754207651355708
4/28/2012 23:00,0.8,-9.1,47,6,25.0,101.55,Mostly Cloudy,1.6989000349547834
4/29/2012 0:00,0.8,-8.8,49,7,25.0,101.52,Cloudy,1.740628330311793
4/29/2012 1:00,1.3,-8.7,47,11,25.0,101.49,Mainly Clear,1.7394733448111015
4/29/2012 2:00,1.3,-7.5,52,11,25.0,101.49,Mainly Clear,1.7579609067022444
4/29/2012 3:00,0.8,-7.8,53,13,25.0,101.47,Mostly Cloudy,1.7599259506085518
4/29/2012 4:00,-0.1,-7.7,57,9,25.0,101.48,Mainly Clear,1.7464434874247117
4/29/2012 5:00,0.9,-10.5,42,19,48.3,101.52,Mostly Cloudy,1.7383477889222958
4/29/2012 6:00,1.2,-11.4,38,20,48.3,101.58,Mostly Cloudy,0.9638948809679477
4/29/2012 7:00,1.8,-11.9,35,26,48.3,101.64,Mostly Cloudy,1.7507512632600477
4/29/2012 8:00,2.6,-11.7,34,19,48.3,101.65,Mostly Cloudy,0.982139433707547
4/29/2012 9:00,4.3,-11.7,30,19,48.3,101.64,Mainly Clear,1.5
4/29/2012 10:00,5.5,-11.4,28,26,48.3,101.67,Clear,1.749153380960617
4/29/2012 11:00,6.2,-11.6,27,24,48.3,101.62,Clear,1.738529666332377
4/29/2012 12:00,7.4,-10.5,27,24,48.3,101.62,Clear,1.738529666332377
4/29/2012 13:00,8.4,-11.1,24,32,48.3,101.64,Clear,1.733797421484478
4/29/2012 14:00,8.7,-11.7,22,22,48.3,101.65,Clear,1.7108052795096762
4/29/2012 15:00,9.0,-12.0,21,32,48.3,101.63,Clear,1.7317266703351446
4/29/2012 16:00,9.2,-11.8,21,28,48.3,101.66,Mainly Clear,1.731627901862277
4/29/2012 17:00,9.0,-11.5,22,30,48.3,101.72,Clear,1.7325456927116618
4/29/2012 18:00,8.1,-11.9,23,28,48.3,101.77,Clear,1.731245387517435
4/29/2012 19:00,6.9,-11.7,25,20,48.3,101.82,Clear,1.7381211827005885
4/29/2012 20:00,6.3,-11.4,27,15,25.0,101.93,Mainly Clear,1.7507917895940754
4/29/2012 21:00,5.4,-11.0,29,19,25.0,102.01,Mainly Clear,1.7602093578612918
4/29/2012 22:00,5.1,-10.7,31,15,25.0,102.05,Clear,1.7461117431973494
4/29/2012 23:00,4.1,-10.3,34,13,25.0,102.09,Clear,1.7507744238604601
4/30/2012 0:00,3.3,-10.3,36,9,25.0,102.06,Clear,1.7071896139439198
4/30/2012 1:00,2.2,-9.7,41,6,25.0,102.12,Clear,1.7573079905350404
4/30/2012 2:00,3.2,-10.4,36,0,25.0,102.09,Clear,1.7542021252165103
4/30/2012 3:00,2.4,-9.2,42,0,25.0,102.09,Clear,1.760009666968978
4/30/2012 4:00,0.7,-9.0,48,4,25.0,102.14,Clear,1.7683021732492312
4/30/2012 5:00,-0.7,-6.9,63,4,48.3,102.23,Mainly Clear,1.7731054000365662
4/30/2012 6:00,3.0,-4.3,59,0,48.3,102.33,Mainly Clear,1.7713029205311157
4/30/2012 7:00,6.0,-7.3,38,0,48.3,102.37,Mainly Clear,1.7472302275067324
4/30/2012 8:00,6.6,-6.3,39,11,48.3,102.41,Mostly Cloudy,1.7526155631950924
4/30/2012 9:00,7.2,-6.4,37,7,48.3,102.31,Mostly Cloudy,1.7340825024275421
4/30/2012 10:00,7.6,-6.7,35,7,48.3,102.31,Mostly Cloudy,1.7317759927887981
4/30/2012 11:00,9.3,-5.2,35,0,48.3,102.2,Mostly Cloudy,1.7173159870266317
4/30/2012 12:00,10.1,-3.2,39,6,48.3,102.15,Mostly Cloudy,1.7104845133078541
4/30/2012 13:00,12.4,-4.3,31,11,48.3,102.01,Mostly Cloudy,1.0000000000000002
4/30/2012 14:00,12.4,-3.2,34,7,48.3,101.93,Mostly Cloudy,1.0180035849298257
4/30/2012 15:00,12.5,-4.2,31,15,48.3,101.83,Mostly Cloudy,1.7023930863503804
4/30/2012 16:00,12.9,-3.8,31,9,48.3,101.79,Mostly Cloudy,1.6890201544265626
4/30/2012 17:00,12.7,-4.5,30,9,24.1,101.73,Cloudy,1.6949390692438957
4/30/2012 18:00,12.5,-4.0,31,13,25.0,101.68,Cloudy,1.7147678742126473
4/30/2012 19:00,12.2,-3.6,33,11,25.0,101.6,Cloudy,1.7089053184653797
4/30/2012 20:00,12.1,-2.9,35,11,25.0,101.53,Cloudy,1.7358363296335322
4/30/2012 21:00,12.2,-3.7,33,13,25.0,101.49,Cloudy,1.705802722984186
4/30/2012 22:00,12.0,-3.2,34,11,25.0,101.47,Cloudy,1.711196926732021
4/30/2012 23:00,11.1,-2.0,40,6,25.0,101.45,Cloudy,1.6910204299168632
5/1/2012 0:00,11.4,-1.9,39,11,25.0,101.32,Cloudy,1.7462137006485112
5/1/2012 1:00,10.8,-1.0,44,19,25.0,101.22,Rain Showers,1.7311244541721598
5/1/2012 2:00,9.7,1.7,57,7,25.0,101.24,Rain Showers,1.7204241774516098
5/1/2012 3:00,8.8,3.2,68,15,25.0,101.2,Rain Showers,1.7438946315363788
5/1/2012 4:00,8.4,3.7,72,17,25.0,101.15,Rain,1.7154802667147235
5/1/2012 5:00,7.8,5.1,83,24,11.3,101.13,Rain,1.756216323346371
5/1/2012 6:00,7.8,5.8,87,24,9.7,101.15,"Rain,Fog",1.755244623603565
5/1/2012 7:00,7.9,5.9,87,13,9.7,101.15,Rain,1.755244623603565
5/1/2012 8:00,8.0,5.9,87,17,9.7,101.13,"Rain,Fog",1.755244623603565
5/1/2012 9:00,8.4,6.8,90,13,9.7,101.09,Fog,1.7685272490197876
5/1/2012 10:00,9.2,7.0,86,6,16.1,101.12,Cloudy,1.7530322801745157
5/1/2012 11:00,9.5,7.0,84,6,16.1,101.13,Cloudy,1.7483983249034645
5/1/2012 12:00,10.9,7.9,82,7,16.1,101.08,Cloudy,1.7434626346010758
5/1/2012 13:00,10.6,7.5,81,0,16.1,101.12,Cloudy,1.7408722768108806
5/1/2012 14:00,11.0,7.8,81,0,16.1,101.15,Cloudy,1.7408722768108806
5/1/2012 15:00,10.4,7.9,84,9,9.7,101.16,Drizzle,1.7483983249034645
5/1/2012 16:00,9.9,7.9,87,9,4.8,101.17,"Drizzle,Fog",1.755244623603565
5/1/2012 17:00,10.0,8.4,90,7,4.0,101.21,"Rain,Fog",1.7609487211792867
5/1/2012 18:00,9.7,8.2,90,7,2.4,101.3,"Rain,Fog",1.7641390857110828
5/1/2012 19:00,9.6,8.2,91,9,2.0,101.35,"Drizzle,Fog",1.762772169746578
5/1/2012 20:00,9.3,8.0,92,6,4.0,101.39,"Drizzle,Fog",1.764560779079539
5/1/2012 21:00,9.2,7.9,92,9,2.4,101.38,"Drizzle,Fog",1.764560779079539
5/1/2012 22:00,9.1,7.9,92,6,2.0,101.38,"Drizzle,Fog",1.764560779079539
5/1/2012 23:00,9.1,7.9,92,6,2.4,101.41,"Drizzle,Fog",1.764560779079539
5/2/2012 0:00,9.0,7.9,93,6,1.6,101.43,"Drizzle,Fog",1.7663155381997573
5/2/2012 1:00,8.6,7.8,95,6,0.6,101.44,Fog,1.768832975474038
5/2/2012 2:00,8.8,7.7,93,4,0.4,101.44,Fog,1.7663155381997573
5/2/2012 3:00,8.8,7.7,93,4,0.4,101.49,Fog,1.7663155381997573
5/2/2012 4:00,8.6,7.5,93,9,1.2,101.52,Fog,1.7663155381997573
5/2/2012 5:00,8.4,7.3,93,13,1.0,101.57,Fog,1.7663155381997573
5/2/2012 6:00,8.6,7.5,93,11,1.6,101.58,Fog,1.7663155381997573
5/2/2012 7:00,8.4,7.3,93,17,1.0,101.7,"Drizzle,Fog",1.7663155381997573
5/2/2012 8:00,8.4,7.2,92,15,2.4,101.71,Fog,1.764560779079539
5/2/2012 9:00,8.9,7.4,90,13,6.4,101.68,Fog,1.7609487211792867
5/2/2012 10:00,9.5,7.8,89,13,6.4,101.73,Fog,1.7590894054480448
5/2/2012 11:00,10.3,8.0,86,13,12.9,101.72,Cloudy,1.7530322801745157
5/2/2012 12:00,11.2,8.0,81,13,12.9,101.64,Cloudy,1.7408722768108806
5/2/2012 13:00,11.8,8.3,79,17,12.9,101.57,Cloudy,1.7473635962724685
5/2/2012 14:00,13.0,8.5,74,11,16.1,101.51,Mostly Cloudy,1.7236785241962447
5/2/2012 15:00,14.0,9.1,72,19,16.1,101.42,Mostly Cloudy,1.7553589328887989
5/2/2012 16:00,14.9,9.0,68,19,19.3,101.37,Mostly Cloudy,1.7018006700167505
5/2/2012 17:00,15.4,8.9,65,17,24.1,101.31,Mostly Cloudy,1.7588308855649644
5/2/2012 18:00,15.4,9.0,66,15,24.1,101.28,Cloudy,1.6960165533823464
5/2/2012 19:00,15.2,9.0,66,15,24.1,101.29,Mostly Cloudy,1.6961752687692428
5/2/2012 20:00,14.2,9.0,71,11,25.0,101.34,Mostly Cloudy,1.712430565280306
5/2/2012 21:00,14.2,8.0,66,17,25.0,101.27,Mostly Cloudy,1.6994325399764465
5/2/2012 22:00,13.5,7.7,68,19,25.0,101.22,Rain Showers,1.7018006700167505
5/2/2012 23:00,11.9,8.7,81,19,25.0,101.18,Rain Showers,1.7408722768108806
5/3/2012 0:00,11.6,8.9,83,17,25.0,101.16,Cloudy,1.7459700090483987
5/3/2012 1:00,11.4,8.9,85,15,25.0,101.17,Cloudy,1.7507512632600475
5/3/2012 2:00,11.4,8.7,83,17,25.0,101.18,Cloudy,1.7459700090483987
5/3/2012 3:00,11.2,8.5,83,15,25.0,101.21,Cloudy,1.7459700090483987
5/3/2012 4:00,11.1,8.4,83,17,25.0,101.24,Cloudy,1.7459700090483987
5/3/2012 5:00,11.0,8.4,84,13,24.1,101.29,Cloudy,1.7569822638504213
5/3/2012 6:00,11.4,8.5,82,13,24.1,101.31,Cloudy,1.7434626346010758
5/3/2012 7:00,11.7,8.6,81,15,24.1,101.36,Cloudy,1.7408722768108806
5/3/2012 8:00,12.4,8.8,79,15,24.1,101.42,Cloudy,1.747284815616532
5/3/2012 9:00,13.6,9.6,77,17,24.1,101.42,Cloudy,1.7302348458823897
5/3/2012 10:00,14.2,9.9,75,13,24.1,101.44,Cloudy,1.7241591468416737
5/3/2012 11:00,15.4,10.3,72,11,24.1,101.41,Cloudy,1.7154802667147235
5/3/2012 12:00,15.7,10.3,70,15,24.1,101.4,Cloudy,1.7091525423728813
5/3/2012 13:00,15.9,10.7,71,13,24.1,101.38,Cloudy,1.712430565280306
5/3/2012 14:00,16.2,10.8,70,11,24.1,101.37,Cloudy,1.7091525423728813
5/3/2012 15:00,16.2,11.0,71,7,24.1,101.27,Cloudy,1.712430565280306
5/3/2012 16:00,16.5,11.4,72,13,24.1,101.17,Cloudy,1.7170597859162458
5/3/2012 17:00,16.4,11.4,72,6,24.1,101.22,Rain Showers,1.7154802667147235
5/3/2012 18:00,15.8,11.9,78,7,24.1,101.21,Cloudy,1.733057876440812
5/3/2012 19:00,15.7,11.4,76,6,24.1,101.18,Cloudy,1.7272721454173066
5/3/2012 20:00,15.1,11.1,77,11,25.0,101.13,Cloudy,1.7302348458823897
5/3/2012 21:00,14.2,10.8,80,13,25.0,101.04,Mostly Cloudy,1.7383226557949913
5/3/2012 22:00,13.8,10.2,79,11,25.0,101.01,Cloudy,1.7357508862871274
5/3/2012 23:00,13.8,10.4,80,11,25.0,100.99,Rain,1.7383226557949913
5/4/2012 0:00,13.5,10.7,83,13,25.0,100.85,Cloudy,1.7459700090483987
5/4/2012 1:00,13.3,10.8,85,17,25.0,100.7,Cloudy,1.7507512632600475
5/4/2012 2:00,13.1,11.0,87,13,9.7,100.75,"Drizzle,Fog",1.755244623603565
5/4/2012 3:00,13.2,11.2,88,11,8.0,100.66,"Drizzle,Fog",1.7571931537828946
5/4/2012 4:00,13.1,11.2,88,6,8.0,100.7,"Drizzle,Fog",1.7571931537828946
5/4/2012 5:00,13.2,11.2,88,6,8.0,100.67,Fog,1.7571931537828946
5/4/2012 6:00,13.3,11.3,88,11,3.6,100.69,"Drizzle,Fog",1.7571931537828946
5/4/2012 7:00,13.6,11.7,88,7,4.8,100.7,"Drizzle,Fog",1.7571931537828946
5/4/2012 8:00,13.7,12.1,90,6,3.6,100.72,"Drizzle,Fog",1.7609487211792867
5/4/2012 9:00,13.5,11.9,90,11,4.0,100.71,"Drizzle,Fog",1.7609487211792867
5/4/2012 10:00,13.8,12.0,89,11,9.7,100.71,"Drizzle,Fog",1.7590894054480448
5/4/2012 11:00,14.6,12.3,86,7,16.1,100.72,Cloudy,1.7530322801745157
5/4/2012 12:00,15.3,12.2,82,0,24.1,100.7,Cloudy,1.7434626346010758
5/4/2012 13:00,16.0,12.6,80,9,24.1,100.71,Cloudy,1.7383226557949913
5/4/2012 14:00,16.0,12.5,80,9,24.1,100.73,Cloudy,1.7383226557949913
5/4/2012 15:00,16.9,13.0,78,9,24.1,100.72,Cloudy,1.733057876440812
5/4/2012 16:00,16.6,12.9,79,7,24.1,100.77,Cloudy,1.7357508862871274
5/4/2012 17:00,17.1,12.9,76,7,24.1,100.79,Cloudy,1.7272721454173066
5/4/2012 18:00,17.4,13.0,75,4,24.1,100.79,Mostly Cloudy,1.7241591468416737
5/4/2012 19:00,15.9,13.0,83,9,9.7,100.82,Rain Showers,1.7525534169464556
5/4/2012 20:00,15.4,13.5,88,9,25.0,100.89,Mostly Cloudy,1.7571931537828946
5/4/2012 21:00,14.0,9.8,76,32,25.0,100.99,Cloudy,1.7615635198276813
5/4/2012 22:00,11.0,5.4,68,30,25.0,101.08,Mostly Cloudy,1.7450142383612213
5/4/2012 23:00,10.2,4.6,68,17,25.0,101.17,Mostly Cloudy,1.7370578367688294
5/5/2012 0:00,8.4,4.1,74,4,25.0,101.25,Mainly Clear,1.7526042677740252
5/5/2012 1:00,7.9,3.4,73,11,25.0,101.32,Mainly Clear,1.7336338876325128
5/5/2012 2:00,7.7,2.9,72,11,25.0,101.36,Mainly Clear,1.7463821612628068
5/5/2012 3:00,6.5,1.6,71,15,25.0,101.42,Mainly Clear,1.735124805583344
5/5/2012 4:00,5.7,0.2,68,11,25.0,101.44,Mainly Clear,1.7018006700167505
5/5/2012 5:00,5.2,-0.6,66,17,24.1,101.49,Mainly Clear,1.7367549171177397
5/5/2012 6:00,5.9,-0.7,63,15,48.3,101.55,Mainly Clear,1.7630658058551847
5/5/2012 7:00,6.5,-0.7,60,19,48.3,101.62,Mainly Clear,1.756206650159899
5/5/2012 8:00,7.6,0.3,60,17,48.3,101.66,Mainly Clear,1.7503040162643682
5/5/2012 9:00,8.3,0.7,59,9,48.3,101.74,Mainly Clear,1.7373463515125775
5/5/2012 10:00,9.4,1.2,57,11,48.3,101.78,Mainly Clear,1.7178686296472796
5/5/2012 11:00,10.8,0.8,50,13,48.3,101.73,Mainly Clear,1.7194229549655498
5/5/2012 12:00,11.8,0.4,45,11,48.3,101.69,Mainly Clear,1.7030268569342453
5/5/2012 13:00,12.8,-0.7,39,13,48.3,101.63,Mostly Cloudy,1.5903832737988102
5/5/2012 14:00,14.4,-1.0,35,7,48.3,101.59,Mainly Clear,1.6838197651451943
5/5/2012 15:00,15.4,-1.0,32,6,48.3,101.55,Mainly Clear,1.6934469244845087
5/5/2012 16:00,16.0,-2.4,28,17,48.3,101.51,Clear,1.65
5/5/2012 17:00,15.9,-1.8,30,9,48.3,101.53,Clear,1.6904360248788652
5/5/2012 18:00,15.7,-2.8,28,11,48.3,101.52,Mainly Clear,1.6729558651296026
5/5/2012 19:00,14.7,-3.0,29,0,48.3,101.54,Mainly Clear,1.5
5/5/2012 20:00,12.8,-2.0,36,4,25.0,101.62,Mainly Clear,1.704505449195983
5/5/2012 21:00,12.6,-2.7,34,6,25.0,101.65,Mostly Cloudy,1.708845442004856
5/5/2012 22:00,13.1,-4.2,30,9,25.0,101.65,Cloudy,1.70490768353267
5/5/2012 23:00,12.7,-5.0,29,13,25.0,101.64,Cloudy,1.706904800481753
5/6/2012 0:00,12.1,-4.7,31,9,25.0,101.67,Mostly Cloudy,1.7146629790398904
5/6/2012 1:00,10.9,-4.1,35,15,25.0,101.61,Mainly Clear,1.7243583285726276
5/6/2012 2:00,7.8,-3.2,46,13,25.0,101.63,Mainly Clear,1.729089202768274
5/6/2012 3:00,7.0,-2.0,53,17,25.0,101.67,Mainly Clear,1.7407932408948905
5/6/2012 4:00,6.6,-3.6,48,17,25.0,101.67,Mainly Clear,1.7315218952789486
5/6/2012 5:00,6.2,-3.4,50,20,48.3,101.71,Mostly Cloudy,1.731944786484756
5/6/2012 6:00,7.3,-3.1,48,22,48.3,101.72,Cloudy,1.741161405013559
5/6/2012 7:00,8.2,-2.3,47,22,48.3,101.78,Cloudy,1.737550622378716
5/6/2012 8:00,9.8,-1.1,47,17,48.3,101.81,Mostly Cloudy,1.7096429862415075
5/6/2012 9:00,11.0,-0.9,44,20,48.3,101.86,Mainly Clear,1.7074329868299862
5/6/2012 10:00,12.3,-1.1,39,15,48.3,101.84,Mainly Clear,1.2959050438165214
5/6/2012 11:00,13.8,-4.0,29,15,48.3,101.77,Mainly Clear,1.6499999999999997
5/6/2012 12:00,14.7,-2.9,30,6,48.3,101.74,Mainly Clear,1.671759979945717
5/6/2012 13:00,15.0,-1.2,33,7,48.3,101.66,Mainly Clear,1.4147345461402423
5/6/2012 14:00,15.7,-2.3,29,9,48.3,101.61,Mainly Clear,1.5
5/6/2012 15:00,16.6,-3.0,26,6,48.3,101.61,Mainly Clear,1.6499999999999997
5/6/2012 16:00,16.6,-2.7,27,7,48.3,101.6,Mainly Clear,1.6634367043648437
5/6/2012 17:00,16.6,-1.7,29,11,48.3,101.57,Mainly Clear,1.6499999999999997
5/6/2012 18:00,16.1,-2.7,27,11,48.3,101.56,Mainly Clear,1.672771651036631
5/6/2012 19:00,14.4,-1.8,33,9,48.3,101.56,Mostly Cloudy,1.0958879255000809
5/6/2012 20:00,13.1,-1.4,37,9,25.0,101.58,Mainly Clear,1.2083383674739594
5/6/2012 21:00,12.3,-1.0,40,6,25.0,101.57,Mainly Clear,1.6998168772719078
5/6/2012 22:00,11.7,-1.6,40,0,25.0,101.58,Mainly Clear,1.701541717105106
5/6/2012 23:00,11.1,-2.1,40,0,25.0,101.57,Clear,1.7081120391474065
5/7/2012 0:00,9.9,-1.6,45,0,25.0,101.57,Clear,1.7093815131282692
5/7/2012 1:00,6.9,0.3,63,0,25.0,101.55,Clear,1.7449267616215574
5/7/2012 2:00,5.2,-0.8,65,4,25.0,101.56,Clear,1.769286016885463
5/7/2012 3:00,4.6,-0.4,70,4,25.0,101.55,Clear,1.7476477417663387
5/7/2012 4:00,5.1,0.6,73,0,25.0,101.61,Clear,1.7409808231518944
5/7/2012 5:00,5.7,0.4,69,4,48.3,101.6,Clear,1.7460747942246915
5/7/2012 6:00,8.2,3.3,71,6,48.3,101.63,Clear,1.7285192782936443
5/7/2012 7:00,12.3,0.6,45,4,48.3,101.64,Clear,1.7411679638988318
5/7/2012 8:00,14.0,1.0,41,7,48.3,101.67,Clear,1.0140652926356697
5/7/2012 9:00,16.0,-3.0,27,7,48.3,101.68,Clear,1.6691969702899503
5/7/2012 10:00,17.1,-5.9,20,13,48.3,101.67,Clear,1.6713856246670027
5/7/2012 11:00,17.8,-3.1,24,7,48.3,101.59,Mainly Clear,1.6657459743748217
5/7/2012 12:00,18.9,-4.2,21,13,48.3,101.48,Mainly Clear,1.6583581176214897
5/7/2012 13:00,19.7,-2.3,22,13,48.3,101.43,Mainly Clear,1.6500000000000001
5/7/2012 14:00,20.1,-3.6,20,19,48.3,101.36,Mainly Clear,1.6500000000000001
5/7/2012 15:00,20.6,-2.3,21,7,48.3,101.25,Mostly Cloudy,1.6636338229856409
5/7/2012 16:00,20.9,-2.0,21,11,48.3,101.14,Mostly Cloudy,1.5
5/7/2012 17:00,21.0,-2.9,20,13,48.3,101.07,Mostly Cloudy,1.5
5/7/2012 18:00,20.7,-4.4,18,13,48.3,101.0,Mostly Cloudy,1.5
5/7/2012 19:00,19.9,-4.0,20,11,48.3,100.93,Mostly Cloudy,1.6500000000000004
5/7/2012 20:00,19.2,-3.8,21,13,25.0,100.9,Mostly Cloudy,1.6904007684599849
5/7/2012 21:00,18.7,-4.1,21,15,25.0,100.87,Clear,1.6691881765114402
5/7/2012 22:00,18.1,-3.5,23,17,25.0,100.84,Mainly Clear,1.6974327571254364
5/7/2012 23:00,17.6,-2.2,26,15,25.0,100.77,Mostly Cloudy,1.686869544563782
5/8/2012 0:00,16.1,0.2,34,11,25.0,100.77,Mostly Cloudy,1.7079813883038264
5/8/2012 1:00,16.0,4.8,47,15,25.0,100.74,Rain Showers,1.059743980773337
5/8/2012 2:00,14.8,5.4,53,4,25.0,100.71,Cloudy,1.7289269136078813
5/8/2012 3:00,15.2,6.6,56,6,25.0,100.64,Rain,1.6965821772864327
5/8/2012 4:00,14.2,10.4,78,17,25.0,100.6,Rain,1.733057876440812
5/8/2012 5:00,13.7,10.3,80,19,24.1,100.53,Cloudy,1.7383226557949913
5/8/2012 6:00,12.6,10.4,86,22,9.7,100.51,Rain,1.7530322801745157
5/8/2012 7:00,12.2,10.1,87,24,6.4,100.48,Rain,1.755244623603565
5/8/2012 8:00,11.6,9.5,87,26,6.4,100.45,Rain,1.755244623603565
5/8/2012 9:00,11.1,9.1,87,32,6.4,100.41,Rain,1.755244623603565
5/8/2012 10:00,10.9,8.9,87,26,8.0,100.39,"Rain,Fog",1.7609533240859419
5/8/2012 11:00,11.0,9.2,89,20,6.4,100.37,"Rain,Fog",1.7590894054480448
5/8/2012 12:00,11.1,9.3,89,19,6.4,100.37,"Rain,Fog",1.7590894054480448
5/8/2012 13:00,11.5,9.6,88,17,6.4,100.35,"Rain,Fog",1.7571931537828946
5/8/2012 14:00,11.7,9.9,89,19,8.0,100.32,"Rain,Fog",1.7590894054480448
5/8/2012 15:00,12.0,10.0,88,17,12.9,100.3,Rain,1.7571931537828946
5/8/2012 16:00,12.2,10.3,88,15,12.9,100.28,Rain,1.7571931537828946
5/8/2012 17:00,12.2,10.3,88,9,12.9,100.29,Rain,1.7571931537828946
5/8/2012 18:00,12.1,10.3,89,11,9.7,100.29,"Rain,Fog",1.7590894054480448
5/8/2012 19:00,12.3,10.5,89,6,8.0,100.3,Fog,1.7590894054480448
5/8/2012 20:00,12.1,10.5,90,9,8.0,100.33,"Drizzle,Fog",1.7609487211792867
5/8/2012 21:00,12.2,10.6,90,6,8.0,100.31,Fog,1.7609487211792867
5/8/2012 22:00,12.3,10.7,90,6,8.0,100.3,Fog,1.7609487211792867
5/8/2012 23:00,12.4,10.9,91,4,6.4,100.26,"Drizzle,Fog",1.762772169746578
5/9/2012 0:00,12.5,11.0,91,0,3.2,100.27,"Rain,Fog",1.762772169746578
5/9/2012 1:00,12.6,11.2,91,0,3.2,100.2,"Rain,Fog",1.762772169746578
5/9/2012 2:00,12.8,11.3,91,6,6.4,100.14,"Drizzle,Fog",1.762772169746578
5/9/2012 3:00,12.9,11.4,91,6,4.8,100.13,"Drizzle,Fog",1.762772169746578
5/9/2012 4:00,13.0,11.6,91,6,3.2,100.08,"Drizzle,Fog",1.762772169746578
5/9/2012 5:00,13.5,12.0,91,9,2.4,100.07,"Drizzle,Fog",1.7685895420576547
5/9/2012 6:00,13.7,12.2,91,13,2.4,100.08,"Drizzle,Fog",1.7698123259777871
5/9/2012 7:00,14.3,12.5,89,15,4.8,100.12,Fog,1.7590894054480448
5/9/2012 8:00,14.3,12.3,88,17,6.4,100.12,Fog,1.7571931537828946
5/9/2012 9:00,14.0,12.3,89,9,4.0,100.1,"Drizzle,Fog",1.7590894054480448
5/9/2012 10:00,14.9,12.2,84,17,16.1,100.07,Cloudy,1.7483983249034645
5/9/2012 11:00,16.1,13.3,83,9,24.1,100.03,Cloudy,1.7459700090483987
5/9/2012 12:00,16.1,11.7,75,19,24.1,100.02,Cloudy,1.7241591468416737
5/9/2012 13:00,17.4,12.0,71,15,24.1,99.96,Mostly Cloudy,1.712430565280306
5/9/2012 14:00,17.9,11.2,65,15,24.1,99.88,Mostly Cloudy,1.1191697573694925
5/9/2012 15:00,19.0,11.4,61,13,24.1,99.78,Mostly Cloudy,1.023327700115891
5/9/2012 16:00,19.2,10.4,57,13,24.1,99.72,Cloudy,1.316066892650309
5/9/2012 17:00,18.9,10.2,57,7,24.1,99.67,Cloudy,1.015372188982555
5/9/2012 18:00,16.8,10.6,67,20,24.1,99.68,Cloudy,1.5487572612812697
5/9/2012 19:00,16.3,10.9,70,11,24.1,99.68,Mostly Cloudy,1.7091525423728813
5/9/2012 20:00,15.9,11.0,73,7,25.0,99.68,Mostly Cloudy,1.718324698506683
5/9/2012 21:00,15.4,9.5,68,11,25.0,99.67,Mostly Cloudy,1.5843042777238678
5/9/2012 22:00,14.3,9.4,72,13,25.0,99.67,Mainly Clear,1.7154802667147235
5/9/2012 23:00,11.9,8.3,79,4,25.0,99.65,Mainly Clear,1.7357508862871274
5/10/2012 0:00,12.2,8.4,78,15,25.0,99.66,Mostly Cloudy,1.733057876440812
5/10/2012 1:00,11.6,8.6,82,6,25.0,99.62,Mostly Cloudy,1.7434626346010758
5/10/2012 2:00,11.0,8.5,85,7,25.0,99.59,Cloudy,1.7507512632600475
5/10/2012 3:00,11.4,8.9,85,6,16.1,99.55,Cloudy,1.7507512632600475
5/10/2012 4:00,11.4,9.0,85,11,16.1,99.5,Cloudy,1.7507512632600475
5/10/2012 5:00,10.9,8.1,83,17,24.1,99.47,Cloudy,1.7459700090483987
5/10/2012 6:00,10.2,7.3,82,22,24.1,99.5,Cloudy,1.7434626346010758
5/10/2012 7:00,8.9,6.1,83,20,24.1,99.51,Cloudy,1.7459700090483987
5/10/2012 8:00,9.0,5.6,79,20,24.1,99.51,Cloudy,1.7357508862871274
5/10/2012 9:00,9.0,5.0,76,26,24.1,99.51,Cloudy,1.72794395558815
5/10/2012 10:00,9.3,5.2,76,28,24.1,99.52,Cloudy,1.730702826775294
5/10/2012 11:00,10.5,5.6,72,28,24.1,99.48,Cloudy,1.7156931324394158
5/10/2012 12:00,10.0,5.4,73,30,24.1,99.48,Cloudy,1.7375123780381927
5/10/2012 13:00,10.4,6.0,74,26,24.1,99.46,Cloudy,1.7257506998540275
5/10/2012 14:00,10.1,5.9,75,30,24.1,99.48,Cloudy,1.7241591468416737
5/10/2012 15:00,10.5,5.3,70,28,24.1,99.51,Cloudy,1.7195431629915703
5/10/2012 16:00,10.2,6.0,75,19,24.1,99.55,Rain Showers,1.7241591468416737
5/10/2012 17:00,10.2,5.1,71,26,24.1,99.6,Cloudy,1.719509807865063
5/10/2012 18:00,9.8,6.0,77,19,24.1,99.68,Rain Showers,1.7302348458823897
5/10/2012 19:00,9.5,6.2,80,15,24.1,99.73,Rain Showers,1.7383226557949913
5/10/2012 20:00,9.4,5.6,77,20,25.0,99.79,Rain Showers,1.7412597314502611
5/10/2012 21:00,9.2,5.0,75,20,25.0,99.88,Rain,1.7399852298474046
5/10/2012 22:00,9.2,4.1,70,24,25.0,99.92,Mostly Cloudy,1.7363658418387342
5/10/2012 23:00,9.0,3.1,66,17,25.0,100.0,Mostly Cloudy,1.7207646297699872
5/11/2012 0:00,8.7,2.7,66,15,25.0,100.07,Rain Showers,1.7181663415240058
5/11/2012 1:00,8.4,3.1,69,22,25.0,100.14,Rain Showers,1.7127140216363141
5/11/2012 2:00,7.3,3.5,77,17,25.0,100.22,Rain,1.7378936547808608
5/11/2012 3:00,7.3,2.4,71,19,25.0,100.3,Cloudy,1.7313164099096003
5/11/2012 4:00,7.3,2.1,70,7,25.0,100.39,Rain,1.7091525423728813
5/11/2012 5:00,7.5,2.5,71,7,24.1,100.42,Cloudy,1.7339401370187308
5/11/2012 6:00,8.7,2.9,67,17,48.3,100.49,Cloudy,1.726269737457127
5/11/2012 7:00,9.5,2.3,61,19,48.3,100.54,Mostly Cloudy,1.7330854348231024
5/11/2012 8:00,11.3,3.0,57,19,48.3,100.6,Mostly Cloudy,1.7163109174326456
5/11/2012 9:00,11.7,1.6,50,19,48.3,100.63,Mainly Clear,0.9393775229317529
5/11/2012 10:00,13.1,1.4,45,22,48.3,100.64,Mainly Clear,1.7566746899998704
5/11/2012 11:00,14.6,-0.9,34,24,48.3,100.65,Mainly Clear,1.6845084921940645
5/11/2012 12:00,15.3,-1.4,32,22,48.3,100.67,Mainly Clear,1.1523548740416234
5/11/2012 13:00,16.4,-1.3,30,20,48.3,100.7,Mainly Clear,1.65
5/11/2012 14:00,17.6,-1.0,28,32,48.3,100.72,Mainly Clear,1.6572530862503165
5/11/2012 15:00,17.1,-1.8,27,26,48.3,100.76,Mainly Clear,1.657538982703825
5/11/2012 16:00,17.8,-2.1,26,26,48.3,100.78,Mainly Clear,1.6671733032616813
5/11/2012 17:00,17.6,-2.2,26,22,48.3,100.82,Mainly Clear,1.65
5/11/2012 18:00,16.8,-2.7,26,22,48.3,100.87,Clear,1.6589598284183515
5/11/2012 19:00,15.1,-2.9,29,13,48.3,100.95,Clear,1.6658759369436404
5/11/2012 20:00,12.1,-2.1,37,11,25.0,101.04,Clear,1.7165124453642713
5/11/2012 21:00,10.2,-2.1,42,9,25.0,101.1,Clear,1.7119859552854877
5/11/2012 22:00,7.7,-1.2,53,9,25.0,101.15,Clear,1.7347757434762527
5/11/2012 23:00,7.8,-0.9,54,9,25.0,101.19,Clear,1.7028424538080866
5/12/2012 0:00,7.1,-0.6,58,9,25.0,101.19,Clear,1.7242309249757952
5/12/2012 1:00,9.8,-1.1,47,7,25.0,101.22,Clear,1.7197559829058007
5/12/2012 2:00,8.5,-1.0,51,0,25.0,101.23,Clear,1.7331749099308258
5/12/2012 3:00,7.0,-0.5,59,4,25.0,101.28,Clear,1.7423193382878002
5/12/2012 4:00,7.9,-1.0,53,11,25.0,101.35,Clear,1.7278237235267149
5/12/2012 5:00,7.3,-1.4,54,6,48.3,101.37,Clear,1.7350760198903892
5/12/2012 6:00,9.4,-0.5,50,7,48.3,101.42,Clear,1.6961032412610504
5/12/2012 7:00,11.1,2.3,55,11,48.3,101.45,Clear,1.715590503706695
5/12/2012 8:00,12.9,2.4,49,11,48.3,101.46,Clear,1.6997605395825628
5/12/2012 9:00,14.6,4.5,51,13,48.3,101.43,Clear,1.7057478488679823
5/12/2012 10:00,16.7,4.6,45,15,48.3,101.41,Clear,1.3960430222868663
5/12/2012 11:00,18.6,4.0,38,20,48.3,101.36,Mostly Cloudy,0.9693443758469156
5/12/2012 12:00,20.4,5.0,36,22,48.3,101.3,Cloudy,0.9837314521219501
5/12/2012 13:00,22.0,5.6,34,24,48.3,101.25,Mostly Cloudy,0.9894885004249019
5/12/2012 14:00,22.4,6.8,36,28,48.3,101.23,Cloudy,1.7251487898426134
5/12/2012 15:00,23.9,6.9,34,26,48.3,101.22,Mostly Cloudy,0.982139433707547
5/12/2012 16:00,23.6,7.7,36,22,48.3,101.19,Mostly Cloudy,0.9727175933044229
5/12/2012 17:00,22.8,7.3,37,20,48.3,101.21,Cloudy,0.9681708609999456
5/12/2012 18:00,22.8,5.5,33,17,48.3,101.26,Cloudy,1.011090960865041
5/12/2012 19:00,22.0,6.2,36,20,48.3,101.27,Cloudy,1.0193693419442988
5/12/2012 20:00,20.7,7.3,42,0,25.0,101.34,Cloudy,0.9753257731499031
5/12/2012 21:00,19.3,7.8,47,11,25.0,101.37,Rain Showers,0.9892445882408973
5/12/2012 22:00,18.4,8.8,54,6,25.0,101.34,Rain,1.6887698495659116
5/12/2012 23:00,16.6,9.5,63,6,25.0,101.32,Cloudy,1.4285180164200069
5/13/2012 0:00,16.5,10.0,65,7,25.0,101.34,Cloudy,1.6950892053490874
5/13/2012 1:00,16.0,10.0,68,7,25.0,101.31,Cloudy,1.3579319565140906
5/13/2012 2:00,15.9,10.4,70,6,25.0,101.32,Rain Showers,1.7091525423728813
5/13/2012 3:00,15.4,10.9,75,6,25.0,101.39,Cloudy,1.7241591468416737
5/13/2012 4:00,15.1,10.9,76,11,25.0,101.5,Rain Showers,1.7272721454173066
5/13/2012 5:00,14.1,11.5,84,6,24.1,101.51,Rain,1.7483983249034645
5/13/2012 6:00,14.1,11.8,86,11,24.1,101.58,Rain,1.7530322801745157
5/13/2012 7:00,14.2,12.0,87,13,24.1,101.63,Rain,1.755244623603565
5/13/2012 8:00,14.5,12.3,87,11,24.1,101.6,Cloudy,1.755244623603565
5/13/2012 9:00,15.7,12.5,81,13,24.1,101.63,Cloudy,1.7408722768108806
5/13/2012 10:00,17.0,12.3,74,9,24.1,101.63,Cloudy,1.7209839103698092
5/13/2012 11:00,17.2,11.2,68,17,24.1,101.63,Cloudy,1.7143996080451138
5/13/2012 12:00,18.1,10.7,62,13,24.1,101.61,Cloudy,1.7072428225672873
5/13/2012 13:00,19.5,9.0,51,11,24.1,101.59,Cloudy,1.3125284045088903
5/13/2012 14:00,19.6,6.8,43,20,48.3,101.56,Mostly Cloudy,0.9525743671995333
5/13/2012 15:00,20.0,5.8,39,11,48.3,101.53,Mostly Cloudy,1.688723271143358
5/13/2012 16:00,20.9,4.0,33,11,48.3,101.5,Mostly Cloudy,1.7141877378805908
5/13/2012 17:00,20.4,4.1,34,15,48.3,101.48,Mainly Clear,0.9894885004249017
5/13/2012 18:00,19.7,5.1,38,17,48.3,101.47,Clear,1.5432302945041219
5/13/2012 19:00,18.8,5.7,42,13,48.3,101.49,Mainly Clear,1.0176920514968208
5/13/2012 20:00,16.8,5.8,48,11,25.0,101.5,Mainly Clear,1.264243117791311
5/13/2012 21:00,13.4,6.5,63,7,25.0,101.54,Clear,1.7277409264878674
5/13/2012 22:00,12.7,6.4,65,7,25.0,101.54,Clear,1.703776601685525
5/13/2012 23:00,13.3,6.6,64,0,25.0,101.54,Clear,1.7179727283370227
5/14/2012 0:00,11.8,6.8,71,6,25.0,101.53,Clear,1.712430565280306
5/14/2012 1:00,12.8,7.1,68,6,25.0,101.51,Clear,1.3579319565140906
5/14/2012 2:00,12.0,6.9,71,4,25.0,101.5,Clear,1.712430565280306
5/14/2012 3:00,12.0,6.9,71,0,25.0,101.5,Clear,1.712430565280306
5/14/2012 4:00,8.2,5.4,82,4,25.0,101.51,Mainly Clear,1.7601351033305381
5/14/2012 5:00,8.3,5.7,84,0,24.1,101.54,Mainly Clear,1.7483983249034645
5/14/2012 6:00,12.0,8.4,79,0,48.3,101.56,Mostly Cloudy,1.7357508862871274
5/14/2012 7:00,15.6,9.5,67,0,48.3,101.58,Mostly Cloudy,1.700183095790973
5/14/2012 8:00,17.1,9.6,61,6,48.3,101.59,Mainly Clear,1.2117979395147918
5/14/2012 9:00,19.2,8.6,50,6,48.3,101.54,Mostly Cloudy,0.9664905156637812
5/14/2012 10:00,20.1,7.7,45,11,48.3,101.5,Mostly Cloudy,1.0183393926069606
5/14/2012 11:00,21.2,7.7,42,13,48.3,101.44,Mostly Cloudy,0.963842947914007
5/14/2012 12:00,21.9,8.0,41,17,48.3,101.36,Mainly Clear,0.9627685589726532
5/14/2012 13:00,22.0,7.4,39,17,48.3,101.32,Mainly Clear,0.9661802872486771
5/14/2012 14:00,23.2,8.5,39,0,48.3,101.24,Mainly Clear,0.9601509387055865
5/14/2012 15:00,23.2,9.2,41,9,48.3,101.17,Mainly Clear,1.1924686342883855
5/14/2012 16:00,23.4,10.0,43,9,48.3,101.13,Mainly Clear,0.945948721343493
5/14/2012 17:00,23.5,11.3,46,6,48.3,101.11,Mostly Cloudy,0.9655466531342944
5/14/2012 18:00,22.9,12.1,51,9,48.3,101.1,Mostly Cloudy,0.9441970524398076
5/14/2012 19:00,21.5,12.4,56,15,48.3,101.11,Cloudy,0.9647764549868216
5/14/2012 20:00,19.8,12.6,63,17,25.0,101.15,Mostly Cloudy,1.0560960807505586
5/14/2012 21:00,18.3,12.6,69,15,25.0,101.18,Mainly Clear,1.7056195602958193
5/14/2012 22:00,17.5,12.7,73,6,25.0,101.2,Mostly Cloudy,1.718324698506683
5/14/2012 23:00,17.5,13.1,75,7,25.0,101.22,Mostly Cloudy,1.7241591468416737
5/15/2012 0:00,16.0,12.2,78,11,25.0,101.23,Mainly Clear,1.733057876440812
5/15/2012 1:00,16.6,12.1,75,6,25.0,101.23,Mainly Clear,1.7241591468416737
5/15/2012 2:00,15.8,12.7,82,9,25.0,101.21,Mostly Cloudy,1.7434626346010758
5/15/2012 3:00,15.9,13.1,83,11,25.0,101.19,Mostly Cloudy,1.7459700090483987
5/15/2012 4:00,16.0,13.1,83,11,25.0,101.19,Mostly Cloudy,1.7459700090483987
5/15/2012 5:00,15.9,12.9,82,11,24.1,101.21,Cloudy,1.7434626346010758
5/15/2012 6:00,16.3,12.9,80,9,24.1,101.23,Cloudy,1.7383226557949913
5/15/2012 7:00,16.4,13.8,85,7,24.1,101.24,Cloudy,1.7507512632600475
5/15/2012 8:00,17.3,13.9,80,11,24.1,101.23,Cloudy,1.7383226557949913
5/15/2012 9:00,18.7,14.5,77,9,24.1,101.2,Cloudy,1.7302348458823897
5/15/2012 10:00,20.7,15.0,70,7,24.1,101.17,Mostly Cloudy,1.7091525423728813
5/15/2012 11:00,20.3,14.3,68,11,24.1,101.12,Cloudy,1.7018006700167505
5/15/2012 12:00,20.7,15.0,70,13,24.1,101.06,Mostly Cloudy,1.7091525423728813
5/15/2012 13:00,20.1,14.6,71,20,24.1,101.02,Cloudy,1.712430565280306
5/15/2012 14:00,19.2,14.4,74,19,24.1,100.98,Cloudy,1.7209839103698092
5/15/2012 15:00,17.8,15.2,85,9,16.1,100.95,Rain Showers,1.7507512632600475
5/15/2012 16:00,18.2,15.4,84,15,24.1,100.9,Cloudy,1.7483983249034645
5/15/2012 17:00,18.2,15.3,83,17,24.1,100.85,Mostly Cloudy,1.7459700090483987
5/15/2012 18:00,17.9,15.1,84,19,24.1,100.83,Mostly Cloudy,1.7483983249034645
5/15/2012 19:00,17.4,15.0,86,17,24.1,100.81,Mostly Cloudy,1.7530322801745157
5/15/2012 20:00,17.0,14.4,85,17,24.1,100.79,Mostly Cloudy,1.7507512632600475
5/15/2012 21:00,16.6,14.0,85,15,25.0,100.77,Mostly Cloudy,1.7507512632600475
5/15/2012 22:00,15.9,13.6,86,11,25.0,100.75,Clear,1.7530322801745157
5/15/2012 23:00,15.4,13.2,87,11,25.0,100.74,Clear,1.755244623603565
5/16/2012 0:00,14.6,12.6,88,4,25.0,100.71,Clear,1.7571931537828946
5/16/2012 1:00,13.9,12.0,88,6,25.0,100.66,Clear,1.7571931537828946
5/16/2012 2:00,13.9,12.0,88,6,25.0,100.6,Clear,1.7571931537828946
5/16/2012 3:00,13.3,11.4,88,0,25.0,100.58,Clear,1.7571931537828946
5/16/2012 4:00,12.9,11.0,88,6,19.3,100.59,Mainly Clear,1.7571931537828946
5/16/2012 5:00,13.0,11.1,88,0,16.1,100.56,Mostly Cloudy,1.7571931537828946
5/16/2012 6:00,13.8,12.0,89,11,19.3,100.56,Mostly Cloudy,1.7590894054480448
5/16/2012 7:00,15.0,12.8,87,9,24.1,100.57,Mostly Cloudy,1.755244623603565
5/16/2012 8:00,17.5,13.9,79,9,24.1,100.54,Mostly Cloudy,1.7357508862871274
5/16/2012 9:00,20.1,14.2,69,13,24.1,100.45,Mainly Clear,1.505906587803386
5/16/2012 10:00,21.9,14.1,61,15,24.1,100.35,Mainly Clear,1.0147471754365818
5/16/2012 11:00,22.0,13.1,57,20,19.3,100.35,Mostly Cloudy,0.9794035019005393
5/16/2012 12:00,22.9,12.5,52,11,24.1,100.23,Mostly Cloudy,0.9393649710689194
5/16/2012 13:00,23.4,12.3,50,15,24.1,100.21,Mostly Cloudy,0.9354760201839185
5/16/2012 14:00,17.9,13.2,74,19,19.3,100.22,Cloudy,1.7209839103698092
5/16/2012 15:00,19.3,10.4,56,32,24.1,100.29,Mostly Cloudy,0.9984741961426773
5/16/2012 16:00,18.7,10.2,58,33,24.1,100.27,Mostly Cloudy,1.0306493119823252
5/16/2012 17:00,17.6,10.7,64,22,24.1,100.32,Mostly Cloudy,1.283973727255372
5/16/2012 18:00,18.2,11.1,63,26,24.1,100.35,Mainly Clear,1.2275853129863508
5/16/2012 19:00,17.6,10.7,64,22,24.1,100.34,Mainly Clear,1.6996166194252342
5/16/2012 20:00,17.1,9.9,63,17,25.0,100.37,Mainly Clear,1.6937784843389674
5/16/2012 21:00,14.2,6.9,61,17,25.0,100.53,Mostly Cloudy,1.694689541627308
5/16/2012 22:00,13.3,5.7,60,20,25.0,100.66,Mostly Cloudy,1.7292510574387923
5/16/2012 23:00,11.5,3.2,57,22,25.0,100.82,Mostly Cloudy,1.7386859822852525
5/17/2012 0:00,10.0,2.9,61,24,25.0,100.93,Mostly Cloudy,1.74208089229253
5/17/2012 1:00,9.8,2.1,59,24,25.0,101.05,Mostly Cloudy,1.702442131894234
5/17/2012 2:00,8.3,1.6,63,15,25.0,101.07,Clear,1.7290081126085854
5/17/2012 3:00,7.3,1.6,67,15,25.0,101.16,Clear,1.7223869374470555
5/17/2012 4:00,6.6,1.4,69,9,48.3,101.24,Clear,1.732566544157697
5/17/2012 5:00,6.0,1.0,70,11,48.3,101.32,Clear,1.7519689490598604
5/17/2012 6:00,8.5,1.9,63,9,48.3,101.4,Clear,1.713491857813078
5/17/2012 7:00,10.2,1.8,56,15,48.3,101.45,Mostly Cloudy,1.71953649417803
5/17/2012 8:00,10.7,2.2,56,15,48.3,101.5,Mostly Cloudy,1.7027256268972977
5/17/2012 9:00,11.3,2.1,53,22,48.3,101.48,Mainly Clear,1.7553857625775044
5/17/2012 10:00,12.2,2.2,50,26,48.3,101.46,Mostly Cloudy,1.7622923902859655
5/17/2012 11:00,13.9,2.5,46,22,48.3,101.49,Mainly Clear,1.7028813337768216
5/17/2012 12:00,14.3,1.8,43,17,48.3,101.49,Mostly Cloudy,1.685905076928662
5/17/2012 13:00,15.4,0.5,36,26,48.3,101.46,Mainly Clear,1.698730911664843
5/17/2012 14:00,15.3,0.9,38,20,48.3,101.48,Mainly Clear,0.9992613769023624
5/17/2012 15:00,15.8,0.4,35,24,48.3,101.46,Mainly Clear,0.9824931400934475
5/17/2012 16:00,15.8,0.0,34,30,48.3,101.46,Mainly Clear,1.7017609198026635
5/17/2012 17:00,15.7,0.8,36,24,48.3,101.48,Mainly Clear,1.0132427431769715
5/17/2012 18:00,15.1,0.4,37,20,48.3,101.5,Clear,0.9786792609762859
5/17/2012 19:00,14.1,0.4,39,13,48.3,101.54,Clear,1.6868101164973834
5/17/2012 20:00,13.8,0.6,40,7,48.3,101.58,Mainly Clear,1.3728694451890027
5/17/2012 21:00,12.4,1.4,47,6,25.0,101.64,Clear,1.7180004434357685
5/17/2012 22:00,10.1,2.1,58,0,25.0,101.64,Clear,1.7198288799579573
5/17/2012 23:00,9.9,3.8,66,7,25.0,101.7,Clear,1.7161156633541816
5/18/2012 0:00,10.4,2.6,58,13,25.0,101.72,Mainly Clear,1.7309699659703945
5/18/2012 1:00,9.9,2.4,60,7,25.0,101.73,Clear,1.7343554063832443
5/18/2012 2:00,9.2,2.3,62,9,25.0,101.75,Clear,1.7604367100245197
5/18/2012 3:00,8.6,2.0,63,11,25.0,101.77,Clear,1.7122342219727522
5/18/2012 4:00,8.6,1.5,61,9,48.3,101.77,Clear,1.7436247014432664
5/18/2012 5:00,7.7,1.5,65,9,48.3,101.79,Mainly Clear,1.7387675090986587
5/18/2012 6:00,10.1,3.3,63,11,48.3,101.84,Mainly Clear,1.7448704744113066
5/18/2012 7:00,11.2,2.9,57,20,48.3,101.9,Mainly Clear,1.7486012058336877
5/18/2012 8:00,13.0,4.6,57,15,48.3,101.91,Mostly Cloudy,1.7696407341722178
5/18/2012 9:00,14.4,4.6,52,17,48.3,101.94,Mainly Clear,1.6953573971399807
5/18/2012 10:00,16.4,4.7,46,22,48.3,101.91,Mainly Clear,1.7033935711665864
5/18/2012 11:00,18.1,5.9,45,17,48.3,101.89,Mainly Clear,1.006749972401638
5/18/2012 12:00,18.3,4.2,39,20,48.3,101.82,Mainly Clear,1.1701309615519322
5/18/2012 13:00,19.7,-0.7,25,22,48.3,101.75,Mainly Clear,1.669020135532663
5/18/2012 14:00,20.1,2.6,31,22,48.3,101.73,Mostly Cloudy,1.0239391759991792
5/18/2012 15:00,20.8,1.7,28,20,48.3,101.66,Mainly Clear,1.6500000000000004
5/18/2012 16:00,20.5,0.9,27,19,48.3,101.64,Mostly Cloudy,1.6797569387020994
5/18/2012 17:00,20.9,2.5,30,17,48.3,101.59,Mostly Cloudy,1.5
5/18/2012 18:00,20.4,4.0,34,13,48.3,101.57,Mostly Cloudy,0.982139433707547
5/18/2012 19:00,17.7,4.2,41,9,48.3,101.58,Mostly Cloudy,0.9860040624011334
5/18/2012 20:00,16.6,4.2,44,4,25.0,101.59,Mostly Cloudy,1.4608898246314461
5/18/2012 21:00,14.4,5.3,54,6,25.0,101.62,Clear,1.6503898959237762
5/18/2012 22:00,14.4,5.0,53,6,25.0,101.63,Mainly Clear,1.6930470753728055
5/18/2012 23:00,14.0,5.9,58,6,25.0,101.64,Mainly Clear,1.7091610434035656
5/19/2012 0:00,13.8,6.9,63,6,25.0,101.65,Mainly Clear,1.6994325399764465
5/19/2012 1:00,14.2,6.6,60,9,25.0,101.68,Mainly Clear,1.764196904350783
5/19/2012 2:00,13.1,8.3,73,7,25.0,101.68,Mostly Cloudy,1.7605180505163203
5/19/2012 3:00,13.3,7.2,67,9,25.0,101.68,Mostly Cloudy,1.7085793258919215
5/19/2012 4:00,13.1,7.2,67,9,48.3,101.69,Mostly Cloudy,1.7172737101385016
5/19/2012 5:00,11.8,6.4,69,7,48.3,101.7,Mostly Cloudy,1.7165411558649528
5/19/2012 6:00,13.8,7.1,64,6,48.3,101.75,Mostly Cloudy,1.7091865369525119
5/19/2012 7:00,14.7,6.8,59,9,48.3,101.72,Mainly Clear,1.7113267126151224
5/19/2012 8:00,17.3,7.2,51,9,48.3,101.72,Mainly Clear,0.9772034219849666
5/19/2012 9:00,19.1,6.6,44,7,48.3,101.73,Mostly Cloudy,0.964018116913107
5/19/2012 10:00,21.0,7.8,43,4,48.3,101.74,Mainly Clear,0.945948721343493
5/19/2012 11:00,22.3,8.5,41,11,48.3,101.72,Mainly Clear,0.9526517417795389
5/19/2012 12:00,23.4,7.7,37,19,48.3,101.64,Mainly Clear,0.9681708609999456
5/19/2012 13:00,24.1,7.0,33,15,48.3,101.61,Mostly Cloudy,0.986478005269463
5/19/2012 14:00,25.4,7.3,32,15,48.3,101.56,Mostly Cloudy,0.9920689044371626
5/19/2012 15:00,25.6,7.8,32,15,48.3,101.52,Mostly Cloudy,0.9920689044371626
5/19/2012 16:00,25.8,6.9,30,15,48.3,101.46,Mostly Cloudy,1.5
5/19/2012 17:00,26.0,6.9,30,15,48.3,101.46,Mostly Cloudy,1.5
5/19/2012 18:00,25.2,6.6,30,11,48.3,101.43,Mostly Cloudy,1.5
5/19/2012 19:00,24.3,7.6,34,11,48.3,101.47,Mostly Cloudy,1.7014117278264742
5/19/2012 20:00,23.5,8.0,37,6,25.0,101.53,Mainly Clear,0.9765418560010736
5/19/2012 21:00,21.6,8.2,42,9,25.0,101.57,Mainly Clear,1.0516453831673302
5/19/2012 22:00,21.9,6.4,37,7,25.0,101.61,Clear,0.9865477165552157
5/19/2012 23:00,18.2,8.8,54,4,25.0,101.62,Clear,1.0422370151768034
5/20/2012 0:00,18.3,7.8,50,0,25.0,101.64,Clear,1.6506101472782342
5/20/2012 1:00,16.9,8.4,57,6,25.0,101.64,Clear,1.6880159928029532
5/20/2012 2:00,16.1,8.6,61,6,25.0,101.67,Clear,1.6999104931617635
5/20/2012 3:00,16.8,8.6,58,9,25.0,101.7,Clear,1.6991387956524235
5/20/2012 4:00,14.8,8.9,68,6,48.3,101.72,Mainly Clear,1.7023636353463942
5/20/2012 5:00,14.7,9.3,70,6,48.3,101.76,Cloudy,1.7382660648670123
5/20/2012 6:00,17.1,9.2,60,4,48.3,101.81,Mostly Cloudy,1.6951340866528974
5/20/2012 7:00,18.7,9.6,55,7,48.3,101.87,Mostly Cloudy,1.1082612484265353
5/20/2012 8:00,20.4,9.4,49,7,48.3,101.91,Mostly Cloudy,0.9555841026365582
5/20/2012 9:00,22.2,9.6,45,11,48.3,101.93,Mostly Cloudy,0.9536106770152276
5/20/2012 10:00,24.8,9.1,37,11,48.3,101.91,Mostly Cloudy,0.9681708609999456
5/20/2012 11:00,26.8,11.4,38,11,48.3,101.9,Mainly Clear,0.9638948809679477
5/20/2012 12:00,28.6,10.7,33,13,48.3,101.86,Mainly Clear,0.986478005269463
5/20/2012 13:00,29.5,11.0,32,9,48.3,101.78,Mainly Clear,0.9920689044371626
5/20/2012 14:00,30.9,11.5,30,11,48.3,101.72,Mainly Clear,1.5
5/20/2012 15:00,30.9,10.7,29,4,48.3,101.67,Mainly Clear,1.5
5/20/2012 16:00,31.2,10.7,28,4,48.3,101.61,Mainly Clear,1.5
5/20/2012 17:00,30.8,10.6,29,13,48.3,101.58,Mostly Cloudy,1.65
5/20/2012 18:00,29.2,11.7,34,15,48.3,101.56,Mostly Cloudy,0.982139433707547
5/20/2012 19:00,26.9,12.3,40,11,24.1,101.56,Mostly Cloudy,0.9557861893691004
5/20/2012 20:00,25.9,11.6,41,11,24.1,101.57,Mainly Clear,0.9526517417795389
5/20/2012 21:00,24.0,11.8,46,11,25.0,101.6,Mainly Clear,0.9616464691232136
5/20/2012 22:00,23.9,11.8,47,17,25.0,101.59,Mainly Clear,1.6964899160991678
5/20/2012 23:00,23.6,11.3,46,15,25.0,101.59,Mainly Clear,1.0033302193779252
5/21/2012 0:00,22.2,11.0,49,11,25.0,101.61,Mainly Clear,1.2533087785804606
5/21/2012 1:00,19.3,11.2,59,9,25.0,101.63,Mainly Clear,1.0369955355774843
5/21/2012 2:00,18.7,11.7,64,7,25.0,101.65,Mainly Clear,1.075553478234586
5/21/2012 3:00,18.5,11.7,65,0,25.0,101.65,Mainly Clear,1.2307625142599226
5/21/2012 4:00,18.2,11.9,67,9,24.1,101.65,Mainly Clear,1.2523873978786297
5/21/2012 5:00,18.8,12.2,65,13,24.1,101.63,Mostly Cloudy,1.1244800582237136
5/21/2012 6:00,20.4,12.7,61,6,48.3,101.68,Mostly Cloudy,1.1588748572824246
5/21/2012 7:00,21.8,12.7,56,11,48.3,101.7,Mostly Cloudy,1.6664314942977188
5/21/2012 8:00,24.0,11.1,44,19,48.3,101.69,Mostly Cloudy,0.9852589426778783
5/21/2012 9:00,24.8,11.2,42,24,48.3,101.63,Mainly Clear,0.9525446682650375
5/21/2012 10:00,25.5,10.7,39,20,48.3,101.6,Mainly Clear,0.9601509387055865
5/21/2012 11:00,26.7,10.8,37,22,48.3,101.54,Mainly Clear,0.9681708609999456
5/21/2012 12:00,28.0,9.3,31,24,48.3,101.45,Mainly Clear,1.0776993513925992
5/21/2012 13:00,28.4,8.4,28,26,48.3,101.36,Mainly Clear,1.71980238726833
5/21/2012 14:00,28.8,9.0,29,26,48.3,101.29,Mainly Clear,1.65
5/21/2012 15:00,28.9,9.0,29,33,48.3,101.21,Mainly Clear,1.5
5/21/2012 16:00,28.2,8.7,29,30,48.3,101.14,Mainly Clear,1.5
5/21/2012 17:00,27.7,9.9,33,26,48.3,101.1,Mainly Clear,0.986478005269463
5/21/2012 18:00,26.5,11.7,40,28,48.3,101.07,Mainly Clear,0.9557861893691004
5/21/2012 19:00,25.4,12.8,46,26,25.0,101.05,Mostly Cloudy,0.9731406836013023
5/21/2012 20:00,23.8,13.4,52,22,25.0,101.05,Mainly Clear,0.9807949421330857
5/21/2012 21:00,22.5,13.8,58,24,25.0,101.05,Mainly Clear,0.9999598377432987
5/21/2012 22:00,22.2,14.0,60,15,25.0,101.06,Mostly Cloudy,1.0066035788397534
5/21/2012 23:00,21.8,14.0,61,15,25.0,101.05,Mostly Cloudy,1.0254619976087174
5/22/2012 0:00,21.2,14.4,65,13,25.0,101.03,Rain Showers,1.1136122370198804
5/22/2012 1:00,19.2,16.0,82,15,12.9,101.02,Rain Showers,1.7434626346010758
5/22/2012 2:00,18.5,16.0,85,9,25.0,100.97,Rain Showers,1.7507512632600475
5/22/2012 3:00,18.2,15.8,86,0,16.1,100.95,Rain Showers,1.7530322801745157
5/22/2012 4:00,18.6,16.2,86,7,12.9,100.89,Rain Showers,1.7530322801745157
5/22/2012 5:00,18.8,16.4,86,4,12.9,100.9,Drizzle,1.7530322801745157
5/22/2012 6:00,18.2,16.1,88,9,2.0,100.92,"Rain,Fog",1.7571931537828946
5/22/2012 7:00,18.3,16.4,89,11,12.9,100.92,Rain,1.7590894054480448
5/22/2012 8:00,18.5,16.5,88,9,9.7,100.9,"Rain,Fog",1.7571931537828946
5/22/2012 9:00,18.6,16.4,87,9,12.9,100.89,Rain,1.755244623603565
5/22/2012 10:00,19.2,16.9,87,9,12.9,100.87,Rain,1.755244623603565
5/22/2012 11:00,18.8,16.5,86,13,16.1,100.85,Rain,1.7530322801745157
5/22/2012 12:00,18.4,16.3,88,15,19.3,100.78,Rain,1.7571931537828946
5/22/2012 13:00,20.4,17.3,82,9,24.1,100.7,Cloudy,1.7434626346010758
5/22/2012 14:00,21.1,17.3,79,11,24.1,100.66,Mostly Cloudy,1.7357508862871274
5/22/2012 15:00,21.5,16.2,72,9,24.1,100.63,Cloudy,1.7154802667147235
5/22/2012 16:00,19.7,13.9,69,20,16.1,100.64,Cloudy,1.7056195602958193
5/22/2012 17:00,17.7,15.3,86,11,12.9,100.67,Rain Showers,1.7530322801745157
5/22/2012 18:00,18.2,15.1,82,28,19.3,100.66,Cloudy,1.7434626346010758
5/22/2012 19:00,16.1,13.3,83,24,24.1,100.73,Rain Showers,1.7459700090483987
5/22/2012 20:00,15.4,12.3,82,20,24.1,100.77,Mostly Cloudy,1.7434626346010758
5/22/2012 21:00,15.2,11.8,80,15,25.0,100.78,Mostly Cloudy,1.7383226557949913
5/22/2012 22:00,14.9,10.8,76,17,25.0,100.81,Mostly Cloudy,1.7272721454173066
5/22/2012 23:00,14.0,10.7,80,9,25.0,100.84,Mainly Clear,1.7383226557949913
5/23/2012 0:00,13.1,10.4,84,0,25.0,100.82,Clear,1.7483983249034645
5/23/2012 1:00,12.2,10.2,88,4,25.0,100.82,Mainly Clear,1.7571931537828946
5/23/2012 2:00,11.8,9.9,88,6,25.0,100.85,Mostly Cloudy,1.7571931537828946
5/23/2012 3:00,12.0,9.4,84,7,25.0,100.84,Mainly Clear,1.7483983249034645
5/23/2012 4:00,12.6,9.4,81,4,24.1,100.87,Mostly Cloudy,1.7408722768108806
5/23/2012 5:00,13.2,9.7,79,9,24.1,100.95,Cloudy,1.7357508862871274
5/23/2012 6:00,13.5,10.5,82,7,24.1,101.03,Cloudy,1.7434626346010758
5/23/2012 7:00,14.8,10.9,77,11,24.1,101.05,Cloudy,1.7302348458823897
5/23/2012 8:00,15.7,11.2,75,15,24.1,101.1,Cloudy,1.7241591468416737
5/23/2012 9:00,16.1,11.7,75,15,24.1,101.15,Cloudy,1.7241591468416737
5/23/2012 10:00,17.1,11.8,71,11,24.1,101.21,Mostly Cloudy,1.712430565280306
5/23/2012 11:00,18.7,12.7,68,13,24.1,101.21,Mostly Cloudy,1.7077482004506375
5/23/2012 12:00,19.5,12.7,65,11,24.1,101.18,Mostly Cloudy,1.2215691082926539
5/23/2012 13:00,20.1,12.2,60,13,24.1,101.15,Mostly Cloudy,1.6162499947509723
5/23/2012 14:00,20.9,12.0,57,9,24.1,101.16,Mostly Cloudy,1.0194866645445808
5/23/2012 15:00,21.6,13.5,60,0,24.1,101.16,Mostly Cloudy,1.0438164214108356
5/23/2012 16:00,21.5,12.2,55,6,24.1,101.13,Mainly Clear,0.964473149190108
5/23/2012 17:00,22.3,12.7,55,4,24.1,101.1,Mainly Clear,0.9804021649696901
5/23/2012 18:00,22.2,11.8,52,4,24.1,101.12,Mainly Clear,0.9896880294916154
5/23/2012 19:00,21.5,11.6,53,7,24.1,101.11,Mainly Clear,0.9755206763308998
5/23/2012 20:00,20.4,10.9,54,9,24.1,101.16,Clear,0.9712924178965747
5/23/2012 21:00,20.4,10.6,53,9,25.0,101.19,Clear,1.0341139993687603
5/23/2012 22:00,19.6,10.3,55,7,25.0,101.21,Clear,1.6882440917481214
5/23/2012 23:00,18.9,10.3,57,4,25.0,101.25,Clear,1.6909512538059255
5/24/2012 0:00,16.4,10.4,68,0,25.0,101.28,Clear,1.7046086699074803
5/24/2012 1:00,15.0,10.6,75,4,25.0,101.29,Clear,1.756790144996882
5/24/2012 2:00,12.6,9.7,82,6,25.0,101.31,Clear,1.7434626346010758
5/24/2012 3:00,14.5,11.2,81,6,25.0,101.3,Clear,1.7408722768108806
5/24/2012 4:00,14.0,10.7,80,9,24.1,101.32,Clear,1.7383226557949913
5/24/2012 5:00,15.0,11.0,77,7,24.1,101.36,Mainly Clear,1.7302348458823897
5/24/2012 6:00,16.6,12.1,75,9,24.1,101.43,Mainly Clear,1.7241591468416737
5/24/2012 7:00,18.8,13.9,73,4,24.1,101.5,Mainly Clear,1.7409380801547254
5/24/2012 8:00,21.1,14.6,66,0,24.1,101.54,Mainly Clear,1.7642280225668692
5/24/2012 9:00,22.9,15.6,63,7,48.3,101.51,Mainly Clear,1.2176402080367645
5/24/2012 10:00,24.6,15.2,56,0,48.3,101.46,Clear,0.9622396554929461
5/24/2012 11:00,26.1,16.7,56,9,24.1,101.44,Clear,1.6244651299940422
5/24/2012 12:00,26.7,16.4,53,6,24.1,101.4,Mainly Clear,0.9450752329603533
5/24/2012 13:00,27.1,15.9,50,13,24.1,101.37,Mainly Clear,0.9408211857953417
5/24/2012 14:00,27.6,17.0,52,13,48.3,101.33,Mainly Clear,1.6837108408680468
5/24/2012 15:00,28.1,17.7,53,17,48.3,101.27,Mainly Clear,0.9526437064214163
5/24/2012 16:00,28.1,17.5,53,17,24.1,101.23,Mainly Clear,0.943018325394646
5/24/2012 17:00,27.6,17.3,53,22,24.1,101.21,Mainly Clear,0.961177670247504
5/24/2012 18:00,25.5,16.5,58,24,24.1,101.23,Mostly Cloudy,0.9872052900063121
5/24/2012 19:00,24.4,16.4,61,15,24.1,101.25,Mainly Clear,1.0147471754365818
5/24/2012 20:00,23.1,16.1,65,19,24.1,101.3,Clear,1.2393947785522414
5/24/2012 21:00,22.4,15.9,67,19,25.0,101.31,Clear,1.2523873978786297
5/24/2012 22:00,21.9,15.5,67,22,25.0,101.35,Clear,1.6393577691472956
5/24/2012 23:00,21.1,15.2,69,19,25.0,101.39,Clear,1.505906587803386
5/25/2012 0:00,20.7,15.3,71,13,25.0,101.43,Clear,1.7333922900766032
5/25/2012 1:00,19.7,15.6,77,15,25.0,101.4,Clear,1.7496192788354274
5/25/2012 2:00,19.4,15.6,79,15,25.0,101.41,Clear,1.7568910550566086
5/25/2012 3:00,19.2,15.3,78,17,25.0,101.42,Mainly Clear,1.733057876440812
5/25/2012 4:00,19.1,15.3,79,19,24.1,101.44,Mainly Clear,1.7357508862871274
5/25/2012 5:00,19.0,15.5,80,17,24.1,101.45,Mostly Cloudy,1.7383226557949913
5/25/2012 6:00,20.6,15.7,73,17,24.1,101.44,Mainly Clear,1.718324698506683
5/25/2012 7:00,21.6,15.9,70,20,24.1,101.42,Mainly Clear,1.7091525423728813
5/25/2012 8:00,22.8,16.1,66,20,24.1,101.36,Mainly Clear,1.1750318113220146
5/25/2012 9:00,23.3,16.1,64,20,24.1,101.29,Clear,1.6895328361301014
5/25/2012 10:00,24.9,16.5,60,20,24.1,101.21,Mainly Clear,1.0053750406211128
5/25/2012 11:00,25.5,16.9,59,22,24.1,101.12,Mostly Cloudy,1.0054040522166288
5/25/2012 12:00,25.9,16.8,57,20,24.1,101.07,Mostly Cloudy,0.9684584060262452
5/25/2012 13:00,27.2,17.5,55,28,24.1,100.97,Mostly Cloudy,0.9663849893761053
5/25/2012 14:00,26.0,17.2,58,19,24.1,100.94,Mostly Cloudy,0.9771086735653381
5/25/2012 15:00,27.1,17.1,54,26,24.1,100.86,Mostly Cloudy,0.9536478773341516
5/25/2012 16:00,27.3,16.7,52,24,24.1,100.79,Mostly Cloudy,0.982822656292705
5/25/2012 17:00,27.2,16.7,53,19,24.1,100.72,Mostly Cloudy,0.957765992792526
5/25/2012 18:00,26.2,16.1,54,20,24.1,100.65,Mostly Cloudy,0.9551361446545612
5/25/2012 19:00,26.4,16.1,53,22,25.0,100.59,Cloudy,1.6840905161615838
5/25/2012 20:00,21.3,18.3,83,13,16.1,100.83,"Thunderstorms,Rain",1.7459700090483987
5/25/2012 21:00,22.1,18.5,80,15,25.0,100.79,Mainly Clear,1.7383226557949913
5/25/2012 22:00,21.5,18.1,81,11,25.0,100.88,Mainly Clear,1.7408722768108806
5/25/2012 23:00,21.3,15.4,69,17,25.0,100.96,Clear,1.505906587803386
5/26/2012 0:00,19.8,14.8,73,9,25.0,101.0,Clear,1.718324698506683
5/26/2012 1:00,19.3,14.0,71,13,25.0,101.09,Clear,1.712430565280306
5/26/2012 2:00,18.6,12.3,67,11,25.0,101.16,Clear,1.698763522260988
5/26/2012 3:00,17.1,10.5,65,13,25.0,101.21,Clear,1.6929583486014415
5/26/2012 4:00,16.4,10.1,66,9,25.0,101.28,Clear,1.6960165533823464
5/26/2012 5:00,16.3,9.8,65,9,24.1,101.36,Mainly Clear,1.6941604238737986
5/26/2012 6:00,17.1,10.0,63,9,48.3,101.37,Clear,1.6804030532978564
5/26/2012 7:00,18.1,10.8,62,9,48.3,101.51,Clear,1.2370994424871544
5/26/2012 8:00,19.4,12.2,63,6,48.3,101.56,Clear,1.4902603057434625
5/26/2012 9:00,21.1,12.7,59,9,24.1,101.56,Clear,1.3452200322918892
5/26/2012 10:00,21.6,12.5,56,7,19.3,101.6,Mostly Cloudy,0.9854866722893357
5/26/2012 11:00,22.6,12.5,53,0,16.1,101.6,Clear,0.9646009624291315
5/26/2012 12:00,23.3,12.8,52,13,16.1,101.56,Mainly Clear,1.0323386042453613
5/26/2012 13:00,24.4,9.9,40,30,19.3,101.53,Mainly Clear,0.9940759244365457
5/26/2012 14:00,24.2,10.6,42,22,19.3,101.54,Mainly Clear,1.0294525900074913
5/26/2012 15:00,23.2,10.2,44,20,24.1,101.54,Mainly Clear,1.0204151268755781
5/26/2012 16:00,23.8,10.2,42,22,24.1,101.52,Mostly Cloudy,0.9492499780217184
5/26/2012 17:00,23.1,9.4,42,19,24.1,101.49,Mostly Cloudy,0.949155270668292
5/26/2012 18:00,22.2,8.6,42,20,24.1,101.51,Mostly Cloudy,0.949155270668292
5/26/2012 19:00,21.0,7.7,42,13,24.1,101.56,Mainly Clear,0.9966767394803422
5/26/2012 20:00,18.5,7.4,48,9,24.1,101.64,Mainly Clear,1.7161229112324656
5/26/2012 21:00,16.6,7.5,55,7,25.0,101.71,Mainly Clear,1.1240557375738638
5/26/2012 22:00,17.3,7.3,52,6,25.0,101.71,Mainly Clear,1.6835906092855397
5/26/2012 23:00,15.6,7.7,59,6,25.0,101.75,Mainly Clear,1.6971013553323733
5/27/2012 0:00,15.7,7.1,57,6,25.0,101.76,Clear,1.7331496872311705
5/27/2012 1:00,14.6,7.4,62,9,25.0,101.77,Clear,1.7687774559512985
5/27/2012 2:00,13.9,6.9,63,11,25.0,101.76,Mainly Clear,1.6924300041307392
5/27/2012 3:00,14.8,3.1,45,13,25.0,101.76,Mostly Cloudy,1.6930309637690961
5/27/2012 4:00,14.4,3.5,48,13,25.0,101.84,Mostly Cloudy,1.7116776578195436
5/27/2012 5:00,13.7,3.9,52,13,24.1,101.9,Mostly Cloudy,1.7082683312672113
5/27/2012 6:00,14.2,2.4,45,17,24.1,101.92,Mostly Cloudy,1.716021326822748
5/27/2012 7:00,14.6,4.0,49,9,48.3,101.95,Mostly Cloudy,1.6934866008182707
5/27/2012 8:00,15.6,3.1,43,11,48.3,101.94,Mostly Cloudy,1.6918044604949491
5/27/2012 9:00,17.1,4.6,44,9,48.3,101.95,Mostly Cloudy,1.1886634097457156
5/27/2012 10:00,18.6,4.0,38,0,48.3,101.89,Mostly Cloudy,0.9866267995202386
5/27/2012 11:00,19.5,3.9,36,4,48.3,101.83,Cloudy,0.9766597614439494
5/27/2012 12:00,19.7,4.4,36,0,48.3,101.76,Cloudy,0.9727175933044229
5/27/2012 13:00,20.2,5.4,38,13,48.3,101.68,Cloudy,0.9638948809679477
5/27/2012 14:00,21.2,5.4,36,0,48.3,101.63,Cloudy,0.9727175933044229
5/27/2012 15:00,20.3,5.1,37,11,48.3,101.57,Cloudy,0.9788460069273182
5/27/2012 16:00,20.4,5.5,38,13,48.3,101.55,Cloudy,1.0652940164166
5/27/2012 17:00,20.3,5.3,37,6,48.3,101.49,Cloudy,0.9681708609999456
5/27/2012 18:00,19.2,6.9,45,7,48.3,101.41,Rain Showers,0.9707256251063425
5/27/2012 19:00,18.1,9.5,57,0,48.3,101.42,Rain,1.0428184253181152
5/27/2012 20:00,18.2,8.5,53,4,25.0,101.31,Cloudy,1.690356639200069
5/27/2012 21:00,18.4,8.4,52,0,25.0,101.34,Cloudy,1.3168281178260985
5/27/2012 22:00,17.5,9.1,58,0,25.0,101.33,Cloudy,1.6986655657793888
5/27/2012 23:00,17.6,8.9,57,6,25.0,101.29,Mostly Cloudy,1.6836617078793308
5/28/2012 0:00,17.5,10.5,63,4,25.0,101.31,Mostly Cloudy,1.5400890380275065
5/28/2012 1:00,17.4,8.8,57,13,25.0,101.23,Mostly Cloudy,1.705150799884599
5/28/2012 2:00,16.6,8.3,58,11,25.0,101.19,Mostly Cloudy,1.2101718856052714
5/28/2012 3:00,16.6,8.3,58,9,25.0,101.21,Cloudy,1.7256845403636456
5/28/2012 4:00,16.6,8.3,58,17,25.0,101.21,Cloudy,1.7119859552854875
5/28/2012 5:00,16.4,7.4,55,19,25.0,101.17,Mostly Cloudy,1.6975081193811488
5/28/2012 6:00,16.4,7.3,55,24,24.1,101.31,Mostly Cloudy,1.7336338876325126
5/28/2012 7:00,16.6,6.2,50,22,48.3,101.26,Mostly Cloudy,1.7005838183471345
5/28/2012 8:00,16.7,7.1,53,28,48.3,101.24,Mostly Cloudy,1.6949917101800496
5/28/2012 9:00,17.0,7.4,53,20,48.3,101.24,Cloudy,1.7042700238495725
5/28/2012 10:00,18.0,7.6,51,22,48.3,101.21,Cloudy,0.9763561676675546
5/28/2012 11:00,17.8,7.8,52,24,48.3,101.2,Cloudy,1.6698209965521071
5/28/2012 12:00,16.1,8.9,62,20,24.1,101.12,Cloudy,1.668463204039067
5/28/2012 13:00,17.0,7.2,52,26,24.1,101.05,Cloudy,1.3206501250273026
5/28/2012 14:00,19.1,7.8,48,28,48.3,100.98,Cloudy,0.9741566399691234
5/28/2012 15:00,17.5,6.6,49,24,48.3,100.94,Cloudy,0.9870770267575812
5/28/2012 16:00,17.3,6.4,49,22,24.1,100.88,Cloudy,0.9799756351413811
5/28/2012 17:00,17.4,6.9,50,26,24.1,100.82,Mostly Cloudy,0.9723245170986604
5/28/2012 18:00,16.8,7.1,53,26,48.3,100.81,Mostly Cloudy,1.2725966003405886
5/28/2012 19:00,15.9,6.9,55,22,48.3,100.77,Mostly Cloudy,1.3636875195163582
5/28/2012 20:00,15.3,7.0,58,20,48.3,100.71,Cloudy,1.7197095248107093
5/28/2012 21:00,14.6,6.7,59,19,25.0,100.69,Mainly Clear,1.7201848257356285
5/28/2012 22:00,14.0,7.1,63,15,25.0,100.66,Mostly Cloudy,1.699158056877546
5/28/2012 23:00,13.2,7.1,66,13,25.0,100.54,Mostly Cloudy,1.7206739836037013
5/29/2012 0:00,12.7,7.2,69,15,25.0,100.44,Mostly Cloudy,1.7056195602958193
5/29/2012 1:00,11.9,6.8,71,9,25.0,100.31,Mostly Cloudy,1.712430565280306
5/29/2012 2:00,12.2,6.8,70,11,25.0,100.26,Mostly Cloudy,1.7209646109144883
5/29/2012 3:00,11.8,5.9,67,15,25.0,100.18,Mostly Cloudy,1.70021388573106
5/29/2012 4:00,11.4,7.0,74,30,24.1,100.34,"Thunderstorms,Rain Showers",1.7421262633084729
5/29/2012 5:00,11.0,8.9,87,15,12.9,100.14,"Thunderstorms,Rain Showers",1.755244623603565
5/29/2012 6:00,10.9,9.0,88,9,2.4,100.26,"Thunderstorms,Heavy Rain Showers",1.7571931537828946
5/29/2012 7:00,12.4,10.3,87,6,19.3,100.23,Cloudy,1.755244623603565
5/29/2012 8:00,15.4,12.7,84,0,19.3,100.17,Mainly Clear,1.7483983249034645
5/29/2012 9:00,18.6,15.1,80,4,19.3,100.12,Mainly Clear,1.7383226557949913
5/29/2012 10:00,20.4,15.8,75,4,19.3,100.08,Mostly Cloudy,1.7241591468416737
5/29/2012 11:00,22.2,16.9,72,7,19.3,100.08,Mostly Cloudy,1.7154802667147235
5/29/2012 12:00,24.2,17.7,67,7,19.3,100.0,Mostly Cloudy,1.2523873978786297
5/29/2012 13:00,26.1,18.7,64,6,16.1,99.87,Mainly Clear,1.0754917436180753
5/29/2012 14:00,25.6,18.4,64,11,19.3,99.75,Rain Showers,1.0754917436180753
5/29/2012 15:00,26.8,19.0,62,13,19.3,99.65,Mostly Cloudy,1.0305025778855286
5/29/2012 16:00,21.0,17.5,80,15,9.7,99.75,"Thunderstorms,Rain Showers",1.748230837765095
5/29/2012 17:00,20.7,17.4,81,13,12.9,99.84,"Thunderstorms,Rain Showers",1.764214687464964
5/29/2012 18:00,20.4,17.6,84,28,19.3,99.78,Rain Showers,1.7483983249034645
5/29/2012 19:00,20.1,17.8,87,24,16.1,99.76,Rain Showers,1.755244623603565
5/29/2012 20:00,20.2,17.9,87,11,16.1,99.8,Cloudy,1.755244623603565
5/29/2012 21:00,20.1,17.8,87,17,16.1,99.75,Cloudy,1.755244623603565
5/29/2012 22:00,20.8,17.7,82,9,19.3,99.75,Cloudy,1.7434626346010758
5/29/2012 23:00,20.5,17.5,83,6,25.0,99.74,Cloudy,1.7459700090483987
5/30/2012 0:00,20.6,17.1,80,17,25.0,99.77,Cloudy,1.7383226557949913
5/30/2012 1:00,19.7,14.4,71,24,25.0,99.77,Mainly Clear,1.7263391287341916
5/30/2012 2:00,18.6,10.5,59,22,25.0,99.88,Mainly Clear,1.7063298970153142
5/30/2012 3:00,17.6,9.8,60,19,25.0,99.91,Mostly Cloudy,1.6995402408205513
5/30/2012 4:00,16.6,10.3,66,13,24.1,99.98,Mostly Cloudy,1.288047845982943
5/30/2012 5:00,15.9,10.0,68,11,24.1,100.02,Mostly Cloudy,1.3579319565140906
5/30/2012 6:00,17.2,10.2,63,15,24.1,100.07,Mostly Cloudy,1.0676537438542386
5/30/2012 7:00,17.8,10.4,62,17,48.3,100.12,Mostly Cloudy,1.062901180170021
5/30/2012 8:00,19.1,10.7,58,19,48.3,100.11,Mainly Clear,1.6892317685383607
5/30/2012 9:00,20.5,10.0,51,20,48.3,100.08,Clear,0.957265270690606
5/30/2012 10:00,21.5,10.2,49,15,48.3,100.1,Mainly Clear,0.9453792742981235
5/30/2012 11:00,22.1,9.6,45,17,24.1,100.08,Clear,1.013533776612186
5/30/2012 12:00,23.1,8.2,38,35,48.3,100.06,Mainly Clear,0.9638948809679477
5/30/2012 13:00,23.5,8.1,37,30,48.3,100.05,Clear,0.9681708609999456
5/30/2012 14:00,23.5,8.5,38,32,48.3,100.04,Clear,0.9638948809679477
5/30/2012 15:00,23.5,8.6,39,22,48.3,100.03,Mainly Clear,0.9601509387055865
5/30/2012 16:00,23.7,8.3,37,15,48.3,100.0,Clear,0.9717154014060426
5/30/2012 17:00,23.1,8.4,39,24,48.3,100.04,Clear,0.9601509387055865
5/30/2012 18:00,22.4,8.4,41,20,48.3,100.06,Mainly Clear,0.9526517417795389
5/30/2012 19:00,20.5,8.0,44,0,48.3,100.08,Mainly Clear,0.9513779404320303
5/30/2012 20:00,18.3,8.1,51,6,48.3,100.13,Mainly Clear,0.9793746802707792
5/30/2012 21:00,17.3,8.9,58,7,25.0,100.18,Mainly Clear,1.0079182665204607
5/30/2012 22:00,17.4,9.5,60,9,25.0,100.17,Mostly Cloudy,1.013655458841434
5/30/2012 23:00,16.8,9.9,64,15,16.1,100.26,Rain Showers,1.15071322417091
5/31/2012 0:00,16.7,10.5,67,6,25.0,100.28,Mostly Cloudy,1.2523873978786297
5/31/2012 1:00,16.3,10.8,70,7,25.0,100.31,Mostly Cloudy,1.7091525423728813
5/31/2012 2:00,15.6,11.2,75,4,25.0,100.32,Mostly Cloudy,1.7241591468416737
5/31/2012 3:00,15.5,9.5,67,9,25.0,100.3,Mostly Cloudy,1.698763522260988
5/31/2012 4:00,13.6,8.5,71,11,24.1,100.34,Mainly Clear,1.7279364480174781
5/31/2012 5:00,13.9,8.2,68,9,48.3,100.44,Mainly Clear,1.7018006700167505
5/31/2012 6:00,14.4,8.3,67,15,48.3,100.5,Mainly Clear,1.7005023016135365
5/31/2012 7:00,13.1,8.9,76,15,24.1,100.61,Rain Showers,1.7272721454173066
5/31/2012 8:00,14.9,8.6,66,13,24.1,100.64,Mainly Clear,1.215864108235821
5/31/2012 9:00,16.2,9.3,64,11,24.1,100.68,Mostly Cloudy,1.0754917436180753
5/31/2012 10:00,15.9,8.7,62,9,24.1,100.71,Mostly Cloudy,1.2379999177490002
5/31/2012 11:00,16.9,9.4,61,4,24.1,100.71,Mostly Cloudy,1.0287906736349182
5/31/2012 12:00,16.8,8.6,58,0,48.3,100.72,Mostly Cloudy,1.6988870650947303
5/31/2012 13:00,18.4,7.5,49,20,48.3,100.77,Mostly Cloudy,0.9601839309956898
5/31/2012 14:00,18.8,7.5,48,19,48.3,100.78,Mostly Cloudy,0.966180287248677
5/31/2012 15:00,18.1,5.8,44,19,48.3,100.83,Mostly Cloudy,0.9432590533134183
5/31/2012 16:00,18.8,6.0,43,19,48.3,100.85,Mainly Clear,0.9525743671995336
5/31/2012 17:00,18.9,6.1,43,15,48.3,100.86,Mainly Clear,0.954875792728675
5/31/2012 18:00,18.4,4.6,40,22,48.3,100.91,Mainly Clear,0.9622728112727944
5/31/2012 19:00,17.1,4.9,44,15,48.3,100.96,Mainly Clear,0.9710181933369105
5/31/2012 20:00,14.8,3.7,47,13,24.1,101.01,Mainly Clear,0.9811952810813256
5/31/2012 21:00,12.8,4.2,56,9,25.0,101.05,Clear,1.6889924438810504
5/31/2012 22:00,12.5,4.4,58,7,25.0,101.13,Clear,1.7167272938723093
5/31/2012 23:00,12.8,4.4,57,7,25.0,101.18,Clear,1.7094744669500985
6/1/2012 0:00,11.6,3.8,59,6,25.0,101.21,Clear,1.7113752845698988
6/1/2012 1:00,11.3,3.6,59,7,25.0,101.24,Clear,1.720551173411119
6/1/2012 2:00,10.8,3.1,59,9,25.0,101.27,Mainly Clear,1.7302577300146686
6/1/2012 3:00,9.5,2.6,62,9,25.0,101.29,Mainly Clear,1.7040737374340067
6/1/2012 4:00,10.1,2.8,60,11,48.3,101.34,Mostly Cloudy,1.720446458208258
6/1/2012 5:00,10.7,3.3,60,11,48.3,101.38,Cloudy,1.7212786594880305
6/1/2012 6:00,11.6,4.5,62,7,48.3,101.42,Cloudy,1.6968079320421787
6/1/2012 7:00,14.6,5.3,54,9,48.3,101.44,Cloudy,1.6858131450555576
6/1/2012 8:00,15.2,3.5,45,11,48.3,101.48,Cloudy,1.1698521046643895
6/1/2012 9:00,17.1,4.6,44,11,48.3,101.47,Cloudy,1.398675338677459
6/1/2012 10:00,18.5,1.2,31,20,48.3,101.44,Mostly Cloudy,1.0000000000000002
6/1/2012 11:00,18.4,1.0,31,17,48.3,101.4,Cloudy,1.029721172505361
6/1/2012 12:00,19.3,3.3,35,20,48.3,101.32,Cloudy,0.9788622034195105
6/1/2012 13:00,19.5,4.0,36,17,48.3,101.29,Cloudy,1.1840259855833417
6/1/2012 14:00,19.6,4.6,37,15,48.3,101.21,Cloudy,0.9722845353680585
6/1/2012 15:00,19.8,4.9,38,17,48.3,101.16,Cloudy,0.9638948809679477
6/1/2012 16:00,20.2,4.3,35,22,48.3,101.04,Cloudy,0.9763179605360829
6/1/2012 17:00,20.2,4.1,35,19,48.3,101.03,Cloudy,0.9881486504694047
6/1/2012 18:00,20.1,4.6,36,19,24.1,100.98,Cloudy,1.4628538366721313
6/1/2012 19:00,20.0,5.3,38,19,25.0,100.88,Cloudy,1.4569813570066767
6/1/2012 20:00,19.9,4.9,37,20,25.0,100.86,Cloudy,1.1283806731521502
6/1/2012 21:00,19.6,5.7,40,26,25.0,100.8,Rain,1.1019216907117344
6/1/2012 22:00,19.6,6.5,42,20,25.0,100.77,Cloudy,1.1851806305583819
6/1/2012 23:00,18.2,8.3,52,19,25.0,100.77,Rain,1.7142938039011624
6/2/2012 0:00,17.5,8.2,54,15,19.3,100.78,Rain,1.6871323225278785
6/2/2012 1:00,15.9,9.5,66,19,16.1,100.67,Rain,1.5465307199349052
6/2/2012 2:00,14.6,8.7,68,19,16.1,100.58,Rain,1.7018006700167505
6/2/2012 3:00,14.2,8.8,70,19,16.1,100.5,Rain,1.7181939259644128
6/2/2012 4:00,13.6,9.5,76,24,12.9,100.43,Rain,1.7289859782299406
6/2/2012 5:00,13.4,9.2,76,24,16.1,100.36,Rain,1.7272721454173066
6/2/2012 6:00,13.6,9.5,76,19,16.1,100.44,Rain,1.7272721454173066
6/2/2012 7:00,13.4,8.7,73,17,19.3,100.45,Rain,1.718324698506683
6/2/2012 8:00,12.3,9.7,84,11,19.3,100.48,Rain,1.7483983249034645
6/2/2012 9:00,13.1,9.6,79,13,24.1,100.52,Cloudy,1.7357508862871274
6/2/2012 10:00,12.5,9.8,84,7,8.0,100.48,"Rain,Fog",1.7694581373496276
6/2/2012 11:00,12.5,10.3,86,7,16.1,100.48,Rain,1.7530322801745157
6/2/2012 12:00,12.8,10.5,86,9,24.1,100.43,Rain,1.7530322801745157
6/2/2012 13:00,13.1,10.9,86,11,24.1,100.43,Rain,1.7530322801745157
6/2/2012 14:00,13.6,10.9,84,20,24.1,100.39,Cloudy,1.7483983249034645
6/2/2012 15:00,13.9,10.9,82,17,24.1,100.38,Cloudy,1.7434626346010758
6/2/2012 16:00,13.5,11.0,85,22,24.1,100.35,Rain,1.7507512632600475
6/2/2012 17:00,13.5,11.0,85,17,24.1,100.36,Drizzle,1.7507512632600475
6/2/2012 18:00,13.1,11.1,88,19,6.4,100.38,"Drizzle,Fog",1.7571931537828946
6/2/2012 19:00,13.2,11.2,88,9,4.8,100.4,"Drizzle,Fog",1.7571931537828946
6/2/2012 20:00,12.9,10.5,85,4,19.3,100.4,Drizzle,1.7507512632600475
6/2/2012 21:00,13.0,10.7,86,7,25.0,100.41,Cloudy,1.7530322801745157
6/2/2012 22:00,13.3,10.4,83,15,25.0,100.34,Cloudy,1.7459700090483987
6/2/2012 23:00,13.1,10.2,83,6,25.0,100.33,Cloudy,1.7459700090483987
6/3/2012 0:00,13.1,10.4,84,9,19.3,100.33,Cloudy,1.7483983249034645
6/3/2012 1:00,13.0,10.9,87,6,19.3,100.29,Cloudy,1.755244623603565
6/3/2012 2:00,13.1,11.0,87,6,19.3,100.26,Cloudy,1.755244623603565
6/3/2012 3:00,12.9,10.6,86,4,19.3,100.23,Cloudy,1.7530322801745157
6/3/2012 4:00,13.0,10.4,84,7,19.3,100.2,Mostly Cloudy,1.7483983249034645
6/3/2012 5:00,12.0,9.9,87,0,19.3,100.24,Mostly Cloudy,1.755244623603565
6/3/2012 6:00,13.6,10.9,84,9,24.1,100.25,Mostly Cloudy,1.7483983249034645
6/3/2012 7:00,14.6,10.5,76,15,24.1,100.25,Mostly Cloudy,1.7272721454173066
6/3/2012 8:00,14.9,10.3,74,13,24.1,100.24,Mostly Cloudy,1.7209839103698092
6/3/2012 9:00,16.1,10.9,71,11,24.1,100.2,Mostly Cloudy,1.712430565280306
6/3/2012 10:00,17.7,11.0,65,13,48.3,100.19,Mostly Cloudy,1.1136122370198804
6/3/2012 11:00,18.2,10.4,60,11,48.3,100.14,Mostly Cloudy,1.0327855725906379
6/3/2012 12:00,18.4,9.8,57,9,48.3,100.12,Mostly Cloudy,1.0368278274431302
6/3/2012 13:00,18.9,10.8,59,24,48.3,100.07,Mostly Cloudy,1.0044544948762106
6/3/2012 14:00,19.6,10.5,56,24,48.3,100.04,Mostly Cloudy,1.7267538473849482
6/3/2012 15:00,18.5,10.4,59,24,48.3,100.02,Mostly Cloudy,1.0081139984786462
6/3/2012 16:00,18.3,10.3,60,33,48.3,100.01,Mostly Cloudy,1.1144319542191339
6/3/2012 17:00,17.8,9.3,57,30,48.3,100.03,Mostly Cloudy,1.1236259162045361
6/3/2012 18:00,16.6,9.6,63,30,48.3,100.13,Mostly Cloudy,1.267140831397521
6/3/2012 19:00,15.3,8.8,65,28,25.0,100.2,Mostly Cloudy,1.7297923118328487
6/3/2012 20:00,14.1,7.4,64,32,25.0,100.27,Mostly Cloudy,1.7272265886551288
6/3/2012 21:00,13.8,7.1,64,28,25.0,100.29,Mostly Cloudy,1.7121452619087425
6/3/2012 22:00,13.6,6.9,64,30,25.0,100.32,Cloudy,1.7037097907535739
6/3/2012 23:00,13.3,6.9,65,30,25.0,100.31,Mostly Cloudy,1.707639950890646
6/4/2012 0:00,12.8,7.3,69,33,25.0,100.34,Cloudy,1.7314865175462146
6/4/2012 1:00,11.9,7.7,75,19,25.0,100.33,Rain,1.7289638357512425
6/4/2012 2:00,11.8,7.6,75,22,25.0,100.32,Cloudy,1.7241591468416737
6/4/2012 3:00,11.5,7.5,76,24,25.0,100.32,Rain Showers,1.7272721454173066
6/4/2012 4:00,11.0,7.6,80,22,19.3,100.38,Rain,1.7383226557949913
6/4/2012 5:00,11.0,8.0,82,20,19.3,100.41,Rain,1.7434626346010758
6/4/2012 6:00,11.3,8.2,81,22,24.1,100.46,Cloudy,1.7408722768108806
6/4/2012 7:00,11.7,7.9,77,33,24.1,100.5,Rain,1.7302348458823897
6/4/2012 8:00,11.6,8.3,80,24,19.3,100.55,Rain,1.7383226557949913
6/4/2012 9:00,11.6,7.7,77,28,24.1,100.6,Rain,1.7302348458823897
6/4/2012 10:00,12.4,7.5,72,28,24.1,100.65,Cloudy,1.7154802667147235
6/4/2012 11:00,13.1,7.4,68,28,24.1,100.67,Cloudy,1.7163109174326456
6/4/2012 12:00,13.0,7.3,68,22,24.1,100.7,Rain Showers,1.7018006700167505
6/4/2012 13:00,13.0,7.4,69,24,24.1,100.75,Rain,1.7056195602958193
6/4/2012 14:00,14.3,7.3,63,20,24.1,100.73,Cloudy,1.6948410397310463
6/4/2012 15:00,15.8,7.2,57,22,24.1,100.73,Mostly Cloudy,1.2062089116143218
6/4/2012 16:00,16.0,6.6,54,22,24.1,100.71,Mostly Cloudy,1.0416598287518628
6/4/2012 17:00,15.9,7.1,56,22,24.1,100.71,Mostly Cloudy,1.168460597588674
6/4/2012 18:00,16.5,7.1,54,15,48.3,100.74,Mostly Cloudy,0.9951030045003729
6/4/2012 19:00,16.3,6.9,54,20,48.3,100.77,Mostly Cloudy,1.707736510030212
6/4/2012 20:00,15.6,7.3,58,13,24.1,100.8,Mainly Clear,1.08565829374613
6/4/2012 21:00,14.5,7.5,63,15,25.0,100.84,Mainly Clear,1.7145653449304656
6/4/2012 22:00,14.6,6.4,58,17,25.0,100.83,Mostly Cloudy,1.748199891947934
6/4/2012 23:00,14.6,5.9,56,11,25.0,100.83,Cloudy,1.7060670496503991
6/5/2012 0:00,13.8,4.9,55,13,25.0,100.83,Cloudy,1.7082596623212263
6/5/2012 1:00,13.7,7.1,64,15,25.0,100.82,Cloudy,1.7246783492660487
6/5/2012 2:00,12.7,6.3,65,13,25.0,100.82,Mostly Cloudy,1.718158292557747
6/5/2012 3:00,11.4,6.7,73,15,25.0,100.85,Mainly Clear,1.7602591377343588
6/5/2012 4:00,10.7,6.5,75,13,24.1,100.87,Mainly Clear,1.7241591468416737
6/5/2012 5:00,10.7,6.7,76,13,24.1,100.94,Mainly Clear,1.7272721454173066
6/5/2012 6:00,12.6,7.1,69,15,48.3,100.98,Mainly Clear,1.7056195602958193
6/5/2012 7:00,14.3,6.5,59,20,48.3,100.99,Mainly Clear,1.6935736930891006
6/5/2012 8:00,15.9,6.4,53,26,48.3,101.02,Mainly Clear,1.6991323720005187
6/5/2012 9:00,17.4,6.9,50,19,48.3,101.01,Clear,0.962888865181204
6/5/2012 10:00,18.8,6.7,45,19,48.3,100.99,Mainly Clear,0.9732283977380419
6/5/2012 11:00,19.8,5.3,39,26,48.3,101.0,Mainly Clear,0.9601509387055865
6/5/2012 12:00,20.3,4.9,36,20,48.3,100.97,Mainly Clear,0.9750301102550133
6/5/2012 13:00,21.3,3.8,32,15,48.3,100.93,Mainly Clear,1.0438380990737022
6/5/2012 14:00,21.6,4.4,32,7,48.3,100.88,Mainly Clear,1.0015844256101318
6/5/2012 15:00,21.9,4.4,32,11,48.3,100.83,Mainly Clear,1.0257191507070074
6/5/2012 16:00,22.6,6.2,35,4,48.3,100.75,Mainly Clear,0.9763179605360829
6/5/2012 17:00,22.2,5.4,34,15,48.3,100.74,Mostly Cloudy,0.982139433707547
6/5/2012 18:00,20.9,6.8,40,11,48.3,100.76,Rain Showers,0.9557861893691004
6/5/2012 19:00,17.0,10.3,65,22,24.1,100.89,Rain Showers,1.2462732641232661
6/5/2012 20:00,15.6,11.6,77,9,24.1,100.88,Rain Showers,1.7302348458823897
6/5/2012 21:00,16.3,9.9,66,6,25.0,100.9,Mostly Cloudy,1.6960165533823464
6/5/2012 22:00,14.7,11.0,78,7,25.0,100.95,Mostly Cloudy,1.733057876440812
6/5/2012 23:00,16.4,9.3,63,15,25.0,100.97,Mostly Cloudy,1.7442549138491343
6/6/2012 0:00,14.7,7.9,64,9,25.0,100.97,Mostly Cloudy,1.693964592557928
6/6/2012 1:00,13.8,7.2,64,9,25.0,100.97,Mostly Cloudy,1.693964592557928
6/6/2012 2:00,12.6,6.6,67,11,25.0,100.99,Mostly Cloudy,1.698763522260988
6/6/2012 3:00,11.0,6.8,75,9,25.0,100.99,Mostly Cloudy,1.7241591468416737
6/6/2012 4:00,11.2,6.9,75,6,24.1,101.03,Mostly Cloudy,1.7241591468416737
6/6/2012 5:00,12.0,7.2,72,9,48.3,101.05,Mostly Cloudy,1.7154802667147235
6/6/2012 6:00,12.4,7.7,73,15,24.1,101.07,Mostly Cloudy,1.718324698506683
6/6/2012 7:00,14.1,8.3,68,13,24.1,101.1,Mainly Clear,1.7018006700167505
6/6/2012 8:00,15.3,9.6,69,7,24.1,101.14,Mainly Clear,1.5451987850667972
6/6/2012 9:00,16.1,9.6,65,9,24.1,101.13,Mainly Clear,1.7090077810230537
6/6/2012 10:00,17.6,9.7,60,11,24.1,101.12,Mainly Clear,1.2263895375992577
6/6/2012 11:00,19.4,9.4,52,7,24.1,101.08,Mainly Clear,1.6698209965521058
6/6/2012 12:00,19.8,9.7,52,9,24.1,101.05,Mainly Clear,1.0056262115948698
6/6/2012 13:00,19.6,9.6,52,0,24.1,101.01,Mainly Clear,1.1416538628775483
6/6/2012 14:00,20.6,9.8,50,4,48.3,100.94,Mostly Cloudy,0.9519054687665379
6/6/2012 15:00,20.3,9.3,49,7,48.3,100.89,Mostly Cloudy,0.975301454938006
6/6/2012 16:00,21.3,8.2,43,13,48.3,100.9,Mostly Cloudy,0.9480512217965447
6/6/2012 17:00,20.6,7.4,42,11,24.1,100.91,Mostly Cloudy,0.9548628460821251
6/6/2012 18:00,20.0,7.6,45,15,24.1,100.95,Mostly Cloudy,0.9530360075462543
6/6/2012 19:00,18.9,7.8,48,15,24.1,101.0,Mostly Cloudy,0.9545028039197962
6/6/2012 20:00,17.4,9.6,60,9,24.1,101.04,Rain Showers,1.0152497673762686
6/6/2012 21:00,16.3,9.7,65,11,25.0,101.04,Mostly Cloudy,1.1317239769430016
6/6/2012 22:00,17.4,9.3,59,9,25.0,101.04,Cloudy,1.047079208947111
6/6/2012 23:00,17.1,9.1,59,11,25.0,101.05,Rain Showers,1.056112555697917
6/7/2012 0:00,14.9,9.0,68,9,25.0,101.06,Mainly Clear,1.5560122572272528
6/7/2012 1:00,13.3,9.2,76,7,25.0,101.06,Mainly Clear,1.7272721454173066
6/7/2012 2:00,12.8,9.4,80,11,25.0,101.04,Clear,1.7383226557949913
6/7/2012 3:00,12.3,8.9,80,17,25.0,101.02,Clear,1.7383226557949913
6/7/2012 4:00,12.0,8.3,78,9,24.1,101.05,Mainly Clear,1.733057876440812
6/7/2012 5:00,11.3,8.1,81,11,48.3,101.11,Mainly Clear,1.7408722768108806
6/7/2012 6:00,12.3,8.4,77,13,48.3,101.12,Mainly Clear,1.7302348458823897
6/7/2012 7:00,13.9,8.4,69,4,24.1,101.13,Mainly Clear,1.708879666759924
6/7/2012 8:00,15.9,9.2,64,11,24.1,101.12,Mainly Clear,1.6973571781643886
6/7/2012 9:00,17.5,9.5,59,6,48.3,101.09,Mainly Clear,1.0543705264010075
6/7/2012 10:00,19.4,9.6,53,6,48.3,101.05,Mainly Clear,0.9707496526241018
6/7/2012 11:00,20.1,10.5,54,7,48.3,101.02,Mainly Clear,0.9540478331605817
6/7/2012 12:00,20.8,10.1,50,13,48.3,100.98,Mainly Clear,0.9470802043486606
6/7/2012 13:00,21.6,10.9,51,11,48.3,100.92,Mainly Clear,0.9486022404256876
6/7/2012 14:00,22.7,9.4,43,11,48.3,100.86,Mainly Clear,0.9484227106606185
6/7/2012 15:00,22.3,9.3,43,13,48.3,100.8,Mainly Clear,0.945948721343493
6/7/2012 16:00,22.8,9.2,42,15,48.3,100.74,Mainly Clear,0.949155270668292
6/7/2012 17:00,22.6,8.9,42,11,48.3,100.69,Mostly Cloudy,0.949155270668292
6/7/2012 18:00,22.0,7.9,40,9,48.3,100.67,Mostly Cloudy,0.9557861893691004
6/7/2012 19:00,22.2,9.0,43,11,48.3,100.67,Mostly Cloudy,0.945948721343493
6/7/2012 20:00,21.7,9.4,45,11,24.1,100.66,Mostly Cloudy,0.9567482720856653
6/7/2012 21:00,18.6,10.4,59,30,25.0,100.74,Mostly Cloudy,1.770786069892227
6/7/2012 22:00,16.4,11.6,73,17,25.0,100.74,Rain Showers,1.718324698506683
6/7/2012 23:00,16.3,12.2,77,17,25.0,100.78,Rain,1.7302348458823897
6/8/2012 0:00,15.9,13.1,83,13,25.0,100.68,Mostly Cloudy,1.7459700090483987
6/8/2012 1:00,15.7,12.9,83,7,25.0,100.65,Clear,1.7459700090483987
6/8/2012 2:00,15.3,12.9,86,11,25.0,100.6,Clear,1.7530322801745157
6/8/2012 3:00,14.1,11.7,85,7,25.0,100.56,Mainly Clear,1.7507512632600475
6/8/2012 4:00,13.9,11.0,83,7,24.1,100.58,Mainly Clear,1.7459700090483987
6/8/2012 5:00,14.4,11.2,81,7,48.3,100.58,Mainly Clear,1.7408722768108806
6/8/2012 6:00,16.2,11.7,75,17,48.3,100.58,Mostly Cloudy,1.7241591468416737
6/8/2012 7:00,16.7,11.3,70,22,48.3,100.56,Mostly Cloudy,1.7091525423728813
6/8/2012 8:00,17.3,11.5,69,22,48.3,100.54,Mostly Cloudy,1.7056195602958193
6/8/2012 9:00,17.7,12.6,72,17,24.1,100.53,Cloudy,1.7154802667147235
6/8/2012 10:00,18.3,12.7,70,13,24.1,100.53,Cloudy,1.7091525423728813
6/8/2012 11:00,18.6,12.9,69,17,24.1,100.53,Cloudy,1.505906587803386
6/8/2012 12:00,19.5,13.7,69,17,24.1,100.46,Cloudy,1.505906587803386
6/8/2012 13:00,20.5,14.4,68,20,24.1,100.33,Mostly Cloudy,1.3579319565140906
6/8/2012 14:00,20.2,12.8,62,17,24.1,100.25,Cloudy,1.048123148472425
6/8/2012 15:00,19.4,12.8,66,20,12.9,100.33,Rain Showers,1.7103605265220079
6/8/2012 16:00,18.4,13.4,73,4,24.1,100.22,Mostly Cloudy,1.718324698506683
6/8/2012 17:00,20.0,14.3,70,7,24.1,100.22,Mostly Cloudy,1.7091525423728813
6/8/2012 18:00,19.0,14.4,75,0,24.1,100.17,Mostly Cloudy,1.7241591468416737
6/8/2012 19:00,19.0,12.0,64,15,24.1,100.28,Mainly Clear,1.0955884434940955
6/8/2012 20:00,16.0,9.9,67,9,24.1,100.34,Mainly Clear,1.7038718852037644
6/8/2012 21:00,14.1,8.3,68,9,25.0,100.41,Clear,1.7018006700167505
6/8/2012 22:00,13.5,7.8,68,6,25.0,100.48,Clear,1.4753706930475092
6/8/2012 23:00,12.0,7.6,74,9,25.0,100.5,Clear,1.7209839103698092
6/9/2012 0:00,12.8,8.0,73,6,25.0,100.51,Clear,1.718324698506683
6/9/2012 1:00,12.9,8.0,72,0,25.0,100.53,Clear,1.7154802667147235
6/9/2012 2:00,12.2,7.8,74,0,25.0,100.54,Clear,1.7209839103698092
6/9/2012 3:00,11.5,7.3,75,0,25.0,100.56,Clear,1.7241591468416737
6/9/2012 4:00,10.0,6.9,81,0,25.0,100.6,Mainly Clear,1.7408722768108806
6/9/2012 5:00,11.1,8.0,81,6,48.3,100.68,Mainly Clear,1.7408722768108806
6/9/2012 6:00,14.2,9.4,73,0,48.3,100.71,Mainly Clear,1.718324698506683
6/9/2012 7:00,16.0,9.7,66,6,48.3,100.76,Mainly Clear,1.5552664013557669
6/9/2012 8:00,18.4,8.9,54,4,48.3,100.79,Mainly Clear,1.0446547787422833
6/9/2012 9:00,19.3,7.8,47,0,48.3,100.81,Mainly Clear,0.9846340708643511
6/9/2012 10:00,21.0,10.1,50,4,48.3,100.78,Mainly Clear,0.95162316156838
6/9/2012 11:00,21.2,9.5,47,15,48.3,100.76,Mostly Cloudy,0.9638254600070415
6/9/2012 12:00,22.2,9.2,43,17,48.3,100.73,Cloudy,0.945948721343493
6/9/2012 13:00,23.0,7.6,37,19,48.3,100.71,Cloudy,0.9681708609999456
6/9/2012 14:00,23.2,7.2,36,7,48.3,100.68,Mostly Cloudy,0.9727175933044229
6/9/2012 15:00,23.8,5.6,31,20,48.3,100.67,Mainly Clear,1.0000000000000002
6/9/2012 16:00,23.9,6.5,33,17,48.3,100.68,Cloudy,0.986478005269463
6/9/2012 17:00,23.8,7.2,34,17,48.3,100.69,Cloudy,0.982139433707547
6/9/2012 18:00,23.6,7.1,35,11,48.3,100.73,Mainly Clear,0.9763179605360829
6/9/2012 19:00,21.8,7.6,40,9,48.3,100.75,Mostly Cloudy,0.9557861893691004
6/9/2012 20:00,18.5,8.2,51,6,48.3,100.8,Mainly Clear,0.9661075275074633
6/9/2012 21:00,19.4,6.8,44,6,25.0,100.87,Mainly Clear,1.6917876380627075
6/9/2012 22:00,17.0,6.6,50,4,25.0,100.93,Clear,1.0352232102685552
6/9/2012 23:00,16.9,7.8,55,4,25.0,100.97,Mainly Clear,1.705130716446407
6/10/2012 0:00,15.8,9.2,65,6,25.0,101.03,Mainly Clear,1.6979473861207306
6/10/2012 1:00,15.6,9.3,66,4,25.0,101.07,Clear,1.7038623653445355
6/10/2012 2:00,13.7,9.9,78,0,25.0,101.08,Clear,1.733057876440812
6/10/2012 3:00,14.3,11.6,84,4,25.0,101.11,Mainly Clear,1.7483983249034645
6/10/2012 4:00,12.4,10.3,87,4,25.0,101.15,Clear,1.755244623603565
6/10/2012 5:00,13.9,9.1,73,6,48.3,101.24,Mainly Clear,1.718324698506683
6/10/2012 6:00,16.6,9.6,63,0,48.3,101.36,Mainly Clear,1.2042994153742128
6/10/2012 7:00,18.0,8.8,55,4,48.3,101.42,Mainly Clear,1.0273603948077368
6/10/2012 8:00,20.2,9.5,50,6,48.3,101.45,Mainly Clear,0.9530149919728242
6/10/2012 9:00,21.2,10.3,50,6,48.3,101.45,Mainly Clear,0.9530149919728242
6/10/2012 10:00,23.5,11.8,48,7,48.3,101.42,Mainly Clear,0.9549081860936219
6/10/2012 11:00,24.6,7.4,33,7,48.3,101.45,Mostly Cloudy,0.986478005269463
6/10/2012 12:00,25.4,7.8,33,7,48.3,101.41,Mainly Clear,0.986478005269463
6/10/2012 13:00,25.5,5.8,28,11,48.3,101.38,Mostly Cloudy,1.5
6/10/2012 14:00,26.5,5.9,27,6,48.3,101.4,Mostly Cloudy,1.5
6/10/2012 15:00,26.5,9.2,34,6,48.3,101.42,Mainly Clear,0.982139433707547
6/10/2012 16:00,26.8,10.7,37,6,48.3,101.41,Mainly Clear,0.9693932228496156
6/10/2012 17:00,26.6,10.0,35,6,48.3,101.37,Cloudy,1.203365575387797
6/10/2012 18:00,26.5,9.3,34,15,48.3,101.39,Cloudy,0.982139433707547
6/10/2012 19:00,26.0,9.0,34,9,48.3,101.47,Mostly Cloudy,0.982139433707547
6/10/2012 20:00,25.3,7.5,32,9,48.3,101.47,Mostly Cloudy,0.9920689044371626
6/10/2012 21:00,22.8,8.4,40,7,25.0,101.51,Clear,0.9557861893691004
6/10/2012 22:00,22.7,8.9,41,9,25.0,101.5,Mainly Clear,0.9526517417795389
6/10/2012 23:00,23.0,8.9,41,11,25.0,101.5,Clear,0.9572750952583163
6/11/2012 0:00,21.7,9.0,44,6,25.0,101.49,Clear,0.9658535701727006
6/11/2012 1:00,20.4,9.2,49,0,25.0,101.45,Mainly Clear,1.0345790548661176
6/11/2012 2:00,18.9,10.5,58,7,25.0,101.47,Mainly Clear,1.0389068733454345
6/11/2012 3:00,18.5,10.9,61,9,25.0,101.45,Mostly Cloudy,1.6976581974940272
6/11/2012 4:00,18.1,10.7,62,11,24.1,101.47,Mostly Cloudy,1.5471797603529933
6/11/2012 5:00,17.5,11.8,69,11,24.1,101.54,Mainly Clear,1.7056195602958193
6/11/2012 6:00,19.5,12.7,65,7,48.3,101.58,Mainly Clear,1.1582477791719903
6/11/2012 7:00,19.4,13.8,70,11,48.3,101.63,Mostly Cloudy,1.7091525423728813
6/11/2012 8:00,20.2,14.5,70,9,48.3,101.64,Mostly Cloudy,1.7091525423728813
6/11/2012 9:00,22.4,15.6,65,7,24.1,101.63,Mostly Cloudy,1.1136122370198804
6/11/2012 10:00,24.8,16.3,59,4,24.1,101.58,Mostly Cloudy,1.7177758754155497
6/11/2012 11:00,26.6,17.2,56,4,24.1,101.54,Mostly Cloudy,0.9801185838707636
6/11/2012 12:00,27.3,17.5,55,7,24.1,101.47,Mostly Cloudy,0.9531525027978544
6/11/2012 13:00,28.7,18.3,53,15,24.1,101.4,Cloudy,0.943018325394646
6/11/2012 14:00,29.4,18.3,51,17,48.3,101.32,Mainly Clear,0.9531188325170955
6/11/2012 15:00,30.1,18.4,50,17,48.3,101.27,Mainly Clear,1.7041282106317521
6/11/2012 16:00,29.6,17.4,48,22,48.3,101.2,Mainly Clear,0.9350721128271431
6/11/2012 17:00,29.1,18.0,51,22,48.3,101.16,Mainly Clear,1.0409600477511538
6/11/2012 18:00,28.2,18.1,54,19,48.3,101.16,Mainly Clear,0.9472289954341503
6/11/2012 19:00,27.1,17.6,56,19,48.3,101.11,Mostly Cloudy,0.9607879911134949
6/11/2012 20:00,25.9,16.7,57,20,24.1,101.09,Cloudy,0.9684584060262452
6/11/2012 21:00,25.3,16.6,59,20,25.0,101.09,Mostly Cloudy,1.0513344773712574
6/11/2012 22:00,24.7,16.6,61,22,25.0,101.08,Mostly Cloudy,1.7284597571064997
6/11/2012 23:00,23.8,16.5,64,17,25.0,101.09,Mostly Cloudy,1.0754917436180753
6/12/2012 0:00,22.7,16.3,67,19,25.0,101.08,Mostly Cloudy,1.2523873978786297
6/12/2012 1:00,21.7,15.5,68,17,25.0,101.07,Mostly Cloudy,1.3579319565140906
6/12/2012 2:00,20.9,15.0,69,19,25.0,101.04,Mainly Clear,1.505906587803386
6/12/2012 3:00,20.2,14.3,69,17,25.0,101.0,Mostly Cloudy,1.505906587803386
6/12/2012 4:00,19.5,13.4,68,19,24.1,101.0,Mostly Cloudy,1.3579319565140906
6/12/2012 5:00,19.3,13.1,67,17,24.1,101.01,Mostly Cloudy,1.2523873978786297
6/12/2012 6:00,19.5,13.2,67,15,24.1,100.98,Mostly Cloudy,1.2523873978786297
6/12/2012 7:00,21.1,14.1,64,22,24.1,100.95,Mostly Cloudy,1.1794832579273928
6/12/2012 8:00,21.8,14.4,63,19,24.1,100.92,Cloudy,1.0503413361747098
6/12/2012 9:00,22.8,14.9,61,19,24.1,100.86,Cloudy,1.0147471754365818
6/12/2012 10:00,23.9,15.5,59,15,24.1,100.8,Mostly Cloudy,0.987994578192502
6/12/2012 11:00,24.7,15.5,57,24,24.1,100.74,Cloudy,1.0071043240842172
6/12/2012 12:00,24.4,15.8,59,17,16.1,100.71,Rain Showers,0.987994578192502
6/12/2012 13:00,19.8,16.7,82,19,6.4,100.73,Rain Showers,1.7434626346010758
6/12/2012 14:00,19.0,17.3,90,19,6.4,100.71,"Rain,Fog",1.7609487211792867
6/12/2012 15:00,19.1,17.3,89,15,6.4,100.67,"Rain,Fog",1.7590894054480448
6/12/2012 16:00,18.4,16.7,90,22,8.0,100.6,"Rain,Fog",1.7609487211792867
6/12/2012 17:00,18.2,16.3,89,20,12.9,100.57,Rain,1.7590894054480448
6/12/2012 18:00,18.2,16.3,89,20,9.7,100.55,"Rain,Fog",1.7590894054480448
6/12/2012 19:00,17.9,16.1,89,20,11.3,100.52,Rain,1.7590894054480448
6/12/2012 20:00,18.5,16.2,86,19,19.3,100.47,Cloudy,1.7530322801745157
6/12/2012 21:00,18.4,16.1,86,19,25.0,100.46,Cloudy,1.7530322801745157
6/12/2012 22:00,18.6,16.1,85,17,25.0,100.45,Cloudy,1.7507512632600475
6/12/2012 23:00,18.6,16.1,85,13,25.0,100.44,Mostly Cloudy,1.7507512632600475
6/13/2012 0:00,18.5,16.1,86,11,25.0,100.46,Mostly Cloudy,1.7530322801745157
6/13/2012 1:00,19.6,16.6,83,15,25.0,100.44,Cloudy,1.7459700090483987
6/13/2012 2:00,19.6,16.5,82,19,25.0,100.4,Cloudy,1.7434626346010758
6/13/2012 3:00,19.3,16.4,83,22,25.0,100.46,Cloudy,1.7459700090483987
6/13/2012 4:00,18.7,15.6,82,22,24.1,100.54,Mostly Cloudy,1.7434626346010758
6/13/2012 5:00,17.2,13.9,81,22,24.1,100.62,Mainly Clear,1.7408722768108806
6/13/2012 6:00,17.7,14.1,79,22,24.1,100.75,Mainly Clear,1.7357508862871274
6/13/2012 7:00,18.1,14.1,77,20,24.1,100.86,Mostly Cloudy,1.7302348458823897
6/13/2012 8:00,17.9,12.6,71,32,24.1,100.96,Mostly Cloudy,1.712430565280306
6/13/2012 9:00,17.0,11.7,71,24,24.1,101.09,Mostly Cloudy,1.7438819597798623
6/13/2012 10:00,17.9,11.0,64,19,24.1,101.18,Mostly Cloudy,1.6895328361301014
6/13/2012 11:00,19.5,11.6,60,13,24.1,101.28,Mainly Clear,1.0202198160982259
6/13/2012 12:00,19.6,10.6,56,13,48.3,101.3,Mainly Clear,1.0115729380884746
6/13/2012 13:00,20.4,10.6,53,15,48.3,101.32,Mainly Clear,0.9748288802855429
6/13/2012 14:00,20.7,9.8,50,9,48.3,101.36,Mainly Clear,0.953771833445897
6/13/2012 15:00,21.9,10.7,49,17,48.3,101.39,Mainly Clear,1.4211053883335059
6/13/2012 16:00,21.8,9.3,45,17,48.3,101.42,Mainly Clear,0.9647418645666761
6/13/2012 17:00,22.2,9.8,45,19,48.3,101.44,Mainly Clear,0.9574154009564568
6/13/2012 18:00,21.6,9.8,47,20,48.3,101.48,Mainly Clear,0.95777559652771
6/13/2012 19:00,20.0,8.5,47,17,48.3,101.57,Clear,0.9365239376139768
6/13/2012 20:00,17.6,8.0,53,11,48.3,101.62,Clear,1.7131513245580372
6/13/2012 21:00,15.1,8.1,63,7,25.0,101.7,Clear,1.7059305144412458
6/13/2012 22:00,14.6,7.9,64,11,25.0,101.74,Clear,1.6978141825072135
6/13/2012 23:00,15.2,6.2,55,11,25.0,101.79,Clear,1.727574995291346
6/14/2012 0:00,14.5,5.4,54,11,25.0,101.85,Clear,1.7261229887145946
6/14/2012 1:00,13.4,5.2,58,9,25.0,101.88,Clear,1.7528073208226156
6/14/2012 2:00,13.0,5.4,60,9,25.0,101.93,Clear,1.7410498210269099
6/14/2012 3:00,12.3,5.3,62,13,25.0,101.96,Clear,1.7544558947842737
6/14/2012 4:00,12.4,4.9,60,15,48.3,102.04,Clear,1.7369162465895187
6/14/2012 5:00,12.4,5.7,64,9,48.3,102.14,Clear,1.7450579397322978
6/14/2012 6:00,14.7,6.3,57,9,48.3,102.2,Clear,1.7177363913967443
6/14/2012 7:00,16.5,7.5,55,13,48.3,102.28,Clear,1.7149023611192697
6/14/2012 8:00,18.5,7.9,50,11,48.3,102.33,Clear,1.709033360657268
6/14/2012 9:00,20.0,5.5,39,19,48.3,102.32,Clear,0.9719719909035061
6/14/2012 10:00,20.0,3.8,34,17,48.3,102.31,Clear,0.982139433707547
6/14/2012 11:00,21.2,6.5,38,9,48.3,102.27,Clear,1.7211443733662597
6/14/2012 12:00,21.3,4.7,34,24,48.3,102.26,Clear,1.0071721813379364
6/14/2012 13:00,22.2,5.5,34,19,48.3,102.22,Clear,0.9887162177552878
6/14/2012 14:00,22.4,5.5,33,15,48.3,102.17,Clear,0.986478005269463
6/14/2012 15:00,22.9,6.7,35,11,48.3,102.12,Clear,0.9763179605360829
6/14/2012 16:00,22.5,6.9,36,7,48.3,102.15,Clear,0.979793774797657
6/14/2012 17:00,22.9,6.9,36,15,48.3,102.17,Clear,0.9727175933044229
6/14/2012 18:00,22.7,7.5,38,17,48.3,102.16,Clear,0.9725820978090501
6/14/2012 19:00,22.5,6.5,36,13,48.3,102.17,Clear,0.9727175933044229
6/14/2012 20:00,21.7,5.7,35,15,48.3,102.16,Clear,0.9763179605360829
6/14/2012 21:00,21.0,6.0,38,11,25.0,102.16,Clear,1.2360211500330458
6/14/2012 22:00,20.2,6.0,39,9,25.0,102.2,Clear,1.097086826973356
6/14/2012 23:00,19.6,5.8,40,6,25.0,102.21,Clear,1.3314945373628357
6/15/2012 0:00,18.9,5.5,41,6,25.0,102.18,Clear,1.6933116072336818
6/15/2012 1:00,17.1,6.1,48,6,25.0,102.17,Clear,1.733023410187868
6/15/2012 2:00,14.2,7.9,66,13,25.0,102.19,Clear,1.7452449525175258
6/15/2012 3:00,13.8,9.1,73,13,25.0,102.17,Clear,1.7354012126703229
6/15/2012 4:00,13.0,9.0,77,15,24.1,102.19,Clear,1.744807885123456
6/15/2012 5:00,13.3,8.9,75,15,48.3,102.27,Clear,1.7551246770717683
6/15/2012 6:00,15.6,8.5,63,17,48.3,102.32,Clear,1.7369226902079768
6/15/2012 7:00,16.8,8.8,59,19,48.3,102.38,Clear,1.7288825772903254
6/15/2012 8:00,18.6,9.5,55,17,48.3,102.4,Mainly Clear,1.7650510768097933
6/15/2012 9:00,20.3,7.9,45,17,48.3,102.39,Mainly Clear,1.6841981972842317
6/15/2012 10:00,21.4,6.3,37,13,48.3,102.37,Mostly Cloudy,0.9854876766468711
6/15/2012 11:00,22.2,7.9,40,15,48.3,102.35,Mostly Cloudy,0.9557861893691004
6/15/2012 12:00,23.5,7.0,35,11,48.3,102.3,Mainly Clear,0.9840397169758784
6/15/2012 13:00,24.4,6.7,32,15,48.3,102.22,Mostly Cloudy,0.9920689044371626
6/15/2012 14:00,24.3,5.6,30,11,48.3,102.17,Cloudy,1.5
6/15/2012 15:00,24.9,5.7,29,17,48.3,102.13,Cloudy,1.5
6/15/2012 16:00,25.0,5.1,28,15,48.3,102.08,Cloudy,1.5
6/15/2012 17:00,24.8,5.3,28,11,48.3,102.06,Cloudy,1.5
6/15/2012 18:00,24.5,6.0,30,9,48.3,102.08,Cloudy,1.5
6/15/2012 19:00,23.2,8.8,40,15,48.3,102.07,Cloudy,0.9838474638699118
6/15/2012 20:00,22.0,8.7,43,15,48.3,102.06,Mostly Cloudy,0.974130875472651
6/15/2012 21:00,22.1,7.8,40,11,25.0,102.06,Mainly Clear,1.3429533606009143
6/15/2012 22:00,21.3,8.6,44,13,25.0,102.06,Mainly Clear,1.6888349405205816
6/15/2012 23:00,20.1,9.5,50,11,25.0,102.06,Clear,1.7342042522251808
6/16/2012 0:00,17.5,9.9,61,9,25.0,102.05,Clear,1.7350360734917771
6/16/2012 1:00,16.1,10.4,69,11,25.0,102.02,Mainly Clear,1.7223294678735501
6/16/2012 2:00,15.3,10.3,72,13,25.0,102.03,Clear,1.7719910684570421
6/16/2012 3:00,14.7,9.6,71,17,25.0,102.03,Mainly Clear,1.7388543118404574
6/16/2012 4:00,13.8,8.8,72,19,25.0,102.11,Mainly Clear,1.7464005642540705
6/16/2012 5:00,13.9,8.5,70,13,24.1,102.16,Mostly Cloudy,1.7314086121158654
6/16/2012 6:00,15.2,8.8,66,17,24.1,102.18,Mostly Cloudy,1.733790616751378
6/16/2012 7:00,16.2,9.3,64,15,48.3,102.25,Mostly Cloudy,1.7206934252376478
6/16/2012 8:00,17.4,9.5,60,9,48.3,102.23,Mostly Cloudy,1.7188572014341863
6/16/2012 9:00,18.9,10.7,59,11,48.3,102.2,Cloudy,1.7047303706983936
6/16/2012 10:00,21.6,12.0,54,4,48.3,102.15,Cloudy,1.3377876249968412
6/16/2012 11:00,21.9,11.6,52,6,48.3,102.1,Cloudy,1.706824381466744
6/16/2012 12:00,23.8,13.1,51,6,48.3,102.04,Mostly Cloudy,0.9643700437557817
6/16/2012 13:00,24.6,12.5,47,9,48.3,101.96,Cloudy,0.9525783295942427
6/16/2012 14:00,24.9,13.5,49,6,48.3,101.91,Mostly Cloudy,0.9553328069392555
6/16/2012 15:00,26.0,13.6,46,6,48.3,101.84,Mostly Cloudy,0.9384328601022601
6/16/2012 16:00,26.5,11.0,38,7,48.3,101.77,Mostly Cloudy,0.9638948809679477
6/16/2012 17:00,26.5,11.3,39,4,48.3,101.73,Mostly Cloudy,0.9601509387055865
6/16/2012 18:00,26.2,12.1,41,6,48.3,101.71,Mainly Clear,0.9526517417795389
6/16/2012 19:00,25.0,13.0,47,7,48.3,101.66,Mainly Clear,0.9386476546411219
6/16/2012 20:00,23.1,11.8,49,4,48.3,101.62,Mainly Clear,1.1151997822550939
6/16/2012 21:00,20.8,12.3,58,0,25.0,101.6,Clear,1.025067883017293
6/16/2012 22:00,21.5,11.9,54,9,25.0,101.6,Mainly Clear,0.9615411639263574
6/16/2012 23:00,20.9,12.9,60,0,25.0,101.58,Mainly Clear,1.2152931650042291
6/17/2012 0:00,19.3,12.6,65,0,25.0,101.55,Mainly Clear,1.754499938472396
6/17/2012 1:00,19.8,13.7,68,7,25.0,101.52,Mainly Clear,1.4182872367109027
6/17/2012 2:00,18.6,13.5,72,11,25.0,101.48,Mainly Clear,1.7154802667147235
6/17/2012 3:00,18.4,13.7,74,13,25.0,101.45,Clear,1.7209839103698092
6/17/2012 4:00,17.4,13.4,77,9,24.1,101.46,Mainly Clear,1.7302348458823897
6/17/2012 5:00,17.3,13.7,79,6,48.3,101.47,Mainly Clear,1.7357508862871274
6/17/2012 6:00,18.9,14.1,74,9,48.3,101.51,Mainly Clear,1.7241192346876182
6/17/2012 7:00,20.2,14.4,69,11,48.3,101.52,Mainly Clear,1.7537920251220707
6/17/2012 8:00,22.2,15.1,64,9,48.3,101.5,Mainly Clear,1.0754917436180753
6/17/2012 9:00,23.4,15.3,60,9,48.3,101.47,Mainly Clear,1.675278891287071
6/17/2012 10:00,25.0,16.1,58,9,48.3,101.43,Mainly Clear,0.9771086735653381
6/17/2012 11:00,25.7,16.3,56,9,48.3,101.39,Cloudy,0.9607879911134949
6/17/2012 12:00,26.0,16.3,55,6,48.3,101.33,Cloudy,0.962991420526889
6/17/2012 13:00,26.6,16.7,55,11,48.3,101.23,Mostly Cloudy,0.9531525027978544
6/17/2012 14:00,26.1,16.5,55,17,48.3,101.17,Cloudy,0.9583360054038085
6/17/2012 15:00,27.0,16.8,54,17,48.3,101.1,Cloudy,0.9472289954341503
6/17/2012 16:00,27.4,16.3,51,20,48.3,101.02,Cloudy,0.9452998881508436
6/17/2012 17:00,26.2,14.7,49,19,48.3,100.97,Cloudy,0.9343319325939168
6/17/2012 18:00,26.0,15.9,54,17,48.3,100.92,Cloudy,0.9472289954341503
6/17/2012 19:00,25.5,16.4,57,17,48.3,100.91,Cloudy,0.9684584060262452
6/17/2012 20:00,24.5,15.1,56,15,48.3,100.95,Cloudy,0.9607879911134949
6/17/2012 21:00,24.1,14.1,54,19,25.0,100.99,Mostly Cloudy,1.7425140909281265
6/17/2012 22:00,23.4,13.8,55,22,25.0,101.0,Mostly Cloudy,1.000511543263688
6/17/2012 23:00,23.2,13.7,55,13,25.0,101.03,Mostly Cloudy,0.9564345797488302
6/18/2012 0:00,21.7,13.4,59,15,25.0,101.04,Mainly Clear,1.0143218129948215
6/18/2012 1:00,20.5,13.4,64,13,25.0,101.07,Mainly Clear,1.10778873641302
6/18/2012 2:00,19.7,13.5,67,19,25.0,101.08,Mainly Clear,1.2523873978786297
6/18/2012 3:00,19.3,13.4,69,17,25.0,101.06,Mainly Clear,1.5133108828465742
6/18/2012 4:00,18.4,13.3,72,17,25.0,101.1,Mainly Clear,1.7154802667147235
6/18/2012 5:00,17.9,13.2,74,19,24.1,101.12,Mostly Cloudy,1.7209839103698092
6/18/2012 6:00,18.2,13.3,73,20,24.1,101.14,Mostly Cloudy,1.718324698506683
6/18/2012 7:00,19.3,13.4,69,17,48.3,101.16,Mostly Cloudy,1.505906587803386
6/18/2012 8:00,20.6,14.0,66,17,48.3,101.17,Mostly Cloudy,1.1750318113220146
6/18/2012 9:00,22.0,14.4,62,17,48.3,101.15,Mostly Cloudy,1.0305025778855286
6/18/2012 10:00,22.6,14.2,59,19,48.3,101.15,Mostly Cloudy,1.0481659749037664
6/18/2012 11:00,24.0,14.9,57,19,24.1,101.14,Mostly Cloudy,0.9834553280893591
6/18/2012 12:00,25.3,14.8,52,19,24.1,101.13,Mostly Cloudy,0.958957683411353
6/18/2012 13:00,25.3,14.2,50,20,24.1,101.06,Mostly Cloudy,0.9358640101586502
6/18/2012 14:00,26.1,14.0,47,22,24.1,101.06,Mostly Cloudy,0.9365197406993433
6/18/2012 15:00,25.8,13.4,46,24,24.1,101.02,Mostly Cloudy,0.9384328601022601
6/18/2012 16:00,25.6,13.6,47,24,24.1,100.98,Mainly Clear,0.9365197406993433
6/18/2012 17:00,25.2,13.5,48,20,24.1,100.95,Mainly Clear,0.9350721128271431
6/18/2012 18:00,24.1,13.1,50,22,24.1,100.96,Mostly Cloudy,0.9848038904928791
6/18/2012 19:00,23.2,13.1,53,20,24.1,100.97,Mostly Cloudy,0.9602399385337064
6/18/2012 20:00,22.3,13.2,56,7,24.1,100.99,Cloudy,1.1405303008424226
6/18/2012 21:00,21.8,13.4,59,9,25.0,101.02,Mainly Clear,1.688218040606656
6/18/2012 22:00,21.5,14.0,62,13,25.0,101.02,Mainly Clear,1.6841551670851407
6/18/2012 23:00,21.5,14.7,65,13,25.0,101.13,Mostly Cloudy,1.1136122370198804
6/19/2012 0:00,20.8,14.7,68,13,25.0,101.14,Mostly Cloudy,1.4014955785269836
6/19/2012 1:00,20.0,14.6,71,9,25.0,101.17,Mostly Cloudy,1.7610315392202118
6/19/2012 2:00,19.1,14.3,74,9,25.0,101.11,Clear,1.7209839103698092
6/19/2012 3:00,18.3,14.1,76,9,25.0,101.12,Clear,1.7272721454173066
6/19/2012 4:00,18.1,13.6,75,9,24.1,101.13,Mostly Cloudy,1.7407866510244905
6/19/2012 5:00,18.0,13.7,76,6,25.0,101.19,Mostly Cloudy,1.7272721454173066
6/19/2012 6:00,18.8,14.1,74,9,24.1,101.19,Cloudy,1.7209839103698092
6/19/2012 7:00,19.6,14.3,71,22,24.1,101.01,Mostly Cloudy,1.712430565280306
6/19/2012 8:00,20.7,14.8,69,6,24.1,101.12,Cloudy,1.5451987850667857
6/19/2012 9:00,22.0,15.5,67,15,24.1,101.03,Cloudy,1.2523873978786297
6/19/2012 10:00,23.2,16.0,64,13,24.1,100.98,Cloudy,1.0754917436180753
6/19/2012 11:00,24.3,16.3,61,11,24.1,101.0,Cloudy,1.0147471754365818
6/19/2012 12:00,25.3,17.0,60,9,24.1,100.99,Cloudy,1.0098547539364429
6/19/2012 13:00,25.8,17.9,62,15,24.1,100.99,Cloudy,1.0305025778855286
6/19/2012 14:00,26.5,18.9,63,11,24.1,101.01,Cloudy,1.0503413361747098
6/19/2012 15:00,28.1,19.2,58,20,24.1,100.92,Mostly Cloudy,0.9771086735653381
6/19/2012 16:00,27.7,19.0,59,17,24.1,100.87,Mostly Cloudy,0.987994578192502
6/19/2012 17:00,28.0,19.4,60,19,24.1,100.91,Mostly Cloudy,0.9999888186332162
6/19/2012 18:00,27.9,19.1,59,19,24.1,100.93,Cloudy,0.987994578192502
6/19/2012 19:00,27.0,19.0,62,20,24.1,100.94,Mostly Cloudy,1.7441223719066852
6/19/2012 20:00,26.1,19.2,66,19,24.1,100.85,Cloudy,1.6961320753846425
6/19/2012 21:00,25.9,19.3,67,11,25.0,100.81,Cloudy,1.7020977743682477
6/19/2012 22:00,25.5,19.3,69,9,25.0,100.86,Mostly Cloudy,1.7056195602958193
6/19/2012 23:00,25.3,19.3,69,13,25.0,100.89,Cloudy,1.7068646083339674
6/20/2012 0:00,25.0,18.8,68,17,25.0,100.82,Mostly Cloudy,1.3579319565140906
6/20/2012 1:00,25.0,18.5,67,19,25.0,100.87,Mainly Clear,1.2523873978786297
6/20/2012 2:00,24.1,18.3,70,24,25.0,100.88,Clear,1.7091525423728813
6/20/2012 3:00,23.7,18.4,72,20,25.0,100.9,Mainly Clear,1.7154802667147235
6/20/2012 4:00,23.1,18.2,74,13,24.1,100.97,Mainly Clear,1.7209839103698092
6/20/2012 5:00,23.0,18.1,74,19,24.1,101.01,Mainly Clear,1.7209839103698092
6/20/2012 6:00,24.2,18.2,69,22,48.3,101.04,Mainly Clear,1.505906587803386
6/20/2012 7:00,25.4,18.1,64,24,48.3,101.07,Mostly Cloudy,1.0754917436180753
6/20/2012 8:00,25.3,18.0,64,19,48.3,101.1,Mostly Cloudy,1.0754917436180753
6/20/2012 9:00,26.3,18.5,62,17,24.1,101.09,Mostly Cloudy,1.0472682016085626
6/20/2012 10:00,27.4,19.3,61,9,24.1,101.06,Mostly Cloudy,1.0147471754365818
6/20/2012 11:00,28.5,19.8,59,17,24.1,101.06,Mainly Clear,0.987994578192502
6/20/2012 12:00,29.1,20.0,58,20,24.1,101.0,Mainly Clear,0.9771086735653381
6/20/2012 13:00,29.7,20.0,56,19,24.1,100.91,Clear,0.9607879911134949
6/20/2012 14:00,31.7,20.4,51,17,24.1,100.83,Clear,0.9462345771230128
6/20/2012 15:00,32.2,19.6,47,22,24.1,100.75,Mainly Clear,0.9393662031723485
6/20/2012 16:00,32.2,20.0,49,26,24.1,100.74,Mainly Clear,0.9349174485444163
6/20/2012 17:00,32.3,20.3,49,15,24.1,100.69,Mainly Clear,0.9419340114381132
6/20/2012 18:00,32.4,19.9,48,17,24.1,100.61,Mostly Cloudy,0.9779609673370457
6/20/2012 19:00,30.6,21.1,57,11,24.1,100.63,Mostly Cloudy,0.9684584060262452
6/20/2012 20:00,29.7,21.1,60,17,24.1,100.61,Mostly Cloudy,0.9999888186332162
6/20/2012 21:00,28.0,21.0,66,15,25.0,100.61,Mainly Clear,1.1750318113220146
6/20/2012 22:00,28.1,20.2,62,24,25.0,100.57,Clear,1.0305025778855286
6/20/2012 23:00,27.3,20.1,65,19,25.0,100.6,Mainly Clear,1.7275447775801254
6/21/2012 0:00,26.5,19.9,67,20,25.0,100.61,Mainly Clear,1.2523873978786297
6/21/2012 1:00,25.9,19.6,68,22,25.0,100.6,Clear,1.3579319565140906
6/21/2012 2:00,25.1,19.3,70,11,25.0,100.6,Mainly Clear,1.7091525423728813
6/21/2012 3:00,24.6,18.9,71,11,25.0,100.58,Mainly Clear,1.712430565280306
6/21/2012 4:00,24.0,18.5,71,11,25.0,100.57,Mainly Clear,1.712430565280306
6/21/2012 5:00,24.1,18.2,70,17,24.1,100.6,Mainly Clear,1.7091525423728813
6/21/2012 6:00,24.5,18.2,68,17,24.1,100.6,Mainly Clear,1.3579319565140906
6/21/2012 7:00,25.6,18.6,65,17,24.1,100.6,Mainly Clear,1.1136122370198804
6/21/2012 8:00,26.0,18.5,63,11,24.1,100.59,Mainly Clear,1.0503413361747098
6/21/2012 9:00,28.1,19.0,58,19,24.1,100.52,Mainly Clear,0.9771086735653381
6/21/2012 10:00,29.4,19.3,55,17,24.1,100.47,Clear,0.9531525027978544
6/21/2012 11:00,30.8,20.0,53,13,24.1,100.42,Mainly Clear,0.9623465501415215
6/21/2012 12:00,31.8,20.8,52,15,24.1,100.36,Mainly Clear,0.9479543724913201
6/21/2012 13:00,31.6,20.6,52,24,24.1,100.32,Mostly Cloudy,1.6836125020026427
6/21/2012 14:00,32.6,20.4,49,20,24.1,100.25,Mainly Clear,0.9531026187993364
6/21/2012 15:00,33.0,19.0,44,24,24.1,100.2,Mainly Clear,0.9589876516870836
6/21/2012 16:00,32.5,17.9,42,24,24.1,100.14,Mainly Clear,0.9518389360596693
6/21/2012 17:00,32.1,17.9,43,30,24.1,100.09,Mainly Clear,0.9551294792890606
6/21/2012 18:00,31.1,18.5,47,22,24.1,100.06,Clear,0.9472755980357297
6/21/2012 19:00,30.3,17.3,46,30,24.1,100.08,Clear,0.9455699232525752
6/21/2012 20:00,28.9,17.6,51,22,24.1,100.1,Mainly Clear,0.9364696353166625
6/21/2012 21:00,28.1,17.7,53,20,25.0,100.13,Mainly Clear,1.0621920193277374
6/21/2012 22:00,27.5,17.8,55,17,25.0,100.14,Mainly Clear,0.960454264030891
6/21/2012 23:00,26.7,17.7,58,17,25.0,100.09,Clear,1.1400817785658208
6/22/2012 0:00,25.8,18.1,63,9,25.0,100.07,Clear,1.0503413361747098
6/22/2012 1:00,24.8,18.1,66,9,25.0,100.11,Mainly Clear,1.1750318113220146
6/22/2012 2:00,24.7,16.9,62,15,25.0,100.1,Mainly Clear,1.0362437459819984
6/22/2012 3:00,24.0,16.7,64,22,25.0,100.12,Mainly Clear,1.6960888126205282
6/22/2012 4:00,23.0,16.7,68,19,24.1,100.14,Mainly Clear,1.3579319565140906
6/22/2012 5:00,22.6,16.9,70,20,24.1,100.21,Mainly Clear,1.7091525423728813
6/22/2012 6:00,22.7,17.2,71,19,24.1,100.28,Mostly Cloudy,1.712430565280306
6/22/2012 7:00,23.4,17.3,69,19,24.1,100.33,Mostly Cloudy,1.505906587803386
6/22/2012 8:00,23.0,17.3,70,17,24.1,100.37,Mostly Cloudy,1.7091525423728813
6/22/2012 9:00,24.6,17.6,65,17,24.1,100.4,Mostly Cloudy,1.1136122370198804
6/22/2012 10:00,24.4,16.9,63,19,24.1,100.4,Mostly Cloudy,1.0503413361747098
6/22/2012 11:00,24.7,17.3,63,22,24.1,100.41,Mostly Cloudy,1.0503413361747098
6/22/2012 12:00,26.8,17.8,58,22,24.1,100.41,Mostly Cloudy,0.9771086735653381
6/22/2012 13:00,28.0,14.8,45,20,24.1,100.39,Mostly Cloudy,0.9403088027499734
6/22/2012 14:00,29.1,14.0,40,22,48.3,100.37,Mostly Cloudy,0.9557861893691004
6/22/2012 15:00,29.0,13.8,39,20,48.3,100.32,Mainly Clear,0.9601509387055865
6/22/2012 16:00,28.5,12.7,38,22,48.3,100.29,Mainly Clear,0.9638948809679477
6/22/2012 17:00,27.9,12.4,38,24,48.3,100.29,Mainly Clear,0.9638948809679477
6/22/2012 18:00,27.2,11.7,38,17,48.3,100.31,Mainly Clear,0.9638948809679477
6/22/2012 19:00,25.7,11.7,42,11,48.3,100.38,Mostly Cloudy,0.949155270668292
6/22/2012 20:00,23.2,10.9,46,7,24.1,100.42,Mostly Cloudy,0.9384328601022601
6/22/2012 21:00,22.8,11.8,50,9,25.0,100.47,Mostly Cloudy,0.9597426896695039
6/22/2012 22:00,21.1,11.7,55,9,25.0,100.48,Mainly Clear,0.9910452016225533
6/22/2012 23:00,20.0,11.7,59,9,25.0,100.52,Mainly Clear,1.0207299727333892
6/23/2012 0:00,19.6,12.1,62,7,25.0,100.56,Mostly Cloudy,1.0305025778855286
6/23/2012 1:00,20.8,11.9,57,9,25.0,100.6,Mainly Clear,1.705297305756306
6/23/2012 2:00,20.1,12.0,60,13,25.0,100.62,Mainly Clear,1.698402507947478
6/23/2012 3:00,19.5,12.3,63,13,25.0,100.65,Mainly Clear,1.5662503631687412
6/23/2012 4:00,19.5,12.3,63,15,24.1,100.7,Mainly Clear,1.0503413361747098
6/23/2012 5:00,19.3,12.4,64,15,48.3,100.82,Mostly Cloudy,1.0754917436180753
6/23/2012 6:00,17.4,12.7,74,15,24.1,100.8,Rain Showers,1.7209839103698092
6/23/2012 7:00,18.6,13.7,73,11,48.3,100.84,Mostly Cloudy,1.718324698506683
6/23/2012 8:00,20.0,12.6,62,15,48.3,100.89,Mostly Cloudy,1.0305025778855286
6/23/2012 9:00,21.5,11.8,54,15,48.3,100.9,Mostly Cloudy,0.9567175121828192
6/23/2012 10:00,22.2,11.7,51,7,48.3,100.91,Mostly Cloudy,0.9560329762111888
6/23/2012 11:00,23.8,11.4,46,11,48.3,100.89,Mostly Cloudy,0.9456060745347147
6/23/2012 12:00,25.1,9.8,38,13,48.3,100.85,Mostly Cloudy,0.9638948809679477
6/23/2012 13:00,25.6,9.6,36,19,48.3,100.84,Mainly Clear,0.9727175933044229
6/23/2012 14:00,26.1,7.1,30,15,48.3,100.82,Mainly Clear,1.5
6/23/2012 15:00,26.4,5.7,27,13,48.3,100.86,Mostly Cloudy,1.5
6/23/2012 16:00,26.5,5.9,27,22,48.3,100.84,Mostly Cloudy,1.5
6/23/2012 17:00,26.4,4.4,24,15,48.3,100.83,Mainly Clear,1.5
6/23/2012 18:00,25.8,3.6,24,20,48.3,100.82,Mainly Clear,1.5
6/23/2012 19:00,25.8,3.5,24,13,48.3,100.84,Mainly Clear,1.5
6/23/2012 20:00,23.5,5.4,31,6,48.3,100.88,Clear,1.0000000000000002
6/23/2012 21:00,20.1,7.3,43,0,25.0,100.95,Clear,1.0113248424332164
6/23/2012 22:00,19.6,7.5,45,0,25.0,100.99,Mainly Clear,1.3934225184529312
6/23/2012 23:00,18.8,8.5,51,0,25.0,101.01,Clear,1.131656593696427
6/24/2012 0:00,18.3,8.4,52,0,25.0,101.0,Clear,1.5195549275616962
6/24/2012 1:00,17.6,8.7,56,6,25.0,101.02,Clear,1.7058940379910186
6/24/2012 2:00,14.1,8.7,70,4,25.0,101.01,Clear,1.7091525423728813
6/24/2012 3:00,14.9,9.1,68,0,25.0,101.02,Clear,1.7018006700167505
6/24/2012 4:00,14.4,9.0,70,11,48.3,101.04,Clear,1.7091525423728813
6/24/2012 5:00,14.0,9.2,73,6,48.3,101.04,Clear,1.718324698506683
6/24/2012 6:00,17.8,10.5,62,4,48.3,101.04,Clear,1.0598388660804243
6/24/2012 7:00,20.0,12.2,61,7,48.3,101.03,Clear,1.0270505700537194
6/24/2012 8:00,22.2,10.6,48,7,48.3,101.03,Clear,0.9531268825770608
6/24/2012 9:00,23.2,12.7,52,11,48.3,101.0,Clear,1.0035736511815732
6/24/2012 10:00,24.3,13.0,49,15,48.3,100.97,Clear,0.9386699343344017
6/24/2012 11:00,26.3,12.0,41,17,48.3,100.91,Mainly Clear,0.9526517417795389
6/24/2012 12:00,27.1,8.4,31,9,48.3,100.82,Mainly Clear,1.0000000000000002
6/24/2012 13:00,27.3,9.9,34,17,48.3,100.75,Mostly Cloudy,0.982139433707547
6/24/2012 14:00,26.8,9.4,33,19,48.3,100.67,Mostly Cloudy,0.986478005269463
6/24/2012 15:00,26.7,8.9,33,22,48.3,100.63,Mostly Cloudy,1.265280061225469
6/24/2012 16:00,26.4,8.7,33,19,24.1,100.61,Cloudy,1.727973976637983
6/24/2012 17:00,21.5,11.8,54,32,24.1,100.69,Cloudy,1.7584394273149544
6/24/2012 18:00,19.4,12.7,65,26,24.1,100.71,Rain Showers,1.693135526548586
6/24/2012 19:00,19.0,14.0,73,20,24.1,100.74,Rain,1.718324698506683
6/24/2012 20:00,18.7,14.5,77,24,24.1,100.69,Rain,1.7302348458823897
6/24/2012 21:00,18.6,13.6,73,19,25.0,100.67,Cloudy,1.718324698506683
6/24/2012 22:00,18.3,13.1,72,9,25.0,100.6,Cloudy,1.7154802667147235
6/24/2012 23:00,17.8,13.2,74,13,25.0,100.57,Cloudy,1.7209839103698092
6/25/2012 0:00,16.7,13.6,82,9,19.3,100.51,Rain Showers,1.7434626346010758
6/25/2012 1:00,15.7,13.6,87,9,19.3,100.41,Rain,1.755244623603565
6/25/2012 2:00,15.7,13.8,88,7,12.9,100.32,Drizzle,1.7571931537828946
6/25/2012 3:00,15.9,14.2,90,9,11.3,100.26,Rain,1.7609487211792867
6/25/2012 4:00,16.1,14.1,88,15,19.3,100.21,Rain,1.7571931537828946
6/25/2012 5:00,16.4,14.3,87,15,19.3,100.21,Cloudy,1.755244623603565
6/25/2012 6:00,16.7,14.3,86,15,24.1,100.19,Mostly Cloudy,1.7530322801745157
6/25/2012 7:00,17.2,13.8,80,15,24.1,100.18,Cloudy,1.7383226557949913
6/25/2012 8:00,18.7,13.9,74,17,24.1,100.16,Mainly Clear,1.7209839103698092
6/25/2012 9:00,18.8,13.0,69,26,24.1,100.13,Mostly Cloudy,1.505906587803386
6/25/2012 10:00,17.9,12.8,72,24,24.1,100.12,Rain Showers,1.7154802667147235
6/25/2012 11:00,19.8,13.1,65,22,24.1,100.1,Mostly Cloudy,1.1136122370198804
6/25/2012 12:00,19.0,11.9,63,26,24.1,100.12,Mostly Cloudy,1.056936469263327
6/25/2012 13:00,19.7,12.4,63,19,24.1,100.12,Mostly Cloudy,1.0503413361747098
6/25/2012 14:00,20.2,12.2,60,26,24.1,100.13,Mostly Cloudy,1.0128622010815302
6/25/2012 15:00,18.8,10.8,60,28,24.1,100.09,Mostly Cloudy,1.049595987190643
6/25/2012 16:00,18.1,10.8,62,26,24.1,100.12,Mostly Cloudy,1.0725562565635658
6/25/2012 17:00,16.5,10.8,69,26,24.1,100.14,Cloudy,1.505906587803386
6/25/2012 18:00,16.0,10.7,71,28,24.1,100.12,Cloudy,1.712430565280306
6/25/2012 19:00,15.0,10.9,76,22,24.1,100.14,Cloudy,1.7272721454173066
6/25/2012 20:00,15.2,11.3,78,11,24.1,100.12,Cloudy,1.733057876440812
6/25/2012 21:00,16.6,12.3,76,13,25.0,100.13,Cloudy,1.7272721454173066
6/25/2012 22:00,17.1,11.8,71,24,25.0,100.13,Cloudy,1.712430565280306
6/25/2012 23:00,16.7,11.6,72,22,25.0,100.14,Cloudy,1.7154802667147235
6/26/2012 0:00,16.6,11.3,71,26,25.0,100.12,Cloudy,1.7201125748385693
6/26/2012 1:00,16.2,10.9,71,24,25.0,100.13,Cloudy,1.712430565280306
6/26/2012 2:00,15.7,10.6,72,11,25.0,100.11,Cloudy,1.7154802667147235
6/26/2012 3:00,15.8,10.5,71,13,25.0,100.12,Cloudy,1.712430565280306
6/26/2012 4:00,15.6,10.2,70,13,24.1,100.12,Cloudy,1.7091525423728813
6/26/2012 5:00,15.4,10.2,71,17,24.1,100.16,Cloudy,1.712430565280306
6/26/2012 6:00,15.6,10.2,70,17,24.1,100.18,Mostly Cloudy,1.7091525423728813
6/26/2012 7:00,16.0,10.4,69,11,24.1,100.19,Mostly Cloudy,1.505906587803386
6/26/2012 8:00,16.4,10.3,67,17,24.1,100.18,Cloudy,1.2523873978786297
6/26/2012 9:00,16.9,10.5,66,9,24.1,100.16,Cloudy,1.2687710012207283
6/26/2012 10:00,17.0,10.4,65,13,24.1,100.15,Cloudy,1.1136122370198804
6/26/2012 11:00,17.6,10.8,64,11,24.1,100.12,Cloudy,1.0754917436180753
6/26/2012 12:00,16.9,11.5,70,15,24.1,100.12,Rain,1.7091525423728813
6/26/2012 13:00,16.2,10.9,71,26,19.3,100.1,Cloudy,1.712430565280306
6/26/2012 14:00,16.3,11.6,74,20,19.3,100.07,Drizzle,1.7651919428120983
6/26/2012 15:00,16.6,11.4,71,20,24.1,100.03,Cloudy,1.712430565280306
6/26/2012 16:00,15.8,12.4,80,17,24.1,100.0,Cloudy,1.7383226557949913
6/26/2012 17:00,16.1,12.5,79,13,24.1,99.99,Rain Showers,1.7357508862871274
6/26/2012 18:00,15.6,12.6,82,13,19.3,99.99,Rain,1.7434626346010758
6/26/2012 19:00,15.4,12.6,83,15,19.3,99.93,Rain,1.7459700090483987
6/26/2012 20:00,15.3,12.8,85,15,24.1,99.9,Rain,1.7507512632600475
6/26/2012 21:00,15.4,12.9,85,15,12.9,99.9,Rain,1.7507512632600475
6/26/2012 22:00,15.4,12.8,84,15,16.1,99.85,Rain,1.7483983249034645
6/26/2012 23:00,15.4,12.8,84,15,19.3,99.8,Rain,1.7483983249034645
6/27/2012 0:00,15.7,12.9,83,17,19.3,99.75,Rain,1.7459700090483987
6/27/2012 1:00,15.7,12.9,83,13,19.3,99.72,Rain,1.7459700090483987
6/27/2012 2:00,15.6,12.7,83,11,19.3,99.69,Rain,1.7459700090483987
6/27/2012 3:00,15.3,12.7,84,9,19.3,99.69,Rain,1.7483983249034645
6/27/2012 4:00,15.2,12.4,83,13,19.3,99.72,Rain,1.7459700090483987
6/27/2012 5:00,15.2,12.2,82,17,24.1,99.76,Rain,1.7434626346010758
6/27/2012 6:00,15.4,12.2,81,15,24.1,99.79,Rain,1.7408722768108806
6/27/2012 7:00,16.3,12.2,77,20,24.1,99.81,Rain,1.7302348458823897
6/27/2012 8:00,18.0,12.9,72,28,24.1,99.83,Mostly Cloudy,1.7473575391078282
6/27/2012 9:00,18.0,12.0,68,20,24.1,99.86,Cloudy,1.3579319565140906
6/27/2012 10:00,18.7,13.0,69,20,24.1,99.89,Rain,1.505906587803386
6/27/2012 11:00,17.8,13.5,76,24,24.1,99.93,Rain,1.7272721454173066
6/27/2012 12:00,19.8,13.5,67,20,19.3,99.92,Rain,1.2523873978786297
6/27/2012 13:00,19.3,14.4,73,13,19.3,99.96,Rain,1.718324698506683
6/27/2012 14:00,19.1,14.7,76,19,19.3,99.99,Rain,1.7272721454173066
6/27/2012 15:00,19.6,15.1,75,19,24.1,100.02,Mostly Cloudy,1.7241591468416737
6/27/2012 16:00,20.3,14.2,68,20,24.1,100.03,Rain,1.3579319565140906
6/27/2012 17:00,19.9,14.3,70,20,24.1,100.05,Mostly Cloudy,1.7091525423728813
6/27/2012 18:00,21.1,14.1,64,15,24.1,100.06,Mostly Cloudy,1.0920671445492927
6/27/2012 19:00,19.4,13.8,70,17,24.1,100.09,Rain,1.7091525423728813
6/27/2012 20:00,19.3,13.2,68,11,24.1,100.13,Cloudy,1.3579319565140906
6/27/2012 21:00,19.3,12.7,66,13,25.0,100.19,Mostly Cloudy,1.1750318113220146
6/27/2012 22:00,18.7,13.4,71,11,25.0,100.19,Cloudy,1.712430565280306
6/27/2012 23:00,17.5,14.1,80,9,25.0,100.17,Cloudy,1.7665975546238757
6/28/2012 0:00,17.2,14.0,81,6,25.0,100.17,Cloudy,1.7408722768108806
6/28/2012 1:00,17.7,13.3,75,11,25.0,100.15,Cloudy,1.7241591468416737
6/28/2012 2:00,17.6,13.4,76,7,25.0,100.16,Cloudy,1.7272721454173066
6/28/2012 3:00,17.5,13.3,76,6,25.0,100.18,Rain,1.7272721454173066
6/28/2012 4:00,17.7,13.9,78,11,25.0,100.2,Rain Showers,1.733057876440812
6/28/2012 5:00,17.6,13.7,78,9,48.3,100.25,Mostly Cloudy,1.733057876440812
6/28/2012 6:00,17.7,13.7,77,11,48.3,100.27,Mostly Cloudy,1.7302348458823897
6/28/2012 7:00,18.6,14.2,76,11,48.3,100.29,Mostly Cloudy,1.7272721454173066
6/28/2012 8:00,19.4,14.2,72,9,48.3,100.28,Mostly Cloudy,1.7154802667147235
6/28/2012 9:00,20.4,14.1,67,11,48.3,100.27,Mostly Cloudy,1.2523873978786297
6/28/2012 10:00,21.7,14.7,64,11,48.3,100.23,Mostly Cloudy,1.0754917436180753
6/28/2012 11:00,23.0,14.7,60,13,48.3,100.21,Mostly Cloudy,0.9999888186332162
6/28/2012 12:00,24.6,15.3,56,9,48.3,100.19,Mostly Cloudy,0.9607879911134949
6/28/2012 13:00,24.9,15.0,54,17,48.3,100.11,Mainly Clear,0.9472289954341503
6/28/2012 14:00,25.5,15.3,53,22,48.3,100.08,Mainly Clear,1.0098930223053764
6/28/2012 15:00,27.0,14.8,47,22,48.3,100.03,Mainly Clear,0.9365197406993433
6/28/2012 16:00,27.1,14.0,45,22,48.3,100.01,Mainly Clear,0.9424643326752754
6/28/2012 17:00,27.2,12.6,40,19,48.3,99.92,Mostly Cloudy,0.9557861893691004
6/28/2012 18:00,26.4,12.1,41,19,48.3,99.9,Mostly Cloudy,0.9526517417795389
6/28/2012 19:00,25.4,12.9,46,13,48.3,99.91,Mostly Cloudy,0.9982595274618049
6/28/2012 20:00,24.1,13.5,52,11,24.1,99.89,Mainly Clear,0.954992751375009
6/28/2012 21:00,23.6,14.3,56,11,25.0,99.95,Mainly Clear,0.9837679800062593
6/28/2012 22:00,22.5,15.0,63,11,25.0,99.88,Mostly Cloudy,1.0503413361747098
6/28/2012 23:00,21.9,15.4,67,15,25.0,99.85,Mostly Cloudy,1.2523873978786297
6/29/2012 0:00,22.2,14.0,60,15,25.0,99.83,Rain Showers,1.6908298043443084
6/29/2012 1:00,21.1,14.7,67,4,25.0,99.75,Cloudy,1.2523873978786297
6/29/2012 2:00,20.3,15.3,73,7,25.0,99.71,Cloudy,1.718324698506683
6/29/2012 3:00,19.5,16.1,81,7,9.7,99.71,"Thunderstorms,Rain Showers,Fog",1.7408722768108806
6/29/2012 4:00,18.8,16.5,86,9,24.1,99.68,Cloudy,1.7530322801745157
6/29/2012 5:00,18.9,16.4,85,13,24.1,99.71,Mostly Cloudy,1.7507512632600475
6/29/2012 6:00,19.7,16.7,83,17,24.1,99.72,Mostly Cloudy,1.7459700090483987
6/29/2012 7:00,21.4,16.7,75,20,24.1,99.65,Mainly Clear,1.7241591468416737
6/29/2012 8:00,22.8,17.4,72,24,24.1,99.61,Mainly Clear,1.7154802667147235
6/29/2012 9:00,24.8,18.0,66,24,24.1,99.55,Mainly Clear,1.1750318113220146
6/29/2012 10:00,25.5,18.3,64,26,48.3,99.52,Clear,1.0754917436180753
6/29/2012 11:00,26.5,19.2,64,26,24.1,99.51,Mainly Clear,1.0754917436180753
6/29/2012 12:00,27.3,18.5,59,32,24.1,99.47,Mostly Cloudy,0.9934042835901937
6/29/2012 13:00,28.6,18.2,53,37,48.3,99.46,Mainly Clear,1.6941526810689373
6/29/2012 14:00,29.8,17.1,46,33,48.3,99.44,Mainly Clear,0.9421682876717785
6/29/2012 15:00,30.7,14.6,38,32,48.3,99.42,Mainly Clear,0.9638948809679477
6/29/2012 16:00,31.1,13.0,33,28,48.3,99.39,Mainly Clear,0.986478005269463
6/29/2012 17:00,30.2,12.2,33,30,48.3,99.43,Mainly Clear,0.986478005269463
6/29/2012 18:00,29.8,12.5,35,24,48.3,99.45,Mainly Clear,0.9763179605360829
6/29/2012 19:00,28.5,12.3,37,17,48.3,99.45,Mainly Clear,1.030328615761252
6/29/2012 20:00,27.6,13.4,42,9,25.0,99.51,Mainly Clear,0.949155270668292
6/29/2012 21:00,26.5,15.3,50,22,25.0,99.58,Mainly Clear,0.937747366055816
6/29/2012 22:00,25.7,14.0,48,22,25.0,99.59,Mostly Cloudy,0.9372842453053284
6/29/2012 23:00,24.5,13.5,50,17,25.0,99.61,Mainly Clear,0.9461849740667048
6/30/2012 0:00,23.1,11.9,49,20,25.0,99.63,Clear,0.9398174303135295
6/30/2012 1:00,22.6,11.4,49,15,25.0,99.68,Clear,0.94341345297137
6/30/2012 2:00,22.0,11.5,51,17,25.0,99.67,Clear,0.9529796124030769
6/30/2012 3:00,21.2,12.3,57,17,25.0,99.66,Clear,0.9811784407447225
6/30/2012 4:00,20.5,13.0,62,20,48.3,99.7,Clear,1.0488747748260603
6/30/2012 5:00,20.8,12.4,59,26,48.3,99.83,Mostly Cloudy,0.987994578192502
6/30/2012 6:00,21.6,13.2,59,28,48.3,99.85,Mostly Cloudy,0.99160673172698
6/30/2012 7:00,22.1,13.8,59,20,48.3,99.86,Mostly Cloudy,1.0031458949359324
6/30/2012 8:00,23.4,14.4,57,26,48.3,99.88,Mostly Cloudy,0.9711164846775067
6/30/2012 9:00,24.2,13.9,53,26,48.3,99.83,Mainly Clear,0.947162100015887
6/30/2012 10:00,25.1,14.5,52,30,48.3,99.83,Mainly Clear,0.9481159287482895
6/30/2012 11:00,26.3,14.9,50,26,48.3,99.79,Mainly Clear,0.9417725166492962
6/30/2012 12:00,27.6,15.5,48,26,48.3,99.74,Mainly Clear,0.9381309550917054
6/30/2012 13:00,28.0,14.8,45,30,48.3,99.68,Mainly Clear,0.9403088027499734
6/30/2012 14:00,29.9,13.8,37,33,48.3,99.67,Mainly Clear,0.9681708609999456
6/30/2012 15:00,28.8,13.2,38,28,24.1,99.66,Mostly Cloudy,1.6999913448617738
6/30/2012 16:00,29.0,13.1,38,26,48.3,99.65,Mostly Cloudy,0.9638948809679477
6/30/2012 17:00,24.8,17.6,64,11,48.3,99.69,Mostly Cloudy,1.0754917436180753
6/30/2012 18:00,24.3,16.2,61,22,24.1,99.79,Mostly Cloudy,1.7278538037432318
6/30/2012 19:00,23.9,16.6,64,7,48.3,99.86,Mostly Cloudy,1.0754917436180753
6/30/2012 20:00,22.9,16.2,66,6,25.0,99.92,Mostly Cloudy,1.1750318113220146
6/30/2012 21:00,23.6,16.3,64,13,25.0,100.02,Mostly Cloudy,1.0754917436180753
6/30/2012 22:00,23.3,15.3,61,7,25.0,100.04,Mostly Cloudy,1.0147471754365818
6/30/2012 23:00,22.3,15.6,66,4,25.0,100.07,Mostly Cloudy,1.1750318113220146
7/1/2012 0:00,22.0,15.7,67,0,25.0,100.1,Mostly Cloudy,1.3910579006090948
7/1/2012 1:00,21.1,16.8,76,6,25.0,100.14,Mostly Cloudy,1.7272721454173066
7/1/2012 2:00,20.4,16.1,76,9,24.1,100.16,Mostly Cloudy,1.7272721454173066
7/1/2012 3:00,20.2,13.8,67,7,25.0,100.22,Mostly Cloudy,1.2523873978786297
7/1/2012 4:00,20.0,12.3,61,6,24.1,100.27,Mostly Cloudy,1.178501800162595
7/1/2012 5:00,20.2,12.3,60,0,24.1,100.32,Mostly Cloudy,0.9999888186332162
7/1/2012 6:00,21.0,12.9,60,7,24.1,100.41,Mostly Cloudy,0.9999888186332162
7/1/2012 7:00,21.3,13.4,61,11,24.1,100.46,Mostly Cloudy,1.0147471754365818
7/1/2012 8:00,21.6,13.1,58,6,24.1,100.5,Mainly Clear,0.9771086735653381
7/1/2012 9:00,22.9,13.0,54,4,48.3,100.51,Mainly Clear,0.9970215091107807
7/1/2012 10:00,23.4,13.5,54,13,48.3,100.5,Mainly Clear,0.9484898482356999
7/1/2012 11:00,24.6,14.4,53,19,48.3,100.5,Mainly Clear,1.4317289843449974
7/1/2012 12:00,24.2,13.4,51,22,48.3,100.54,Mainly Clear,0.9510501421775324
7/1/2012 13:00,25.4,14.0,49,22,48.3,100.55,Mainly Clear,1.6878054168551981
7/1/2012 14:00,25.1,13.9,50,17,48.3,100.56,Mainly Clear,0.9367256934253207
7/1/2012 15:00,24.7,14.0,51,15,48.3,100.56,Mostly Cloudy,0.9364696353166625
7/1/2012 16:00,24.7,13.8,51,15,48.3,100.55,Mostly Cloudy,0.9364696353166625
7/1/2012 17:00,25.3,14.5,51,11,48.3,100.52,Mainly Clear,0.9364696353166625
7/1/2012 18:00,24.5,13.9,52,17,48.3,100.52,Mainly Clear,0.9501622743234535
7/1/2012 19:00,23.6,13.0,51,15,48.3,100.51,Mainly Clear,0.9364696353166625
7/1/2012 20:00,21.9,12.9,57,11,25.0,100.55,Mainly Clear,1.6968079320421787
7/1/2012 21:00,21.3,12.9,59,7,25.0,100.63,Mainly Clear,1.07672671517845
7/1/2012 22:00,19.6,13.0,66,11,25.0,100.63,Mainly Clear,1.533938999292377
7/1/2012 23:00,19.1,12.9,67,9,25.0,100.67,Mainly Clear,1.704683599469409
7/2/2012 0:00,18.1,13.0,72,13,25.0,100.69,Mainly Clear,1.7154802667147235
7/2/2012 1:00,17.3,12.6,74,7,25.0,100.71,Mainly Clear,1.7209839103698092
7/2/2012 2:00,16.6,12.5,77,7,25.0,100.72,Mainly Clear,1.7302348458823897
7/2/2012 3:00,16.6,12.5,77,6,25.0,100.72,Mainly Clear,1.7302348458823897
7/2/2012 4:00,16.8,12.4,75,0,24.1,100.75,Mainly Clear,1.7241591468416737
7/2/2012 5:00,16.6,12.7,78,6,24.1,100.76,Mainly Clear,1.733057876440812
7/2/2012 6:00,19.5,14.0,71,6,48.3,100.79,Mainly Clear,1.712430565280306
7/2/2012 7:00,21.5,14.6,65,9,48.3,100.81,Mainly Clear,1.1136122370198804
7/2/2012 8:00,22.2,14.8,63,15,48.3,100.84,Mostly Cloudy,1.0503413361747098
7/2/2012 9:00,23.4,15.0,59,15,48.3,100.83,Mainly Clear,1.0228738650324034
7/2/2012 10:00,23.6,15.1,59,13,48.3,100.81,Mainly Clear,1.0039927246267777
7/2/2012 11:00,25.2,15.6,55,19,48.3,100.78,Mainly Clear,0.9785152318875069
7/2/2012 12:00,25.9,15.6,53,15,48.3,100.73,Mainly Clear,0.9483522540438089
7/2/2012 13:00,26.5,13.7,45,17,48.3,100.66,Mainly Clear,1.7116977426911764
7/2/2012 14:00,26.7,12.8,42,19,48.3,100.61,Mostly Cloudy,0.949155270668292
7/2/2012 15:00,28.3,12.3,37,30,48.3,100.55,Mainly Clear,1.6943993904887362
7/2/2012 16:00,28.0,11.6,36,22,48.3,100.54,Mainly Clear,0.9727175933044229
7/2/2012 17:00,26.3,9.7,35,26,48.3,100.62,Mostly Cloudy,0.9763179605360829
7/2/2012 18:00,25.9,10.0,37,20,48.3,100.66,Mostly Cloudy,0.9681708609999456
7/2/2012 19:00,24.5,9.7,39,15,48.3,100.69,Mostly Cloudy,0.9601509387055865
7/2/2012 20:00,21.7,10.0,47,9,25.0,100.75,Mainly Clear,1.0068597355012823
7/2/2012 21:00,20.0,10.4,54,6,25.0,100.81,Mainly Clear,1.0286407461230702
7/2/2012 22:00,19.1,10.5,57,6,25.0,100.82,Mainly Clear,1.0093720433120046
7/2/2012 23:00,19.0,10.8,59,7,25.0,100.81,Mainly Clear,1.689866868853053
7/3/2012 0:00,18.2,10.8,62,7,25.0,100.83,Mainly Clear,1.7100309891927286
7/3/2012 1:00,16.7,10.5,67,4,25.0,100.84,Clear,1.279703106903994
7/3/2012 2:00,17.2,11.1,67,4,25.0,100.83,Clear,1.2523873978786297
7/3/2012 3:00,16.9,10.4,66,0,25.0,100.83,Clear,1.4672881173456602
7/3/2012 4:00,14.3,10.5,78,6,24.1,100.89,Clear,1.733057876440812
7/3/2012 5:00,17.6,10.8,64,6,48.3,100.84,Clear,1.1159163519540467
7/3/2012 6:00,18.5,11.1,62,9,48.3,100.98,Clear,1.0454457615524166
7/3/2012 7:00,20.3,10.3,53,6,48.3,100.97,Clear,1.6914321066432298
7/3/2012 8:00,21.5,10.9,51,0,48.3,100.96,Clear,0.9510979758915755
7/3/2012 9:00,21.9,11.1,50,9,48.3,100.94,Mainly Clear,0.9499276380461944
7/3/2012 10:00,23.0,11.6,49,4,48.3,100.89,Mainly Clear,0.9503716472600949
7/3/2012 11:00,24.1,12.0,47,9,48.3,100.85,Mostly Cloudy,1.1564116694795585
7/3/2012 12:00,25.2,12.3,45,11,48.3,100.79,Mostly Cloudy,0.9403088027499734
7/3/2012 13:00,26.9,13.1,43,13,48.3,100.74,Cloudy,0.945948721343493
7/3/2012 14:00,27.3,13.0,41,9,48.3,100.66,Cloudy,0.9526517417795389
7/3/2012 15:00,26.9,12.3,40,15,48.3,100.58,Cloudy,0.9557861893691004
7/3/2012 16:00,27.4,11.4,37,15,48.3,100.55,Cloudy,0.9681708609999456
7/3/2012 17:00,27.5,10.4,34,15,48.3,100.49,Cloudy,0.982139433707547
7/3/2012 18:00,27.0,10.7,36,11,48.3,100.44,Cloudy,0.9727175933044229
7/3/2012 19:00,25.3,14.4,51,17,48.3,100.41,Cloudy,0.9364696353166625
7/3/2012 20:00,24.8,12.8,47,17,48.3,100.36,Cloudy,0.9410615734008285
7/3/2012 21:00,25.0,13.9,50,13,25.0,100.37,Rain Showers,0.9531450949665895
7/3/2012 22:00,21.5,14.8,66,17,25.0,100.35,Rain Showers,1.3609650348903108
7/3/2012 23:00,20.8,14.8,69,0,25.0,100.32,Rain Showers,1.7056195602958193
7/4/2012 0:00,19.8,15.9,78,6,16.1,100.34,Rain,1.733057876440812
7/4/2012 1:00,19.4,16.6,84,6,25.0,100.25,Cloudy,1.7483983249034645
7/4/2012 2:00,19.3,16.5,84,13,25.0,100.21,Cloudy,1.7483983249034645
7/4/2012 3:00,19.3,16.4,83,13,25.0,100.19,Cloudy,1.7459700090483987
7/4/2012 4:00,19.9,16.9,83,13,19.3,100.21,Cloudy,1.7459700090483987
7/4/2012 5:00,20.3,17.1,82,15,12.9,100.25,Cloudy,1.7434626346010758
7/4/2012 6:00,20.5,17.3,82,15,16.1,100.24,Cloudy,1.7434626346010758
7/4/2012 7:00,21.1,17.7,81,15,16.1,100.24,Cloudy,1.7408722768108806
7/4/2012 8:00,22.3,18.1,77,17,16.1,100.23,Cloudy,1.7302348458823897
7/4/2012 9:00,23.2,18.4,74,17,16.1,100.2,Mostly Cloudy,1.7209839103698092
7/4/2012 10:00,24.6,18.9,71,19,19.3,100.16,Cloudy,1.712430565280306
7/4/2012 11:00,24.8,18.9,70,24,19.3,100.13,Cloudy,1.7091525423728813
7/4/2012 12:00,26.1,20.2,70,24,19.3,100.14,Cloudy,1.7091525423728813
7/4/2012 13:00,27.0,20.1,66,24,19.3,100.07,Mostly Cloudy,1.1750318113220146
7/4/2012 14:00,27.5,19.9,63,24,19.3,100.04,Mostly Cloudy,1.0503413361747098
7/4/2012 15:00,28.4,19.9,60,19,19.3,99.98,Mostly Cloudy,0.9999888186332162
7/4/2012 16:00,26.7,20.1,67,15,24.1,99.84,Thunderstorms,1.2523873978786297
7/4/2012 17:00,21.6,20.0,91,11,24.1,100.02,"Thunderstorms,Rain Showers",1.762772169746578
7/4/2012 18:00,23.4,20.7,85,9,24.1,100.06,Mainly Clear,1.7507512632600475
7/4/2012 19:00,23.3,20.2,83,6,24.1,100.09,Mainly Clear,1.7459700090483987
7/4/2012 20:00,21.8,19.1,85,9,24.1,100.15,Mainly Clear,1.7507512632600475
7/4/2012 21:00,21.2,18.3,84,9,25.0,100.25,Mainly Clear,1.7483983249034645
7/4/2012 22:00,21.1,16.9,77,17,25.0,100.31,Clear,1.7302348458823897
7/4/2012 23:00,19.1,15.9,82,11,25.0,100.37,Clear,1.7434626346010758
7/5/2012 0:00,17.9,14.8,82,9,25.0,100.38,Clear,1.7434626346010758
7/5/2012 1:00,17.2,14.8,86,6,25.0,100.45,Mainly Clear,1.7530322801745157
7/5/2012 2:00,16.6,14.6,88,11,25.0,100.43,Mainly Clear,1.7571931537828946
7/5/2012 3:00,16.8,14.6,87,11,25.0,100.46,Mainly Clear,1.755244623603565
7/5/2012 4:00,15.8,14.1,90,7,24.1,100.47,Mainly Clear,1.7609487211792867
7/5/2012 5:00,16.1,14.5,90,9,24.1,100.56,Mainly Clear,1.7609487211792867
7/5/2012 6:00,18.3,14.5,79,13,24.1,100.62,Mainly Clear,1.7357508862871274
7/5/2012 7:00,19.4,14.7,74,17,24.1,100.68,Mainly Clear,1.7209839103698092
7/5/2012 8:00,20.4,15.0,71,7,24.1,100.73,Mainly Clear,1.712430565280306
7/5/2012 9:00,21.1,15.3,69,6,48.3,100.74,Mostly Cloudy,1.505906587803386
7/5/2012 10:00,22.0,15.6,67,9,48.3,100.72,Mostly Cloudy,1.2523873978786297
7/5/2012 11:00,23.3,16.3,65,7,48.3,100.69,Cloudy,1.1136122370198804
7/5/2012 12:00,23.3,16.3,65,6,48.3,100.68,Cloudy,1.1136122370198804
7/5/2012 13:00,24.3,16.8,63,9,48.3,100.66,Cloudy,1.0503413361747098
7/5/2012 14:00,24.5,16.1,59,11,48.3,100.66,Mostly Cloudy,1.6941216883649812
7/5/2012 15:00,24.3,16.7,63,11,48.3,100.69,Mostly Cloudy,1.0503413361747098
7/5/2012 16:00,24.8,17.9,66,17,48.3,100.66,Mostly Cloudy,1.1750318113220146
7/5/2012 17:00,25.8,17.5,60,17,48.3,100.65,Mainly Clear,0.9999888186332162
7/5/2012 18:00,25.0,17.2,62,19,48.3,100.64,Mainly Clear,1.0305025778855286
7/5/2012 19:00,24.5,17.4,65,15,48.3,100.65,Mainly Clear,1.1136122370198804
7/5/2012 20:00,23.4,17.2,68,13,48.3,100.69,Clear,1.3579319565140906
7/5/2012 21:00,23.1,17.1,69,9,25.0,100.76,Clear,1.505906587803386
7/5/2012 22:00,21.9,17.6,77,9,25.0,100.76,Clear,1.7302348458823897
7/5/2012 23:00,20.8,17.6,82,7,25.0,100.74,Clear,1.7434626346010758
7/6/2012 0:00,20.5,17.2,81,7,25.0,100.73,Mainly Clear,1.7408722768108806
7/6/2012 1:00,20.7,17.4,81,0,25.0,100.75,Mainly Clear,1.7408722768108806
7/6/2012 2:00,19.9,16.9,83,4,25.0,100.74,Clear,1.7459700090483987
7/6/2012 3:00,19.1,16.1,83,7,25.0,100.76,Clear,1.7459700090483987
7/6/2012 4:00,19.3,16.2,82,7,25.0,100.75,Clear,1.7434626346010758
7/6/2012 5:00,19.3,16.3,83,6,48.3,100.78,Mainly Clear,1.7459700090483987
7/6/2012 6:00,20.7,17.5,82,9,48.3,100.79,Mostly Cloudy,1.7434626346010758
7/6/2012 7:00,20.6,16.8,79,13,48.3,100.79,Mostly Cloudy,1.7357508862871274
7/6/2012 8:00,22.1,16.7,71,15,48.3,100.76,Mostly Cloudy,1.712430565280306
7/6/2012 9:00,23.8,16.9,65,19,48.3,100.69,Cloudy,1.1136122370198804
7/6/2012 10:00,25.7,18.3,64,15,48.3,100.65,Cloudy,1.0754917436180753
7/6/2012 11:00,26.9,18.1,59,15,48.3,100.61,Cloudy,0.987994578192502
7/6/2012 12:00,27.7,17.6,54,22,48.3,100.52,Cloudy,1.0020584484680717
7/6/2012 13:00,28.5,18.5,55,22,24.1,100.5,Cloudy,0.9531525027978544
7/6/2012 14:00,29.0,18.5,53,22,24.1,100.45,Cloudy,0.9534347107468744
7/6/2012 15:00,29.6,19.7,55,20,24.1,100.47,Cloudy,0.9591298515819411
7/6/2012 16:00,30.5,20.4,55,20,24.1,100.41,Cloudy,0.9664869993590789
7/6/2012 17:00,29.5,20.2,57,15,24.1,100.38,Cloudy,0.9684584060262452
7/6/2012 18:00,29.7,20.8,59,11,24.1,100.33,Cloudy,0.987994578192502
7/6/2012 19:00,29.1,20.9,61,15,24.1,100.36,Cloudy,1.0147471754365818
7/6/2012 20:00,28.7,21.2,64,13,24.1,100.33,Cloudy,1.0754917436180753
7/6/2012 21:00,28.3,21.7,67,7,25.0,100.36,Cloudy,1.2523873978786297
7/6/2012 22:00,26.8,21.9,75,9,25.0,100.39,Cloudy,1.7241591468416737
7/6/2012 23:00,26.3,21.0,73,11,25.0,100.46,Rain Showers,1.718324698506683
7/7/2012 0:00,25.8,20.8,74,6,25.0,100.44,Cloudy,1.7209839103698092
7/7/2012 1:00,25.1,17.2,62,11,25.0,100.4,Cloudy,1.7162748278774922
7/7/2012 2:00,24.0,16.3,62,7,25.0,100.33,Cloudy,1.0305025778855286
7/7/2012 3:00,24.1,16.0,61,9,25.0,100.38,Cloudy,1.0147471754365818
7/7/2012 4:00,23.9,16.0,61,13,25.0,100.47,Cloudy,1.6845723261254313
7/7/2012 5:00,22.2,17.0,72,11,25.0,100.52,Rain,1.7154802667147235
7/7/2012 6:00,23.2,17.4,70,9,24.1,100.45,Cloudy,1.7091525423728813
7/7/2012 7:00,23.5,17.1,67,19,24.1,100.42,Mostly Cloudy,1.2523873978786297
7/7/2012 8:00,23.3,16.3,65,17,24.1,100.4,Cloudy,1.1136122370198804
7/7/2012 9:00,23.1,16.1,65,15,24.1,100.42,Mostly Cloudy,1.1136122370198804
7/7/2012 10:00,24.1,16.0,61,19,24.1,100.43,Mostly Cloudy,1.0147471754365818
7/7/2012 11:00,24.4,16.2,60,17,24.1,100.44,Mostly Cloudy,0.9999888186332162
7/7/2012 12:00,26.5,16.5,54,22,24.1,100.42,Mainly Clear,0.9472289954341503
7/7/2012 13:00,27.8,16.4,50,20,48.3,100.37,Mainly Clear,0.9916110466209785
7/7/2012 14:00,28.8,16.5,47,17,48.3,100.32,Mainly Clear,0.9427805900125842
7/7/2012 15:00,28.9,16.4,47,22,48.3,100.28,Mostly Cloudy,0.9382080756988207
7/7/2012 16:00,29.1,15.7,44,17,48.3,100.28,Mostly Cloudy,0.9432590533134183
7/7/2012 17:00,28.7,14.5,42,20,48.3,100.28,Mainly Clear,0.949155270668292
7/7/2012 18:00,27.7,15.3,47,15,48.3,100.33,Mainly Clear,0.9378566217709746
7/7/2012 19:00,26.4,15.1,50,13,48.3,100.4,Mostly Cloudy,0.9341728165528286
7/7/2012 20:00,25.5,14.5,51,9,48.3,100.43,Mostly Cloudy,0.9366793794351466
7/7/2012 21:00,24.5,14.7,54,11,25.0,100.48,Mostly Cloudy,1.3641017121561305
7/7/2012 22:00,23.2,15.1,60,9,25.0,100.49,Mainly Clear,1.1007966348098783
7/7/2012 23:00,23.8,13.9,54,17,25.0,100.53,Mainly Clear,1.7061850599708008
7/8/2012 0:00,22.0,13.6,59,17,25.0,100.56,Mainly Clear,1.3130325063750543
7/8/2012 1:00,21.0,12.9,60,15,25.0,100.59,Mainly Clear,1.7715749840600787
7/8/2012 2:00,20.0,12.7,63,11,25.0,100.62,Mainly Clear,1.0599329791035164
7/8/2012 3:00,17.7,11.7,68,7,25.0,100.64,Mainly Clear,1.705628735345824
7/8/2012 4:00,16.3,12.2,77,7,24.1,100.7,Clear,1.7302348458823897
7/8/2012 5:00,16.6,13.1,80,9,24.1,100.76,Mainly Clear,1.7383226557949913
7/8/2012 6:00,18.6,12.5,68,15,48.3,100.8,Mainly Clear,1.3579319565140906
7/8/2012 7:00,18.8,12.2,65,20,48.3,100.83,Mainly Clear,1.1324307784795238
7/8/2012 8:00,19.3,6.5,43,22,48.3,100.84,Mainly Clear,0.9553987168256117
7/8/2012 9:00,20.6,8.5,46,20,48.3,100.81,Clear,0.9702054222915935
7/8/2012 10:00,21.6,7.8,41,22,48.3,100.82,Clear,0.9526517417795389
7/8/2012 11:00,22.0,7.1,38,19,48.3,100.81,Clear,0.9638948809679477
7/8/2012 12:00,23.0,7.8,38,24,48.3,100.79,Clear,0.9638948809679477
7/8/2012 13:00,23.9,7.7,35,17,48.3,100.76,Mainly Clear,0.9763179605360829
7/8/2012 14:00,24.5,9.6,39,17,48.3,100.72,Mainly Clear,0.9601509387055865
7/8/2012 15:00,24.3,8.5,37,15,48.3,100.72,Mainly Clear,0.9681708609999456
7/8/2012 16:00,24.5,7.7,34,24,48.3,100.72,Mainly Clear,0.9856293848992304
7/8/2012 17:00,24.2,7.8,35,26,48.3,100.7,Mainly Clear,0.9763179605360829
7/8/2012 18:00,23.6,8.3,38,20,48.3,100.69,Mainly Clear,0.9638948809679477
7/8/2012 19:00,22.2,8.5,41,19,48.3,100.72,Mainly Clear,0.9526517417795389
7/8/2012 20:00,20.3,8.4,46,11,48.3,100.74,Clear,0.9497166715191325
7/8/2012 21:00,19.8,8.0,46,9,25.0,100.8,Clear,1.0242561028476094
7/8/2012 22:00,17.9,8.1,53,7,25.0,100.81,Clear,1.694353298642918
7/8/2012 23:00,17.1,8.4,57,9,25.0,100.85,Clear,1.6864311249274726
7/9/2012 0:00,16.0,8.9,63,13,25.0,100.83,Clear,1.7634797904741812
7/9/2012 1:00,14.4,9.0,70,9,25.0,100.84,Clear,1.713898516596738
7/9/2012 2:00,14.9,9.1,68,9,25.0,100.86,Clear,1.7018006700167505
7/9/2012 3:00,13.2,9.0,76,9,25.0,100.88,Mainly Clear,1.7272721454173066
7/9/2012 4:00,13.5,8.9,74,9,25.0,100.91,Mainly Clear,1.7209839103698092
7/9/2012 5:00,12.8,9.4,80,7,24.1,100.98,Mainly Clear,1.7383226557949913
7/9/2012 6:00,16.1,9.6,65,13,48.3,101.07,Mainly Clear,1.1136122370198804
7/9/2012 7:00,17.8,8.7,55,11,48.3,101.1,Clear,1.0375519245620213
7/9/2012 8:00,18.2,8.1,52,11,48.3,101.13,Clear,0.9971158712596074
7/9/2012 9:00,19.2,7.9,48,9,48.3,101.13,Clear,0.9533952549643377
7/9/2012 10:00,19.9,7.5,45,17,48.3,101.12,Clear,0.9501588037862777
7/9/2012 11:00,21.4,7.9,42,20,48.3,101.09,Clear,0.949155270668292
7/9/2012 12:00,22.2,7.1,38,13,48.3,101.07,Clear,0.9638948809679477
7/9/2012 13:00,23.1,7.9,38,19,48.3,101.04,Mainly Clear,0.9638948809679477
7/9/2012 14:00,24.3,6.5,32,22,48.3,101.01,Mainly Clear,0.9920689044371626
7/9/2012 15:00,24.4,5.3,29,17,48.3,101.0,Mainly Clear,1.5
7/9/2012 16:00,24.5,4.7,28,15,48.3,100.99,Mainly Clear,1.5
7/9/2012 17:00,24.2,5.3,29,11,48.3,100.98,Mainly Clear,1.5
7/9/2012 18:00,23.6,6.9,34,13,48.3,101.0,Mainly Clear,1.004363387821531
7/9/2012 19:00,22.3,7.2,38,13,48.3,101.01,Mainly Clear,0.9638948809679477
7/9/2012 20:00,19.5,7.9,47,7,48.3,101.02,Clear,0.9595476908524376
7/9/2012 21:00,19.9,8.1,46,6,25.0,101.05,Mainly Clear,0.9893828009118384
7/9/2012 22:00,17.6,9.0,57,4,25.0,101.04,Clear,1.7033262270895788
7/9/2012 23:00,16.3,9.6,64,6,25.0,101.05,Mainly Clear,1.7327122972409865
7/10/2012 0:00,18.2,11.2,64,7,25.0,101.04,Clear,1.7122524682647497
7/10/2012 1:00,18.7,9.4,55,13,25.0,101.04,Clear,0.9769891887967116
7/10/2012 2:00,17.0,9.8,63,7,25.0,101.06,Clear,1.3444693073780933
7/10/2012 3:00,16.6,11.0,69,9,25.0,101.06,Clear,1.7056195602958193
7/10/2012 4:00,16.4,12.4,77,11,24.1,101.11,Clear,1.7302348458823897
7/10/2012 5:00,16.6,11.7,73,9,48.3,101.15,Mainly Clear,1.718324698506683
7/10/2012 6:00,17.1,12.3,73,9,48.3,101.19,Mainly Clear,1.718324698506683
7/10/2012 7:00,19.3,11.8,62,9,48.3,101.22,Mainly Clear,1.0410172099116695
7/10/2012 8:00,20.4,13.7,65,15,48.3,101.22,Mainly Clear,1.1136122370198804
7/10/2012 9:00,22.3,12.9,55,9,48.3,101.24,Mainly Clear,0.9552126611954977
7/10/2012 10:00,23.6,11.6,47,9,48.3,101.23,Mainly Clear,0.9465100535124586
7/10/2012 11:00,25.0,10.7,41,15,48.3,101.21,Mainly Clear,0.9526517417795389
7/10/2012 12:00,25.9,9.4,35,26,48.3,101.15,Mainly Clear,0.9763179605360829
7/10/2012 13:00,25.8,8.5,33,22,48.3,101.14,Mainly Clear,0.986478005269463
7/10/2012 14:00,27.0,10.7,36,19,48.3,101.11,Mostly Cloudy,0.9727175933044229
7/10/2012 15:00,26.5,11.2,38,19,48.3,101.09,Mainly Clear,0.9638948809679477
7/10/2012 16:00,26.1,10.6,38,13,48.3,101.09,Mostly Cloudy,0.9638948809679477
7/10/2012 17:00,26.5,10.3,36,13,48.3,101.1,Mainly Clear,1.0018545518068744
7/10/2012 18:00,25.6,9.1,35,19,48.3,101.13,Mainly Clear,0.9763179605360829
7/10/2012 19:00,23.9,10.1,42,13,48.3,101.18,Mainly Clear,0.949155270668292
7/10/2012 20:00,21.5,9.5,46,11,48.3,101.26,Clear,1.0468059407176653
7/10/2012 21:00,21.9,7.7,40,11,25.0,101.34,Mainly Clear,1.0455889054740761
7/10/2012 22:00,20.2,6.6,41,7,25.0,101.37,Clear,1.3275971397172954
7/10/2012 23:00,17.7,7.8,52,9,25.0,101.43,Clear,1.1659674918555383
7/11/2012 0:00,18.5,6.5,45,7,25.0,101.45,Clear,1.0611029741817768
7/11/2012 1:00,15.5,8.2,62,0,25.0,101.5,Clear,1.2929368921573225
7/11/2012 2:00,14.9,8.0,63,4,25.0,101.52,Clear,1.6954462131786763
7/11/2012 3:00,15.1,6.0,54,4,25.0,101.55,Clear,1.060221246494111
7/11/2012 4:00,13.5,8.6,72,4,24.1,101.6,Clear,1.7307315061721447
7/11/2012 5:00,13.1,8.7,75,4,48.3,101.66,Clear,1.7241591468416737
7/11/2012 6:00,15.4,9.9,70,6,48.3,101.71,Clear,1.7091525423728813
7/11/2012 7:00,18.2,9.6,57,4,48.3,101.73,Clear,1.0541369772915765
7/11/2012 8:00,20.4,8.9,48,4,48.3,101.75,Clear,0.9497837005432469
7/11/2012 9:00,22.5,9.5,44,9,48.3,101.73,Clear,0.9505561959493956
7/11/2012 10:00,23.9,9.2,39,7,48.3,101.74,Mainly Clear,0.9601509387055865
7/11/2012 11:00,24.9,10.1,39,9,48.3,101.72,Mainly Clear,0.9601509387055865
7/11/2012 12:00,26.4,8.7,33,13,48.3,101.69,Mainly Clear,0.986478005269463
7/11/2012 13:00,26.7,9.3,33,15,48.3,101.66,Mainly Clear,0.986478005269463
7/11/2012 14:00,27.4,9.4,32,13,48.3,101.61,Mostly Cloudy,0.9920689044371626
7/11/2012 15:00,27.8,8.9,31,19,48.3,101.59,Mostly Cloudy,1.0000000000000002
7/11/2012 16:00,27.6,8.9,31,20,48.3,101.54,Mostly Cloudy,1.0000000000000002
7/11/2012 17:00,27.5,10.1,34,19,48.3,101.5,Mostly Cloudy,0.995402733094751
7/11/2012 18:00,27.3,8.0,30,19,48.3,101.48,Mostly Cloudy,1.5
7/11/2012 19:00,26.5,8.8,33,13,24.1,101.5,Mostly Cloudy,0.986478005269463
7/11/2012 20:00,25.6,10.5,39,9,25.0,101.49,Mainly Clear,0.9601509387055865
7/11/2012 21:00,22.5,11.8,51,13,25.0,101.53,Mainly Clear,0.968348765516786
7/11/2012 22:00,21.8,11.2,51,9,25.0,101.5,Mainly Clear,0.9852874902214989
7/11/2012 23:00,22.8,11.8,50,17,25.0,101.5,Clear,1.020847596963959
7/12/2012 0:00,21.8,12.8,57,11,25.0,101.5,Clear,1.20198088176499
7/12/2012 1:00,18.5,13.3,72,6,25.0,101.5,Clear,1.7154802667147235
7/12/2012 2:00,20.6,12.9,61,6,25.0,101.49,Clear,1.0383432836937105
7/12/2012 3:00,20.6,12.5,60,11,25.0,101.5,Clear,1.0291688548594469
7/12/2012 4:00,20.3,12.6,61,7,24.1,101.52,Mainly Clear,1.7105916914136094
7/12/2012 5:00,17.7,12.8,73,9,48.3,101.56,Mainly Clear,1.718324698506683
7/12/2012 6:00,20.2,12.2,60,17,48.3,101.57,Mainly Clear,1.7734770219198321
7/12/2012 7:00,21.6,12.6,57,15,48.3,101.58,Mainly Clear,1.488481742032223
7/12/2012 8:00,22.6,13.2,55,13,48.3,101.59,Mainly Clear,0.9671057041417029
7/12/2012 9:00,24.2,16.1,61,15,48.3,101.56,Mainly Clear,1.770029130696425
7/12/2012 10:00,26.0,14.8,50,20,48.3,101.57,Mainly Clear,0.9459487213434932
7/12/2012 11:00,27.6,13.5,42,22,48.3,101.54,Mainly Clear,0.949155270668292
7/12/2012 12:00,29.0,13.9,40,22,48.3,101.5,Mainly Clear,0.9557861893691004
7/12/2012 13:00,29.6,13.6,38,24,48.3,101.46,Mainly Clear,0.9638948809679477
7/12/2012 14:00,30.8,13.5,35,24,48.3,101.44,Mostly Cloudy,0.9763179605360829
7/12/2012 15:00,30.6,12.9,34,24,48.3,101.38,Mostly Cloudy,0.982139433707547
7/12/2012 16:00,30.4,13.0,34,24,48.3,101.37,Mostly Cloudy,0.982139433707547
7/12/2012 17:00,29.8,13.1,36,19,48.3,101.33,Mostly Cloudy,0.9727175933044229
7/12/2012 18:00,29.1,13.6,39,13,48.3,101.32,Cloudy,0.9601509387055865
7/12/2012 19:00,28.2,14.0,42,11,24.1,101.34,Cloudy,0.949155270668292
7/12/2012 20:00,26.9,14.6,47,7,25.0,101.36,Mostly Cloudy,0.9399433686740771
7/12/2012 21:00,25.7,15.0,52,6,25.0,101.41,Mainly Clear,0.9640844114072097
7/12/2012 22:00,24.4,17.1,64,9,25.0,101.4,Mainly Clear,1.0754917436180753
7/12/2012 23:00,23.5,16.1,63,11,25.0,101.41,Mainly Clear,1.0503413361747098
7/13/2012 0:00,21.8,16.7,73,6,25.0,101.45,Mainly Clear,1.718324698506683
7/13/2012 1:00,22.6,15.5,64,7,25.0,101.44,Mainly Clear,1.1307696154376627
7/13/2012 2:00,22.4,14.6,61,9,25.0,101.37,Mainly Clear,1.0147471754365818
7/13/2012 3:00,21.1,14.7,67,11,25.0,101.45,Mainly Clear,1.6094963393522295
7/13/2012 4:00,20.8,14.6,68,13,24.1,101.49,Clear,1.7417804628981284
7/13/2012 5:00,20.7,14.7,68,15,24.1,101.56,Mainly Clear,1.7018006700167505
7/13/2012 6:00,21.7,15.7,69,15,24.1,101.57,Mainly Clear,1.505906587803386
7/13/2012 7:00,22.5,15.1,63,15,48.3,101.59,Mostly Cloudy,1.284675154877757
7/13/2012 8:00,24.4,15.1,56,13,24.1,101.61,Mostly Cloudy,1.7170238666590643
7/13/2012 9:00,25.9,16.5,56,15,48.3,101.6,Mostly Cloudy,0.9632152803284089
7/13/2012 10:00,27.2,17.2,54,15,48.3,101.59,Mostly Cloudy,0.9472289954341503
7/13/2012 11:00,29.0,16.1,46,17,48.3,101.57,Mainly Clear,0.9384328601022601
7/13/2012 12:00,30.1,15.2,40,19,48.3,101.54,Mainly Clear,1.6950892053490871
7/13/2012 13:00,31.2,14.6,37,20,48.3,101.51,Mainly Clear,0.9681708609999456
7/13/2012 14:00,32.1,10.2,26,20,48.3,101.49,Mainly Clear,1.5
7/13/2012 15:00,31.9,12.3,30,22,48.3,101.46,Clear,1.5
7/13/2012 16:00,31.6,11.8,30,22,48.3,101.4,Clear,1.5
7/13/2012 17:00,31.4,13.8,34,20,48.3,101.36,Mainly Clear,0.982139433707547
7/13/2012 18:00,30.9,14.5,37,13,48.3,101.33,Clear,0.9681708609999456
7/13/2012 19:00,29.9,15.4,41,11,24.1,101.33,Mainly Clear,0.9526517417795389
7/13/2012 20:00,28.5,15.8,46,11,25.0,101.35,Mainly Clear,0.9384328601022601
7/13/2012 21:00,27.4,16.4,51,11,25.0,101.38,Mainly Clear,0.940853964018437
7/13/2012 22:00,26.6,16.4,54,9,25.0,101.37,Clear,0.9780841847074804
7/13/2012 23:00,26.0,16.2,55,7,25.0,101.38,Clear,0.9552941550795593
7/14/2012 0:00,25.2,16.6,59,11,25.0,101.38,Clear,0.987994578192502
7/14/2012 1:00,25.0,15.4,55,15,25.0,101.37,Clear,1.3107676959471466
7/14/2012 2:00,24.2,15.6,59,11,25.0,101.34,Clear,1.7310876511011428
7/14/2012 3:00,23.3,15.3,61,13,25.0,101.35,Clear,1.140172320294774
7/14/2012 4:00,23.1,15.4,62,15,24.1,101.4,Clear,1.0305025778855286
7/14/2012 5:00,23.0,16.7,68,13,24.1,101.45,Mainly Clear,1.7677736997540192
7/14/2012 6:00,23.4,16.8,66,15,24.1,101.47,Mainly Clear,1.2187695358299047
7/14/2012 7:00,24.3,17.0,64,13,24.1,101.49,Mainly Clear,1.0754917436180753
7/14/2012 8:00,25.7,16.7,58,17,24.1,101.49,Mainly Clear,1.2814411313248222
7/14/2012 9:00,27.3,17.0,53,15,48.3,101.45,Mainly Clear,0.9539342996011777
7/14/2012 10:00,30.2,17.7,47,17,48.3,101.46,Mainly Clear,0.9374934897392915
7/14/2012 11:00,29.6,19.8,56,17,48.3,101.44,Mainly Clear,0.9959440684773622
7/14/2012 12:00,31.7,19.7,49,22,48.3,101.41,Mainly Clear,1.699035822142222
7/14/2012 13:00,31.9,19.3,47,19,48.3,101.37,Mainly Clear,0.9365197406993433
7/14/2012 14:00,32.7,15.3,35,28,48.3,101.35,Mainly Clear,1.7259216096348244
7/14/2012 15:00,33.0,16.8,38,22,48.3,101.31,Mainly Clear,1.1623924507354948
7/14/2012 16:00,32.9,15.3,35,24,48.3,101.26,Mainly Clear,1.0001762572723967
7/14/2012 17:00,32.5,16.5,38,19,48.3,101.22,Mainly Clear,0.9638948809679477
7/14/2012 18:00,31.5,18.4,46,15,24.1,101.19,Mainly Clear,0.9422647467689516
7/14/2012 19:00,30.8,18.2,47,11,24.1,101.21,Mainly Clear,0.9460186062207915
7/14/2012 20:00,29.8,17.7,48,9,25.0,101.22,Mainly Clear,1.7186191191495699
7/14/2012 21:00,28.3,18.8,56,9,25.0,101.28,Clear,1.6965839484221694
7/14/2012 22:00,27.8,18.3,56,11,25.0,101.29,Clear,0.9753636773141644
7/14/2012 23:00,26.0,19.2,66,9,25.0,101.31,Clear,1.1750318113220146
7/15/2012 0:00,25.5,18.9,67,7,25.0,101.32,Clear,1.2523873978786297
7/15/2012 1:00,25.2,18.7,67,9,25.0,101.29,Clear,1.2523873978786297
7/15/2012 2:00,24.5,18.9,71,9,25.0,101.28,Mainly Clear,1.712430565280306
7/15/2012 3:00,24.1,18.6,71,11,25.0,101.26,Clear,1.712430565280306
7/15/2012 4:00,21.6,17.8,79,7,24.1,101.24,Mainly Clear,1.7357508862871274
7/15/2012 5:00,23.2,18.4,74,9,24.1,101.26,Mostly Cloudy,1.7209839103698092
7/15/2012 6:00,23.9,18.4,71,9,24.1,101.23,Cloudy,1.712430565280306
7/15/2012 7:00,24.5,18.3,68,9,24.1,101.24,Cloudy,1.3579319565140906
7/15/2012 8:00,25.8,17.9,62,15,24.1,101.24,Cloudy,1.0305025778855286
7/15/2012 9:00,26.5,18.8,63,13,24.1,101.21,Mostly Cloudy,1.0503413361747098
7/15/2012 10:00,28.1,19.2,58,13,24.1,101.17,Cloudy,0.9971861186773137
7/15/2012 11:00,29.3,20.2,58,15,48.3,101.14,Cloudy,1.694577913040372
7/15/2012 12:00,29.4,19.7,56,9,48.3,101.06,Cloudy,0.9607879911134949
7/15/2012 13:00,30.5,19.2,51,15,24.1,100.98,Cloudy,0.9436834106070376
7/15/2012 14:00,30.2,20.3,55,17,24.1,100.92,Cloudy,0.965455557172386
7/15/2012 15:00,22.7,20.9,90,24,12.9,100.92,"Thunderstorms,Rain Showers",1.7609487211792867
7/15/2012 16:00,24.0,20.5,81,0,24.1,100.78,Cloudy,1.7408722768108806
7/15/2012 17:00,23.5,20.6,84,11,24.1,100.78,Cloudy,1.7483983249034645
7/15/2012 18:00,24.4,20.5,79,0,25.0,100.79,Cloudy,1.7357508862871274
7/15/2012 19:00,23.8,21.1,85,20,25.0,100.73,Mostly Cloudy,1.7507512632600475
7/15/2012 20:00,23.2,19.5,80,6,25.0,100.73,Mostly Cloudy,1.7383226557949913
7/15/2012 21:00,23.0,19.0,78,9,25.0,100.72,Mainly Clear,1.733057876440812
7/15/2012 22:00,22.2,18.9,82,7,25.0,100.67,Mainly Clear,1.7434626346010758
7/15/2012 23:00,21.8,19.1,85,6,25.0,100.67,Mainly Clear,1.7507512632600475
7/16/2012 0:00,21.2,19.0,87,6,25.0,100.64,Mostly Cloudy,1.755244623603565
7/16/2012 1:00,21.6,19.4,87,0,25.0,100.62,Thunderstorms,1.755244623603565
7/16/2012 2:00,20.4,18.6,89,6,19.3,100.52,Rain Showers,1.7590894054480448
7/16/2012 3:00,20.8,19.2,91,7,25.0,100.52,Cloudy,1.762772169746578
7/16/2012 4:00,20.4,19.2,93,0,19.3,100.52,Mostly Cloudy,1.7663155381997573
7/16/2012 5:00,20.3,19.6,96,4,9.7,100.55,Fog,1.7699087340766253
7/16/2012 6:00,21.8,19.8,88,6,19.3,100.55,Mainly Clear,1.7571931537828946
7/16/2012 7:00,23.0,19.8,82,6,24.1,100.57,Mostly Cloudy,1.7434626346010758
7/16/2012 8:00,24.5,20.8,80,7,24.1,100.57,Mostly Cloudy,1.7383226557949913
7/16/2012 9:00,25.7,20.8,74,9,24.1,100.56,Mostly Cloudy,1.7209839103698092
7/16/2012 10:00,26.8,20.9,70,9,24.1,100.55,Mostly Cloudy,1.7091525423728813
7/16/2012 11:00,27.4,20.4,66,13,24.1,100.54,Mostly Cloudy,1.1750318113220146
7/16/2012 12:00,27.4,20.3,65,11,24.1,100.52,Mostly Cloudy,1.1136122370198804
7/16/2012 13:00,28.1,19.9,61,15,24.1,100.45,Mostly Cloudy,1.0147471754365818
7/16/2012 14:00,28.1,20.7,64,13,24.1,100.43,Cloudy,1.0754917436180753
7/16/2012 15:00,28.6,20.0,60,11,24.1,100.39,Cloudy,0.9999888186332162
7/16/2012 16:00,28.8,17.5,50,15,24.1,100.35,Mostly Cloudy,0.9410703922012216
7/16/2012 17:00,28.7,16.1,46,19,24.1,100.35,Mostly Cloudy,0.9384328601022601
7/16/2012 18:00,27.6,16.6,51,15,24.1,100.35,Mostly Cloudy,0.9421184107188385
7/16/2012 19:00,26.5,17.2,57,4,24.1,100.32,Mostly Cloudy,0.9684584060262452
7/16/2012 20:00,24.3,17.9,67,7,24.1,100.3,Mostly Cloudy,1.2523873978786297
7/16/2012 21:00,24.5,18.5,69,4,25.0,100.37,Cloudy,1.505906587803386
7/16/2012 22:00,24.2,17.7,67,9,25.0,100.38,Mostly Cloudy,1.2523873978786297
7/16/2012 23:00,23.5,18.0,71,6,25.0,100.36,Cloudy,1.712430565280306
7/17/2012 0:00,23.8,17.6,68,0,25.0,100.33,Cloudy,1.3579319565140906
7/17/2012 1:00,24.4,17.0,63,6,25.0,100.28,Mostly Cloudy,1.0503413361747098
7/17/2012 2:00,23.9,19.3,75,6,25.0,100.21,Cloudy,1.7241591468416737
7/17/2012 3:00,23.3,19.9,81,4,25.0,100.14,Cloudy,1.7408722768108806
7/17/2012 4:00,22.8,20.4,86,7,12.9,100.1,Rain,1.7530322801745157
7/17/2012 5:00,20.6,18.6,88,19,4.8,100.08,"Thunderstorms,Rain,Fog",1.7571931537828946
7/17/2012 6:00,19.6,18.5,93,15,3.2,100.01,"Thunderstorms,Moderate Rain Showers,Fog",1.7663155381997573
7/17/2012 7:00,19.9,19.1,95,9,6.4,99.99,"Drizzle,Fog",1.768832975474038
7/17/2012 8:00,21.5,20.4,93,19,12.9,99.87,Rain,1.7663155381997573
7/17/2012 9:00,22.9,21.3,91,17,9.7,99.84,"Thunderstorms,Rain Showers,Fog",1.762772169746578
7/17/2012 10:00,24.7,20.8,79,19,16.1,99.79,Mostly Cloudy,1.7357508862871274
7/17/2012 11:00,27.2,20.4,66,22,16.1,99.75,Mainly Clear,1.1750318113220146
7/17/2012 12:00,28.3,21.0,65,17,16.1,99.72,Cloudy,1.1136122370198804
7/17/2012 13:00,29.4,22.3,66,9,19.3,99.66,Cloudy,1.1750318113220146
7/17/2012 14:00,25.5,23.1,87,17,6.4,99.65,"Thunderstorms,Rain Showers",1.755244623603565
7/17/2012 15:00,25.8,22.0,80,4,24.1,99.69,Cloudy,1.7383226557949913
7/17/2012 16:00,23.8,21.7,88,24,16.1,99.81,"Thunderstorms,Rain Showers",1.7571931537828946
7/17/2012 17:00,25.9,22.2,80,7,24.1,99.83,Cloudy,1.7383226557949913
7/17/2012 18:00,26.0,20.4,71,19,24.1,99.84,Mostly Cloudy,1.712430565280306
7/17/2012 19:00,24.3,18.9,72,19,24.1,99.94,Mostly Cloudy,1.7154802667147235
7/17/2012 20:00,23.2,18.6,75,11,24.1,100.0,Mostly Cloudy,1.7241591468416737
7/17/2012 21:00,23.0,18.5,76,9,25.0,100.09,Mostly Cloudy,1.7272721454173066
7/17/2012 22:00,22.4,18.3,78,9,25.0,100.19,Mostly Cloudy,1.733057876440812
7/17/2012 23:00,21.6,18.1,80,13,25.0,100.25,Mostly Cloudy,1.7383226557949913
7/18/2012 0:00,20.7,17.6,82,9,25.0,100.28,Mostly Cloudy,1.7434626346010758
7/18/2012 1:00,21.3,17.6,79,11,25.0,100.37,Cloudy,1.7357508862871274
7/18/2012 2:00,19.9,17.6,87,7,25.0,100.35,Mostly Cloudy,1.755244623603565
7/18/2012 3:00,19.3,17.2,88,9,25.0,100.33,Clear,1.7571931537828946
7/18/2012 4:00,19.0,16.6,86,6,24.1,100.38,Mainly Clear,1.7530322801745157
7/18/2012 5:00,18.8,16.7,88,0,48.3,100.44,Mainly Clear,1.7571931537828946
7/18/2012 6:00,20.0,17.2,84,6,24.1,100.56,Mostly Cloudy,1.7483983249034645
7/18/2012 7:00,20.5,16.6,78,11,24.1,100.6,Mostly Cloudy,1.733057876440812
7/18/2012 8:00,21.1,14.4,66,22,24.1,100.66,Mainly Clear,1.1750318113220146
7/18/2012 9:00,22.6,13.1,55,24,24.1,100.73,Mainly Clear,0.9680633042885435
7/18/2012 10:00,22.3,10.3,47,26,24.1,100.77,Mainly Clear,0.9466269950164433
7/18/2012 11:00,22.6,10.9,48,24,48.3,100.8,Mainly Clear,0.9385957122055393
7/18/2012 12:00,23.2,10.2,44,24,48.3,100.8,Mainly Clear,0.9432590533134183
7/18/2012 13:00,23.9,10.6,43,24,48.3,100.83,Mostly Cloudy,0.945948721343493
7/18/2012 14:00,23.3,10.2,43,19,48.3,100.87,Mostly Cloudy,0.945948721343493
7/18/2012 15:00,24.0,10.1,41,26,48.3,100.83,Mainly Clear,0.9526517417795389
7/18/2012 16:00,24.1,9.6,40,24,48.3,100.77,Mainly Clear,0.9557861893691004
7/18/2012 17:00,23.5,9.8,42,15,48.3,100.78,Mainly Clear,0.949155270668292
7/18/2012 18:00,22.6,10.9,48,17,48.3,100.88,Mainly Clear,0.9525327980840935
7/18/2012 19:00,21.5,10.7,50,17,48.3,100.98,Mainly Clear,0.9417784878193002
7/18/2012 20:00,20.0,10.2,53,13,24.1,101.03,Mainly Clear,0.9697958241522223
7/18/2012 21:00,19.4,9.9,54,11,25.0,101.06,Clear,1.5819826984006855
7/18/2012 22:00,17.5,10.3,63,11,25.0,101.06,Clear,1.2569587962205835
7/18/2012 23:00,15.7,10.7,72,7,25.0,101.09,Clear,1.7154802667147235
7/19/2012 0:00,14.4,10.9,79,4,25.0,101.14,Clear,1.7357508862871274
7/19/2012 1:00,14.2,11.1,82,7,25.0,101.11,Clear,1.7434626346010758
7/19/2012 2:00,14.6,10.6,77,6,25.0,101.11,Clear,1.7302348458823897
7/19/2012 3:00,13.8,10.5,80,7,25.0,101.09,Clear,1.7383226557949913
7/19/2012 4:00,12.4,10.4,88,6,25.0,101.11,Mainly Clear,1.7571931537828946
7/19/2012 5:00,12.7,10.5,86,0,48.3,101.2,Mainly Clear,1.7530322801745157
7/19/2012 6:00,15.2,11.0,76,6,48.3,101.25,Mainly Clear,1.7272721454173066
7/19/2012 7:00,16.7,9.7,63,11,48.3,101.27,Clear,1.0870662652693825
7/19/2012 8:00,18.4,9.4,56,6,48.3,101.28,Mainly Clear,1.0035998803489699
7/19/2012 9:00,19.3,9.7,54,6,48.3,101.29,Mainly Clear,0.994376207581945
7/19/2012 10:00,19.2,8.9,51,9,48.3,101.3,Mostly Cloudy,0.9662531364033565
7/19/2012 11:00,20.3,10.2,52,7,48.3,101.33,Mostly Cloudy,1.0433388177707437
7/19/2012 12:00,21.5,10.0,48,6,48.3,101.29,Mostly Cloudy,0.964546806410423
7/19/2012 13:00,21.3,8.8,45,7,48.3,101.27,Mostly Cloudy,0.9739510551269773
7/19/2012 14:00,22.6,9.0,42,4,48.3,101.22,Mostly Cloudy,0.949155270668292
7/19/2012 15:00,22.9,9.0,41,13,48.3,101.21,Mostly Cloudy,0.9526517417795389
7/19/2012 16:00,22.8,7.9,38,11,48.3,101.21,Mainly Clear,0.9891067036714896
7/19/2012 17:00,22.9,8.2,39,15,48.3,101.21,Mainly Clear,0.9601509387055865
7/19/2012 18:00,21.9,8.0,41,15,48.3,101.2,Mainly Clear,0.9526517417795389
7/19/2012 19:00,21.4,8.5,44,11,48.3,101.25,Mainly Clear,0.979818300602143
7/19/2012 20:00,20.0,8.5,47,7,48.3,101.28,Mainly Clear,0.954160067733844
7/19/2012 21:00,19.2,9.2,52,13,25.0,101.34,Mainly Clear,1.7079115558234648
7/19/2012 22:00,18.7,9.9,57,11,25.0,101.39,Mainly Clear,1.0011958066689945
7/19/2012 23:00,19.5,8.1,48,15,25.0,101.41,Mainly Clear,0.9987422991666878
7/20/2012 0:00,17.2,9.3,60,11,25.0,101.45,Clear,1.1074229332369843
7/20/2012 1:00,16.0,9.5,65,15,25.0,101.48,Clear,1.2127207077015405
7/20/2012 2:00,14.6,9.8,73,11,25.0,101.46,Clear,1.718324698506683
7/20/2012 3:00,14.2,9.8,75,11,25.0,101.44,Clear,1.7652886637802827
7/20/2012 4:00,14.4,9.3,71,11,48.3,101.49,Clear,1.7230725583946906
7/20/2012 5:00,14.5,9.3,71,13,48.3,101.51,Clear,1.712430565280306
7/20/2012 6:00,15.5,9.6,68,13,48.3,101.55,Mainly Clear,1.7143164982303802
7/20/2012 7:00,17.1,9.9,63,9,48.3,101.56,Mainly Clear,1.194162594828445
7/20/2012 8:00,19.3,10.1,55,9,48.3,101.57,Mainly Clear,0.9813971713709381
7/20/2012 9:00,20.3,9.7,51,11,48.3,101.58,Mainly Clear,0.9684432042727947
7/20/2012 10:00,21.3,10.8,51,13,48.3,101.57,Mainly Clear,0.9713014955284917
7/20/2012 11:00,21.3,10.7,51,9,48.3,101.57,Mainly Clear,0.9563879648430519
7/20/2012 12:00,22.6,9.5,43,6,48.3,101.51,Mainly Clear,1.6941061791097742
7/20/2012 13:00,23.2,10.4,44,9,48.3,101.45,Mainly Clear,0.9536415935722137
7/20/2012 14:00,23.9,10.0,41,13,48.3,101.42,Mainly Clear,0.9667288467904102
7/20/2012 15:00,24.2,9.9,40,4,48.3,101.37,Mainly Clear,0.9557861893691004
7/20/2012 16:00,24.4,9.7,39,11,48.3,101.34,Mainly Clear,1.0074112660434218
7/20/2012 17:00,24.2,9.8,40,4,48.3,101.34,Mainly Clear,0.9557861893691004
7/20/2012 18:00,24.6,9.6,39,4,48.3,101.35,Mainly Clear,0.9601509387055865
7/20/2012 19:00,23.5,7.6,36,7,48.3,101.33,Mainly Clear,0.9727175933044229
7/20/2012 20:00,22.2,9.5,44,6,48.3,101.34,Mainly Clear,0.9530904952197777
7/20/2012 21:00,19.6,12.0,61,0,25.0,101.36,Clear,1.0652180108450364
7/20/2012 22:00,18.1,12.3,69,0,25.0,101.37,Clear,1.505906587803386
7/20/2012 23:00,18.2,12.3,68,0,25.0,101.36,Clear,1.3579319565140906
7/21/2012 0:00,17.2,12.6,74,4,25.0,101.4,Clear,1.7312880111493307
7/21/2012 1:00,17.2,12.4,73,0,25.0,101.4,Clear,1.718324698506683
7/21/2012 2:00,15.1,12.4,84,0,25.0,101.39,Clear,1.7483983249034645
7/21/2012 3:00,14.0,12.3,89,0,25.0,101.37,Clear,1.7590894054480448
7/21/2012 4:00,14.6,12.9,90,0,24.1,101.4,Clear,1.7609487211792867
7/21/2012 5:00,14.5,12.5,88,4,48.3,101.38,Clear,1.7571931537828946
7/21/2012 6:00,16.9,13.7,81,4,48.3,101.4,Clear,1.7408722768108806
7/21/2012 7:00,20.0,15.0,73,0,48.3,101.43,Clear,1.718324698506683
7/21/2012 8:00,21.1,14.2,65,0,48.3,101.47,Mainly Clear,1.5940211917484022
7/21/2012 9:00,22.3,14.5,61,7,48.3,101.44,Mainly Clear,1.0147471754365818
7/21/2012 10:00,23.2,14.1,57,9,48.3,101.4,Mainly Clear,1.0001905988512456
7/21/2012 11:00,24.7,13.7,50,9,48.3,101.39,Mainly Clear,0.944142891531574
7/21/2012 12:00,24.9,12.3,45,6,48.3,101.36,Mainly Clear,1.0667632668701073
7/21/2012 13:00,25.5,12.1,43,11,48.3,101.3,Mainly Clear,1.6958568992049081
7/21/2012 14:00,26.2,13.5,45,17,48.3,101.26,Mostly Cloudy,1.696906100824405
7/21/2012 15:00,26.3,12.3,42,17,48.3,101.22,Mostly Cloudy,0.949155270668292
7/21/2012 16:00,26.2,13.1,44,15,48.3,101.19,Mostly Cloudy,0.9432590533134183
7/21/2012 17:00,26.9,12.1,40,15,48.3,101.13,Mainly Clear,0.9557861893691004
7/21/2012 18:00,26.1,10.8,38,15,48.3,101.11,Mainly Clear,0.9638948809679477
7/21/2012 19:00,25.4,11.7,42,13,24.1,101.06,Mostly Cloudy,0.949155270668292
7/21/2012 20:00,24.6,13.5,50,13,25.0,101.08,Mostly Cloudy,1.7189858636593842
7/21/2012 21:00,23.4,12.9,52,4,25.0,101.18,Mostly Cloudy,0.961884580030398
7/21/2012 22:00,23.0,15.3,62,4,25.0,101.19,Mostly Cloudy,1.7113105101300323
7/21/2012 23:00,22.9,14.4,59,9,25.0,101.19,Cloudy,1.0420206718918246
7/22/2012 0:00,22.7,14.9,61,11,25.0,101.19,Cloudy,1.0163822421633517
7/22/2012 1:00,22.5,15.4,64,13,25.0,101.17,Mostly Cloudy,1.1160884505464987
7/22/2012 2:00,22.4,15.9,67,15,25.0,101.13,Mostly Cloudy,1.2523873978786297
7/22/2012 3:00,22.4,14.8,62,15,25.0,101.12,Mostly Cloudy,1.0663026522977477
7/22/2012 4:00,21.9,15.3,66,15,25.0,101.15,Mainly Clear,1.1750318113220146
7/22/2012 5:00,21.8,14.8,64,15,48.3,101.18,Mostly Cloudy,1.119482253024648
7/22/2012 6:00,22.2,15.1,64,17,48.3,101.22,Mainly Clear,1.0754917436180753
7/22/2012 7:00,22.5,15.6,65,19,48.3,101.24,Mostly Cloudy,1.1136122370198804
7/22/2012 8:00,23.3,17.2,69,19,48.3,101.26,Mainly Clear,1.505906587803386
7/22/2012 9:00,25.2,17.9,64,26,48.3,101.23,Mainly Clear,1.756154236945871
7/22/2012 10:00,25.7,18.5,64,22,48.3,101.2,Mainly Clear,1.6906883538198028
7/22/2012 11:00,26.8,18.6,61,24,48.3,101.16,Mainly Clear,1.722222189852029
7/22/2012 12:00,27.8,18.3,56,22,48.3,101.15,Mainly Clear,0.979259309423683
7/22/2012 13:00,28.3,18.8,56,20,48.3,101.11,Mainly Clear,0.9607879911134949
7/22/2012 14:00,28.3,18.5,55,20,48.3,101.09,Mostly Cloudy,0.9531525027978544
7/22/2012 15:00,30.1,19.2,52,20,48.3,101.06,Mostly Cloudy,0.9393649710689194
7/22/2012 16:00,29.9,17.8,48,24,48.3,101.02,Mostly Cloudy,0.9350721128271431
7/22/2012 17:00,29.1,17.9,51,17,24.1,101.02,Mostly Cloudy,0.944968825307474
7/22/2012 18:00,29.2,16.9,47,20,48.3,100.99,Mostly Cloudy,0.9395135840643597
7/22/2012 19:00,28.6,16.1,47,20,24.1,100.99,Mostly Cloudy,0.9387926731075454
7/22/2012 20:00,27.3,17.5,55,13,25.0,101.05,Mainly Clear,0.9531525027978544
7/22/2012 21:00,26.9,17.0,55,15,25.0,101.07,Mostly Cloudy,0.9531525027978544
7/22/2012 22:00,25.8,17.4,60,11,25.0,101.01,Clear,1.7575348687927004
7/22/2012 23:00,25.0,17.8,64,9,25.0,101.03,Mainly Clear,1.0754917436180753
7/23/2012 0:00,24.3,17.7,67,11,25.0,101.01,Mainly Clear,1.2523873978786297
7/23/2012 1:00,24.3,17.6,66,11,25.0,101.0,Mainly Clear,1.1750318113220146
7/23/2012 2:00,23.8,17.8,69,9,25.0,100.98,Mostly Cloudy,1.505906587803386
7/23/2012 3:00,23.4,18.0,72,9,25.0,100.97,Mainly Clear,1.7154802667147235
7/23/2012 4:00,23.0,18.1,74,11,24.1,100.94,Mostly Cloudy,1.7209839103698092
7/23/2012 5:00,23.1,17.8,72,13,24.1,100.94,Cloudy,1.7154802667147235
7/23/2012 6:00,23.5,18.3,73,13,24.1,100.94,Cloudy,1.718324698506683
7/23/2012 7:00,24.1,18.9,73,17,24.1,100.89,Cloudy,1.718324698506683
7/23/2012 8:00,24.8,19.5,72,19,24.1,100.86,Cloudy,1.7154802667147235
7/23/2012 9:00,26.3,19.8,67,19,48.3,100.76,Mainly Clear,1.2523873978786297
7/23/2012 10:00,27.6,20.9,67,20,48.3,100.7,Mainly Clear,1.698763522260988
7/23/2012 11:00,27.8,20.7,65,15,48.3,100.64,Mainly Clear,1.1136122370198804
7/23/2012 12:00,28.8,20.3,60,13,48.3,100.57,Mainly Clear,1.01657173722952
7/23/2012 13:00,30.1,20.4,56,11,48.3,100.46,Mainly Clear,0.9607879911134949
7/23/2012 14:00,30.7,19.7,52,17,48.3,100.35,Mostly Cloudy,0.9393649710689194
7/23/2012 15:00,30.1,19.4,53,11,24.1,100.19,Cloudy,0.9539299528845383
7/23/2012 16:00,29.9,19.1,52,9,24.1,100.15,Cloudy,0.9435889932450485
7/23/2012 17:00,19.4,18.2,93,4,24.1,100.24,"Thunderstorms,Rain",1.7663155381997573
7/23/2012 18:00,20.6,19.1,91,30,19.3,100.19,"Thunderstorms,Rain",1.762772169746578
7/23/2012 19:00,20.7,18.5,87,20,24.1,100.08,Rain,1.755244623603565
7/23/2012 20:00,21.0,18.5,86,9,25.0,99.98,Cloudy,1.7530322801745157
7/23/2012 21:00,18.1,17.7,98,11,6.4,100.27,"Thunderstorms,Rain Showers",1.7720304913691292
7/23/2012 22:00,18.7,18.0,96,7,6.4,100.04,"Thunderstorms,Rain Showers",1.7699087340766253
7/23/2012 23:00,19.6,18.7,95,11,25.0,99.93,Cloudy,1.768832975474038
7/24/2012 0:00,19.3,18.3,94,6,25.0,99.84,Cloudy,1.7677471105115399
7/24/2012 1:00,19.4,18.3,93,11,25.0,99.76,Mostly Cloudy,1.7663155381997573
7/24/2012 2:00,19.3,18.3,94,0,25.0,99.75,Cloudy,1.7677471105115399
7/24/2012 3:00,18.2,17.9,98,4,25.0,99.73,Mainly Clear,1.7720304913691292
7/24/2012 4:00,18.9,18.5,98,7,16.1,99.75,Mostly Cloudy,1.7720304913691292
7/24/2012 5:00,19.5,18.6,95,6,24.1,99.78,Mostly Cloudy,1.768832975474038
7/24/2012 6:00,20.5,18.9,91,7,24.1,99.8,Mainly Clear,1.762772169746578
7/24/2012 7:00,21.6,19.3,87,13,24.1,99.85,Mainly Clear,1.755244623603565
7/24/2012 8:00,22.7,19.2,81,13,24.1,99.89,Mainly Clear,1.7408722768108806
7/24/2012 9:00,23.5,17.8,70,19,24.1,99.93,Mostly Cloudy,1.7091525423728813
7/24/2012 10:00,24.0,16.2,62,19,24.1,99.95,Mostly Cloudy,1.0305025778855286
7/24/2012 11:00,23.4,16.9,67,17,24.1,99.96,Cloudy,1.2523873978786297
7/24/2012 12:00,23.5,16.9,66,22,24.1,99.98,Mostly Cloudy,1.2293692186577716
7/24/2012 13:00,23.8,14.6,56,30,24.1,100.04,Mainly Clear,0.9704230688839958
7/24/2012 14:00,24.5,12.2,46,28,48.3,100.11,Mostly Cloudy,0.9384328601022601
7/24/2012 15:00,23.0,10.4,45,24,48.3,100.14,Mostly Cloudy,0.9509167088651546
7/24/2012 16:00,23.8,11.7,47,20,48.3,100.15,Mostly Cloudy,0.936932268487835
7/24/2012 17:00,23.0,11.5,48,24,48.3,100.19,Mostly Cloudy,0.9541853077070571
7/24/2012 18:00,22.1,11.8,52,15,24.1,100.25,Mostly Cloudy,0.948958101160509
7/24/2012 19:00,21.4,11.5,53,15,25.0,100.29,Mostly Cloudy,1.0071901090298525
7/24/2012 20:00,20.7,12.2,58,17,25.0,100.34,Mostly Cloudy,1.6995086117549572
7/24/2012 21:00,19.6,12.2,62,17,25.0,100.41,Mostly Cloudy,1.6984751172328998
7/24/2012 22:00,19.0,12.3,65,19,25.0,100.45,Mainly Clear,1.7704481962930991
7/24/2012 23:00,18.0,12.5,70,17,25.0,100.5,Clear,1.7091525423728813
7/25/2012 0:00,16.6,12.4,76,11,25.0,100.55,Clear,1.7272721454173066
7/25/2012 1:00,15.8,12.0,78,4,25.0,100.56,Clear,1.733057876440812
7/25/2012 2:00,15.4,12.5,83,9,25.0,100.59,Clear,1.7459700090483987
7/25/2012 3:00,15.4,12.5,83,11,25.0,100.65,Clear,1.7459700090483987
7/25/2012 4:00,14.5,12.2,86,7,25.0,100.69,Clear,1.7530322801745157
7/25/2012 5:00,13.8,12.1,89,7,24.1,100.71,Clear,1.7590894054480448
7/25/2012 6:00,16.2,13.2,82,11,24.1,100.76,Clear,1.7434626346010758
7/25/2012 7:00,17.5,12.2,71,13,24.1,100.81,Clear,1.712430565280306
7/25/2012 8:00,18.8,12.8,68,13,24.1,100.8,Clear,1.3579319565140906
7/25/2012 9:00,19.6,12.9,65,11,48.3,100.79,Clear,1.1136122370198804
7/25/2012 10:00,21.1,12.6,58,11,48.3,100.88,Clear,0.9872427259167682
7/25/2012 11:00,22.3,13.5,57,13,48.3,100.76,Mainly Clear,0.9884815097316612
7/25/2012 12:00,23.2,12.7,52,9,48.3,100.76,Mainly Clear,1.624465129994024
7/25/2012 13:00,23.4,13.1,52,19,48.3,100.66,Mostly Cloudy,0.9683493074494516
7/25/2012 14:00,23.6,13.6,53,22,48.3,100.61,Mostly Cloudy,0.9561898196646894
7/25/2012 15:00,24.8,13.6,50,19,48.3,100.58,Mostly Cloudy,0.9395022298163338
7/25/2012 16:00,24.7,13.8,51,22,48.3,100.51,Cloudy,0.9487978242634034
7/25/2012 17:00,24.1,12.3,48,28,48.3,100.46,Cloudy,1.590383273798812
7/25/2012 18:00,23.7,13.1,51,20,24.1,100.44,Cloudy,0.9370453193020178
7/25/2012 19:00,23.4,12.9,52,17,25.0,100.37,Cloudy,1.716577016234242
7/25/2012 20:00,23.2,12.0,49,15,25.0,100.34,Cloudy,0.9586306330813297
7/25/2012 21:00,21.8,13.6,60,13,25.0,100.31,Cloudy,1.029074467215109
7/25/2012 22:00,21.2,13.8,63,13,25.0,100.29,Cloudy,1.0503413361747098
7/25/2012 23:00,20.8,13.4,63,11,25.0,100.29,Rain Showers,1.0503413361747098
7/26/2012 0:00,21.3,14.4,65,13,25.0,100.23,Rain Showers,1.1510809877840014
7/26/2012 1:00,20.4,13.9,66,13,25.0,100.18,Mostly Cloudy,1.1750318113220146
7/26/2012 2:00,20.3,13.8,66,11,25.0,100.12,Mostly Cloudy,1.1750318113220146
7/26/2012 3:00,20.6,14.4,68,9,25.0,100.07,Cloudy,1.3579319565140906
7/26/2012 4:00,20.6,14.2,67,6,25.0,100.0,Cloudy,1.2523873978786297
7/26/2012 5:00,20.0,14.8,72,7,24.1,99.98,Cloudy,1.7154802667147235
7/26/2012 6:00,19.6,15.5,77,9,16.1,100.01,Rain,1.7302348458823897
7/26/2012 7:00,19.4,16.0,81,7,24.1,100.0,Cloudy,1.7408722768108806
7/26/2012 8:00,20.4,15.0,71,4,24.1,99.99,Cloudy,1.712430565280306
7/26/2012 9:00,20.6,15.3,72,9,24.1,99.97,Cloudy,1.7154802667147235
7/26/2012 10:00,20.6,16.3,76,11,24.1,99.96,Cloudy,1.7272721454173066
7/26/2012 11:00,21.9,17.5,76,7,24.1,99.93,Mostly Cloudy,1.7272721454173066
7/26/2012 12:00,21.1,16.2,74,6,24.1,99.91,Cloudy,1.7209839103698092
7/26/2012 13:00,21.3,16.2,73,4,24.1,99.9,Cloudy,1.718324698506683
7/26/2012 14:00,21.6,16.8,74,6,24.1,99.86,Cloudy,1.7209839103698092
7/26/2012 15:00,21.3,16.7,75,4,24.1,99.86,Cloudy,1.7241591468416737
7/26/2012 16:00,21.9,16.7,72,7,24.1,99.83,Cloudy,1.7154802667147235
7/26/2012 17:00,21.7,16.4,72,7,24.1,99.86,Cloudy,1.7154802667147235
7/26/2012 18:00,21.6,16.5,73,11,24.1,99.89,Cloudy,1.718324698506683
7/26/2012 19:00,21.0,17.5,80,11,24.1,99.92,Cloudy,1.7383226557949913
7/26/2012 20:00,20.5,17.6,83,4,24.1,99.94,Mostly Cloudy,1.7459700090483987
7/26/2012 21:00,20.3,17.5,84,4,25.0,99.97,Mostly Cloudy,1.7483983249034645
7/26/2012 22:00,18.8,17.5,92,0,25.0,99.94,Mainly Clear,1.764560779079539
7/26/2012 23:00,18.6,17.5,93,0,25.0,99.99,Mostly Cloudy,1.7663155381997573
7/27/2012 0:00,18.1,17.2,94,0,25.0,100.01,Mainly Clear,1.7677471105115399
7/27/2012 1:00,17.2,16.5,96,0,25.0,100.05,Mostly Cloudy,1.7699087340766253
7/27/2012 2:00,16.9,16.3,96,4,25.0,100.08,Mainly Clear,1.7699087340766253
7/27/2012 3:00,15.9,15.3,96,4,25.0,100.1,Mostly Cloudy,1.7699087340766253
7/27/2012 4:00,17.5,16.2,92,0,25.0,100.19,Mainly Clear,1.764560779079539
7/27/2012 5:00,16.2,15.6,96,7,24.1,100.33,Mostly Cloudy,1.7699087340766253
7/27/2012 6:00,18.4,15.3,82,17,24.1,100.34,Mostly Cloudy,1.7434626346010758
7/27/2012 7:00,19.0,14.3,74,24,24.1,100.44,Mostly Cloudy,1.7209839103698092
7/27/2012 8:00,20.2,14.3,69,13,24.1,100.46,Mostly Cloudy,1.505906587803386
7/27/2012 9:00,21.1,14.5,66,7,24.1,100.51,Mostly Cloudy,1.1750318113220146
7/27/2012 10:00,22.0,15.3,66,6,24.1,100.53,Mainly Clear,1.1750318113220146
7/27/2012 11:00,23.4,16.5,65,4,24.1,100.55,Mainly Clear,1.1136122370198804
7/27/2012 12:00,24.1,15.6,59,6,24.1,100.56,Mainly Clear,0.987994578192502
7/27/2012 13:00,24.8,16.1,58,0,24.1,100.55,Mainly Clear,0.9771086735653381
7/27/2012 14:00,26.6,16.8,55,0,24.1,100.57,Mainly Clear,0.9531525027978544
7/27/2012 15:00,26.1,17.0,57,11,24.1,100.6,Mostly Cloudy,0.9684584060262452
7/27/2012 16:00,25.6,16.0,55,6,24.1,100.63,Mostly Cloudy,0.967303287154769
7/27/2012 17:00,25.8,15.8,54,6,24.1,100.66,Mostly Cloudy,0.9710172853100977
7/27/2012 18:00,26.1,15.2,51,7,24.1,100.71,Mostly Cloudy,0.9364696353166625
7/27/2012 19:00,23.7,17.0,66,4,24.1,100.74,Mainly Clear,1.1750318113220146
7/27/2012 20:00,22.5,16.6,69,6,24.1,100.8,Mainly Clear,1.505906587803386
7/27/2012 21:00,21.4,16.6,74,4,25.0,100.86,Mainly Clear,1.7209839103698092
7/27/2012 22:00,21.3,16.0,72,0,25.0,100.88,Mainly Clear,1.7154802667147235
7/27/2012 23:00,21.1,16.7,76,0,25.0,100.92,Mostly Cloudy,1.7272721454173066
7/28/2012 0:00,22.8,16.8,69,9,25.0,100.95,Mostly Cloudy,1.505906587803386
7/28/2012 1:00,22.3,11.4,50,4,25.0,101.01,Mainly Clear,0.9617475728244009
7/28/2012 2:00,20.8,11.9,57,13,25.0,101.06,Mostly Cloudy,0.9914110784358982
7/28/2012 3:00,18.7,14.3,76,11,25.0,101.09,Mostly Cloudy,1.7272721454173066
7/28/2012 4:00,17.6,12.1,70,13,25.0,101.14,Mostly Cloudy,1.7091525423728813
7/28/2012 5:00,17.4,11.2,67,15,48.3,101.18,Mostly Cloudy,1.2523873978786297
7/28/2012 6:00,18.1,11.5,65,17,48.3,101.2,Mostly Cloudy,1.6929583486014415
7/28/2012 7:00,19.5,11.1,58,15,48.3,101.22,Mostly Cloudy,1.0125080192524731
7/28/2012 8:00,20.3,11.5,57,17,48.3,101.25,Mostly Cloudy,1.2901934028714972
7/28/2012 9:00,20.7,12.3,59,19,48.3,101.25,Mostly Cloudy,1.0725336056029373
7/28/2012 10:00,21.6,12.8,57,15,48.3,101.29,Mostly Cloudy,0.9684584060262452
7/28/2012 11:00,23.9,14.0,54,20,48.3,101.26,Cloudy,1.7441779407420308
7/28/2012 12:00,23.9,14.2,55,13,48.3,101.19,Cloudy,1.0025367275892656
7/28/2012 13:00,25.5,12.2,44,13,48.3,101.15,Cloudy,0.9432590533134183
7/28/2012 14:00,26.4,11.1,38,13,48.3,101.13,Mostly Cloudy,0.9638948809679477
7/28/2012 15:00,26.7,11.2,38,22,48.3,101.12,Mostly Cloudy,0.9638948809679477
7/28/2012 16:00,25.8,11.9,42,17,48.3,101.1,Mostly Cloudy,0.949155270668292
7/28/2012 17:00,26.2,10.6,38,17,48.3,101.1,Mostly Cloudy,0.9638948809679477
7/28/2012 18:00,26.2,10.3,37,15,48.3,101.15,Mostly Cloudy,0.9681708609999456
7/28/2012 19:00,25.6,10.2,38,13,48.3,101.15,Mostly Cloudy,0.9638948809679477
7/28/2012 20:00,24.6,10.8,42,9,24.1,101.14,Mostly Cloudy,0.949155270668292
7/28/2012 21:00,22.8,11.8,50,4,25.0,101.14,Mainly Clear,1.684921200303906
7/28/2012 22:00,19.5,13.1,66,7,25.0,101.16,Mainly Clear,1.5515017790176522
7/28/2012 23:00,18.9,13.8,72,9,25.0,101.18,Mainly Clear,1.7202503950549295
7/29/2012 0:00,18.5,13.7,74,9,25.0,101.18,Clear,1.7209839103698092
7/29/2012 1:00,18.4,13.7,74,13,25.0,101.16,Clear,1.7209839103698092
7/29/2012 2:00,17.7,12.9,73,15,25.0,101.16,Clear,1.718324698506683
7/29/2012 3:00,17.1,10.8,66,15,25.0,101.14,Mainly Clear,1.1750318113220146
7/29/2012 4:00,16.8,10.7,67,13,25.0,101.15,Mainly Clear,1.3560103161986716
7/29/2012 5:00,16.6,10.8,69,13,48.3,101.23,Mainly Clear,1.7056195602958193
7/29/2012 6:00,17.6,11.2,66,15,48.3,101.27,Mainly Clear,1.1750318113220146
7/29/2012 7:00,19.2,12.3,64,15,24.1,101.29,Mainly Clear,1.6956229818936177
7/29/2012 8:00,20.5,13.3,63,13,24.1,101.31,Mainly Clear,1.1664241197650833
7/29/2012 9:00,22.2,14.8,63,9,48.3,101.3,Mainly Clear,1.0503413361747098
7/29/2012 10:00,24.0,16.9,65,7,48.3,101.28,Mainly Clear,1.6929583486014415
7/29/2012 11:00,24.7,16.7,61,11,48.3,101.26,Mainly Clear,1.0147471754365818
7/29/2012 12:00,26.6,17.5,57,6,48.3,101.21,Mainly Clear,0.9723336910358371
7/29/2012 13:00,26.6,17.5,57,9,48.3,101.17,Mainly Clear,0.9684584060262452
7/29/2012 14:00,27.3,17.4,55,4,48.3,101.12,Mainly Clear,0.9531525027978544
7/29/2012 15:00,27.8,17.7,54,11,48.3,101.09,Mainly Clear,0.9476253676441987
7/29/2012 16:00,27.5,17.5,54,0,48.3,101.06,Mainly Clear,0.9472289954341503
7/29/2012 17:00,27.0,16.9,54,7,48.3,101.03,Mainly Clear,0.9472289954341503
7/29/2012 18:00,26.8,16.9,55,6,48.3,101.05,Mainly Clear,0.982739885252422
7/29/2012 19:00,26.5,17.4,57,6,48.3,101.08,Mostly Cloudy,0.9897036678091935
7/29/2012 20:00,25.8,17.3,59,9,24.1,101.12,Mostly Cloudy,1.7122722925878038
7/29/2012 21:00,25.3,18.3,65,11,25.0,101.15,Mainly Clear,1.1136122370198804
7/29/2012 22:00,22.5,19.5,83,4,25.0,101.16,Mainly Clear,1.7459700090483987
7/29/2012 23:00,21.2,18.6,85,4,25.0,101.18,Clear,1.7507512632600475
7/30/2012 0:00,21.9,17.6,77,0,25.0,101.17,Mainly Clear,1.7302348458823897
7/30/2012 1:00,19.7,17.2,85,6,25.0,101.16,Mainly Clear,1.7507512632600475
7/30/2012 2:00,20.6,18.6,88,6,25.0,101.15,Clear,1.7571931537828946
7/30/2012 3:00,20.5,18.3,87,4,25.0,101.13,Clear,1.755244623603565
7/30/2012 4:00,19.0,15.6,81,6,25.0,101.22,Mainly Clear,1.7408722768108806
7/30/2012 5:00,17.9,16.7,93,0,24.1,101.27,Mainly Clear,1.7663155381997573
7/30/2012 6:00,20.5,16.9,80,6,24.1,101.28,Mainly Clear,1.7383226557949913
7/30/2012 7:00,21.6,17.2,76,6,48.3,101.31,Mainly Clear,1.7272721454173066
7/30/2012 8:00,22.4,16.7,70,7,48.3,101.31,Clear,1.7091525423728813
7/30/2012 9:00,24.1,16.9,64,7,48.3,101.31,Mainly Clear,1.0754917436180753
7/30/2012 10:00,25.0,15.8,57,15,48.3,101.29,Mainly Clear,0.9684584060262452
7/30/2012 11:00,26.0,15.0,51,15,48.3,101.27,Mainly Clear,0.9748764536189215
7/30/2012 12:00,27.2,15.8,50,19,48.3,101.22,Mainly Clear,1.6137424706481864
7/30/2012 13:00,28.5,15.5,45,15,48.3,101.17,Mostly Cloudy,0.9403088027499734
7/30/2012 14:00,29.3,15.9,44,17,48.3,101.13,Cloudy,0.9432590533134183
7/30/2012 15:00,29.0,13.5,39,17,48.3,101.1,Cloudy,0.9601509387055865
7/30/2012 16:00,29.9,14.3,39,9,48.3,101.04,Cloudy,0.9601509387055865
7/30/2012 17:00,29.4,12.9,36,9,48.3,101.03,Cloudy,1.6911324960659928
7/30/2012 18:00,28.2,15.4,46,13,48.3,101.01,Mainly Clear,0.9384328601022601
7/30/2012 19:00,26.9,16.4,53,11,48.3,101.01,Mainly Clear,0.943018325394646
7/30/2012 20:00,25.2,16.5,59,7,48.3,101.01,Mainly Clear,0.987994578192502
7/30/2012 21:00,24.3,16.9,63,11,25.0,101.0,Clear,1.0503413361747098
7/30/2012 22:00,23.8,17.6,68,9,25.0,101.0,Clear,1.3579319565140906
7/30/2012 23:00,22.9,17.7,73,6,25.0,101.02,Mainly Clear,1.718324698506683
7/31/2012 0:00,22.2,19.0,82,6,25.0,101.03,Mainly Clear,1.7434626346010758
7/31/2012 1:00,21.3,18.0,81,9,25.0,101.03,Mainly Clear,1.7408722768108806
7/31/2012 2:00,21.5,16.6,74,13,25.0,101.02,Mainly Clear,1.7209839103698092
7/31/2012 3:00,20.1,16.1,78,13,25.0,101.02,Clear,1.733057876440812
7/31/2012 4:00,19.4,15.8,80,9,25.0,101.03,Mainly Clear,1.7383226557949913
7/31/2012 5:00,19.8,17.1,84,11,25.0,101.04,Mainly Clear,1.7483983249034645
7/31/2012 6:00,21.1,17.7,81,7,48.3,101.05,Mainly Clear,1.7408722768108806
7/31/2012 7:00,22.6,18.2,76,9,48.3,101.03,Clear,1.7272721454173066
7/31/2012 8:00,24.2,18.5,71,9,48.3,101.02,Clear,1.712430565280306
7/31/2012 9:00,25.9,19.5,68,7,24.1,100.98,Mainly Clear,1.724754806406773
7/31/2012 10:00,27.3,19.8,64,11,24.1,100.97,Mainly Clear,1.0754917436180753
7/31/2012 11:00,28.4,20.8,63,13,24.1,100.93,Mainly Clear,1.0503413361747098
7/31/2012 12:00,28.9,20.7,61,19,24.1,100.87,Mainly Clear,1.0147471754365818
7/31/2012 13:00,28.7,19.2,56,19,24.1,100.79,Mainly Clear,0.9607879911134949
7/31/2012 14:00,28.8,18.4,53,20,24.1,100.7,Mainly Clear,1.0138044171140623
7/31/2012 15:00,28.8,18.4,53,19,24.1,100.64,Mainly Clear,1.0101616279759003
7/31/2012 16:00,28.8,19.1,56,22,24.1,100.58,Mostly Cloudy,0.9607879911134949
7/31/2012 17:00,28.0,17.7,54,20,24.1,100.55,Mostly Cloudy,0.9472289954341503
7/31/2012 18:00,25.3,19.3,69,17,24.1,100.53,Mostly Cloudy,1.505906587803386
7/31/2012 19:00,24.8,18.3,67,22,24.1,100.55,Rain Showers,1.2523873978786297
7/31/2012 20:00,22.4,18.7,80,35,9.7,100.64,"Thunderstorms,Rain Showers,Fog",1.7383226557949913
7/31/2012 21:00,22.8,18.8,78,13,25.0,100.65,"Thunderstorms,Rain Showers",1.733057876440812
7/31/2012 22:00,22.8,19.4,81,7,25.0,100.57,Mostly Cloudy,1.7408722768108806
7/31/2012 23:00,21.8,19.2,85,4,25.0,100.52,Mainly Clear,1.7507512632600475
8/1/2012 0:00,21.0,19.8,93,0,25.0,100.53,Mainly Clear,1.7663155381997573
8/1/2012 1:00,21.0,19.6,92,4,25.0,100.54,Clear,1.764560779079539
8/1/2012 2:00,21.3,19.1,87,9,25.0,100.55,Mostly Cloudy,1.755244623603565
8/1/2012 3:00,20.8,19.0,89,9,25.0,100.54,Cloudy,1.7590894054480448
8/1/2012 4:00,20.8,18.7,88,6,25.0,100.57,Mostly Cloudy,1.7571931537828946
8/1/2012 5:00,20.8,18.1,85,9,25.0,100.58,Cloudy,1.7507512632600475
8/1/2012 6:00,20.4,18.6,89,7,25.0,100.62,Rain Showers,1.7590894054480448
8/1/2012 7:00,20.8,18.7,88,11,24.1,100.64,Cloudy,1.7571931537828946
8/1/2012 8:00,21.2,18.9,87,9,24.1,100.65,Cloudy,1.755244623603565
8/1/2012 9:00,22.0,18.9,83,13,24.1,100.64,Cloudy,1.7459700090483987
8/1/2012 10:00,24.1,19.4,75,13,24.1,100.6,Mostly Cloudy,1.7241591468416737
8/1/2012 11:00,24.1,18.0,69,17,24.1,100.6,Mostly Cloudy,1.505906587803386
8/1/2012 12:00,25.2,18.6,67,13,24.1,100.56,Mainly Clear,1.2523873978786297
8/1/2012 13:00,25.7,18.2,63,15,24.1,100.51,Mainly Clear,1.0503413361747098
8/1/2012 14:00,26.9,19.2,63,15,24.1,100.48,Mainly Clear,1.0503413361747098
8/1/2012 15:00,27.3,18.6,59,13,24.1,100.46,Mainly Clear,0.987994578192502
8/1/2012 16:00,27.8,18.7,58,9,24.1,100.4,Mainly Clear,0.9771086735653381
8/1/2012 17:00,27.4,19.0,60,13,24.1,100.38,Mainly Clear,0.9999888186332162
8/1/2012 18:00,27.0,18.9,61,15,24.1,100.39,Mainly Clear,1.0147471754365818
8/1/2012 19:00,26.3,19.2,65,13,24.1,100.46,Mostly Cloudy,1.1136122370198804
8/1/2012 20:00,25.7,19.1,67,15,25.0,100.48,Mostly Cloudy,1.2523873978786297
8/1/2012 21:00,23.1,20.3,84,6,25.0,100.49,Mainly Clear,1.7483983249034645
8/1/2012 22:00,24.2,20.3,79,7,25.0,100.52,Mainly Clear,1.7357508862871274
8/1/2012 23:00,23.9,19.8,78,6,25.0,100.5,Mainly Clear,1.733057876440812
8/2/2012 0:00,23.9,19.8,78,7,25.0,100.51,Mostly Cloudy,1.733057876440812
8/2/2012 1:00,22.6,19.6,83,7,25.0,100.48,Mainly Clear,1.7459700090483987
8/2/2012 2:00,21.8,19.6,87,9,25.0,100.49,Mainly Clear,1.755244623603565
8/2/2012 3:00,22.2,20.1,88,11,25.0,100.47,Mainly Clear,1.7571931537828946
8/2/2012 4:00,21.5,19.6,89,11,25.0,100.51,Mainly Clear,1.7590894054480448
8/2/2012 5:00,21.3,19.6,90,7,24.1,100.55,Clear,1.7609487211792867
8/2/2012 6:00,21.7,19.6,88,15,48.3,100.55,Clear,1.7571931537828946
8/2/2012 7:00,22.5,20.1,86,13,48.3,100.6,Mainly Clear,1.7530322801745157
8/2/2012 8:00,23.9,19.9,78,11,48.3,100.61,Mainly Clear,1.733057876440812
8/2/2012 9:00,24.5,19.8,75,17,48.3,100.63,Mainly Clear,1.7241591468416737
8/2/2012 10:00,25.8,19.5,68,11,24.1,100.6,Mainly Clear,1.3579319565140906
8/2/2012 11:00,27.3,20.1,65,17,24.1,100.56,Mainly Clear,1.1136122370198804
8/2/2012 12:00,27.4,18.5,58,13,24.1,100.56,Mainly Clear,0.9771086735653381
8/2/2012 13:00,29.1,18.0,51,20,24.1,100.5,Mainly Clear,0.940374376631636
8/2/2012 14:00,29.6,18.8,52,13,24.1,100.44,Mainly Clear,0.9529233750216793
8/2/2012 15:00,29.8,18.9,52,19,24.1,100.43,Mostly Cloudy,0.9393649710689194
8/2/2012 16:00,30.0,17.8,48,22,24.1,100.4,Mostly Cloudy,0.935516882914513
8/2/2012 17:00,29.9,16.1,43,20,24.1,100.41,Mostly Cloudy,0.945948721343493
8/2/2012 18:00,28.4,16.3,48,15,24.1,100.42,Mostly Cloudy,0.9350721128271431
8/2/2012 19:00,27.7,14.8,45,15,24.1,100.44,Mostly Cloudy,0.9403088027499734
8/2/2012 20:00,27.2,15.4,48,19,25.0,100.52,Cloudy,1.0457904846886188
8/2/2012 21:00,26.8,15.5,50,24,25.0,100.53,Cloudy,0.9772034219849666
8/2/2012 22:00,25.7,15.9,55,17,25.0,100.52,Cloudy,1.1405303008424137
8/2/2012 23:00,25.0,17.1,62,24,25.0,100.5,Mostly Cloudy,1.0512748075706027
8/3/2012 0:00,24.4,16.9,63,17,25.0,100.5,Mainly Clear,1.104110937323811
8/3/2012 1:00,24.1,16.9,64,13,25.0,100.5,Mainly Clear,1.0754917436180753
8/3/2012 2:00,23.5,17.3,68,13,25.0,100.52,Mostly Cloudy,1.7435008481306618
8/3/2012 3:00,23.4,18.0,72,15,25.0,100.54,Mostly Cloudy,1.7154802667147235
8/3/2012 4:00,22.9,17.8,73,15,25.0,100.6,Cloudy,1.718324698506683
8/3/2012 5:00,22.3,17.9,76,11,24.1,100.68,Mainly Clear,1.7272721454173066
8/3/2012 6:00,22.5,18.3,77,13,24.1,100.74,Mainly Clear,1.7302348458823897
8/3/2012 7:00,23.2,18.5,75,17,24.1,100.81,Mainly Clear,1.7241591468416737
8/3/2012 8:00,24.1,18.5,71,13,24.1,100.87,Clear,1.712430565280306
8/3/2012 9:00,25.6,17.8,62,15,24.1,100.91,Mainly Clear,1.0305025778855286
8/3/2012 10:00,26.0,17.7,60,11,24.1,100.95,Mainly Clear,0.9999888186332162
8/3/2012 11:00,27.1,17.3,55,13,24.1,100.99,Mainly Clear,0.9531525027978544
8/3/2012 12:00,27.1,16.7,53,17,24.1,101.03,Mainly Clear,0.943018325394646
8/3/2012 13:00,28.2,16.6,49,19,24.1,101.07,Mainly Clear,0.9501394991325299
8/3/2012 14:00,27.6,15.6,48,24,24.1,101.1,Mainly Clear,0.9350721128271431
8/3/2012 15:00,29.2,16.7,47,17,24.1,101.11,Mainly Clear,0.939502229816334
8/3/2012 16:00,28.9,15.9,45,20,24.1,101.1,Mainly Clear,0.9403088027499734
8/3/2012 17:00,28.0,16.0,48,20,48.3,101.14,Clear,0.9350721128271431
8/3/2012 18:00,27.2,16.1,51,11,48.3,101.18,Clear,0.9391815606345464
8/3/2012 19:00,25.5,15.6,54,7,48.3,101.24,Clear,0.9554327953883803
8/3/2012 20:00,23.9,15.7,60,6,24.1,101.31,Clear,1.7167272938723097
8/3/2012 21:00,22.0,15.9,68,6,25.0,101.39,Clear,1.3579319565140906
8/3/2012 22:00,23.3,15.3,61,9,25.0,101.42,Clear,1.0558177545065015
8/3/2012 23:00,23.1,15.2,61,4,25.0,101.49,Clear,1.0147471754365818
8/4/2012 0:00,21.3,15.3,69,9,25.0,101.51,Clear,1.7094068830969713
8/4/2012 1:00,22.3,15.2,64,9,25.0,101.55,Mostly Cloudy,1.2591116889498406
8/4/2012 2:00,22.0,15.0,64,7,25.0,101.59,Mostly Cloudy,1.1787232315052072
8/4/2012 3:00,21.8,14.8,64,6,25.0,101.61,Mostly Cloudy,1.081606942918747
8/4/2012 4:00,22.1,14.2,61,7,24.1,101.62,Cloudy,1.0539855002876224
8/4/2012 5:00,21.3,14.3,64,11,48.3,101.65,Cloudy,1.0754917436180753
8/4/2012 6:00,20.2,16.0,77,9,48.3,101.67,Mostly Cloudy,1.7302348458823897
8/4/2012 7:00,21.8,15.3,67,17,48.3,101.75,Mainly Clear,1.2523873978786297
8/4/2012 8:00,23.1,15.6,63,13,48.3,101.75,Mainly Clear,1.7549935993979697
8/4/2012 9:00,24.7,16.4,60,15,24.1,101.73,Mainly Clear,1.751356856110854
8/4/2012 10:00,27.2,17.2,54,13,24.1,101.72,Mainly Clear,1.7674521757367923
8/4/2012 11:00,28.3,18.0,54,17,24.1,101.69,Clear,1.6921721096704085
8/4/2012 12:00,30.1,19.2,52,9,25.0,101.62,Clear,0.9481742195346299
8/4/2012 13:00,31.2,18.1,46,11,24.1,101.56,Clear,0.9384328601022601
8/4/2012 14:00,32.0,18.3,44,17,24.1,101.48,Clear,0.9554581701174825
8/4/2012 15:00,32.8,18.8,44,17,24.1,101.39,Clear,0.9432590533134183
8/4/2012 16:00,32.5,18.5,44,15,24.1,101.34,Clear,0.9476825266992466
8/4/2012 17:00,32.5,19.8,47,13,24.1,101.32,Clear,0.9379624945603959
8/4/2012 18:00,32.2,20.1,49,13,24.1,101.29,Mostly Cloudy,1.718048899819585
8/4/2012 19:00,30.8,19.2,50,20,24.1,101.23,Mainly Clear,0.9571973024826596
8/4/2012 20:00,29.2,18.7,53,19,24.1,101.23,Clear,0.9522274858227759
8/4/2012 21:00,27.5,18.4,58,17,25.0,101.3,Mainly Clear,0.9951387754718856
8/4/2012 22:00,26.5,18.2,60,13,25.0,101.28,Mainly Clear,0.9999888186332162
8/4/2012 23:00,26.2,18.6,63,17,25.0,101.27,Clear,1.0503413361747098
8/5/2012 0:00,25.7,19.0,67,19,25.0,101.24,Clear,1.2523873978786297
8/5/2012 1:00,25.1,19.2,70,19,25.0,101.19,Clear,1.718646399241278
8/5/2012 2:00,24.2,19.3,74,19,25.0,101.16,Clear,1.7209839103698092
8/5/2012 3:00,24.4,19.3,73,22,25.0,101.06,Mainly Clear,1.718324698506683
8/5/2012 4:00,24.3,19.6,75,19,25.0,101.04,Mainly Clear,1.7241591468416737
8/5/2012 5:00,24.1,19.8,77,22,24.1,101.02,Mostly Cloudy,1.7302348458823897
8/5/2012 6:00,24.6,20.2,77,19,24.1,100.96,Cloudy,1.7302348458823897
8/5/2012 7:00,25.9,20.7,73,22,24.1,100.89,Cloudy,1.718324698506683
8/5/2012 8:00,26.5,21.0,72,24,24.1,100.8,Cloudy,1.7154802667147235
8/5/2012 9:00,26.9,21.3,71,24,19.3,100.72,Mostly Cloudy,1.712430565280306
8/5/2012 10:00,24.8,22.6,88,22,19.3,100.71,Cloudy,1.7571931537828946
8/5/2012 11:00,27.9,23.2,76,24,24.1,100.63,Mostly Cloudy,1.7272721454173066
8/5/2012 12:00,29.7,22.2,64,19,24.1,100.5,Mostly Cloudy,1.0754917436180753
8/5/2012 13:00,25.2,23.0,88,24,12.9,100.4,Rain Showers,1.7571931537828946
8/5/2012 14:00,24.9,22.9,89,26,16.1,100.42,Rain Showers,1.7590894054480448
8/5/2012 15:00,29.0,24.4,76,13,24.1,100.31,Mostly Cloudy,1.7272721454173066
8/5/2012 16:00,31.1,22.0,58,28,24.1,100.26,Mostly Cloudy,1.6982234145250064
8/5/2012 17:00,30.1,21.1,59,22,24.1,100.2,Cloudy,0.987994578192502
8/5/2012 18:00,25.0,22.0,83,22,19.3,100.28,"Thunderstorms,Rain Showers",1.7459700090483987
8/5/2012 19:00,24.2,22.2,89,26,16.1,100.29,Rain Showers,1.7590894054480448
8/5/2012 20:00,24.3,21.8,86,32,25.0,100.32,Cloudy,1.7530322801745157
8/5/2012 21:00,23.9,21.2,85,32,25.0,100.43,Mainly Clear,1.7507512632600475
8/5/2012 22:00,23.9,20.0,79,26,25.0,100.5,Mainly Clear,1.7357508862871274
8/5/2012 23:00,23.1,17.4,70,30,25.0,100.58,Clear,1.7091525423728813
8/6/2012 0:00,21.7,13.7,60,24,25.0,100.67,Clear,1.044082581291324
8/6/2012 1:00,20.7,14.3,67,24,25.0,100.7,Mainly Clear,1.698763522260988
8/6/2012 2:00,19.6,13.7,69,22,25.0,100.77,Clear,1.7056195602958193
8/6/2012 3:00,18.7,13.2,70,22,25.0,100.79,Clear,1.7091525423728813
8/6/2012 4:00,17.7,13.3,75,13,25.0,100.86,Clear,1.7241591468416737
8/6/2012 5:00,16.6,13.3,81,9,48.3,100.95,Clear,1.7408722768108806
8/6/2012 6:00,18.0,13.8,76,13,48.3,101.01,Clear,1.7272721454173066
8/6/2012 7:00,19.0,14.0,73,17,48.3,101.06,Mainly Clear,1.718324698506683
8/6/2012 8:00,19.7,13.6,68,17,48.3,101.09,Mainly Clear,1.3579319565140906
8/6/2012 9:00,20.0,13.3,65,20,48.3,101.11,Mostly Cloudy,1.5021644014720985
8/6/2012 10:00,20.8,13.2,62,22,48.3,101.13,Mostly Cloudy,1.1433687430110129
8/6/2012 11:00,22.1,13.6,59,28,48.3,101.15,Mainly Clear,1.0360944162687271
8/6/2012 12:00,21.9,13.0,57,24,48.3,101.17,Mostly Cloudy,1.63085370071339
8/6/2012 13:00,21.4,13.7,61,13,48.3,101.18,Mostly Cloudy,1.0244534272969208
8/6/2012 14:00,22.5,13.0,55,13,48.3,101.15,Mostly Cloudy,0.9598462701010596
8/6/2012 15:00,22.6,13.8,58,22,48.3,101.12,Mainly Clear,1.1826349504384597
8/6/2012 16:00,23.0,12.2,51,19,48.3,101.07,Mainly Clear,0.9414500753575267
8/6/2012 17:00,23.0,12.8,53,24,48.3,101.06,Mainly Clear,0.9644590202226986
8/6/2012 18:00,23.0,12.8,53,15,48.3,101.03,Mainly Clear,0.9817871130648377
8/6/2012 19:00,21.6,12.8,57,9,48.3,101.02,Clear,0.9684584060262452
8/6/2012 20:00,22.1,13.5,58,9,25.0,101.03,Clear,0.9926660860251447
8/6/2012 21:00,21.7,14.5,64,9,25.0,101.03,Clear,1.0754917436180753
8/6/2012 22:00,20.1,15.6,75,13,25.0,101.04,Clear,1.7241591468416737
8/6/2012 23:00,20.6,15.1,71,11,25.0,101.05,Clear,1.712430565280306
8/7/2012 0:00,19.6,16.0,80,13,25.0,101.04,Clear,1.7383226557949913
8/7/2012 1:00,19.3,15.6,79,17,25.0,101.02,Clear,1.7373847088109207
8/7/2012 2:00,18.9,14.8,77,19,25.0,100.99,Clear,1.7302348458823897
8/7/2012 3:00,18.2,15.3,83,13,25.0,100.96,Clear,1.7459700090483987
8/7/2012 4:00,18.5,15.5,83,11,25.0,100.95,Clear,1.7459700090483987
8/7/2012 5:00,16.6,15.0,90,7,48.3,100.99,Clear,1.7609487211792867
8/7/2012 6:00,17.9,15.3,85,6,48.3,101.02,Clear,1.7507512632600475
8/7/2012 7:00,19.6,16.1,80,15,48.3,101.01,Mainly Clear,1.7383226557949913
8/7/2012 8:00,21.2,16.4,74,17,48.3,101.01,Mainly Clear,1.7209839103698092
8/7/2012 9:00,22.8,16.7,68,19,48.3,100.99,Mainly Clear,1.3579319565140906
8/7/2012 10:00,24.1,17.1,65,24,48.3,100.96,Mainly Clear,1.6929583486014415
8/7/2012 11:00,25.3,16.9,60,22,48.3,100.96,Mainly Clear,0.9999888186332162
8/7/2012 12:00,26.5,16.1,53,17,48.3,100.9,Mainly Clear,0.943018325394646
8/7/2012 13:00,27.7,15.7,48,20,48.3,100.87,Mainly Clear,0.9350721128271431
8/7/2012 14:00,27.6,14.2,44,20,48.3,100.82,Mainly Clear,0.9432590533134183
8/7/2012 15:00,28.7,13.6,40,24,48.3,100.79,Mostly Cloudy,0.9557861893691004
8/7/2012 16:00,27.4,13.6,43,17,48.3,100.74,Mostly Cloudy,0.945948721343493
8/7/2012 17:00,27.8,13.1,40,15,48.3,100.74,Mostly Cloudy,0.9557861893691004
8/7/2012 18:00,27.0,13.8,44,15,48.3,100.74,Mostly Cloudy,0.9432590533134183
8/7/2012 19:00,26.3,14.8,49,13,48.3,100.73,Mostly Cloudy,0.9354821036473985
8/7/2012 20:00,25.8,13.7,47,17,25.0,100.81,Mostly Cloudy,0.9443633184756326
8/7/2012 21:00,21.2,15.0,68,22,25.0,100.9,Cloudy,1.3579319565140906
8/7/2012 22:00,20.2,16.6,80,0,25.0,100.86,Mostly Cloudy,1.7383226557949913
8/7/2012 23:00,20.2,17.5,84,9,25.0,100.87,Rain Showers,1.7483983249034645
8/8/2012 0:00,19.3,18.0,92,7,25.0,100.92,Mostly Cloudy,1.764560779079539
8/8/2012 1:00,18.7,17.8,95,7,25.0,100.94,Mainly Clear,1.768832975474038
8/8/2012 2:00,18.3,17.6,96,4,19.3,100.91,Mainly Clear,1.7699087340766253
8/8/2012 3:00,17.4,17.1,98,4,12.9,100.92,Clear,1.7720304913691292
8/8/2012 4:00,17.2,16.9,98,4,16.1,100.97,Clear,1.7720304913691292
8/8/2012 5:00,16.8,16.7,99,0,19.3,101.02,Mainly Clear,1.7730767632267987
8/8/2012 6:00,18.1,17.3,95,0,24.1,101.03,Clear,1.768832975474038
8/8/2012 7:00,19.3,17.4,89,6,48.3,101.09,Clear,1.7590894054480448
8/8/2012 8:00,21.1,17.5,80,0,48.3,101.12,Mostly Cloudy,1.7383226557949913
8/8/2012 9:00,22.5,16.6,69,4,48.3,101.11,Mainly Clear,1.505906587803386
8/8/2012 10:00,24.1,16.0,61,9,48.3,101.11,Mainly Clear,1.0147471754365818
8/8/2012 11:00,24.8,15.2,55,4,48.3,101.08,Mainly Clear,0.9531525027978544
8/8/2012 12:00,26.4,11.9,40,0,48.3,101.05,Mainly Clear,0.9557861893691004
8/8/2012 13:00,27.4,14.1,44,4,48.3,101.0,Mainly Clear,0.9432590533134183
8/8/2012 14:00,28.0,15.6,47,11,24.1,100.98,Mainly Clear,0.9365197406993433
8/8/2012 15:00,28.3,14.7,43,7,24.1,100.94,Mostly Cloudy,0.945948721343493
8/8/2012 16:00,28.0,16.1,48,9,24.1,100.92,Mostly Cloudy,0.9362203286350899
8/8/2012 17:00,24.8,17.1,62,19,24.1,100.91,Mostly Cloudy,1.0305025778855286
8/8/2012 18:00,25.1,16.8,60,9,24.1,100.9,Mostly Cloudy,0.9999888186332162
8/8/2012 19:00,25.1,17.0,61,7,24.1,100.9,Rain Showers,1.0147471754365818
8/8/2012 20:00,24.3,17.2,65,11,25.0,100.92,Rain Showers,1.752762246285581
8/8/2012 21:00,23.0,17.8,73,6,25.0,100.93,Mostly Cloudy,1.718324698506683
8/8/2012 22:00,23.5,17.1,67,4,25.0,100.89,Mostly Cloudy,1.2523873978786297
8/8/2012 23:00,23.1,17.0,69,6,25.0,100.92,Mostly Cloudy,1.7166343287702555
8/9/2012 0:00,22.8,17.7,73,9,25.0,100.93,Mainly Clear,1.718324698506683
8/9/2012 1:00,22.8,16.7,68,11,25.0,100.89,Mostly Cloudy,1.3579319565140906
8/9/2012 2:00,22.4,16.7,70,4,25.0,100.91,Cloudy,1.726669593418884
8/9/2012 3:00,21.8,17.4,76,9,25.0,100.89,Cloudy,1.7272721454173066
8/9/2012 4:00,21.4,17.4,78,11,25.0,100.9,Mostly Cloudy,1.733057876440812
8/9/2012 5:00,21.1,16.9,77,13,24.1,100.93,Cloudy,1.7302348458823897
8/9/2012 6:00,20.9,17.0,78,15,24.1,100.98,Cloudy,1.733057876440812
8/9/2012 7:00,20.7,17.3,81,13,24.1,101.01,Cloudy,1.7408722768108806
8/9/2012 8:00,21.1,17.5,80,19,24.1,101.01,Cloudy,1.7383226557949913
8/9/2012 9:00,21.7,17.5,77,22,24.1,100.98,Cloudy,1.7302348458823897
8/9/2012 10:00,21.7,17.0,75,17,24.1,100.98,Cloudy,1.7241591468416737
8/9/2012 11:00,23.2,17.3,69,13,24.1,100.98,Cloudy,1.505906587803386
8/9/2012 12:00,24.2,17.8,67,17,24.1,100.92,Cloudy,1.2523873978786297
8/9/2012 13:00,23.6,17.4,68,19,24.1,100.94,Cloudy,1.3579319565140906
8/9/2012 14:00,24.0,17.8,68,20,24.1,100.86,Rain Showers,1.7018006700167505
8/9/2012 15:00,23.7,17.0,66,17,16.1,100.91,Rain Showers,1.1750318113220146
8/9/2012 16:00,22.3,18.7,80,19,19.3,100.89,Rain,1.7383226557949913
8/9/2012 17:00,21.3,18.7,85,17,12.9,100.93,Rain,1.7507512632600475
8/9/2012 18:00,20.4,18.6,89,20,16.1,100.87,Rain,1.7590894054480448
8/9/2012 19:00,20.2,18.2,88,13,19.3,100.92,Rain,1.7571931537828946
8/9/2012 20:00,20.2,17.7,86,15,25.0,100.88,Cloudy,1.7530322801745157
8/9/2012 21:00,19.9,17.5,86,19,25.0,100.87,Cloudy,1.7530322801745157
8/9/2012 22:00,20.1,17.0,82,19,25.0,100.83,Cloudy,1.7434626346010758
8/9/2012 23:00,19.8,17.0,84,20,25.0,100.77,Cloudy,1.7483983249034645
8/10/2012 0:00,19.5,17.0,85,17,25.0,100.74,Cloudy,1.7507512632600475
8/10/2012 1:00,19.3,16.8,85,19,25.0,100.68,Cloudy,1.7507512632600475
8/10/2012 2:00,20.1,17.0,82,13,25.0,100.66,Cloudy,1.7434626346010758
8/10/2012 3:00,19.7,17.3,86,13,25.0,100.65,Cloudy,1.7530322801745157
8/10/2012 4:00,19.3,17.6,90,9,9.7,100.67,Rain,1.7609487211792867
8/10/2012 5:00,19.0,17.7,92,19,12.9,100.58,Rain,1.764560779079539
8/10/2012 6:00,19.0,17.7,92,9,16.1,100.69,Cloudy,1.764560779079539
8/10/2012 7:00,19.7,18.2,91,7,12.9,100.66,Cloudy,1.762772169746578
8/10/2012 8:00,20.8,18.9,89,9,12.9,100.69,Cloudy,1.7590894054480448
8/10/2012 9:00,20.2,18.6,91,13,11.3,100.7,Cloudy,1.762772169746578
8/10/2012 10:00,20.2,18.5,90,11,11.3,100.75,Cloudy,1.7609487211792867
8/10/2012 11:00,19.9,18.5,92,15,6.4,100.73,Fog,1.764560779079539
8/10/2012 12:00,20.8,18.8,88,17,6.4,100.73,Fog,1.7571931537828946
8/10/2012 13:00,21.3,19.2,88,19,6.4,100.7,"Rain,Fog",1.7571931537828946
8/10/2012 14:00,21.7,19.3,86,19,8.0,100.64,"Rain,Fog",1.7530322801745157
8/10/2012 15:00,21.0,19.5,91,20,6.4,100.63,"Rain,Fog",1.762772169746578
8/10/2012 16:00,20.7,19.0,90,20,8.0,100.65,"Rain,Fog",1.7609487211792867
8/10/2012 17:00,20.6,19.0,91,20,8.0,100.63,"Rain,Fog",1.762772169746578
8/10/2012 18:00,20.0,18.9,93,22,6.4,100.62,"Rain,Fog",1.7663155381997573
8/10/2012 19:00,19.6,18.5,93,24,4.8,100.63,"Rain,Fog",1.7663155381997573
8/10/2012 20:00,19.1,17.9,93,17,12.9,100.65,Rain,1.7663155381997573
8/10/2012 21:00,18.5,17.7,95,22,16.1,100.62,Rain,1.768832975474038
8/10/2012 22:00,18.2,17.4,95,20,25.0,100.58,Cloudy,1.768832975474038
8/10/2012 23:00,18.0,17.2,95,19,25.0,100.56,Cloudy,1.768832975474038
8/11/2012 0:00,17.9,17.0,94,20,16.1,100.57,Cloudy,1.7677471105115399
8/11/2012 1:00,17.5,16.7,95,19,16.1,100.57,Cloudy,1.768832975474038
8/11/2012 2:00,17.6,16.8,95,19,16.1,100.54,Cloudy,1.768832975474038
8/11/2012 3:00,17.5,16.7,95,22,16.1,100.53,Cloudy,1.768832975474038
8/11/2012 4:00,17.2,16.7,97,24,16.1,100.54,Rain Showers,1.7709745267585884
8/11/2012 5:00,17.2,16.7,97,22,12.9,100.57,Cloudy,1.7709745267585884
8/11/2012 6:00,17.4,16.7,96,20,16.1,100.61,Cloudy,1.7699087340766253
8/11/2012 7:00,18.4,17.2,93,17,12.9,100.65,Cloudy,1.7663155381997573
8/11/2012 8:00,19.4,17.8,90,15,12.9,100.66,Cloudy,1.7609487211792867
8/11/2012 9:00,20.4,18.0,86,15,24.1,100.66,Cloudy,1.7530322801745157
8/11/2012 10:00,22.3,19.0,82,11,24.1,100.65,Cloudy,1.7434626346010758
8/11/2012 11:00,23.9,19.8,78,13,24.1,100.61,Mostly Cloudy,1.733057876440812
8/11/2012 12:00,26.1,20.6,72,9,24.1,100.58,Mostly Cloudy,1.7154802667147235
8/11/2012 13:00,26.9,20.0,66,15,24.1,100.51,Cloudy,1.1750318113220146
8/11/2012 14:00,27.3,20.1,65,17,24.1,100.47,Cloudy,1.1136122370198804
8/11/2012 15:00,27.5,19.9,63,19,24.1,100.42,Cloudy,1.0503413361747098
8/11/2012 16:00,26.8,20.5,68,9,24.1,100.36,Cloudy,1.3579319565140906
8/11/2012 17:00,20.2,19.5,96,32,12.9,100.58,"Thunderstorms,Rain Showers",1.7699087340766253
8/11/2012 18:00,19.6,18.7,95,19,24.1,100.59,Rain Showers,1.768832975474038
8/11/2012 19:00,20.4,18.6,89,11,24.1,100.59,Mainly Clear,1.7590894054480448
8/11/2012 20:00,19.9,18.9,94,13,25.0,100.65,Mostly Cloudy,1.7677471105115399
8/11/2012 21:00,20.0,18.5,91,9,25.0,100.68,Mostly Cloudy,1.762772169746578
8/11/2012 22:00,20.0,18.6,92,9,25.0,100.72,Cloudy,1.764560779079539
8/11/2012 23:00,20.0,18.8,93,9,25.0,100.71,Mostly Cloudy,1.7663155381997573
8/12/2012 0:00,20.1,18.9,93,4,19.3,100.7,Mostly Cloudy,1.7663155381997573
8/12/2012 1:00,19.7,19.2,97,6,19.3,100.69,Cloudy,1.7709745267585884
8/12/2012 2:00,19.7,19.0,96,4,12.9,100.66,Cloudy,1.7699087340766253
8/12/2012 3:00,19.5,19.0,97,0,12.9,100.65,Mostly Cloudy,1.7709745267585884
8/12/2012 4:00,19.5,18.8,96,4,9.7,100.68,Fog,1.7699087340766253
8/12/2012 5:00,19.6,18.7,95,4,8.0,100.75,Fog,1.768832975474038
8/12/2012 6:00,19.8,18.9,95,9,12.9,100.75,Mostly Cloudy,1.768832975474038
8/12/2012 7:00,20.5,19.0,91,7,24.1,100.79,Mostly Cloudy,1.762772169746578
8/12/2012 8:00,21.6,17.8,79,15,24.1,100.8,Mostly Cloudy,1.7357508862871274
8/12/2012 9:00,22.3,16.6,70,19,48.3,100.79,Mainly Clear,1.7091525423728813
8/12/2012 10:00,22.9,16.7,68,17,48.3,100.76,Mainly Clear,1.3579319565140906
8/12/2012 11:00,24.0,17.6,67,13,48.3,100.72,Mainly Clear,1.2523873978786297
8/12/2012 12:00,24.4,16.9,63,17,48.3,100.67,Mainly Clear,1.0503413361747098
8/12/2012 13:00,25.4,17.2,60,13,48.3,100.64,Mainly Clear,0.9999888186332162
8/12/2012 14:00,26.4,17.0,56,13,48.3,100.62,Mainly Clear,0.9607879911134949
8/12/2012 15:00,26.2,16.9,57,15,48.3,100.58,Mainly Clear,0.9684584060262452
8/12/2012 16:00,26.7,16.9,55,17,48.3,100.56,Mainly Clear,0.9531525027978544
8/12/2012 17:00,26.0,16.9,57,17,24.1,100.55,Mostly Cloudy,0.9684584060262452
8/12/2012 18:00,23.2,18.6,75,15,48.3,100.61,Mainly Clear,1.7241591468416737
8/12/2012 19:00,23.2,17.8,72,15,24.1,100.63,Mainly Clear,1.7154802667147235
8/12/2012 20:00,22.9,17.5,72,13,25.0,100.69,Mainly Clear,1.7154802667147235
8/12/2012 21:00,22.3,17.8,76,11,25.0,100.71,Mainly Clear,1.7272721454173066
8/12/2012 22:00,21.8,17.7,78,17,25.0,100.7,Mainly Clear,1.733057876440812
8/12/2012 23:00,21.8,17.8,78,19,25.0,100.69,Mainly Clear,1.733057876440812
8/13/2012 0:00,21.3,17.3,78,22,25.0,100.68,Clear,1.733057876440812
8/13/2012 1:00,20.9,17.5,81,15,25.0,100.68,Clear,1.7408722768108806
8/13/2012 2:00,20.4,17.6,84,13,25.0,100.67,Mainly Clear,1.7483983249034645
8/13/2012 3:00,20.2,18.0,87,9,25.0,100.7,Mainly Clear,1.755244623603565
8/13/2012 4:00,19.5,17.3,87,9,25.0,100.74,Mainly Clear,1.755244623603565
8/13/2012 5:00,19.5,17.5,88,13,24.1,100.78,Mainly Clear,1.7571931537828946
8/13/2012 6:00,19.7,17.6,88,13,24.1,100.81,Mainly Clear,1.7571931537828946
8/13/2012 7:00,19.9,17.5,86,19,19.3,100.87,Cloudy,1.7530322801745157
8/13/2012 8:00,20.9,18.0,83,13,19.3,100.89,Mostly Cloudy,1.7459700090483987
8/13/2012 9:00,21.9,18.0,79,15,19.3,100.88,Mostly Cloudy,1.7357508862871274
8/13/2012 10:00,22.4,17.8,75,22,19.3,100.88,Mostly Cloudy,1.7241591468416737
8/13/2012 11:00,22.5,17.8,75,20,24.1,100.87,Mostly Cloudy,1.7241591468416737
8/13/2012 12:00,23.8,17.4,67,17,24.1,100.85,Mostly Cloudy,1.2523873978786297
8/13/2012 13:00,25.2,17.9,64,20,24.1,100.82,Mostly Cloudy,1.0754917436180753
8/13/2012 14:00,25.1,17.4,62,19,24.1,100.79,Mostly Cloudy,1.0305025778855286
8/13/2012 15:00,25.4,17.4,61,13,24.1,100.74,Mostly Cloudy,1.031423503503831
8/13/2012 16:00,25.2,17.1,61,19,24.1,100.76,Mostly Cloudy,1.0147471754365818
8/13/2012 17:00,24.5,18.0,67,11,24.1,100.78,Mostly Cloudy,1.2523873978786297
8/13/2012 18:00,24.6,16.9,62,11,24.1,100.8,Mostly Cloudy,1.0305025778855286
8/13/2012 19:00,24.4,17.4,65,7,24.1,100.8,Mainly Clear,1.1136122370198804
8/13/2012 20:00,23.2,17.6,71,7,25.0,100.83,Mainly Clear,1.712430565280306
8/13/2012 21:00,22.4,17.8,75,6,25.0,100.87,Mainly Clear,1.7241591468416737
8/13/2012 22:00,22.2,17.7,76,9,25.0,100.88,Mainly Clear,1.7272721454173066
8/13/2012 23:00,21.7,17.3,76,9,25.0,100.86,Mainly Clear,1.7272721454173066
8/14/2012 0:00,21.2,17.4,79,7,25.0,100.85,Mainly Clear,1.7357508862871274
8/14/2012 1:00,21.1,17.7,81,9,25.0,100.85,Mainly Clear,1.7408722768108806
8/14/2012 2:00,20.9,18.2,85,11,25.0,100.83,Mostly Cloudy,1.7507512632600475
8/14/2012 3:00,20.7,17.6,82,11,25.0,100.82,Mainly Clear,1.7434626346010758
8/14/2012 4:00,19.5,17.4,88,6,25.0,100.83,Mostly Cloudy,1.7571931537828946
8/14/2012 5:00,19.8,17.3,86,7,24.1,100.84,Mainly Clear,1.7530322801745157
8/14/2012 6:00,20.9,17.2,79,9,24.1,100.83,Mostly Cloudy,1.7357508862871274
8/14/2012 7:00,21.0,16.7,76,13,24.1,100.88,Mostly Cloudy,1.7272721454173066
8/14/2012 8:00,21.9,17.1,74,9,24.1,100.87,Mostly Cloudy,1.7209839103698092
8/14/2012 9:00,21.9,17.8,78,11,24.1,100.89,Cloudy,1.733057876440812
8/14/2012 10:00,21.9,18.1,79,15,24.1,100.88,Cloudy,1.7357508862871274
8/14/2012 11:00,21.9,18.2,80,15,24.1,100.86,Cloudy,1.7383226557949913
8/14/2012 12:00,22.6,18.5,78,9,24.1,100.84,Cloudy,1.733057876440812
8/14/2012 13:00,23.7,19.2,76,15,24.1,100.79,Mostly Cloudy,1.7272721454173066
8/14/2012 14:00,24.2,18.5,71,13,24.1,100.75,Mostly Cloudy,1.712430565280306
8/14/2012 15:00,25.7,18.4,64,15,24.1,100.71,Mostly Cloudy,1.0754917436180753
8/14/2012 16:00,24.5,17.2,64,7,24.1,100.69,Mostly Cloudy,1.0754917436180753
8/14/2012 17:00,24.9,17.2,62,7,24.1,100.67,Mostly Cloudy,1.0305025778855286
8/14/2012 18:00,24.5,17.1,63,6,24.1,100.69,Mostly Cloudy,1.0503413361747098
8/14/2012 19:00,24.3,17.2,65,0,24.1,100.67,Mostly Cloudy,1.1136122370198804
8/14/2012 20:00,23.3,17.8,71,6,25.0,100.68,Mostly Cloudy,1.712430565280306
8/14/2012 21:00,23.0,18.5,76,6,25.0,100.69,Cloudy,1.7272721454173066
8/14/2012 22:00,22.2,17.7,76,4,25.0,100.66,Cloudy,1.7272721454173066
8/14/2012 23:00,21.7,17.8,79,4,25.0,100.64,Cloudy,1.7357508862871274
8/15/2012 0:00,21.4,17.4,78,4,25.0,100.61,Cloudy,1.733057876440812
8/15/2012 1:00,21.2,18.0,82,20,25.0,100.65,Rain Showers,1.7434626346010758
8/15/2012 2:00,19.5,18.7,95,9,25.0,100.63,Rain,1.768832975474038
8/15/2012 3:00,19.1,18.0,93,9,25.0,100.58,Cloudy,1.7663155381997573
8/15/2012 4:00,18.8,17.7,93,4,19.3,100.56,Cloudy,1.7663155381997573
8/15/2012 5:00,18.9,17.6,92,4,24.1,100.62,Cloudy,1.764560779079539
8/15/2012 6:00,19.3,17.5,89,0,24.1,100.65,Cloudy,1.7590894054480448
8/15/2012 7:00,18.8,17.7,93,0,24.1,100.69,Drizzle,1.7663155381997573
8/15/2012 8:00,20.1,18.2,89,0,24.1,100.69,Mostly Cloudy,1.7590894054480448
8/15/2012 9:00,21.0,18.4,85,11,24.1,100.73,Mostly Cloudy,1.7507512632600475
8/15/2012 10:00,21.5,18.3,82,13,24.1,100.75,Cloudy,1.7434626346010758
8/15/2012 11:00,21.6,18.2,81,9,24.1,100.78,Mostly Cloudy,1.7408722768108806
8/15/2012 12:00,23.7,17.8,70,7,24.1,100.73,Mostly Cloudy,1.7091525423728813
8/15/2012 13:00,25.3,18.0,64,9,24.1,100.72,Mostly Cloudy,1.0754917436180753
8/15/2012 14:00,25.2,16.7,59,15,24.1,100.7,Mainly Clear,0.987994578192502
8/15/2012 15:00,25.7,17.8,62,15,24.1,100.68,Mainly Clear,1.0305025778855286
8/15/2012 16:00,25.7,16.4,56,17,24.1,100.69,Mainly Clear,0.9881664941680737
8/15/2012 17:00,25.6,15.7,54,13,24.1,100.67,Mainly Clear,0.9674692013476733
8/15/2012 18:00,24.9,16.0,58,13,24.1,100.68,Mainly Clear,0.9771086735653381
8/15/2012 19:00,22.5,16.1,67,7,24.1,100.69,Mainly Clear,1.518460377232326
8/15/2012 20:00,21.7,16.1,70,6,25.0,100.71,Mainly Clear,1.7091525423728813
8/15/2012 21:00,20.4,15.9,75,6,25.0,100.7,Clear,1.7241591468416737
8/15/2012 22:00,19.9,16.0,78,7,25.0,100.76,Mainly Clear,1.733057876440812
8/15/2012 23:00,20.6,16.5,77,0,25.0,100.81,Mainly Clear,1.7302348458823897
8/16/2012 0:00,18.9,16.2,84,9,25.0,100.76,Clear,1.7483983249034645
8/16/2012 1:00,18.5,16.0,85,9,25.0,100.76,Mainly Clear,1.7507512632600475
8/16/2012 2:00,17.8,15.7,88,6,25.0,100.75,Mainly Clear,1.7571931537828946
8/16/2012 3:00,17.4,15.6,89,6,25.0,100.76,Mainly Clear,1.7590894054480448
8/16/2012 4:00,16.7,15.2,91,6,25.0,100.79,Mainly Clear,1.762772169746578
8/16/2012 5:00,16.6,15.3,92,0,25.0,100.81,Mainly Clear,1.764560779079539
8/16/2012 6:00,18.2,15.7,85,0,48.3,100.85,Mainly Clear,1.7507512632600475
8/16/2012 7:00,19.3,16.8,85,9,24.1,100.87,Mostly Cloudy,1.7507512632600475
8/16/2012 8:00,20.5,17.2,81,7,48.3,100.82,Mainly Clear,1.7408722768108806
8/16/2012 9:00,21.7,17.8,79,0,48.3,100.79,Mostly Cloudy,1.7357508862871274
8/16/2012 10:00,23.8,17.7,69,0,24.1,100.78,Mainly Clear,1.505906587803386
8/16/2012 11:00,23.8,17.3,67,7,24.1,100.74,Mostly Cloudy,1.2523873978786297
8/16/2012 12:00,24.9,16.7,60,6,24.1,100.71,Mostly Cloudy,0.9999888186332162
8/16/2012 13:00,25.8,17.3,59,11,24.1,100.71,Mainly Clear,1.024958144299409
8/16/2012 14:00,25.9,15.7,53,17,24.1,100.71,Mainly Clear,0.9594353107757405
8/16/2012 15:00,26.9,15.6,50,13,24.1,100.63,Mainly Clear,0.9341256935757851
8/16/2012 16:00,27.0,12.6,41,7,24.1,100.54,Mainly Clear,1.1101220760207142
8/16/2012 17:00,26.4,14.7,49,9,24.1,100.53,Mainly Clear,0.9343319325939168
8/16/2012 18:00,24.9,14.4,52,7,24.1,100.49,Clear,0.9393649710689194
8/16/2012 19:00,23.7,13.8,54,4,24.1,100.5,Mainly Clear,0.9472289954341503
8/16/2012 20:00,23.5,15.3,60,6,25.0,100.52,Mainly Clear,0.9999888186332162
8/16/2012 21:00,21.6,17.4,77,6,25.0,100.5,Mainly Clear,1.7302348458823897
8/16/2012 22:00,22.0,17.5,76,4,25.0,100.48,Mainly Clear,1.7272721454173066
8/16/2012 23:00,22.3,17.6,75,9,25.0,100.48,Mainly Clear,1.7241591468416737
8/17/2012 0:00,21.9,17.0,74,7,25.0,100.51,Mainly Clear,1.7209839103698092
8/17/2012 1:00,21.1,17.3,79,11,25.0,100.47,Clear,1.7357508862871274
8/17/2012 2:00,18.9,16.5,86,4,25.0,100.44,Clear,1.7530322801745157
8/17/2012 3:00,18.7,16.3,86,0,25.0,100.37,Clear,1.7530322801745157
8/17/2012 4:00,18.2,16.1,88,11,25.0,100.32,Mainly Clear,1.7571931537828946
8/17/2012 5:00,17.6,15.3,86,7,25.0,100.3,Clear,1.7530322801745157
8/17/2012 6:00,18.2,14.9,81,11,24.1,100.28,Mostly Cloudy,1.7408722768108806
8/17/2012 7:00,19.5,16.0,80,15,24.1,100.24,Mostly Cloudy,1.7383226557949913
8/17/2012 8:00,21.1,17.3,79,17,24.1,100.21,Cloudy,1.7357508862871274
8/17/2012 9:00,21.4,17.0,76,17,24.1,100.17,Rain Showers,1.7272721454173066
8/17/2012 10:00,21.8,17.0,74,13,24.1,100.13,Cloudy,1.7209839103698092
8/17/2012 11:00,23.5,17.8,70,11,24.1,100.1,Cloudy,1.7091525423728813
8/17/2012 12:00,22.7,19.1,80,15,24.1,100.09,Rain Showers,1.7383226557949913
8/17/2012 13:00,24.1,19.2,74,20,24.1,100.06,Cloudy,1.7209839103698092
8/17/2012 14:00,24.8,18.6,68,24,24.1,100.06,Cloudy,1.3579319565140906
8/17/2012 15:00,24.9,15.8,57,30,24.1,100.11,Mostly Cloudy,0.9684584060262452
8/17/2012 16:00,24.3,14.6,55,28,24.1,100.14,Mostly Cloudy,0.9598083804493432
8/17/2012 17:00,24.8,15.7,57,30,24.1,100.15,Mostly Cloudy,0.9684584060262452
8/17/2012 18:00,23.9,16.1,62,24,48.3,100.19,Mostly Cloudy,1.032025088999254
8/17/2012 19:00,23.4,16.3,64,17,48.3,100.24,Mainly Clear,1.1108391359703216
8/17/2012 20:00,22.4,15.8,66,13,25.0,100.34,Mainly Clear,1.7149843388327275
8/17/2012 21:00,21.7,14.9,65,9,25.0,100.37,Mainly Clear,1.1136122370198804
8/17/2012 22:00,21.1,14.2,65,13,25.0,100.4,Mainly Clear,1.7137378458188146
8/17/2012 23:00,18.6,13.0,70,13,25.0,100.44,Mainly Clear,1.7091525423728813
8/18/2012 0:00,18.1,11.3,64,11,25.0,100.47,Mainly Clear,1.0754917436180753
8/18/2012 1:00,17.7,11.3,66,9,25.0,100.51,Clear,1.6960165533823464
8/18/2012 2:00,15.3,11.1,76,7,25.0,100.52,Mainly Clear,1.7272721454173066
8/18/2012 3:00,15.7,11.2,75,7,25.0,100.54,Mainly Clear,1.7241591468416737
8/18/2012 4:00,14.8,10.9,77,11,25.0,100.57,Mainly Clear,1.7302348458823897
8/18/2012 5:00,14.8,11.1,78,13,24.1,100.64,Mainly Clear,1.733057876440812
8/18/2012 6:00,15.1,12.0,82,17,48.3,100.69,Mainly Clear,1.7434626346010758
8/18/2012 7:00,15.6,12.2,80,20,48.3,100.77,Mainly Clear,1.7383226557949913
8/18/2012 8:00,17.1,12.6,75,17,48.3,100.79,Mainly Clear,1.7241591468416737
8/18/2012 9:00,18.0,11.7,67,19,24.1,100.82,Mainly Clear,1.2523873978786297
8/18/2012 10:00,18.3,11.6,65,17,24.1,100.83,Mostly Cloudy,1.1136122370198804
8/18/2012 11:00,19.0,10.9,59,19,48.3,100.84,Mostly Cloudy,1.6959586063754493
8/18/2012 12:00,21.0,11.2,53,22,48.3,100.83,Mainly Clear,1.6917708059020211
8/18/2012 13:00,21.2,10.4,50,20,48.3,100.85,Mainly Clear,0.9530057849163063
8/18/2012 14:00,20.1,10.2,53,17,48.3,100.81,Mainly Clear,0.9542095625391
8/18/2012 15:00,22.0,9.3,44,20,48.3,100.79,Mainly Clear,0.9471376805733978
8/18/2012 16:00,21.3,7.8,42,22,48.3,100.78,Mostly Cloudy,0.9513855091835447
8/18/2012 17:00,21.3,8.1,43,13,48.3,100.78,Mostly Cloudy,0.945948721343493
8/18/2012 18:00,20.8,6.9,40,15,48.3,100.8,Mostly Cloudy,0.9557861893691004
8/18/2012 19:00,18.4,7.6,49,11,48.3,100.83,Mainly Clear,1.0434041057083103
8/18/2012 20:00,18.6,7.9,50,7,25.0,100.88,Clear,1.6912869633611172
8/18/2012 21:00,15.9,8.6,62,6,25.0,100.88,Clear,1.6879204535023862
8/18/2012 22:00,15.2,8.9,66,6,25.0,100.89,Mainly Clear,1.3983239603459894
8/18/2012 23:00,16.6,10.2,66,0,25.0,100.91,Clear,1.6960165533823464
8/19/2012 0:00,16.0,11.5,75,9,25.0,100.96,Clear,1.7241591468416737
8/19/2012 1:00,16.6,9.9,65,13,25.0,100.98,Clear,1.6929583486014415
8/19/2012 2:00,16.3,11.2,72,13,25.0,100.96,Clear,1.7154802667147235
8/19/2012 3:00,15.8,11.2,74,11,25.0,100.94,Clear,1.7209839103698092
8/19/2012 4:00,13.3,10.9,85,7,25.0,100.94,Clear,1.7507512632600475
8/19/2012 5:00,12.8,11.0,89,9,24.1,100.97,Mainly Clear,1.7590894054480448
8/19/2012 6:00,15.2,12.2,82,15,48.3,101.02,Mainly Clear,1.7434626346010758
8/19/2012 7:00,16.5,12.6,78,13,48.3,101.06,Mainly Clear,1.733057876440812
8/19/2012 8:00,17.5,13.3,76,15,48.3,101.06,Clear,1.7272721454173066
8/19/2012 9:00,19.4,14.3,72,11,48.3,101.06,Mainly Clear,1.7154802667147235
8/19/2012 10:00,20.6,14.5,68,9,48.3,101.02,Mainly Clear,1.3579319565140906
8/19/2012 11:00,22.5,13.8,58,15,48.3,101.0,Mainly Clear,0.9804725795267282
8/19/2012 12:00,23.3,12.7,51,15,48.3,100.93,Mostly Cloudy,0.947303088880218
8/19/2012 13:00,23.3,11.3,47,13,48.3,100.9,Mostly Cloudy,0.9471346538122674
8/19/2012 14:00,24.5,10.6,42,15,48.3,100.84,Mostly Cloudy,0.949155270668292
8/19/2012 15:00,23.5,11.3,46,17,48.3,100.77,Mostly Cloudy,0.9583600267951966
8/19/2012 16:00,23.5,11.0,45,13,48.3,100.74,Cloudy,0.9423009710029969
8/19/2012 17:00,23.7,10.6,44,13,48.3,100.73,Mostly Cloudy,0.9432590533134183
8/19/2012 18:00,22.1,12.3,54,9,48.3,100.74,Mostly Cloudy,0.9762040442533474
8/19/2012 19:00,20.7,11.7,56,11,48.3,100.75,Mostly Cloudy,0.9733279394170808
8/19/2012 20:00,19.5,12.1,62,6,25.0,100.83,Mainly Clear,1.6900607658052187
8/19/2012 21:00,16.7,12.2,75,4,25.0,100.81,Mainly Clear,1.7241591468416737
8/19/2012 22:00,17.6,11.6,68,0,25.0,100.79,Clear,1.6224732421763122
8/19/2012 23:00,16.8,11.6,71,0,25.0,100.78,Mainly Clear,1.712430565280306
8/20/2012 0:00,15.4,11.9,80,0,25.0,100.79,Mainly Clear,1.7383226557949913
8/20/2012 1:00,16.5,13.6,83,0,25.0,100.75,Mainly Clear,1.7459700090483987
8/20/2012 2:00,15.3,13.5,89,0,25.0,100.75,Clear,1.7590894054480448
8/20/2012 3:00,15.6,13.3,86,0,25.0,100.75,Mainly Clear,1.7530322801745157
8/20/2012 4:00,15.3,13.2,87,0,25.0,100.72,Mainly Clear,1.755244623603565
8/20/2012 5:00,14.5,13.4,93,0,25.0,100.72,Mainly Clear,1.7663155381997573
8/20/2012 6:00,16.0,12.8,81,6,48.3,100.76,Mainly Clear,1.7408722768108806
8/20/2012 7:00,17.8,13.6,76,7,48.3,100.77,Mainly Clear,1.7272721454173066
8/20/2012 8:00,19.0,14.4,75,11,48.3,100.76,Mainly Clear,1.7241591468416737
8/20/2012 9:00,20.2,13.9,67,11,48.3,100.78,Clear,1.2523873978786297
8/20/2012 10:00,21.6,14.2,63,17,48.3,100.77,Mostly Cloudy,1.0503413361747098
8/20/2012 11:00,23.1,15.7,63,13,48.3,100.74,Mainly Clear,1.0503413361747098
8/20/2012 12:00,24.8,13.5,49,17,24.1,100.69,Mainly Clear,0.9383221674064208
8/20/2012 13:00,24.6,13.2,49,17,24.1,100.64,Mainly Clear,0.9386179657939492
8/20/2012 14:00,25.2,11.7,43,11,24.1,100.62,Mainly Clear,0.945948721343493
8/20/2012 15:00,24.6,10.5,41,15,24.1,100.6,Mainly Clear,1.7510056351272323
8/20/2012 16:00,24.4,10.4,41,13,24.1,100.56,Clear,1.1989858012170436
8/20/2012 17:00,23.8,10.6,43,13,24.1,100.57,Mainly Clear,0.9522377767798574
8/20/2012 18:00,22.5,10.0,45,17,24.1,100.64,Mainly Clear,0.9541096582637146
8/20/2012 19:00,20.1,9.0,49,9,24.1,100.69,Mainly Clear,0.9348146510726641
8/20/2012 20:00,18.4,9.4,56,9,25.0,100.75,Clear,1.706203189091571
8/20/2012 21:00,18.2,9.9,58,7,25.0,100.77,Mainly Clear,1.710219592300756
8/20/2012 22:00,18.5,10.0,58,7,25.0,100.78,Mainly Clear,1.4270857513846058
8/20/2012 23:00,16.6,10.8,69,6,25.0,100.8,Mainly Clear,1.505906587803386
8/21/2012 0:00,16.5,10.4,67,4,25.0,100.82,Mainly Clear,1.2523873978786297
8/21/2012 1:00,15.0,10.8,76,4,25.0,100.85,Mainly Clear,1.7272721454173066
8/21/2012 2:00,15.9,11.0,73,0,25.0,100.9,Mostly Cloudy,1.718324698506683
8/21/2012 3:00,15.9,11.3,74,0,25.0,100.92,Mostly Cloudy,1.7209839103698092
8/21/2012 4:00,16.1,11.0,72,6,25.0,100.93,Mainly Clear,1.7154802667147235
8/21/2012 5:00,15.0,10.3,73,0,24.1,100.99,Mainly Clear,1.733892604140539
8/21/2012 6:00,14.6,10.9,78,7,48.3,101.02,Mainly Clear,1.733057876440812
8/21/2012 7:00,17.2,12.6,74,6,48.3,101.08,Mainly Clear,1.7209839103698092
8/21/2012 8:00,19.3,11.8,62,7,48.3,101.12,Mostly Cloudy,1.0448848013198426
8/21/2012 9:00,20.4,9.1,48,13,48.3,101.15,Mostly Cloudy,0.9396007290989293
8/21/2012 10:00,21.8,10.9,50,13,48.3,101.18,Mainly Clear,0.9725697878041681
8/21/2012 11:00,21.1,9.6,48,11,48.3,101.17,Mainly Clear,0.9511687933805203
8/21/2012 12:00,23.7,10.4,43,17,48.3,101.19,Mainly Clear,0.945948721343493
8/21/2012 13:00,23.2,10.3,44,22,48.3,101.19,Mostly Cloudy,0.9680100049475849
8/21/2012 14:00,22.6,10.9,48,15,48.3,101.18,Mostly Cloudy,0.9490985329643292
8/21/2012 15:00,23.4,11.4,47,19,48.3,101.15,Mostly Cloudy,0.9376420101858668
8/21/2012 16:00,23.1,11.9,49,17,48.3,101.14,Mostly Cloudy,0.9364400483196567
8/21/2012 17:00,22.6,10.9,48,19,48.3,101.17,Mostly Cloudy,0.9394114994226027
8/21/2012 18:00,22.4,10.8,48,13,48.3,101.18,Mostly Cloudy,0.9470258158948581
8/21/2012 19:00,22.1,11.7,52,7,48.3,101.21,Mostly Cloudy,0.9872101267988054
8/21/2012 20:00,21.5,10.7,50,6,25.0,101.25,Mainly Clear,1.1358463484318615
8/21/2012 21:00,19.2,12.9,67,20,24.1,101.36,Mostly Cloudy,1.2523873978786297
8/21/2012 22:00,18.5,13.3,72,6,25.0,101.33,Mostly Cloudy,1.7154802667147235
8/21/2012 23:00,18.1,13.6,75,4,25.0,101.34,Mostly Cloudy,1.7241591468416737
8/22/2012 0:00,19.0,14.6,76,13,25.0,101.34,Mostly Cloudy,1.7272721454173066
8/22/2012 1:00,18.6,14.7,78,15,25.0,101.33,Rain Showers,1.733057876440812
8/22/2012 2:00,18.8,13.8,73,11,25.0,101.35,Mostly Cloudy,1.718324698506683
8/22/2012 3:00,18.8,12.0,65,13,25.0,101.38,Cloudy,1.1136122370198804
8/22/2012 4:00,18.6,12.1,66,9,25.0,101.39,Cloudy,1.1750318113220146
8/22/2012 5:00,18.0,12.4,70,7,48.3,101.41,Mainly Clear,1.7091525423728813
8/22/2012 6:00,17.6,12.6,72,6,48.3,101.45,Mainly Clear,1.7154802667147235
8/22/2012 7:00,18.9,12.1,65,15,48.3,101.46,Mainly Clear,1.7218926557328915
8/22/2012 8:00,19.9,11.7,59,15,48.3,101.48,Mainly Clear,1.1454982515998957
8/22/2012 9:00,21.1,12.9,59,15,48.3,101.5,Mostly Cloudy,1.0360434872528272
8/22/2012 10:00,22.0,14.1,61,17,48.3,101.5,Mainly Clear,1.5030312312695329
8/22/2012 11:00,23.2,13.9,56,24,48.3,101.46,Mainly Clear,1.7655650782401084
8/22/2012 12:00,24.4,12.9,49,24,48.3,101.44,Mainly Clear,1.4017621590631935
8/22/2012 13:00,25.8,12.8,44,24,48.3,101.39,Mainly Clear,1.7291628268304842
8/22/2012 14:00,25.5,11.5,42,19,48.3,101.35,Mainly Clear,0.949155270668292
8/22/2012 15:00,25.7,10.9,39,20,48.3,101.33,Clear,0.9601509387055865
8/22/2012 16:00,25.6,10.6,39,28,48.3,101.28,Mainly Clear,0.98511639385589
8/22/2012 17:00,25.4,10.9,40,15,48.3,101.27,Mainly Clear,0.9557861893691004
8/22/2012 18:00,25.1,10.5,40,11,48.3,101.24,Mainly Clear,1.0321125618165852
8/22/2012 19:00,23.9,12.7,49,9,48.3,101.25,Mainly Clear,0.941439366682218
8/22/2012 20:00,23.3,14.6,58,13,25.0,101.28,Mainly Clear,1.7065394180694635
8/22/2012 21:00,22.5,14.2,59,15,25.0,101.29,Clear,1.1141508230463033
8/22/2012 22:00,21.9,14.0,61,17,25.0,101.27,Mainly Clear,1.0147471754365818
8/22/2012 23:00,21.5,12.7,57,19,25.0,101.26,Mainly Clear,1.0372695209292229
8/23/2012 0:00,20.7,12.0,57,11,24.1,101.29,Mainly Clear,1.0118273215803093
8/23/2012 1:00,20.2,12.9,63,13,25.0,101.29,Mainly Clear,1.0707381838963268
8/23/2012 2:00,19.3,13.0,67,13,25.0,101.32,Mostly Cloudy,1.7024813328556168
8/23/2012 3:00,18.9,12.8,68,13,25.0,101.31,Mainly Clear,1.7422622200669449
8/23/2012 4:00,18.9,13.5,71,15,25.0,101.31,Mainly Clear,1.712430565280306
8/23/2012 5:00,18.5,14.3,77,15,25.0,101.33,Mainly Clear,1.7302348458823897
8/23/2012 6:00,19.1,15.2,78,24,24.1,101.36,Mainly Clear,1.733057876440812
8/23/2012 7:00,20.3,15.9,76,19,24.1,101.37,Clear,1.7272721454173066
8/23/2012 8:00,21.8,15.8,69,22,24.1,101.37,Mainly Clear,1.505906587803386
8/23/2012 9:00,22.9,16.8,69,24,48.3,101.39,Mainly Clear,1.505906587803386
8/23/2012 10:00,23.9,15.1,58,22,48.3,101.39,Mainly Clear,1.0395155104028648
8/23/2012 11:00,26.0,16.0,54,24,48.3,101.37,Mainly Clear,0.9651528056474852
8/23/2012 12:00,26.5,15.5,51,28,48.3,101.36,Mostly Cloudy,1.0155189631944528
8/23/2012 13:00,27.0,15.6,50,26,48.3,101.37,Mostly Cloudy,1.7337838112212713
8/23/2012 14:00,25.0,15.4,55,13,24.1,101.37,Rain Showers,0.9600102206604106
8/23/2012 15:00,25.8,16.2,55,19,48.3,101.35,Mostly Cloudy,0.9698528382689605
8/23/2012 16:00,25.6,15.5,54,22,48.3,101.34,Mainly Clear,1.033709415555582
8/23/2012 17:00,25.9,15.7,53,17,48.3,101.33,Mainly Clear,1.0150750545340081
8/23/2012 18:00,25.0,16.0,57,11,48.3,101.34,Mainly Clear,0.9820769913799876
8/23/2012 19:00,22.6,15.8,65,9,25.0,101.36,Mainly Clear,1.4915368565981293
8/23/2012 20:00,21.8,16.1,70,7,25.0,101.41,Clear,1.7091525423728813
8/23/2012 21:00,22.9,16.6,68,7,25.0,101.47,Mainly Clear,1.3579319565140906
8/23/2012 22:00,20.5,16.3,77,6,25.0,101.53,Mostly Cloudy,1.7302348458823897
8/23/2012 23:00,21.8,16.7,73,6,25.0,101.55,Mainly Clear,1.718324698506683
8/24/2012 0:00,19.1,16.2,83,4,25.0,101.59,Mainly Clear,1.7459700090483987
8/24/2012 1:00,19.2,15.6,80,13,25.0,101.62,Mainly Clear,1.7383226557949913
8/24/2012 2:00,20.4,12.4,60,9,25.0,101.63,Mostly Cloudy,1.5348691356517263
8/24/2012 3:00,19.6,12.4,63,13,25.0,101.64,Mainly Clear,1.7107150399825046
8/24/2012 4:00,19.0,12.6,66,13,25.0,101.65,Mainly Clear,1.1750318113220146
8/24/2012 5:00,16.4,13.7,84,6,48.3,101.72,Mainly Clear,1.7483983249034645
8/24/2012 6:00,16.6,12.9,79,11,48.3,101.76,Mainly Clear,1.7357508862871274
8/24/2012 7:00,18.5,12.4,68,11,24.1,101.78,Mainly Clear,1.7018006700167505
8/24/2012 8:00,20.7,13.0,61,7,24.1,101.8,Clear,1.7178431431012091
8/24/2012 9:00,22.1,13.1,57,9,48.3,101.81,Mainly Clear,1.0252368515562
8/24/2012 10:00,24.2,13.3,51,13,48.3,101.84,Mainly Clear,1.7364308732710696
8/24/2012 11:00,25.4,13.4,47,0,48.3,101.82,Mainly Clear,0.9432056471698422
8/24/2012 12:00,26.5,13.9,46,6,48.3,101.8,Mainly Clear,1.2604584905690654
8/24/2012 13:00,27.3,14.2,45,4,48.3,101.77,Mainly Clear,0.9444581034687294
8/24/2012 14:00,27.7,13.5,42,11,48.3,101.71,Mainly Clear,0.949155270668292
8/24/2012 15:00,27.7,12.5,39,9,48.3,101.69,Mainly Clear,0.9601509387055865
8/24/2012 16:00,27.9,13.3,41,11,48.3,101.68,Mainly Clear,0.9526517417795389
8/24/2012 17:00,27.3,13.7,43,6,48.3,101.7,Mainly Clear,0.945948721343493
8/24/2012 18:00,25.8,14.2,49,6,24.1,101.71,Mainly Clear,0.952208456797716
8/24/2012 19:00,26.1,13.4,45,11,25.0,101.73,Mostly Cloudy,0.9529394162243088
8/24/2012 20:00,25.9,13.1,45,13,25.0,101.76,Mostly Cloudy,1.6930309637690961
8/24/2012 21:00,24.9,13.3,48,7,25.0,101.77,Mainly Clear,0.9667839820623029
8/24/2012 22:00,23.0,14.3,58,11,25.0,101.77,Mainly Clear,0.9983157301365526
8/24/2012 23:00,22.4,13.8,58,13,25.0,101.79,Mainly Clear,1.5719260466951057
8/25/2012 0:00,22.1,13.9,60,9,25.0,101.8,Mostly Cloudy,1.2570415945877818
8/25/2012 1:00,21.6,14.0,62,11,25.0,101.77,Mainly Clear,1.686980882732449
8/25/2012 2:00,20.9,13.7,63,6,25.0,101.8,Mainly Clear,1.5354217601435616
8/25/2012 3:00,20.9,14.0,65,6,25.0,101.8,Mainly Clear,1.1173842600302843
8/25/2012 4:00,20.8,14.3,66,11,25.0,101.81,Mainly Clear,1.697501277197247
8/25/2012 5:00,20.4,14.6,69,4,24.1,101.88,Mainly Clear,1.7056195602958193
8/25/2012 6:00,20.2,15.1,72,6,24.1,101.93,Mainly Clear,1.7154802667147235
8/25/2012 7:00,21.5,15.9,70,6,24.1,101.96,Mainly Clear,1.7091525423728813
8/25/2012 8:00,21.9,16.4,71,4,24.1,101.96,Mainly Clear,1.712430565280306
8/25/2012 9:00,24.8,16.7,61,6,48.3,101.97,Mainly Clear,1.7112686262917505
8/25/2012 10:00,26.4,16.6,55,7,48.3,101.97,Clear,0.9610027939348217
8/25/2012 11:00,27.1,17.0,54,7,48.3,101.94,Mainly Clear,0.9497475138176877
8/25/2012 12:00,29.1,17.3,49,7,48.3,101.92,Mainly Clear,0.9351772615722915
8/25/2012 13:00,30.1,16.7,45,11,48.3,101.84,Clear,0.9403088027499734
8/25/2012 14:00,30.8,15.7,40,7,48.3,101.79,Mainly Clear,0.9557861893691004
8/25/2012 15:00,31.1,15.2,38,9,48.3,101.75,Mainly Clear,0.9638948809679477
8/25/2012 16:00,31.1,16.6,42,13,48.3,101.74,Mainly Clear,0.949155270668292
8/25/2012 17:00,30.2,17.1,45,11,48.3,101.72,Mainly Clear,1.3241127281619818
8/25/2012 18:00,28.9,16.5,47,13,48.3,101.74,Mainly Clear,1.1385159957366777
8/25/2012 19:00,27.0,16.3,52,9,25.0,101.76,Mainly Clear,0.9589171332437427
8/25/2012 20:00,26.5,16.6,55,13,25.0,101.78,Mainly Clear,1.7710858624766876
8/25/2012 21:00,25.3,17.1,60,11,25.0,101.76,Clear,1.025944864825234
8/25/2012 22:00,23.9,17.3,67,9,25.0,101.8,Clear,1.2523873978786297
8/25/2012 23:00,24.0,18.0,69,9,25.0,101.83,Clear,1.7712050306877543
8/26/2012 0:00,22.1,18.0,78,11,25.0,101.85,Clear,1.733057876440812
8/26/2012 1:00,22.4,18.4,78,6,25.0,101.89,Clear,1.733057876440812
8/26/2012 2:00,23.4,16.9,67,7,25.0,101.9,Clear,1.2809862482420409
8/26/2012 3:00,23.5,16.9,66,15,25.0,101.91,Clear,1.4978316434566297
8/26/2012 4:00,23.2,16.9,68,7,25.0,101.95,Clear,1.7728839275535384
8/26/2012 5:00,21.2,16.9,76,6,24.1,102.02,Clear,1.7272721454173066
8/26/2012 6:00,20.9,17.2,79,0,24.1,102.06,Clear,1.7357508862871274
8/26/2012 7:00,22.9,17.1,70,9,24.1,102.1,Clear,1.7091525423728813
8/26/2012 8:00,24.2,17.3,65,15,24.1,102.09,Mainly Clear,1.1585698648102967
8/26/2012 9:00,24.7,17.5,64,11,24.1,102.08,Mainly Clear,1.6895328361301014
8/26/2012 10:00,26.3,17.7,59,15,48.3,102.07,Mainly Clear,1.0432694269118536
8/26/2012 11:00,27.9,17.4,53,20,48.3,102.04,Mainly Clear,0.9447251149707636
8/26/2012 12:00,28.9,17.1,49,17,48.3,101.99,Mainly Clear,0.9345442238618821
8/26/2012 13:00,29.7,16.7,46,13,48.3,101.92,Mainly Clear,0.9384328601022601
8/26/2012 14:00,30.2,15.5,41,17,48.3,101.81,Mainly Clear,0.9526517417795389
8/26/2012 15:00,30.1,15.7,42,13,48.3,101.76,Mainly Clear,0.9510508440302412
8/26/2012 16:00,30.4,16.1,42,11,48.3,101.68,Mainly Clear,0.949155270668292
8/26/2012 17:00,29.5,16.8,46,4,48.3,101.62,Mainly Clear,1.7227714686949804
8/26/2012 18:00,28.5,15.2,44,11,48.3,101.56,Mainly Clear,0.9432590533134183
8/26/2012 19:00,27.2,14.9,47,15,25.0,101.55,Mainly Clear,0.9443570062392325
8/26/2012 20:00,25.7,15.8,54,11,25.0,101.56,Mainly Clear,0.9777288532249335
8/26/2012 21:00,24.8,16.1,58,9,25.0,101.55,Mostly Cloudy,1.7390469523787206
8/26/2012 22:00,23.9,16.9,65,15,25.0,101.52,Mostly Cloudy,1.1136122370198804
8/26/2012 23:00,24.3,17.5,66,15,25.0,101.51,Mostly Cloudy,1.1750318113220146
8/27/2012 0:00,24.3,16.9,63,15,25.0,101.49,Mostly Cloudy,1.071355327501141
8/27/2012 1:00,23.2,17.0,68,11,25.0,101.44,Mainly Clear,1.7018006700167505
8/27/2012 2:00,22.3,16.2,68,11,25.0,101.43,Mostly Cloudy,1.3579319565140906
8/27/2012 3:00,21.8,15.9,69,11,25.0,101.4,Mostly Cloudy,1.7056195602958193
8/27/2012 4:00,22.4,15.8,66,13,25.0,101.37,Mostly Cloudy,1.1750318113220146
8/27/2012 5:00,21.4,15.7,70,15,24.1,101.36,Mostly Cloudy,1.723171929731875
8/27/2012 6:00,22.0,16.4,71,13,24.1,101.38,Mostly Cloudy,1.712430565280306
8/27/2012 7:00,23.1,16.9,68,13,24.1,101.36,Mostly Cloudy,1.7167213407908524
8/27/2012 8:00,24.7,16.7,61,17,24.1,101.33,Mostly Cloudy,1.6997855941643767
8/27/2012 9:00,25.6,17.5,61,19,48.3,101.31,Mostly Cloudy,1.0147471754365818
8/27/2012 10:00,26.0,17.9,61,22,48.3,101.25,Mostly Cloudy,1.0413954575393907
8/27/2012 11:00,26.2,18.0,61,17,24.1,101.19,Cloudy,1.0197402166433913
8/27/2012 12:00,27.1,18.4,59,20,24.1,101.11,Cloudy,0.987994578192502
8/27/2012 13:00,26.7,18.4,60,20,24.1,101.03,Cloudy,1.0176835853612338
8/27/2012 14:00,26.4,18.2,61,17,24.1,100.95,Cloudy,1.0147471754365818
8/27/2012 15:00,26.0,18.2,62,15,24.1,100.87,Rain Showers,1.0305025778855286
8/27/2012 16:00,23.6,20.2,81,13,24.1,100.83,Rain Showers,1.7408722768108806
8/27/2012 17:00,22.4,20.5,89,13,24.1,100.84,Rain Showers,1.7590894054480448
8/27/2012 18:00,22.8,20.3,86,7,25.0,100.78,Cloudy,1.7530322801745157
8/27/2012 19:00,22.6,20.4,87,7,25.0,100.71,Cloudy,1.755244623603565
8/27/2012 20:00,22.8,20.1,85,13,25.0,100.68,Mostly Cloudy,1.7507512632600475
8/27/2012 21:00,21.8,20.6,93,11,25.0,100.66,Mostly Cloudy,1.7663155381997573
8/27/2012 22:00,22.3,20.2,88,15,25.0,100.63,Mostly Cloudy,1.7571931537828946
8/27/2012 23:00,22.5,19.1,81,22,25.0,100.59,Mostly Cloudy,1.7408722768108806
8/28/2012 0:00,21.8,19.1,85,26,25.0,100.53,Cloudy,1.7507512632600475
8/28/2012 1:00,21.5,19.2,87,15,25.0,100.49,Cloudy,1.755244623603565
8/28/2012 2:00,21.3,19.3,88,15,25.0,100.46,Cloudy,1.7571931537828946
8/28/2012 3:00,21.1,19.3,89,13,25.0,100.44,Mostly Cloudy,1.7590894054480448
8/28/2012 4:00,20.9,19.3,91,11,25.0,100.42,Mainly Clear,1.762772169746578
8/28/2012 5:00,20.0,19.0,94,13,16.1,100.47,Mostly Cloudy,1.7677471105115399
8/28/2012 6:00,20.3,19.3,94,15,19.3,100.5,Mostly Cloudy,1.7677471105115399
8/28/2012 7:00,21.4,19.5,89,15,19.3,100.53,Mostly Cloudy,1.7590894054480448
8/28/2012 8:00,21.3,18.9,86,15,19.3,100.57,Cloudy,1.7530322801745157
8/28/2012 9:00,22.7,16.7,69,24,48.3,100.59,Mainly Clear,1.72744646691506
8/28/2012 10:00,23.8,15.5,60,15,48.3,100.61,Mainly Clear,0.9999888186332162
8/28/2012 11:00,22.6,15.1,63,13,48.3,100.6,Mostly Cloudy,1.0503413361747098
8/28/2012 12:00,25.2,13.9,50,22,48.3,100.6,Mainly Clear,0.9501781158844719
8/28/2012 13:00,25.4,12.1,44,30,48.3,100.61,Mainly Clear,0.9600855775076372
8/28/2012 14:00,24.2,10.0,41,30,48.3,100.61,Mainly Clear,1.684487186528377
8/28/2012 15:00,23.2,8.8,40,28,48.3,100.65,Mainly Clear,1.691449135158591
8/28/2012 16:00,22.4,8.7,42,24,48.3,100.71,Mainly Clear,1.0146780782299856
8/28/2012 17:00,21.5,7.7,41,22,48.3,100.76,Mainly Clear,0.9526517417795389
8/28/2012 18:00,20.0,7.3,44,20,48.3,100.79,Mainly Clear,0.9471376805733978
8/28/2012 19:00,19.3,7.4,46,17,25.0,100.87,Mostly Cloudy,1.0074481964781197
8/28/2012 20:00,16.9,6.9,52,15,25.0,100.97,Mainly Clear,1.7038909192672196
8/28/2012 21:00,14.9,7.1,60,7,25.0,101.01,Mainly Clear,1.7474029561280675
8/28/2012 22:00,13.9,7.4,65,9,25.0,101.01,Mainly Clear,1.6929583486014415
8/28/2012 23:00,14.1,8.7,70,7,25.0,101.05,Mostly Cloudy,1.736248597387366
8/29/2012 0:00,12.0,8.2,78,7,25.0,101.06,Clear,1.733057876440812
8/29/2012 1:00,11.5,8.0,79,9,25.0,101.07,Mostly Cloudy,1.736767840413222
8/29/2012 2:00,13.4,8.6,73,11,25.0,101.08,Mostly Cloudy,1.718324698506683
8/29/2012 3:00,11.0,7.7,80,9,25.0,101.06,Clear,1.7383226557949913
8/29/2012 4:00,10.5,7.6,82,7,25.0,101.06,Clear,1.7434626346010758
8/29/2012 5:00,10.5,7.9,84,7,48.3,101.07,Clear,1.7483983249034645
8/29/2012 6:00,12.0,8.9,81,9,48.3,101.1,Clear,1.7408722768108806
8/29/2012 7:00,16.0,8.1,59,19,48.3,101.13,Clear,1.3649309962501976
8/29/2012 8:00,18.0,7.4,50,20,48.3,101.13,Clear,0.9620350094047112
8/29/2012 9:00,19.6,7.9,47,22,48.3,101.11,Clear,0.9629749522130782
8/29/2012 10:00,20.7,8.1,44,20,48.3,101.09,Clear,0.9432590533134183
8/29/2012 11:00,21.9,8.5,42,22,48.3,101.07,Clear,0.9517552897122732
8/29/2012 12:00,22.6,8.2,40,26,48.3,101.01,Mainly Clear,0.9557861893691004
8/29/2012 13:00,23.5,7.9,37,32,48.3,100.98,Clear,0.9681708609999456
8/29/2012 14:00,24.7,8.3,35,20,48.3,100.92,Clear,0.9763179605360829
8/29/2012 15:00,24.2,8.0,36,32,48.3,100.87,Mainly Clear,0.9727175933044229
8/29/2012 16:00,24.2,8.1,36,24,48.3,100.86,Mainly Clear,0.9727175933044229
8/29/2012 17:00,23.5,7.6,36,26,48.3,100.86,Mainly Clear,0.9727175933044229
8/29/2012 18:00,22.5,6.9,36,19,48.3,100.87,Clear,0.9727175933044229
8/29/2012 19:00,21.7,6.7,38,15,48.3,100.89,Clear,0.9638948809679477
8/29/2012 20:00,19.7,7.1,44,9,25.0,100.92,Clear,1.0244081358651502
8/29/2012 21:00,19.7,7.3,45,15,25.0,100.93,Clear,0.9858322995010415
8/29/2012 22:00,19.5,8.7,50,22,25.0,100.93,Clear,1.6883575128299197
8/29/2012 23:00,18.3,9.9,58,20,25.0,100.97,Clear,1.7665498896579066
8/30/2012 0:00,17.5,10.6,64,19,25.0,100.96,Clear,1.7318463821192756
8/30/2012 1:00,17.0,11.5,70,11,25.0,100.92,Clear,1.7361180416935658
8/30/2012 2:00,15.4,12.1,81,11,25.0,100.97,Mostly Cloudy,1.7408722768108806
8/30/2012 3:00,16.2,11.7,75,17,25.0,100.93,Mainly Clear,1.7241591468416737
8/30/2012 4:00,15.1,11.8,81,15,25.0,100.96,Clear,1.7481169748572467
8/30/2012 5:00,15.5,11.7,78,20,48.3,100.97,Mainly Clear,1.7380454427488918
8/30/2012 6:00,16.3,11.8,75,26,48.3,100.95,Mostly Cloudy,1.7407009330389231
8/30/2012 7:00,16.8,11.8,72,20,24.1,100.95,Mainly Clear,1.7154802667147235
8/30/2012 8:00,17.9,12.6,71,24,24.1,100.94,Mainly Clear,1.712430565280306
8/30/2012 9:00,19.6,13.2,67,32,48.3,100.93,Mainly Clear,1.439908863979528
8/30/2012 10:00,21.8,13.3,58,26,48.3,100.88,Mainly Clear,1.0014291325266218
8/30/2012 11:00,23.1,14.0,57,33,48.3,100.84,Mainly Clear,0.9947935027558809
8/30/2012 12:00,25.0,15.4,55,32,48.3,100.79,Mainly Clear,0.9581779513086288
8/30/2012 13:00,26.7,16.6,54,37,48.3,100.73,Mainly Clear,1.424317790724784
8/30/2012 14:00,27.8,16.5,50,26,48.3,100.65,Mainly Clear,0.937388742268275
8/30/2012 15:00,28.5,17.0,50,35,48.3,100.61,Mainly Clear,0.9339818369583545
8/30/2012 16:00,27.8,16.2,49,33,48.3,100.54,Mostly Cloudy,1.724199033694403
8/30/2012 17:00,27.4,16.5,51,41,48.3,100.53,Mostly Cloudy,0.9615607949230348
8/30/2012 18:00,26.6,16.3,53,35,48.3,100.5,Mostly Cloudy,1.7173652554816548
8/30/2012 19:00,25.5,16.3,57,43,25.0,100.49,Mostly Cloudy,0.9684584060262452
8/30/2012 20:00,24.5,15.2,56,39,25.0,100.51,Mostly Cloudy,0.9607879911134949
8/30/2012 21:00,24.5,15.6,58,44,25.0,100.53,Mainly Clear,0.9867556357270367
8/30/2012 22:00,24.2,15.5,58,41,25.0,100.54,Mainly Clear,0.9771086735653381
8/30/2012 23:00,23.7,15.6,60,37,25.0,100.57,Mainly Clear,1.7098611255923775
8/31/2012 0:00,23.4,14.5,57,33,25.0,100.55,Clear,0.99553765471593
8/31/2012 1:00,23.5,14.1,56,35,25.0,100.51,Mainly Clear,0.9607879911134949
8/31/2012 2:00,23.2,13.9,56,35,25.0,100.5,Mainly Clear,0.9607879911134949
8/31/2012 3:00,22.8,12.3,52,28,25.0,100.52,Mostly Cloudy,1.1047713846868474
8/31/2012 4:00,22.8,13.0,54,28,25.0,100.47,Mostly Cloudy,1.7503389629540447
8/31/2012 5:00,22.6,14.6,61,28,24.1,100.45,Mostly Cloudy,1.7561631088672853
8/31/2012 6:00,22.5,16.1,67,30,24.1,100.51,Rain Showers,1.7467615957965674
8/31/2012 7:00,22.6,16.4,68,32,24.1,100.48,Rain Showers,1.7438312521746762
8/31/2012 8:00,22.9,15.9,65,37,24.1,100.49,Cloudy,1.6929583486014415
8/31/2012 9:00,21.8,17.1,75,35,24.1,100.5,Rain Showers,1.7241591468416737
8/31/2012 10:00,19.7,17.8,89,20,24.1,100.54,"Thunderstorms,Rain Showers",1.7590894054480448
8/31/2012 11:00,21.1,18.6,86,26,24.1,100.52,Cloudy,1.7530322801745157
8/31/2012 12:00,22.8,18.6,77,20,24.1,100.49,Rain Showers,1.7302348458823897
8/31/2012 13:00,24.0,18.2,70,22,24.1,100.43,Cloudy,1.7091525423728813
8/31/2012 14:00,24.1,18.2,70,22,24.1,100.38,Cloudy,1.7172455015199415
8/31/2012 15:00,25.6,18.6,65,30,24.1,100.35,Mostly Cloudy,1.1136122370198804
8/31/2012 16:00,24.8,18.5,68,20,24.1,100.38,Mostly Cloudy,1.7424495853686393
8/31/2012 17:00,25.0,18.4,67,17,24.1,100.41,Mostly Cloudy,1.2523873978786297
8/31/2012 18:00,24.2,18.6,71,13,24.1,100.47,Mostly Cloudy,1.712430565280306
8/31/2012 19:00,23.1,18.9,77,9,25.0,100.52,Mainly Clear,1.7302348458823897
8/31/2012 20:00,22.3,19.1,82,11,25.0,100.61,Mainly Clear,1.7434626346010758
8/31/2012 21:00,21.6,19.0,85,11,25.0,100.65,Mainly Clear,1.7507512632600475
8/31/2012 22:00,21.7,16.9,74,20,25.0,100.78,Mainly Clear,1.7209839103698092
8/31/2012 23:00,20.8,12.9,61,11,25.0,100.84,Clear,1.7050564884793058
9/1/2012 0:00,19.6,13.1,66,11,25.0,100.94,Mainly Clear,1.7104845133078537
9/1/2012 1:00,19.1,12.5,66,4,25.0,101.0,Mainly Clear,1.6960165533823464
9/1/2012 2:00,19.1,12.6,66,9,25.0,101.05,Mainly Clear,1.3907944083647958
9/1/2012 3:00,17.7,12.8,73,11,25.0,101.13,Mainly Clear,1.718324698506683
9/1/2012 4:00,16.3,12.8,80,11,25.0,101.21,Clear,1.7383226557949913
9/1/2012 5:00,16.0,12.9,82,13,25.0,101.31,Mainly Clear,1.7434626346010758
9/1/2012 6:00,16.2,12.5,79,13,48.3,101.41,Mainly Clear,1.7683510220238359
9/1/2012 7:00,17.8,10.6,63,24,48.3,101.48,Mainly Clear,1.7283803047342412
9/1/2012 8:00,18.6,9.5,55,20,48.3,101.54,Mainly Clear,1.69314355394304
9/1/2012 9:00,20.4,8.8,47,15,48.3,101.59,Clear,0.961260558765589
9/1/2012 10:00,22.0,8.5,42,20,48.3,101.6,Clear,0.949155270668292
9/1/2012 11:00,22.7,6.2,34,15,48.3,101.6,Mainly Clear,0.982139433707547
9/1/2012 12:00,23.2,7.0,35,13,48.3,101.57,Clear,0.9763179605360829
9/1/2012 13:00,23.6,7.0,34,6,48.3,101.54,Clear,1.6932156986341615
9/1/2012 14:00,23.5,6.7,34,7,48.3,101.47,Clear,0.982139433707547
9/1/2012 15:00,24.3,7.3,34,7,48.3,101.44,Clear,0.9870666094336865
9/1/2012 16:00,24.2,7.0,33,4,48.3,101.43,Clear,0.986478005269463
9/1/2012 17:00,24.0,6.6,33,7,48.3,101.39,Clear,1.0156698128588522
9/1/2012 18:00,22.7,8.4,40,9,48.3,101.41,Clear,0.9612873201476118
9/1/2012 19:00,20.9,8.3,44,6,48.3,101.45,Clear,0.9616633072986124
9/1/2012 20:00,18.8,9.9,56,11,25.0,101.46,Clear,1.714369404955232
9/1/2012 21:00,18.5,7.6,49,7,25.0,101.47,Clear,1.3381833048884657
9/1/2012 22:00,17.5,9.2,58,6,25.0,101.46,Clear,1.2445914434617078
9/1/2012 23:00,17.0,9.1,60,7,25.0,101.45,Mainly Clear,1.2197685631629704
9/2/2012 0:00,16.1,9.0,63,4,25.0,101.47,Clear,1.2497504994231972
9/2/2012 1:00,14.0,9.3,73,4,25.0,101.47,Clear,1.718324698506683
9/2/2012 2:00,13.5,9.5,77,4,25.0,101.47,Clear,1.7375761041616922
9/2/2012 3:00,13.0,9.5,79,0,25.0,101.43,Mainly Clear,1.7393932607472402
9/2/2012 4:00,13.3,9.7,79,0,25.0,101.41,Mainly Clear,1.739356259716489
9/2/2012 5:00,14.2,10.2,77,6,25.0,101.43,Mainly Clear,1.7302348458823897
9/2/2012 6:00,13.0,10.8,86,7,24.1,101.48,Mainly Clear,1.7530322801745157
9/2/2012 7:00,15.5,11.6,78,4,48.3,101.49,Mainly Clear,1.733057876440812
9/2/2012 8:00,17.3,11.7,70,7,48.3,101.51,Mostly Cloudy,1.7091525423728813
9/2/2012 9:00,19.1,11.5,61,4,48.3,101.52,Mostly Cloudy,1.0575912338599873
9/2/2012 10:00,20.7,11.4,55,6,48.3,101.53,Mostly Cloudy,0.9810603062170727
9/2/2012 11:00,21.8,10.3,48,4,48.3,101.52,Mostly Cloudy,0.9631129592405708
9/2/2012 12:00,24.4,8.8,37,4,48.3,101.49,Mainly Clear,0.9681708609999456
9/2/2012 13:00,25.5,7.0,31,9,48.3,101.47,Mainly Clear,1.0000000000000002
9/2/2012 14:00,25.3,7.4,32,9,48.3,101.45,Mainly Clear,0.9920689044371626
9/2/2012 15:00,25.6,6.5,29,7,48.3,101.41,Mainly Clear,1.5
9/2/2012 16:00,25.4,6.0,29,11,48.3,101.43,Mainly Clear,1.5
9/2/2012 17:00,23.6,6.9,34,9,48.3,101.44,Mainly Clear,1.0992144454706094
9/2/2012 18:00,24.0,6.8,33,11,48.3,101.47,Mainly Clear,1.6974670395044489
9/2/2012 19:00,20.9,8.4,45,13,48.3,101.51,Mainly Clear,1.6451250692918797
9/2/2012 20:00,21.2,8.5,44,9,25.0,101.52,Clear,0.9919280986164046
9/2/2012 21:00,19.7,9.4,51,7,25.0,101.53,Mainly Clear,1.0557888744485562
9/2/2012 22:00,19.2,10.0,55,4,25.0,101.57,Mainly Clear,0.993043698964303
9/2/2012 23:00,18.7,9.8,56,4,25.0,101.57,Clear,1.1077803153746044
9/3/2012 0:00,17.5,10.2,62,7,25.0,101.6,Clear,1.6943379177077238
9/3/2012 1:00,15.6,9.3,66,0,25.0,101.61,Mainly Clear,1.4207925955228244
9/3/2012 2:00,13.7,8.9,73,6,25.0,101.59,Mainly Clear,1.733073379629237
9/3/2012 3:00,14.0,10.4,79,4,25.0,101.61,Mainly Clear,1.7357508862871274
9/3/2012 4:00,13.4,11.0,85,6,25.0,101.63,Clear,1.7507512632600475
9/3/2012 5:00,14.5,10.3,76,6,25.0,101.68,Mainly Clear,1.7396929792116034
9/3/2012 6:00,13.4,10.7,84,6,48.3,101.68,Mainly Clear,1.7483983249034645
9/3/2012 7:00,16.3,12.2,77,7,48.3,101.69,Mainly Clear,1.7302348458823897
9/3/2012 8:00,18.5,13.0,70,11,48.3,101.67,Mainly Clear,1.7091525423728813
9/3/2012 9:00,21.1,11.8,55,9,48.3,101.65,Mainly Clear,0.9824718953542981
9/3/2012 10:00,23.5,11.7,47,9,48.3,101.63,Mainly Clear,0.9463936971245923
9/3/2012 11:00,24.3,10.9,43,9,48.3,101.59,Mainly Clear,0.945948721343493
9/3/2012 12:00,26.0,11.1,39,13,48.3,101.54,Mainly Clear,1.6868101164973834
9/3/2012 13:00,26.2,10.0,36,4,48.3,101.5,Mainly Clear,0.9727175933044229
9/3/2012 14:00,28.0,10.4,33,0,48.3,101.41,Mainly Clear,0.986478005269463
9/3/2012 15:00,27.8,10.5,34,13,48.3,101.33,Mainly Clear,0.982139433707547
9/3/2012 16:00,27.8,11.4,36,4,48.3,101.29,Mostly Cloudy,0.994383656246868
9/3/2012 17:00,26.6,12.8,42,13,48.3,101.25,Mostly Cloudy,0.949155270668292
9/3/2012 18:00,25.8,12.5,44,13,48.3,101.2,Mostly Cloudy,0.9432590533134183
9/3/2012 19:00,25.3,12.4,45,9,25.0,101.19,Mostly Cloudy,0.9462965558652431
9/3/2012 20:00,25.0,12.6,46,9,25.0,101.21,Mostly Cloudy,0.941380129979325
9/3/2012 21:00,24.2,12.8,49,15,25.0,101.19,Mainly Clear,1.7563033385888318
9/3/2012 22:00,22.7,14.7,61,13,25.0,101.19,Mainly Clear,1.7055369044932032
9/3/2012 23:00,21.1,15.8,72,11,25.0,101.18,Mainly Clear,1.7154802667147235
9/4/2012 0:00,20.6,15.9,74,9,25.0,101.21,Mainly Clear,1.7209839103698092
9/4/2012 1:00,21.1,16.0,73,9,25.0,101.2,Mostly Cloudy,1.718324698506683
9/4/2012 2:00,20.8,15.8,73,13,25.0,101.16,Mostly Cloudy,1.718324698506683
9/4/2012 3:00,20.9,15.3,70,7,25.0,101.14,Mostly Cloudy,1.7091525423728813
9/4/2012 4:00,20.8,14.8,69,6,25.0,101.13,Cloudy,1.505906587803386
9/4/2012 5:00,20.7,14.6,68,9,25.0,101.11,Mostly Cloudy,1.3579319565140906
9/4/2012 6:00,20.7,15.3,71,15,25.0,101.15,Cloudy,1.712430565280306
9/4/2012 7:00,20.5,16.1,76,17,24.1,101.13,Cloudy,1.7272721454173066
9/4/2012 8:00,21.1,16.4,75,15,24.1,101.11,Mostly Cloudy,1.7241591468416737
9/4/2012 9:00,22.0,16.9,73,11,24.1,101.1,Mostly Cloudy,1.718324698506683
9/4/2012 10:00,22.9,17.2,70,9,24.1,101.08,Cloudy,1.7091525423728813
9/4/2012 11:00,25.0,17.5,63,15,24.1,101.02,Mostly Cloudy,1.0503413361747098
9/4/2012 12:00,25.6,18.0,63,6,24.1,100.94,Cloudy,1.0503413361747098
9/4/2012 13:00,25.2,17.8,64,9,24.1,100.89,Cloudy,1.0754917436180753
9/4/2012 14:00,24.7,18.0,66,15,24.1,100.83,Cloudy,1.1750318113220146
9/4/2012 15:00,24.1,17.8,68,19,24.1,100.81,Cloudy,1.3579319565140906
9/4/2012 16:00,23.5,17.7,70,15,24.1,100.77,Cloudy,1.7091525423728813
9/4/2012 17:00,23.3,18.0,72,15,24.1,100.74,Cloudy,1.7154802667147235
9/4/2012 18:00,21.8,19.2,85,9,19.3,100.73,Rain,1.7507512632600475
9/4/2012 19:00,20.8,19.7,93,7,12.9,100.7,Rain,1.7663155381997573
9/4/2012 20:00,20.7,19.9,95,9,12.9,100.68,Rain,1.768832975474038
9/4/2012 21:00,21.1,19.7,92,9,19.3,100.66,Rain,1.764560779079539
9/4/2012 22:00,20.7,19.7,94,15,19.3,100.61,Rain,1.7677471105115399
9/4/2012 23:00,20.2,19.2,94,9,19.3,100.47,Rain,1.7677471105115399
9/5/2012 0:00,20.3,19.1,93,13,19.3,100.43,Rain,1.7663155381997573
9/5/2012 1:00,20.0,18.6,92,13,16.1,100.35,Rain,1.764560779079539
9/5/2012 2:00,19.1,18.2,95,17,25.0,100.35,Rain,1.768832975474038
9/5/2012 3:00,18.6,17.7,95,15,25.0,100.39,Cloudy,1.768832975474038
9/5/2012 4:00,18.5,17.6,94,11,25.0,100.43,Mostly Cloudy,1.7677471105115399
9/5/2012 5:00,17.6,17.1,97,7,25.0,100.46,Mostly Cloudy,1.7709745267585884
9/5/2012 6:00,18.2,17.4,95,7,24.1,100.51,Mostly Cloudy,1.768832975474038
9/5/2012 7:00,19.5,18.3,93,11,24.1,100.55,Mainly Clear,1.7663155381997573
9/5/2012 8:00,21.3,18.6,85,13,48.3,100.51,Mainly Clear,1.7507512632600475
9/5/2012 9:00,22.4,18.5,79,15,24.1,100.54,Mostly Cloudy,1.7357508862871274
9/5/2012 10:00,23.3,18.9,76,11,24.1,100.59,Mostly Cloudy,1.7272721454173066
9/5/2012 11:00,23.4,17.9,71,7,24.1,100.57,Rain Showers,1.712430565280306
9/5/2012 12:00,25.5,19.2,68,11,24.1,100.54,Mainly Clear,1.3579319565140906
9/5/2012 13:00,25.9,18.3,63,11,24.1,100.52,Mainly Clear,1.0503413361747098
9/5/2012 14:00,26.4,18.1,60,13,24.1,100.49,Mainly Clear,0.9999888186332162
9/5/2012 15:00,26.2,17.6,59,11,24.1,100.47,Mainly Clear,0.987994578192502
9/5/2012 16:00,27.0,17.7,57,9,24.1,100.45,Mainly Clear,0.9684584060262452
9/5/2012 17:00,26.1,17.2,58,13,24.1,100.44,Mainly Clear,0.9771086735653381
9/5/2012 18:00,25.8,17.1,59,9,24.1,100.5,Mainly Clear,0.987994578192502
9/5/2012 19:00,25.2,17.5,62,6,25.0,100.55,Mostly Cloudy,1.0305025778855286
9/5/2012 20:00,24.2,18.7,71,7,25.0,100.57,Mostly Cloudy,1.712430565280306
9/5/2012 21:00,24.0,18.1,70,9,25.0,100.58,Rain Showers,1.7091525423728813
9/5/2012 22:00,22.9,18.2,75,7,25.0,100.55,Mostly Cloudy,1.7241591468416737
9/5/2012 23:00,22.1,18.1,78,6,25.0,100.53,Mainly Clear,1.733057876440812
9/6/2012 0:00,21.3,18.1,82,7,25.0,100.53,Mainly Clear,1.7434626346010758
9/6/2012 1:00,21.0,18.4,85,7,25.0,100.55,Mostly Cloudy,1.7507512632600475
9/6/2012 2:00,21.3,18.5,84,7,25.0,100.55,Mainly Clear,1.7483983249034645
9/6/2012 3:00,21.1,18.5,85,6,25.0,100.55,Mostly Cloudy,1.7507512632600475
9/6/2012 4:00,21.1,18.8,87,7,25.0,100.54,Mainly Clear,1.755244623603565
9/6/2012 5:00,21.0,18.1,84,6,25.0,100.61,Mostly Cloudy,1.7483983249034645
9/6/2012 6:00,19.5,17.8,90,9,25.0,100.58,Mostly Cloudy,1.7609487211792867
9/6/2012 7:00,19.9,17.7,87,7,25.0,100.62,Cloudy,1.755244623603565
9/6/2012 8:00,21.1,18.1,83,7,24.1,100.62,Mostly Cloudy,1.7459700090483987
9/6/2012 9:00,23.1,18.3,74,6,24.1,100.59,Mainly Clear,1.7209839103698092
9/6/2012 10:00,24.7,17.8,65,6,24.1,100.55,Mainly Clear,1.1136122370198804
9/6/2012 11:00,26.1,18.1,61,13,24.1,100.5,Mainly Clear,1.0147471754365818
9/6/2012 12:00,26.8,17.3,56,15,24.1,100.45,Mainly Clear,0.9607879911134949
9/6/2012 13:00,27.9,17.5,53,11,24.1,100.41,Mainly Clear,0.9541481504585646
9/6/2012 14:00,28.1,17.8,54,13,24.1,100.34,Mostly Cloudy,0.9472289954341503
9/6/2012 15:00,28.2,18.4,55,13,24.1,100.3,Mainly Clear,0.9531525027978544
9/6/2012 16:00,27.6,17.9,56,19,24.1,100.31,Mainly Clear,0.9607879911134949
9/6/2012 17:00,26.9,17.6,57,17,24.1,100.36,Mainly Clear,0.9684584060262452
9/6/2012 18:00,24.8,16.5,60,9,24.1,100.38,Mainly Clear,0.9999888186332162
9/6/2012 19:00,22.6,16.5,68,6,25.0,100.42,Mainly Clear,1.3579319565140906
9/6/2012 20:00,22.5,16.8,70,11,25.0,100.47,Clear,1.7091525423728813
9/6/2012 21:00,21.4,15.1,67,7,25.0,100.52,Mainly Clear,1.411877207748317
9/6/2012 22:00,19.6,15.0,75,9,25.0,100.55,Mainly Clear,1.7241591468416737
9/6/2012 23:00,20.2,14.6,70,0,25.0,100.59,Mainly Clear,1.7091525423728813
9/7/2012 0:00,18.1,14.8,81,4,24.1,100.62,Clear,1.7408722768108806
9/7/2012 1:00,18.7,14.5,77,4,25.0,100.62,Clear,1.7302348458823897
9/7/2012 2:00,17.6,15.6,88,9,25.0,100.62,Mainly Clear,1.7571931537828946
9/7/2012 3:00,18.5,14.5,78,6,25.0,100.68,Clear,1.733057876440812
9/7/2012 4:00,18.3,14.2,77,6,25.0,100.68,Clear,1.7302348458823897
9/7/2012 5:00,15.8,14.3,91,7,25.0,100.72,Mainly Clear,1.762772169746578
9/7/2012 6:00,17.5,14.6,83,11,48.3,100.77,Mainly Clear,1.7459700090483987
9/7/2012 7:00,18.6,14.4,77,15,48.3,100.81,Mostly Cloudy,1.7302348458823897
9/7/2012 8:00,19.9,13.9,68,9,48.3,100.79,Mostly Cloudy,1.3579319565140906
9/7/2012 9:00,21.2,14.4,65,19,48.3,100.8,Mostly Cloudy,1.1136122370198804
9/7/2012 10:00,22.2,15.8,67,19,48.3,100.82,Mostly Cloudy,1.2523873978786297
9/7/2012 11:00,22.6,15.4,64,19,48.3,100.84,Mostly Cloudy,1.0754917436180753
9/7/2012 12:00,23.3,14.0,56,17,48.3,100.82,Cloudy,0.9683277995557347
9/7/2012 13:00,24.6,12.7,47,17,48.3,100.8,Mostly Cloudy,1.1225534722903034
9/7/2012 14:00,25.6,12.5,44,9,48.3,100.76,Mostly Cloudy,0.9432590533134183
9/7/2012 15:00,25.1,10.5,40,13,48.3,100.72,Mostly Cloudy,0.9557861893691004
9/7/2012 16:00,25.0,9.9,38,6,48.3,100.7,Mostly Cloudy,0.9638948809679477
9/7/2012 17:00,24.6,10.2,40,0,48.3,100.64,Cloudy,0.9557861893691004
9/7/2012 18:00,23.5,11.8,48,0,24.1,100.6,Cloudy,0.9532668307336446
9/7/2012 19:00,21.7,12.0,54,6,25.0,100.61,Mostly Cloudy,1.691115282847443
9/7/2012 20:00,23.2,11.9,49,4,25.0,100.58,Mostly Cloudy,1.7393809298203486
9/7/2012 21:00,22.9,13.4,55,6,25.0,100.5,Cloudy,0.9717459671330667
9/7/2012 22:00,21.6,14.8,65,9,25.0,100.45,Cloudy,1.1136122370198804
9/7/2012 23:00,21.4,15.3,68,17,24.1,100.29,Cloudy,1.3579319565140906
9/8/2012 0:00,21.1,16.1,73,13,25.0,100.21,Cloudy,1.718324698506683
9/8/2012 1:00,20.5,16.6,78,6,25.0,100.21,Cloudy,1.733057876440812
9/8/2012 2:00,21.1,16.0,73,7,25.0,100.12,Cloudy,1.718324698506683
9/8/2012 3:00,21.1,16.2,74,9,25.0,99.98,Cloudy,1.7209839103698092
9/8/2012 4:00,21.9,15.8,68,17,25.0,99.85,"Thunderstorms,Rain Showers",1.3579319565140906
9/8/2012 5:00,18.6,16.7,89,11,25.0,99.93,Cloudy,1.7590894054480448
9/8/2012 6:00,18.7,16.6,88,17,24.1,99.82,Cloudy,1.7571931537828946
9/8/2012 7:00,21.0,17.8,82,20,19.3,99.77,Cloudy,1.7434626346010758
9/8/2012 8:00,20.9,17.7,82,9,19.3,99.66,Cloudy,1.7434626346010758
9/8/2012 9:00,23.2,19.0,77,13,19.3,99.54,Cloudy,1.7557120338347214
9/8/2012 10:00,25.9,19.5,68,28,19.3,99.35,Cloudy,1.3579319565140906
9/8/2012 11:00,26.5,18.9,63,35,19.3,99.27,Cloudy,1.0503413361747098
9/8/2012 12:00,26.1,17.9,61,39,19.3,99.21,Cloudy,1.048017930301666
9/8/2012 13:00,25.5,17.4,61,24,24.1,99.08,Cloudy,1.0218327122797999
9/8/2012 14:00,26.0,18.4,63,33,24.1,98.94,Rain Showers,1.0808637943680321
9/8/2012 15:00,24.4,20.2,77,30,16.1,98.89,Rain Showers,1.7302348458823897
9/8/2012 16:00,20.4,18.2,87,39,24.1,99.09,Rain Showers,1.755244623603565
9/8/2012 17:00,20.6,16.2,76,33,48.3,99.17,Cloudy,1.7334562057443177
9/8/2012 18:00,20.5,16.0,75,39,24.1,99.33,Cloudy,1.7241591468416737
9/8/2012 19:00,19.9,14.6,72,37,25.0,99.44,Mostly Cloudy,1.7154802667147235
9/8/2012 20:00,19.2,13.2,68,43,25.0,99.51,Mainly Clear,1.7091950316226123
9/8/2012 21:00,16.1,12.7,80,44,25.0,99.67,Mostly Cloudy,1.7383226557949913
9/8/2012 22:00,14.2,10.8,80,30,25.0,99.87,Mostly Cloudy,1.7383226557949913
9/8/2012 23:00,14.5,10.2,75,28,25.0,100.06,Cloudy,1.7241591468416737
9/9/2012 0:00,14.3,9.4,72,30,25.0,100.18,Cloudy,1.7312240642213896
9/9/2012 1:00,13.9,9.6,75,28,25.0,100.26,Cloudy,1.7260456126288028
9/9/2012 2:00,13.7,9.6,76,24,25.0,100.3,Mostly Cloudy,1.7272721454173066
9/9/2012 3:00,12.6,9.4,81,17,25.0,100.28,Mainly Clear,1.7408722768108806
9/9/2012 4:00,12.2,9.5,84,20,25.0,100.39,Mainly Clear,1.7483983249034645
9/9/2012 5:00,11.5,9.5,88,11,25.0,100.44,Clear,1.7571931537828946
9/9/2012 6:00,11.0,9.6,91,6,24.1,100.5,Mainly Clear,1.762772169746578
9/9/2012 7:00,12.1,9.8,86,7,24.1,100.57,Mainly Clear,1.7530322801745157
9/9/2012 8:00,13.7,9.9,78,17,24.1,100.6,Mainly Clear,1.733057876440812
9/9/2012 9:00,14.8,8.8,67,17,48.3,100.65,Mainly Clear,1.2523873978786297
9/9/2012 10:00,15.7,9.0,64,17,48.3,100.69,Mostly Cloudy,1.0754917436180753
9/9/2012 11:00,16.8,9.0,60,19,48.3,100.66,Mainly Clear,1.1282055770549138
9/9/2012 12:00,17.3,8.9,58,22,48.3,100.65,Mainly Clear,1.0354220455941745
9/9/2012 13:00,17.3,8.6,57,11,48.3,100.68,Mainly Clear,1.0493658579592215
9/9/2012 14:00,18.1,8.4,53,19,48.3,100.67,Mostly Cloudy,0.9958385635132271
9/9/2012 15:00,17.6,8.9,57,17,48.3,100.67,Mostly Cloudy,1.7028716167021989
9/9/2012 16:00,17.9,8.4,54,22,48.3,100.71,Mainly Clear,0.9996862957477696
9/9/2012 17:00,15.6,8.4,62,15,48.3,100.76,Mainly Clear,1.6851099316959084
9/9/2012 18:00,15.5,8.6,63,11,48.3,100.8,Mostly Cloudy,1.0503413361747098
9/9/2012 19:00,15.2,8.6,65,11,25.0,100.83,Mostly Cloudy,1.6963878221143347
9/9/2012 20:00,14.1,8.6,69,9,25.0,100.87,Mostly Cloudy,1.7056195602958193
9/9/2012 21:00,13.7,9.0,73,9,25.0,100.89,Mostly Cloudy,1.718324698506683
9/9/2012 22:00,14.2,9.0,71,9,25.0,100.9,Mostly Cloudy,1.7198950351681503
9/9/2012 23:00,13.9,9.8,76,15,25.0,100.93,Cloudy,1.7272721454173066
9/10/2012 0:00,13.4,10.2,81,9,25.0,100.94,Mostly Cloudy,1.7408722768108806
9/10/2012 1:00,13.0,10.3,84,9,25.0,100.95,Mostly Cloudy,1.7483983249034645
9/10/2012 2:00,12.7,9.9,83,11,25.0,100.96,Mostly Cloudy,1.7459700090483987
9/10/2012 3:00,12.4,9.5,82,11,25.0,100.98,Mostly Cloudy,1.7434626346010758
9/10/2012 4:00,11.3,8.7,84,13,25.0,101.0,Mainly Clear,1.7483983249034645
9/10/2012 5:00,10.4,8.5,88,17,25.0,101.05,Mainly Clear,1.7571931537828946
9/10/2012 6:00,10.1,8.1,87,17,24.1,101.15,Mainly Clear,1.7678767850515669
9/10/2012 7:00,11.5,7.6,77,15,24.1,101.23,Mainly Clear,1.7302348458823897
9/10/2012 8:00,12.8,7.1,68,19,24.1,101.29,Mostly Cloudy,1.7018006700167505
9/10/2012 9:00,13.3,7.3,67,15,24.1,101.33,Mainly Clear,1.7264161389243726
9/10/2012 10:00,14.4,6.5,59,15,24.1,101.32,Mostly Cloudy,1.7000966810018492
9/10/2012 11:00,14.9,6.3,56,19,48.3,101.31,Mostly Cloudy,1.1574024794670914
9/10/2012 12:00,16.0,6.1,52,20,48.3,101.31,Mostly Cloudy,1.700807302189946
9/10/2012 13:00,16.6,6.0,50,13,48.3,101.32,Mostly Cloudy,1.6976037230303629
9/10/2012 14:00,17.5,6.1,47,20,48.3,101.3,Mostly Cloudy,1.3183537378293342
9/10/2012 15:00,17.8,5.9,46,24,24.1,101.27,Mostly Cloudy,1.69856066517779
9/10/2012 16:00,16.7,5.1,46,20,48.3,101.31,Mostly Cloudy,1.6943532986429175
9/10/2012 17:00,16.1,4.9,47,20,48.3,101.39,Mostly Cloudy,1.0026421310072804
9/10/2012 18:00,14.5,4.9,52,17,24.1,101.43,Mostly Cloudy,1.7183315696913914
9/10/2012 19:00,13.5,4.9,56,9,25.0,101.47,Mainly Clear,1.6911582970329169
9/10/2012 20:00,10.9,5.7,70,7,25.0,101.54,Clear,1.7091525423728813
9/10/2012 21:00,9.8,6.0,77,6,25.0,101.55,Clear,1.7302348458823897
9/10/2012 22:00,9.7,5.9,77,7,25.0,101.56,Clear,1.7302348458823897
9/10/2012 23:00,9.3,6.4,82,7,25.0,101.56,Clear,1.7434626346010758
9/11/2012 0:00,8.4,6.2,86,9,25.0,101.57,Clear,1.7530322801745157
9/11/2012 1:00,8.4,6.3,87,9,25.0,101.58,Clear,1.755244623603565
9/11/2012 2:00,8.4,6.9,90,9,25.0,101.6,Clear,1.7609487211792867
9/11/2012 3:00,9.1,7.3,88,7,25.0,101.64,Clear,1.7571931537828946
9/11/2012 4:00,9.2,6.8,85,4,25.0,101.7,Clear,1.7507512632600475
9/11/2012 5:00,6.9,5.6,91,0,25.0,101.75,Clear,1.762772169746578
9/11/2012 6:00,7.6,6.3,91,6,24.1,101.83,Mainly Clear,1.762772169746578
9/11/2012 7:00,11.0,8.4,84,9,48.3,101.89,Mostly Cloudy,1.7483983249034645
9/11/2012 8:00,13.2,8.9,75,9,48.3,101.92,Mostly Cloudy,1.7241591468416737
9/11/2012 9:00,15.1,8.6,65,13,48.3,101.95,Mostly Cloudy,1.7218347400041543
9/11/2012 10:00,16.8,8.9,60,17,48.3,101.93,Mostly Cloudy,1.7281163751841766
9/11/2012 11:00,18.4,8.4,52,19,48.3,101.89,Mainly Clear,1.2399580037577855
9/11/2012 12:00,18.9,9.1,53,19,48.3,101.87,Mainly Clear,1.0320561583276842
9/11/2012 13:00,20.6,9.7,50,20,48.3,101.81,Mainly Clear,1.069905805303145
9/11/2012 14:00,21.0,8.9,46,20,48.3,101.75,Mainly Clear,1.0177841484636352
9/11/2012 15:00,21.3,8.4,44,19,48.3,101.69,Mainly Clear,0.9852589426778783
9/11/2012 16:00,21.5,8.9,44,20,48.3,101.67,Mainly Clear,0.9859764343553595
9/11/2012 17:00,21.4,9.4,46,20,48.3,101.67,Mainly Clear,1.0132427431769708
9/11/2012 18:00,20.7,10.3,51,17,48.3,101.66,Mainly Clear,1.0179225308890232
9/11/2012 19:00,19.8,11.1,57,9,25.0,101.68,Mainly Clear,1.7546154264278677
9/11/2012 20:00,19.8,11.6,59,15,25.0,101.73,Mainly Clear,1.689029385681893
9/11/2012 21:00,19.1,12.9,67,15,25.0,101.76,Clear,1.2523873978786297
9/11/2012 22:00,18.4,12.0,66,17,25.0,101.78,Clear,1.3842429010614625
9/11/2012 23:00,17.8,11.9,68,15,25.0,101.8,Clear,1.7018006700167505
9/12/2012 0:00,17.5,10.6,64,17,25.0,101.82,Clear,1.7388854281279227
9/12/2012 1:00,17.2,9.9,62,11,25.0,101.85,Clear,1.7139519405993182
9/12/2012 2:00,14.5,9.6,72,6,25.0,101.86,Clear,1.742359188759178
9/12/2012 3:00,13.2,9.9,80,4,25.0,101.9,Clear,1.7656044985006114
9/12/2012 4:00,13.7,10.0,78,0,25.0,101.91,Clear,1.7675068497883775
9/12/2012 5:00,13.1,10.7,85,6,25.0,101.96,Clear,1.7507512632600475
9/12/2012 6:00,13.5,11.2,86,0,48.3,102.02,Clear,1.7530322801745157
9/12/2012 7:00,15.8,11.8,77,9,48.3,102.02,Clear,1.7302348458823897
9/12/2012 8:00,17.4,11.1,66,7,48.3,102.04,Clear,1.7271505855128029
9/12/2012 9:00,19.6,11.9,61,7,48.3,102.05,Clear,1.1531490603606713
9/12/2012 10:00,21.9,13.2,58,11,48.3,102.02,Mainly Clear,1.7733420276216127
9/12/2012 11:00,23.9,13.3,51,20,48.3,101.98,Clear,0.9488922647173507
9/12/2012 12:00,25.3,13.4,48,19,48.3,101.95,Mainly Clear,0.9676358270527837
9/12/2012 13:00,26.1,14.0,47,13,48.3,101.87,Mainly Clear,1.694261142443796
9/12/2012 14:00,26.9,13.5,44,17,48.3,101.84,Mainly Clear,0.9432590533134183
9/12/2012 15:00,27.3,13.4,42,17,48.3,101.8,Mainly Clear,0.949155270668292
9/12/2012 16:00,27.3,12.2,39,19,48.3,101.77,Mainly Clear,0.9601509387055865
9/12/2012 17:00,26.8,11.6,39,17,48.3,101.77,Mainly Clear,0.9601509387055865
9/12/2012 18:00,25.0,12.9,47,11,48.3,101.78,Mainly Clear,0.9415996900675383
9/12/2012 19:00,22.2,15.0,64,11,25.0,101.83,Mainly Clear,1.2576344914348487
9/12/2012 20:00,22.4,14.0,59,11,25.0,101.88,Mainly Clear,1.7313235074767737
9/12/2012 21:00,22.2,13.2,57,11,25.0,101.91,Clear,1.657695857484181
9/12/2012 22:00,21.0,14.4,66,13,25.0,101.95,Mainly Clear,1.6960165533823464
9/12/2012 23:00,20.2,14.6,70,11,25.0,101.96,Mainly Clear,1.768177243842754
9/13/2012 0:00,19.8,13.6,67,9,25.0,101.96,Mainly Clear,1.70585753324155
9/13/2012 1:00,19.5,13.4,68,7,25.0,101.97,Mainly Clear,1.718290325232599
9/13/2012 2:00,16.3,12.9,80,11,25.0,101.98,Mainly Clear,1.7383226557949913
9/13/2012 3:00,15.7,13.1,85,9,25.0,101.96,Clear,1.7507512632600475
9/13/2012 4:00,15.5,12.8,84,11,25.0,101.96,Clear,1.7483983249034645
9/13/2012 5:00,14.9,11.8,82,4,25.0,102.0,Clear,1.7434626346010758
9/13/2012 6:00,15.7,12.4,81,6,48.3,102.02,Mainly Clear,1.7408722768108806
9/13/2012 7:00,18.1,13.8,76,6,48.3,102.03,Mainly Clear,1.7272721454173066
9/13/2012 8:00,19.8,12.8,64,9,48.3,102.04,Mainly Clear,1.7524233052851583
9/13/2012 9:00,21.5,13.7,61,13,48.3,102.05,Mainly Clear,1.2016123253314226
9/13/2012 10:00,22.6,14.2,59,17,48.3,102.05,Mainly Clear,1.697391559161543
9/13/2012 11:00,24.6,14.8,54,15,48.3,102.02,Mainly Clear,0.9789345206517885
9/13/2012 12:00,26.2,14.9,50,17,48.3,101.97,Mainly Clear,0.942035985259534
9/13/2012 13:00,27.3,14.2,45,19,48.3,101.89,Mainly Clear,1.7040997975539571
9/13/2012 14:00,27.9,13.7,42,24,48.3,101.82,Mainly Clear,1.010818368006082
9/13/2012 15:00,28.2,13.9,42,22,48.3,101.77,Mainly Clear,0.949155270668292
9/13/2012 16:00,28.4,14.0,41,19,48.3,101.73,Mainly Clear,0.9526517417795389
9/13/2012 17:00,27.8,13.1,40,20,48.3,101.73,Mainly Clear,0.9557861893691004
9/13/2012 18:00,26.0,14.7,50,9,48.3,101.71,Mainly Clear,0.9427561857381744
9/13/2012 19:00,24.2,15.8,59,11,25.0,101.72,Mainly Clear,1.0369695276122084
9/13/2012 20:00,23.2,15.7,63,11,25.0,101.74,Clear,1.2166728565071896
9/13/2012 21:00,22.3,16.0,68,13,25.0,101.71,Mainly Clear,1.7500881505203707
9/13/2012 22:00,21.8,15.2,66,15,25.0,101.7,Mainly Clear,1.1750318113220146
9/13/2012 23:00,20.7,15.3,71,13,25.0,101.72,Clear,1.712430565280306
9/14/2012 0:00,19.5,15.5,78,9,25.0,101.72,Clear,1.733057876440812
9/14/2012 1:00,16.6,14.9,90,0,25.0,101.71,Clear,1.7609487211792867
9/14/2012 2:00,18.2,14.8,81,4,25.0,101.69,Clear,1.7408722768108806
9/14/2012 3:00,16.4,14.2,87,6,25.0,101.67,Clear,1.755244623603565
9/14/2012 4:00,15.9,13.7,87,9,25.0,101.66,Clear,1.755244623603565
9/14/2012 5:00,16.4,14.1,86,4,25.0,101.65,Mostly Cloudy,1.7530322801745157
9/14/2012 6:00,16.6,14.5,87,6,24.1,101.65,Cloudy,1.755244623603565
9/14/2012 7:00,17.9,15.1,84,9,24.1,101.64,Cloudy,1.7483983249034645
9/14/2012 8:00,19.5,15.1,76,9,24.1,101.63,Mostly Cloudy,1.7272721454173066
9/14/2012 9:00,22.2,15.5,66,9,24.1,101.61,Cloudy,1.1750318113220146
9/14/2012 10:00,22.6,15.4,64,13,24.1,101.56,Mostly Cloudy,1.0754917436180753
9/14/2012 11:00,24.2,16.2,61,13,24.1,101.51,Cloudy,1.7092883682157272
9/14/2012 12:00,25.7,16.5,57,9,48.3,101.44,Cloudy,0.9719139395048276
9/14/2012 13:00,26.5,16.8,55,9,48.3,101.34,Cloudy,0.9542111861899828
9/14/2012 14:00,27.3,16.4,51,9,48.3,101.27,Mostly Cloudy,0.9373163408658316
9/14/2012 15:00,26.3,16.4,54,9,24.1,101.2,Cloudy,0.9479636070352352
9/14/2012 16:00,25.5,17.8,62,4,24.1,101.13,Cloudy,1.0525063325944084
9/14/2012 17:00,25.4,17.2,60,7,24.1,101.04,Cloudy,0.9999888186332162
9/14/2012 18:00,24.5,17.6,65,6,24.1,100.96,Rain Showers,1.1136122370198804
9/14/2012 19:00,21.0,18.9,88,17,25.0,100.94,Cloudy,1.7571931537828946
9/14/2012 20:00,16.5,15.8,96,22,16.1,101.06,"Thunderstorms,Rain Showers",1.7699087340766253
9/14/2012 21:00,15.3,14.3,94,13,11.3,101.31,Rain Showers,1.7677471105115399
9/14/2012 22:00,15.5,14.2,92,0,19.3,101.21,Rain Showers,1.764560779079539
9/14/2012 23:00,15.9,15.4,97,13,16.1,101.13,Rain Showers,1.7709745267585884
9/15/2012 0:00,16.3,14.8,91,20,19.3,101.17,Cloudy,1.762772169746578
9/15/2012 1:00,15.6,14.2,91,22,25.0,101.14,Cloudy,1.762772169746578
9/15/2012 2:00,15.0,13.6,91,24,25.0,101.09,Cloudy,1.762772169746578
9/15/2012 3:00,14.7,12.9,89,30,25.0,101.08,Cloudy,1.7590894054480448
9/15/2012 4:00,14.2,12.2,88,30,25.0,101.12,Mostly Cloudy,1.7571931537828946
9/15/2012 5:00,13.7,12.7,94,28,9.7,101.14,"Drizzle,Fog",1.7677471105115399
9/15/2012 6:00,13.4,11.1,86,22,24.1,101.25,Mostly Cloudy,1.7530322801745157
9/15/2012 7:00,13.8,10.5,80,20,24.1,101.36,Mostly Cloudy,1.7383226557949913
9/15/2012 8:00,14.6,10.5,76,19,24.1,101.44,Mainly Clear,1.7272721454173066
9/15/2012 9:00,14.9,9.7,71,19,24.1,101.5,Mostly Cloudy,1.7604664787215385
9/15/2012 10:00,16.0,9.6,66,22,24.1,101.51,Mostly Cloudy,1.7026378221700065
9/15/2012 11:00,16.1,7.8,58,22,48.3,101.49,Mostly Cloudy,1.7063389344830613
9/15/2012 12:00,16.6,7.3,54,17,48.3,101.49,Mostly Cloudy,1.7048517613518863
9/15/2012 13:00,16.6,7.9,56,20,48.3,101.44,Mostly Cloudy,1.6961032412610502
9/15/2012 14:00,16.2,7.5,56,22,24.1,101.39,Rain Showers,1.7569966573634683
9/15/2012 15:00,14.2,11.4,83,13,24.1,101.41,Mostly Cloudy,1.7459700090483987
9/15/2012 16:00,16.6,9.2,62,17,24.1,101.36,Mainly Clear,1.6944147374741978
9/15/2012 17:00,14.2,8.7,69,22,24.1,101.39,Rain Showers,1.7056195602958193
9/15/2012 18:00,13.3,8.6,73,7,24.1,101.4,Mostly Cloudy,1.7213528447626356
9/15/2012 19:00,12.7,7.1,69,13,25.0,101.42,Mainly Clear,1.751982240723041
9/15/2012 20:00,11.6,6.3,70,11,25.0,101.46,Mainly Clear,1.712585644187926
9/15/2012 21:00,9.9,6.1,77,13,25.0,101.48,Mainly Clear,1.7712394339642408
9/15/2012 22:00,8.5,5.7,83,7,25.0,101.51,Clear,1.7677307448741924
9/15/2012 23:00,7.9,5.6,85,9,25.0,101.5,Clear,1.7507512632600475
9/16/2012 0:00,6.6,5.0,90,7,25.0,101.52,Clear,1.7609487211792867
9/16/2012 1:00,6.1,5.2,94,9,25.0,101.49,Clear,1.7677471105115399
9/16/2012 2:00,6.5,5.6,94,6,25.0,101.46,Clear,1.7677471105115399
9/16/2012 3:00,6.7,5.6,93,7,25.0,101.44,Clear,1.7663155381997573
9/16/2012 4:00,7.3,6.2,93,9,25.0,101.43,Clear,1.7663155381997573
9/16/2012 5:00,4.9,4.6,98,9,25.0,101.45,Clear,1.7720304913691292
9/16/2012 6:00,5.8,4.9,94,9,48.3,101.53,Clear,1.7677471105115399
9/16/2012 7:00,8.7,6.5,86,9,48.3,101.55,Clear,1.7530322801745157
9/16/2012 8:00,11.7,4.5,61,9,48.3,101.58,Clear,1.7038814031778062
9/16/2012 9:00,13.1,3.0,50,19,48.3,101.57,Mainly Clear,1.1933515662954148
9/16/2012 10:00,14.0,4.3,52,20,48.3,101.53,Mainly Clear,1.732350721549007
9/16/2012 11:00,14.9,3.9,48,20,48.3,101.49,Mainly Clear,1.2459230077494463
9/16/2012 12:00,15.3,3.2,44,19,48.3,101.44,Mainly Clear,1.0031915228224877
9/16/2012 13:00,15.7,2.9,42,24,48.3,101.35,Mainly Clear,1.0070798033695096
9/16/2012 14:00,16.6,3.8,42,24,48.3,101.3,Mainly Clear,1.2160289555325796
9/16/2012 15:00,16.7,3.6,42,19,48.3,101.25,Clear,1.0289103565282571
9/16/2012 16:00,16.6,3.0,40,15,48.3,101.2,Clear,0.9609437279620106
9/16/2012 17:00,16.6,3.6,42,20,48.3,101.17,Clear,0.9680475511008143
9/16/2012 18:00,15.5,3.2,44,11,48.3,101.16,Clear,1.092512087225643
9/16/2012 19:00,14.2,3.9,50,6,25.0,101.18,Mainly Clear,1.704080846143965
9/16/2012 20:00,12.5,4.6,59,6,25.0,101.18,Clear,1.701170843660414
9/16/2012 21:00,12.8,5.4,61,6,25.0,101.18,Clear,1.70719848628661
9/16/2012 22:00,13.1,5.4,60,6,25.0,101.2,Clear,1.6995718302844807
9/16/2012 23:00,12.1,5.6,64,6,25.0,101.21,Clear,1.7187825258179896
9/17/2012 0:00,11.5,8.6,82,4,25.0,101.2,Clear,1.7434626346010758
9/17/2012 1:00,10.1,8.4,89,4,25.0,101.21,Clear,1.7590894054480448
9/17/2012 2:00,10.1,7.8,86,6,25.0,101.18,Clear,1.7530322801745157
9/17/2012 3:00,10.1,8.4,89,7,25.0,101.16,Mostly Cloudy,1.7590894054480448
9/17/2012 4:00,11.1,8.3,83,7,25.0,101.12,Cloudy,1.7459700090483987
9/17/2012 5:00,12.1,7.9,75,7,25.0,101.12,Cloudy,1.7241591468416737
9/17/2012 6:00,12.5,9.0,79,4,48.3,101.13,Cloudy,1.7357508862871274
9/17/2012 7:00,13.7,9.7,77,7,24.1,101.13,Cloudy,1.7302348458823897
9/17/2012 8:00,14.7,10.8,77,9,24.1,101.13,Cloudy,1.7302348458823897
9/17/2012 9:00,16.8,13.1,79,13,24.1,101.13,Mainly Clear,1.7357508862871274
9/17/2012 10:00,18.2,13.6,75,17,24.1,101.11,Mainly Clear,1.7241591468416737
9/17/2012 11:00,19.9,14.9,73,15,24.1,101.09,Mainly Clear,1.718324698506683
9/17/2012 12:00,21.8,14.2,62,17,24.1,101.06,Mainly Clear,1.0305025778855286
9/17/2012 13:00,23.5,14.1,56,17,24.1,101.01,Mainly Clear,0.9607879911134949
9/17/2012 14:00,24.6,12.6,47,15,24.1,100.95,Clear,0.9365197406993433
9/17/2012 15:00,25.2,10.8,40,15,24.1,100.9,Clear,1.2207084114578515
9/17/2012 16:00,25.0,12.5,46,13,24.1,100.87,Mainly Clear,0.9384328601022601
9/17/2012 17:00,24.4,12.2,46,13,24.1,100.87,Clear,0.9384328601022601
9/17/2012 18:00,22.1,14.8,63,15,24.1,100.88,Mainly Clear,1.0503413361747098
9/17/2012 19:00,20.6,15.1,71,15,25.0,100.9,Mainly Clear,1.712430565280306
9/17/2012 20:00,20.0,15.4,75,13,25.0,100.88,Mainly Clear,1.7241591468416737
9/17/2012 21:00,19.3,15.3,78,0,25.0,100.88,Mainly Clear,1.733057876440812
9/17/2012 22:00,18.8,15.1,79,6,25.0,100.83,Mainly Clear,1.7357508862871274
9/17/2012 23:00,17.0,15.0,88,7,25.0,100.84,Mainly Clear,1.7571931537828946
9/18/2012 0:00,16.2,14.2,88,6,25.0,100.84,Mainly Clear,1.7571931537828946
9/18/2012 1:00,16.9,12.5,75,0,25.0,100.81,Mainly Clear,1.7241591468416737
9/18/2012 2:00,16.6,12.1,75,9,25.0,100.75,Clear,1.7241591468416737
9/18/2012 3:00,16.1,13.0,82,19,25.0,100.67,Mostly Cloudy,1.7434626346010758
9/18/2012 4:00,16.2,12.9,81,17,25.0,100.59,Mostly Cloudy,1.7408722768108806
9/18/2012 5:00,16.1,12.8,81,24,25.0,100.52,Mostly Cloudy,1.7408722768108806
9/18/2012 6:00,16.4,12.9,80,22,24.1,100.49,Mainly Clear,1.7383226557949913
9/18/2012 7:00,16.9,13.1,78,20,24.1,100.44,Mostly Cloudy,1.733057876440812
9/18/2012 8:00,18.5,13.4,72,26,24.1,100.4,Cloudy,1.7154802667147235
9/18/2012 9:00,18.7,13.8,73,19,24.1,100.31,Cloudy,1.718324698506683
9/18/2012 10:00,16.9,16.0,94,19,9.7,100.26,Rain,1.7677471105115399
9/18/2012 11:00,17.3,16.4,94,20,9.7,100.13,Rain,1.7677471105115399
9/18/2012 12:00,16.6,16.3,98,20,6.4,99.92,Rain,1.7720304913691292
9/18/2012 13:00,17.1,16.4,96,35,9.7,99.66,Rain,1.7699087340766253
9/18/2012 14:00,17.3,16.6,96,32,24.1,99.49,Rain,1.7699087340766253
9/18/2012 15:00,18.1,17.0,93,32,24.1,99.28,Rain,1.7663155381997573
9/18/2012 16:00,19.4,17.4,88,33,24.1,99.14,Rain,1.7571931537828946
9/18/2012 17:00,20.4,17.9,86,35,24.1,99.01,Rain,1.7530322801745157
9/18/2012 18:00,20.0,18.9,93,28,6.4,99.19,Rain,1.7663155381997573
9/18/2012 19:00,19.4,18.5,95,22,25.0,99.28,Rain,1.768832975474038
9/18/2012 20:00,19.2,17.9,92,24,25.0,99.33,Rain,1.764560779079539
9/18/2012 21:00,19.1,17.6,91,20,25.0,99.39,Cloudy,1.762772169746578
9/18/2012 22:00,18.8,17.6,93,30,9.7,99.44,Rain,1.7663155381997573
9/18/2012 23:00,17.7,16.1,90,33,12.9,99.52,Rain,1.7609487211792867
9/19/2012 0:00,12.8,11.2,90,37,25.0,99.78,Cloudy,1.7609487211792867
9/19/2012 1:00,11.0,9.1,88,28,25.0,99.95,Mostly Cloudy,1.7571931537828946
9/19/2012 2:00,9.7,7.6,87,35,25.0,100.1,Cloudy,1.755244623603565
9/19/2012 3:00,8.7,6.1,84,35,25.0,100.31,Cloudy,1.7483983249034645
9/19/2012 4:00,8.3,4.9,79,28,25.0,100.49,Cloudy,1.7357508862871274
9/19/2012 5:00,8.2,4.8,79,30,25.0,100.63,Mostly Cloudy,1.7360068334964835
9/19/2012 6:00,8.0,4.2,77,26,24.1,100.79,Cloudy,1.7302348458823897
9/19/2012 7:00,8.2,4.1,75,33,24.1,100.92,Mostly Cloudy,1.7637646191438368
9/19/2012 8:00,8.6,4.1,73,26,24.1,101.04,Mostly Cloudy,1.7398052980662184
9/19/2012 9:00,9.2,4.1,70,32,24.1,101.13,Mostly Cloudy,1.7384607481448058
9/19/2012 10:00,11.0,3.6,60,32,48.3,101.19,Mostly Cloudy,1.734922741074292
9/19/2012 11:00,12.0,3.9,58,24,48.3,101.29,Mostly Cloudy,1.7315431117821436
9/19/2012 12:00,13.2,4.0,54,22,48.3,101.37,Mostly Cloudy,1.692836911075593
9/19/2012 13:00,13.6,2.7,48,24,48.3,101.41,Mostly Cloudy,1.7141042159445656
9/19/2012 14:00,14.5,3.0,46,24,48.3,101.45,Mainly Clear,1.6965467298903247
9/19/2012 15:00,14.3,0.9,40,15,48.3,101.49,Mainly Clear,1.6019594294664155
9/19/2012 16:00,14.2,2.2,44,19,48.3,101.6,Mainly Clear,1.2977407351430723
9/19/2012 17:00,12.7,2.3,49,11,48.3,101.66,Mainly Clear,1.6936841503261764
9/19/2012 18:00,10.6,2.1,56,11,48.3,101.68,Clear,1.7061669238406545
9/19/2012 19:00,10.0,2.5,60,4,25.0,101.75,Clear,1.7152293270378909
9/19/2012 20:00,8.8,3.2,68,4,25.0,101.81,Clear,1.7436916362618862
9/19/2012 21:00,9.5,2.7,62,0,25.0,101.83,Clear,1.755022748263548
9/19/2012 22:00,8.5,2.7,67,0,25.0,101.85,Clear,1.7465108896738175
9/19/2012 23:00,9.8,3.1,63,4,25.0,101.88,Clear,1.7596836883922682
9/20/2012 0:00,7.2,4.5,83,7,25.0,101.88,Clear,1.768356448394035
9/20/2012 1:00,8.4,4.0,74,6,25.0,101.92,Clear,1.7540250672998443
9/20/2012 2:00,9.0,4.0,71,7,25.0,101.89,Clear,1.7438439321638437
9/20/2012 3:00,8.0,4.8,80,4,25.0,101.91,Clear,1.7586895793991635
9/20/2012 4:00,8.3,5.7,84,9,25.0,101.91,Clear,1.752060043985269
9/20/2012 5:00,7.7,6.5,92,6,25.0,101.95,Clear,1.7676707177996147
9/20/2012 6:00,7.7,6.5,92,6,48.3,101.97,Clear,1.764560779079539
9/20/2012 7:00,9.6,6.9,83,9,48.3,101.95,Clear,1.7459700090483987
9/20/2012 8:00,11.7,7.6,76,7,48.3,101.94,Clear,1.7272721454173066
9/20/2012 9:00,12.8,7.6,71,15,48.3,101.85,Clear,1.7214778199119398
9/20/2012 10:00,15.2,7.4,60,20,48.3,101.76,Clear,1.746406697604697
9/20/2012 11:00,16.2,6.9,54,19,48.3,101.65,Clear,1.765108329514539
9/20/2012 12:00,17.6,7.3,51,15,48.3,101.56,Clear,1.0617497719133104
9/20/2012 13:00,18.3,6.7,47,22,48.3,101.48,Mainly Clear,1.49675294030747
9/20/2012 14:00,19.3,6.9,44,15,48.3,101.43,Mainly Clear,0.9988069502150296
9/20/2012 15:00,19.1,7.5,47,20,48.3,101.39,Clear,1.0026421310072804
9/20/2012 16:00,18.7,7.7,49,24,48.3,101.31,Clear,1.7664805145541471
9/20/2012 17:00,18.0,7.9,52,26,48.3,101.31,Clear,1.7216357736203984
9/20/2012 18:00,16.6,7.9,56,19,48.3,101.26,Clear,1.6921887106559825
9/20/2012 19:00,16.2,7.9,58,24,25.0,101.27,Clear,1.7153844948175823
9/20/2012 20:00,15.6,7.9,60,20,25.0,101.24,Mainly Clear,1.6932956449719696
9/20/2012 21:00,15.4,7.9,61,20,25.0,101.25,Clear,1.6952608528417734
9/20/2012 22:00,13.4,8.5,72,15,25.0,101.25,Clear,1.7159704422895323
9/20/2012 23:00,14.0,8.9,71,19,25.0,101.24,Mainly Clear,1.712430565280306
9/21/2012 0:00,13.7,9.6,76,19,25.0,101.23,Mainly Clear,1.7272721454173066
9/21/2012 1:00,13.1,9.9,81,20,25.0,101.23,Mainly Clear,1.7408722768108806
9/21/2012 2:00,13.5,10.5,82,19,25.0,101.18,Mostly Cloudy,1.7434626346010758
9/21/2012 3:00,13.9,11.0,83,15,25.0,101.14,Mostly Cloudy,1.7469780099766394
9/21/2012 4:00,14.3,11.4,83,19,25.0,101.14,Cloudy,1.7459700090483987
9/21/2012 5:00,14.4,11.2,81,19,25.0,101.17,Mostly Cloudy,1.7408722768108806
9/21/2012 6:00,14.4,11.4,82,19,48.3,101.19,Mostly Cloudy,1.7434626346010758
9/21/2012 7:00,14.6,11.4,81,17,48.3,101.18,Cloudy,1.7408722768108806
9/21/2012 8:00,15.2,11.8,80,15,48.3,101.23,Cloudy,1.7383226557949913
9/21/2012 9:00,16.0,12.4,79,15,48.3,101.21,Cloudy,1.7357508862871274
9/21/2012 10:00,16.7,12.9,78,13,48.3,101.17,Cloudy,1.733057876440812
9/21/2012 11:00,17.1,12.8,76,15,48.3,101.13,Cloudy,1.7272721454173066
9/21/2012 12:00,17.8,13.3,75,17,48.3,101.08,Cloudy,1.7241591468416737
9/21/2012 13:00,18.2,13.6,75,15,48.3,101.0,Cloudy,1.7241591468416737
9/21/2012 14:00,19.2,13.9,71,17,48.3,100.95,Cloudy,1.712430565280306
9/21/2012 15:00,19.3,13.9,71,13,24.1,100.93,Mostly Cloudy,1.712430565280306
9/21/2012 16:00,19.0,14.1,73,6,24.1,100.89,Cloudy,1.718324698506683
9/21/2012 17:00,17.3,15.5,89,4,24.1,100.88,Cloudy,1.7590894054480448
9/21/2012 18:00,15.9,15.2,96,19,19.3,100.95,Cloudy,1.7699087340766253
9/21/2012 19:00,15.2,15.1,99,7,25.0,101.01,Rain,1.7730767632267987
9/21/2012 20:00,15.7,15.2,97,4,25.0,101.01,Cloudy,1.7709745267585884
9/21/2012 21:00,15.4,15.3,99,0,9.7,101.04,"Rain,Fog",1.7730767632267987
9/21/2012 22:00,15.7,15.4,98,13,8.0,100.99,"Rain,Fog",1.7720304913691292
9/21/2012 23:00,15.7,15.6,99,13,6.4,100.93,Fog,1.7730767632267987
9/22/2012 0:00,15.7,15.4,98,7,8.0,100.87,Fog,1.7720304913691292
9/22/2012 1:00,15.9,15.4,97,7,11.3,100.85,Cloudy,1.7709745267585884
9/22/2012 2:00,15.9,14.7,93,11,19.3,100.76,Cloudy,1.7663155381997573
9/22/2012 3:00,15.8,14.4,91,24,19.3,100.68,Rain Showers,1.762772169746578
9/22/2012 4:00,15.4,14.1,92,20,19.3,100.5,Rain Showers,1.764560779079539
9/22/2012 5:00,15.4,13.3,87,24,25.0,100.46,Cloudy,1.755244623603565
9/22/2012 6:00,15.6,12.8,83,26,24.1,100.43,Mostly Cloudy,1.7459700090483987
9/22/2012 7:00,16.2,12.8,80,33,24.1,100.36,Mostly Cloudy,1.7383226557949913
9/22/2012 8:00,16.4,13.1,81,32,48.3,100.25,Mostly Cloudy,1.7408722768108806
9/22/2012 9:00,17.3,13.1,76,39,24.1,100.19,Cloudy,1.7272721454173066
9/22/2012 10:00,18.5,13.8,74,33,24.1,100.14,Mostly Cloudy,1.7209839103698092
9/22/2012 11:00,18.4,14.1,76,32,24.1,100.09,Cloudy,1.7272721454173066
9/22/2012 12:00,16.9,15.6,92,22,16.1,100.23,Rain Showers,1.764560779079539
9/22/2012 13:00,16.6,15.6,94,15,19.3,100.22,Rain Showers,1.7677471105115399
9/22/2012 14:00,16.3,15.7,96,22,6.4,100.29,"Rain,Fog",1.7699087340766253
9/22/2012 15:00,16.1,15.0,93,9,24.1,100.32,Rain,1.7663155381997573
9/22/2012 16:00,16.8,15.2,90,15,24.1,100.28,Mostly Cloudy,1.7609487211792867
9/22/2012 17:00,16.4,14.9,91,13,24.1,100.32,Mostly Cloudy,1.762772169746578
9/22/2012 18:00,16.1,15.6,97,13,25.0,100.33,Rain Showers,1.7709745267585884
9/22/2012 19:00,16.0,15.3,96,9,25.0,100.36,Rain Showers,1.7699087340766253
9/22/2012 20:00,16.3,14.0,86,20,25.0,100.39,Cloudy,1.7530322801745157
9/22/2012 21:00,15.7,13.4,86,26,25.0,100.37,Cloudy,1.7530322801745157
9/22/2012 22:00,15.4,12.7,84,22,25.0,100.41,Cloudy,1.7483983249034645
9/22/2012 23:00,15.1,12.0,82,22,25.0,100.42,Cloudy,1.7434626346010758
9/23/2012 0:00,14.2,10.4,78,26,25.0,100.41,Mostly Cloudy,1.733057876440812
9/23/2012 1:00,12.8,9.6,81,17,25.0,100.46,Mostly Cloudy,1.7408722768108806
9/23/2012 2:00,12.2,8.3,77,26,25.0,100.56,Mostly Cloudy,1.7302348458823897
9/23/2012 3:00,11.6,8.0,79,24,25.0,100.58,Cloudy,1.7357508862871274
9/23/2012 4:00,11.0,7.4,78,24,25.0,100.63,Mostly Cloudy,1.733057876440812
9/23/2012 5:00,10.2,7.3,82,20,25.0,100.7,Mainly Clear,1.7434626346010758
9/23/2012 6:00,9.9,7.4,84,19,24.1,100.77,Mainly Clear,1.7483983249034645
9/23/2012 7:00,10.6,7.8,83,20,24.1,100.82,Mainly Clear,1.7459700090483987
9/23/2012 8:00,11.3,7.6,78,28,48.3,100.89,Mainly Clear,1.771654104182158
9/23/2012 9:00,12.0,6.8,70,24,48.3,100.9,Mainly Clear,1.72613845234108
9/23/2012 10:00,13.2,5.6,60,33,48.3,100.97,Mainly Clear,1.6891583304133897
9/23/2012 11:00,13.5,4.0,53,28,48.3,101.0,Mainly Clear,1.6946895416273082
9/23/2012 12:00,15.6,4.5,48,26,48.3,101.0,Mainly Clear,0.9985487443341752
9/23/2012 13:00,14.6,4.2,50,30,48.3,101.01,Mainly Clear,1.2803719651145256
9/23/2012 14:00,16.0,4.1,45,28,48.3,101.02,Mainly Clear,1.0702773508821872
9/23/2012 15:00,15.1,4.6,49,24,48.3,101.04,Mainly Clear,0.978471280482628
9/23/2012 16:00,15.1,5.7,53,15,48.3,101.07,Mainly Clear,1.1673507137123562
9/23/2012 17:00,14.3,3.4,48,20,48.3,101.11,Mainly Clear,0.9747414129919759
9/23/2012 18:00,10.9,4.3,64,9,25.0,101.17,Mainly Clear,1.7191275954017398
9/23/2012 19:00,9.8,5.3,74,4,25.0,101.23,Mainly Clear,1.7274161857143193
9/23/2012 20:00,11.4,4.7,63,9,25.0,101.31,Mainly Clear,1.6912184114256805
9/23/2012 21:00,8.7,5.2,79,7,25.0,101.38,Mainly Clear,1.7357508862871274
9/23/2012 22:00,7.2,4.9,85,7,25.0,101.41,Mainly Clear,1.7507512632600475
9/23/2012 23:00,9.2,5.2,76,7,25.0,101.43,Mostly Cloudy,1.7697061837137404
9/24/2012 0:00,7.7,5.1,84,0,25.0,101.42,Mainly Clear,1.7483983249034645
9/24/2012 1:00,5.7,4.3,91,6,25.0,101.41,Mainly Clear,1.762772169746578
9/24/2012 2:00,6.9,5.1,88,0,25.0,101.37,Clear,1.7571931537828946
9/24/2012 3:00,5.7,4.7,93,0,25.0,101.38,Clear,1.7663155381997573
9/24/2012 4:00,7.2,5.0,86,4,25.0,101.42,Mainly Clear,1.7530322801745157
9/24/2012 5:00,8.0,7.8,99,0,25.0,101.44,Mostly Cloudy,1.7730767632267987
9/24/2012 6:00,6.9,6.8,99,9,48.3,101.47,Mostly Cloudy,1.7730767632267987
9/24/2012 7:00,7.9,7.5,97,6,48.3,101.48,Mostly Cloudy,1.7709745267585884
9/24/2012 8:00,9.9,7.5,85,13,48.3,101.51,Mainly Clear,1.7507512632600475
9/24/2012 9:00,11.0,7.9,81,13,48.3,101.49,Mainly Clear,1.7408722768108806
9/24/2012 10:00,12.8,7.5,70,22,48.3,101.46,Mainly Clear,1.753318108016052
9/24/2012 11:00,14.2,5.5,56,28,48.3,101.44,Mainly Clear,1.7733004585386736
9/24/2012 12:00,15.0,5.7,54,20,48.3,101.37,Mainly Clear,1.741783391501705
9/24/2012 13:00,15.8,3.2,43,28,48.3,101.28,Mainly Clear,1.700336665828133
9/24/2012 14:00,16.6,3.7,42,32,48.3,101.23,Mainly Clear,1.6972813815619512
9/24/2012 15:00,16.3,3.6,43,24,48.3,101.13,Mainly Clear,0.945948721343493
9/24/2012 16:00,16.4,4.5,45,26,48.3,101.09,Mainly Clear,1.0432735830693356
9/24/2012 17:00,15.3,5.2,51,28,48.3,101.06,Mainly Clear,1.6836671706967419
9/24/2012 18:00,14.4,5.8,56,22,25.0,101.03,Mainly Clear,1.6857824424659846
9/24/2012 19:00,13.8,5.6,58,33,25.0,101.05,Mainly Clear,1.7029880934173984
9/24/2012 20:00,12.1,6.3,68,15,25.0,101.06,Mainly Clear,1.7111150748888264
9/24/2012 21:00,11.7,6.2,69,17,25.0,101.06,Mostly Cloudy,1.5133108828465742
9/24/2012 22:00,12.6,5.6,62,17,25.0,101.08,Mostly Cloudy,1.6869979226852538
9/24/2012 23:00,12.1,5.6,64,20,25.0,101.04,Mainly Clear,1.751769287271005
9/25/2012 0:00,11.9,6.0,67,17,25.0,101.02,Mostly Cloudy,1.698763522260988
9/25/2012 1:00,12.1,6.4,68,19,25.0,100.92,Mostly Cloudy,1.7051955707734523
9/25/2012 2:00,11.7,5.3,65,20,25.0,100.88,Mostly Cloudy,1.7261539121073843
9/25/2012 3:00,11.2,5.5,68,20,25.0,100.85,Mostly Cloudy,1.7133064441593682
9/25/2012 4:00,11.6,5.3,65,24,25.0,100.85,Mostly Cloudy,1.7231293610748308
9/25/2012 5:00,11.3,6.0,70,17,25.0,100.85,Cloudy,1.7132599664922703
9/25/2012 6:00,12.4,6.1,65,19,48.3,100.89,Mostly Cloudy,1.1136122370198804
9/25/2012 7:00,13.0,6.9,66,28,48.3,100.89,Mainly Clear,1.7084931502172007
9/25/2012 8:00,14.1,7.2,63,24,48.3,100.92,Mainly Clear,1.5767265819214975
9/25/2012 9:00,16.3,8.6,60,32,48.3,100.93,Mainly Clear,1.1650081376424117
9/25/2012 10:00,17.4,9.0,58,35,48.3,100.92,Mainly Clear,1.0439812927693537
9/25/2012 11:00,18.0,9.2,56,28,48.3,100.94,Mainly Clear,1.6902504618754446
9/25/2012 12:00,18.1,9.6,58,30,48.3,100.99,Mostly Cloudy,1.032720104915955
9/25/2012 13:00,18.9,9.9,56,33,48.3,100.99,Mostly Cloudy,1.0230515345277054
9/25/2012 14:00,19.0,10.4,57,32,48.3,100.97,Mostly Cloudy,0.9964820662005502
9/25/2012 15:00,19.0,10.2,57,28,48.3,100.98,Mostly Cloudy,1.0331924157444727
9/25/2012 16:00,19.2,9.5,53,19,48.3,100.98,Mostly Cloudy,1.6970735498025147
9/25/2012 17:00,18.8,10.5,59,9,48.3,100.98,Mainly Clear,1.013621278862426
9/25/2012 18:00,17.8,10.9,64,13,24.1,100.99,Mainly Clear,1.0754917436180753
9/25/2012 19:00,16.6,10.5,67,11,25.0,101.02,Clear,1.2523873978786297
9/25/2012 20:00,15.7,10.6,72,7,25.0,101.03,Mainly Clear,1.7154802667147235
9/25/2012 21:00,14.3,10.5,78,13,25.0,101.06,Mostly Cloudy,1.733057876440812
9/25/2012 22:00,13.1,9.5,79,7,25.0,101.05,Mainly Clear,1.7357508862871274
9/25/2012 23:00,14.0,9.2,73,17,25.0,101.03,Cloudy,1.718324698506683
9/26/2012 0:00,14.2,9.9,75,15,25.0,101.02,Mostly Cloudy,1.7241591468416737
9/26/2012 1:00,14.0,9.7,75,17,25.0,100.96,Mostly Cloudy,1.7241591468416737
9/26/2012 2:00,14.1,9.3,73,17,25.0,100.89,Mostly Cloudy,1.718324698506683
9/26/2012 3:00,14.7,8.7,67,17,25.0,100.87,Mostly Cloudy,1.698763522260988
9/26/2012 4:00,14.6,9.0,69,17,25.0,100.88,Mostly Cloudy,1.7111562906946283
9/26/2012 5:00,15.1,9.2,68,17,25.0,100.84,Mostly Cloudy,1.7018006700167505
9/26/2012 6:00,15.0,9.1,68,17,24.1,100.86,Cloudy,1.3579319565140906
9/26/2012 7:00,14.9,10.4,74,19,24.1,100.87,Cloudy,1.7209839103698092
9/26/2012 8:00,14.9,11.0,77,19,24.1,100.89,Cloudy,1.7302348458823897
9/26/2012 9:00,15.4,12.0,80,20,24.1,100.88,Cloudy,1.7383226557949913
9/26/2012 10:00,16.7,12.6,77,19,24.1,100.89,Cloudy,1.7302348458823897
9/26/2012 11:00,18.1,13.5,74,20,24.1,100.84,Cloudy,1.7209839103698092
9/26/2012 12:00,18.1,13.9,76,15,24.1,100.82,Cloudy,1.7272721454173066
9/26/2012 13:00,18.8,14.6,77,20,24.1,100.8,Cloudy,1.7302348458823897
9/26/2012 14:00,20.0,14.8,72,24,24.1,100.73,Cloudy,1.7154802667147235
9/26/2012 15:00,17.6,15.6,88,11,24.1,100.75,Mostly Cloudy,1.7571931537828946
9/26/2012 16:00,18.8,15.2,80,7,24.1,100.74,Rain Showers,1.7383226557949913
9/26/2012 17:00,16.1,12.6,80,19,24.1,100.86,Mostly Cloudy,1.7383226557949913
9/26/2012 18:00,14.6,10.2,75,17,24.1,101.0,Mostly Cloudy,1.7241591468416737
9/26/2012 19:00,13.6,9.5,76,7,25.0,101.09,Mostly Cloudy,1.7272721454173066
9/26/2012 20:00,13.8,7.8,67,15,25.0,101.22,Cloudy,1.720693425237648
9/26/2012 21:00,13.6,7.0,64,6,25.0,101.33,Cloudy,1.7148874390918907
9/26/2012 22:00,12.6,7.5,71,7,25.0,101.39,Mostly Cloudy,1.712430565280306
9/26/2012 23:00,11.9,6.2,68,7,25.0,101.46,Mostly Cloudy,1.7018006700167505
9/27/2012 0:00,10.1,6.0,76,7,25.0,101.51,Mainly Clear,1.750815516227928
9/27/2012 1:00,8.3,6.3,87,9,25.0,101.54,Mainly Clear,1.755244623603565
9/27/2012 2:00,7.4,5.9,90,9,25.0,101.56,Mainly Clear,1.7609487211792867
9/27/2012 3:00,6.3,4.9,91,9,25.0,101.63,Clear,1.762772169746578
9/27/2012 4:00,5.1,4.1,93,11,25.0,101.69,Clear,1.7663155381997573
9/27/2012 5:00,6.0,4.6,91,7,25.0,101.76,Clear,1.762772169746578
9/27/2012 6:00,6.4,4.3,86,0,48.3,101.86,Clear,1.7535080430571393
9/27/2012 7:00,7.5,5.3,86,0,48.3,101.91,Clear,1.7530322801745157
9/27/2012 8:00,9.0,5.6,79,11,48.3,101.99,Clear,1.7709612652921896
9/27/2012 9:00,10.9,5.1,67,9,48.3,102.03,Mainly Clear,1.744531891188847
9/27/2012 10:00,12.8,4.4,57,4,48.3,102.06,Mainly Clear,1.7346551930916432
9/27/2012 11:00,12.8,3.5,53,6,48.3,102.04,Mainly Clear,1.697861471838273
9/27/2012 12:00,12.9,3.8,54,4,48.3,102.04,Mainly Clear,1.533210203313932
9/27/2012 13:00,13.6,4.5,54,11,48.3,101.99,Mostly Cloudy,1.6880255305618406
9/27/2012 14:00,14.9,4.4,49,4,48.3,101.95,Mainly Clear,1.6855563895046335
9/27/2012 15:00,15.1,4.7,50,9,48.3,101.93,Mainly Clear,1.6927556650593514
9/27/2012 16:00,15.1,3.7,46,11,48.3,101.93,Mainly Clear,1.0234007344483178
9/27/2012 17:00,14.6,3.6,48,7,48.3,101.94,Mainly Clear,1.0047336230561557
9/27/2012 18:00,13.1,3.8,53,7,48.3,101.97,Mainly Clear,1.724849589031015
9/27/2012 19:00,10.6,4.4,65,0,25.0,102.0,Clear,1.7651347418862724
9/27/2012 20:00,11.5,4.9,64,4,25.0,102.01,Mainly Clear,1.7439326344664703
9/27/2012 21:00,9.4,5.5,77,7,25.0,102.01,Clear,1.7477201200969272
9/27/2012 22:00,9.3,4.8,73,4,25.0,101.99,Clear,1.7487321926248331
9/27/2012 23:00,9.2,4.6,73,4,25.0,101.98,Clear,1.7425076427492097
9/28/2012 0:00,9.2,4.0,70,6,25.0,101.96,Clear,1.7357245702901167
9/28/2012 1:00,8.0,4.7,80,7,25.0,101.98,Mainly Clear,1.7578183110085688
9/28/2012 2:00,8.9,5.2,78,6,25.0,101.94,Mainly Clear,1.7441918267608754
9/28/2012 3:00,7.2,4.9,85,9,25.0,101.92,Clear,1.757365357628364
9/28/2012 4:00,6.0,5.3,95,9,25.0,101.91,Clear,1.768832975474038
9/28/2012 5:00,5.1,4.6,97,7,25.0,101.87,Mainly Clear,1.7709745267585884
9/28/2012 6:00,5.3,4.1,92,9,48.3,101.83,Mainly Clear,1.764560779079539
9/28/2012 7:00,7.6,4.7,82,11,48.3,101.8,Mainly Clear,1.7434626346010758
9/28/2012 8:00,9.3,5.8,79,9,48.3,101.81,Mainly Clear,1.7357508862871274
9/28/2012 9:00,10.7,5.3,69,13,48.3,101.76,Mostly Cloudy,1.7329820238571731
9/28/2012 10:00,13.3,6.0,61,13,48.3,101.67,Mostly Cloudy,1.7228529850621326
9/28/2012 11:00,14.6,5.2,53,13,48.3,101.62,Mostly Cloudy,1.2614879444302491
9/28/2012 12:00,15.8,7.1,56,7,48.3,101.55,Mostly Cloudy,1.1176587207755344
9/28/2012 13:00,16.6,6.9,53,9,48.3,101.42,Mainly Clear,1.6919219458312083
9/28/2012 14:00,16.7,8.7,59,17,24.1,101.37,Mostly Cloudy,1.6998730887505011
9/28/2012 15:00,15.6,9.6,67,19,24.1,101.35,Mostly Cloudy,1.698763522260988
9/28/2012 16:00,14.2,10.0,76,17,24.1,101.33,Mostly Cloudy,1.7272721454173066
9/28/2012 17:00,13.3,10.1,81,17,24.1,101.34,Mostly Cloudy,1.7408722768108806
9/28/2012 18:00,12.9,10.0,83,15,24.1,101.33,Mostly Cloudy,1.7459700090483987
9/28/2012 19:00,13.0,10.0,82,15,25.0,101.35,Mostly Cloudy,1.753491303871223
9/28/2012 20:00,13.1,10.1,82,4,25.0,101.34,Mostly Cloudy,1.7434626346010758
9/28/2012 21:00,13.1,9.8,80,7,25.0,101.32,Mostly Cloudy,1.7383226557949913
9/28/2012 22:00,13.1,9.8,80,9,25.0,101.3,Mostly Cloudy,1.7383226557949913
9/28/2012 23:00,13.1,9.2,77,11,19.3,101.29,Cloudy,1.7302348458823897
9/29/2012 0:00,13.0,9.3,78,7,19.3,101.27,Cloudy,1.733057876440812
9/29/2012 1:00,13.1,9.3,78,9,25.0,101.24,Cloudy,1.733057876440812
9/29/2012 2:00,13.0,9.3,78,11,25.0,101.2,Cloudy,1.733057876440812
9/29/2012 3:00,11.7,9.9,89,11,25.0,101.19,Cloudy,1.7590894054480448
9/29/2012 4:00,11.3,9.6,89,15,25.0,101.19,Cloudy,1.7590894054480448
9/29/2012 5:00,10.3,8.9,91,19,25.0,101.23,Cloudy,1.762772169746578
9/29/2012 6:00,10.2,8.8,91,11,25.0,101.27,Cloudy,1.762772169746578
9/29/2012 7:00,9.8,8.6,92,17,25.0,101.29,Cloudy,1.764560779079539
9/29/2012 8:00,10.9,9.0,88,19,24.1,101.28,Cloudy,1.7652095359761197
9/29/2012 9:00,12.4,9.6,83,22,24.1,101.27,Mostly Cloudy,1.7459700090483987
9/29/2012 10:00,13.0,10.0,82,20,24.1,101.23,Cloudy,1.7434626346010758
9/29/2012 11:00,12.6,9.8,83,24,24.1,101.19,Cloudy,1.7459700090483987
9/29/2012 12:00,12.6,9.9,84,22,24.1,101.18,Drizzle,1.7483983249034645
9/29/2012 13:00,12.4,9.8,84,19,24.1,101.15,Drizzle,1.7483983249034645
9/29/2012 14:00,12.6,9.8,83,19,24.1,101.12,Cloudy,1.7459700090483987
9/29/2012 15:00,11.6,10.1,91,20,19.3,101.11,Drizzle,1.762772169746578
9/29/2012 16:00,11.7,9.8,88,26,24.1,101.11,Cloudy,1.7571931537828946
9/29/2012 17:00,11.1,10.4,95,22,9.7,101.12,Drizzle,1.768832975474038
9/29/2012 18:00,10.8,9.8,94,20,16.1,101.12,Drizzle,1.7677471105115399
9/29/2012 19:00,10.5,10.2,98,19,6.4,101.15,"Drizzle,Fog",1.7720304913691292
9/29/2012 20:00,10.5,9.9,96,24,8.0,101.13,"Drizzle,Fog",1.7699087340766253
9/29/2012 21:00,10.7,9.8,94,22,9.7,101.11,"Drizzle,Fog",1.7677471105115399
9/29/2012 22:00,10.6,9.9,95,20,9.7,101.08,"Drizzle,Fog",1.768832975474038
9/29/2012 23:00,10.8,9.7,93,17,12.9,101.06,Drizzle,1.7663155381997573
9/30/2012 0:00,10.8,9.4,91,13,8.0,101.03,"Drizzle,Fog",1.7676488820792542
9/30/2012 1:00,10.7,9.6,93,15,8.0,101.02,"Drizzle,Fog",1.7663155381997573
9/30/2012 2:00,10.3,9.8,97,20,6.4,100.97,"Drizzle,Fog",1.7709745267585884
9/30/2012 3:00,10.4,9.6,95,17,12.9,100.92,Drizzle,1.768832975474038
9/30/2012 4:00,10.8,9.5,92,17,12.9,100.96,Cloudy,1.764560779079539
9/30/2012 5:00,10.9,9.6,92,15,16.1,100.92,Cloudy,1.764560779079539
9/30/2012 6:00,11.0,9.6,91,13,19.3,100.9,Cloudy,1.762772169746578
9/30/2012 7:00,11.2,9.9,92,15,19.3,100.88,Cloudy,1.764560779079539
9/30/2012 8:00,11.4,9.9,90,19,19.3,100.9,Cloudy,1.7609487211792867
9/30/2012 9:00,11.7,9.9,89,20,19.3,100.84,Cloudy,1.7590894054480448
9/30/2012 10:00,11.9,10.1,89,17,19.3,100.79,Cloudy,1.7590894054480448
9/30/2012 11:00,12.2,10.2,88,19,12.9,100.72,Cloudy,1.7571931537828946
9/30/2012 12:00,11.8,11.1,95,17,9.7,100.65,"Drizzle,Fog",1.768832975474038
9/30/2012 13:00,11.4,11.0,97,13,6.4,100.54,"Drizzle,Fog",1.7709745267585884
9/30/2012 14:00,11.5,11.1,97,19,8.0,100.46,"Rain,Fog",1.7709745267585884
9/30/2012 15:00,11.6,10.9,95,20,6.4,100.36,"Rain,Fog",1.768832975474038
9/30/2012 16:00,11.7,11.2,97,13,8.0,100.28,"Rain,Fog",1.7709745267585884
9/30/2012 17:00,11.7,11.2,97,11,8.0,100.21,"Rain,Fog",1.7709745267585884
9/30/2012 18:00,11.6,11.5,99,4,9.7,100.15,"Rain,Fog",1.7730767632267987
9/30/2012 19:00,11.5,11.4,99,9,9.7,100.09,"Rain,Fog",1.7730767632267987
9/30/2012 20:00,11.6,11.6,100,9,8.0,100.0,"Rain,Fog",1.774113475177305
9/30/2012 21:00,11.6,11.5,99,11,9.7,99.9,"Rain,Fog",1.7730767632267987
9/30/2012 22:00,11.6,11.2,97,13,16.1,99.79,Rain,1.7709745267585884
9/30/2012 23:00,11.5,11.2,98,15,6.4,99.72,"Rain,Fog",1.7720304913691292
10/1/2012 0:00,11.5,11.1,97,15,19.3,99.62,Rain,1.7709745267585884
10/1/2012 1:00,11.4,11.1,98,17,6.4,99.56,"Rain,Fog",1.7720304913691292
10/1/2012 2:00,11.3,11.2,99,15,6.4,99.5,"Rain,Fog",1.7730767632267987
10/1/2012 3:00,11.2,11.0,99,17,8.0,99.44,"Rain,Fog",1.7730767632267987
10/1/2012 4:00,11.3,11.1,99,15,6.4,99.44,"Rain,Fog",1.7730767632267987
10/1/2012 5:00,11.3,11.1,99,15,8.0,99.47,"Rain,Fog",1.7730767632267987
10/1/2012 6:00,11.7,11.0,95,15,19.3,99.51,Cloudy,1.768832975474038
10/1/2012 7:00,12.1,11.2,94,17,19.3,99.6,Rain,1.7677471105115399
10/1/2012 8:00,12.6,11.8,95,17,24.1,99.7,Cloudy,1.768832975474038
10/1/2012 9:00,14.0,12.3,89,19,24.1,99.8,Mostly Cloudy,1.7590894054480448
10/1/2012 10:00,14.9,12.0,83,20,24.1,99.88,Cloudy,1.7459700090483987
10/1/2012 11:00,14.8,11.9,83,26,24.1,99.96,Cloudy,1.7459700090483987
10/1/2012 12:00,14.8,11.3,80,17,24.1,100.06,Cloudy,1.7383226557949913
10/1/2012 13:00,14.9,11.5,80,19,24.1,100.14,Cloudy,1.7383226557949913
10/1/2012 14:00,15.3,11.4,78,24,24.1,100.2,Cloudy,1.733057876440812
10/1/2012 15:00,15.2,11.5,79,26,24.1,100.27,Cloudy,1.7357508862871274
10/1/2012 16:00,15.0,11.5,80,19,24.1,100.35,Cloudy,1.7383226557949913
10/1/2012 17:00,14.9,11.4,80,17,48.3,100.45,Mostly Cloudy,1.7383226557949913
10/1/2012 18:00,14.6,11.6,82,6,25.0,100.51,Cloudy,1.7434626346010758
10/1/2012 19:00,14.6,11.7,83,9,25.0,100.57,Mostly Cloudy,1.7459700090483987
10/1/2012 20:00,13.8,11.7,87,9,25.0,100.61,Mostly Cloudy,1.755244623603565
10/1/2012 21:00,13.8,12.0,89,6,25.0,100.65,Mostly Cloudy,1.7590894054480448
10/1/2012 22:00,13.1,12.7,97,6,25.0,100.66,Mostly Cloudy,1.7709745267585884
10/1/2012 23:00,14.2,12.9,92,22,25.0,100.75,Mostly Cloudy,1.764560779079539
10/2/2012 0:00,13.5,12.7,95,9,25.0,100.74,Mostly Cloudy,1.768832975474038
10/2/2012 1:00,12.8,12.6,99,9,25.0,100.76,Mostly Cloudy,1.7730767632267987
10/2/2012 2:00,12.4,12.3,99,7,19.3,100.77,Mostly Cloudy,1.7730767632267987
10/2/2012 3:00,12.1,11.8,98,7,19.3,100.82,Mainly Clear,1.7720304913691292
10/2/2012 4:00,12.0,11.9,99,6,19.3,100.85,Clear,1.7730767632267987
10/2/2012 5:00,11.1,11.0,99,6,16.1,100.92,Mainly Clear,1.7730767632267987
10/2/2012 6:00,11.2,11.2,100,0,48.3,100.96,Mostly Cloudy,1.774113475177305
10/2/2012 7:00,11.9,11.8,99,4,24.1,101.04,Mostly Cloudy,1.7730767632267987
10/2/2012 8:00,13.0,12.4,96,9,24.1,101.08,Mostly Cloudy,1.7699087340766253
10/2/2012 9:00,14.3,13.1,92,6,24.1,101.08,Cloudy,1.764560779079539
10/2/2012 10:00,15.2,13.3,88,9,24.1,101.09,Cloudy,1.7571931537828946
10/2/2012 11:00,16.6,13.9,84,7,24.1,101.08,Mostly Cloudy,1.7483983249034645
10/2/2012 12:00,18.2,13.6,75,13,24.1,101.1,Mostly Cloudy,1.7241591468416737
10/2/2012 13:00,18.2,12.9,71,9,24.1,101.03,Cloudy,1.712430565280306
10/2/2012 14:00,18.7,12.4,67,11,24.1,101.03,Mostly Cloudy,1.4911681419355587
10/2/2012 15:00,18.8,11.5,63,9,24.1,101.08,Mostly Cloudy,1.6856696145686971
10/2/2012 16:00,18.7,12.6,68,6,24.1,101.06,Mostly Cloudy,1.7018006700167505
10/2/2012 17:00,17.9,13.9,77,9,24.1,101.1,Mostly Cloudy,1.7302348458823897
10/2/2012 18:00,16.6,13.3,81,9,24.1,101.16,Mainly Clear,1.7408722768108806
10/2/2012 19:00,15.0,13.3,90,11,25.0,101.18,Mainly Clear,1.7609487211792867
10/2/2012 20:00,14.6,13.0,90,9,25.0,101.22,Mainly Clear,1.7609487211792867
10/2/2012 21:00,14.0,12.8,92,6,25.0,101.27,Mainly Clear,1.764560779079539
10/2/2012 22:00,14.2,12.9,92,4,25.0,101.28,Clear,1.764560779079539
10/2/2012 23:00,11.4,10.9,97,4,25.0,101.31,Clear,1.7709745267585884
10/3/2012 0:00,11.9,11.7,99,4,25.0,101.3,Clear,1.7730767632267987
10/3/2012 1:00,11.3,11.0,98,4,25.0,101.33,Clear,1.7720304913691292
10/3/2012 2:00,11.3,11.2,99,7,25.0,101.32,Clear,1.7730767632267987
10/3/2012 3:00,11.6,11.4,99,7,25.0,101.33,Clear,1.7730767632267987
10/3/2012 4:00,11.5,11.2,98,7,25.0,101.37,Clear,1.7720304913691292
10/3/2012 5:00,11.0,11.0,100,11,3.2,101.38,Fog,1.774113475177305
10/3/2012 6:00,11.5,11.5,100,11,0.6,101.42,Fog,1.774113475177305
10/3/2012 7:00,11.7,11.7,100,13,0.6,101.49,Fog,1.774113475177305
10/3/2012 8:00,11.4,11.4,100,15,1.6,101.54,Fog,1.774113475177305
10/3/2012 9:00,12.7,12.6,99,19,4.8,101.53,Fog,1.7730767632267987
10/3/2012 10:00,14.8,13.5,92,19,9.7,101.5,Fog,1.764560779079539
10/3/2012 11:00,15.8,13.7,87,19,12.9,101.48,Cloudy,1.755244623603565
10/3/2012 12:00,16.9,13.2,79,19,24.1,101.42,Mostly Cloudy,1.7357508862871274
10/3/2012 13:00,17.5,13.5,77,13,19.3,101.4,Mostly Cloudy,1.7302348458823897
10/3/2012 14:00,18.7,13.6,72,13,19.3,101.4,Cloudy,1.7154802667147235
10/3/2012 15:00,19.3,13.9,71,13,24.1,101.4,Cloudy,1.712430565280306
10/3/2012 16:00,19.2,14.2,73,11,24.1,101.42,Cloudy,1.718324698506683
10/3/2012 17:00,19.2,13.9,71,11,24.1,101.45,Cloudy,1.712430565280306
10/3/2012 18:00,18.9,13.9,73,11,25.0,101.47,Cloudy,1.718324698506683
10/3/2012 19:00,19.0,13.9,72,7,25.0,101.51,Cloudy,1.7154802667147235
10/3/2012 20:00,18.6,14.3,76,9,25.0,101.51,Cloudy,1.7272721454173066
10/3/2012 21:00,18.6,14.4,77,11,25.0,101.53,Cloudy,1.7302348458823897
10/3/2012 22:00,18.3,14.7,80,7,25.0,101.56,Cloudy,1.7383226557949913
10/3/2012 23:00,18.0,14.9,82,7,25.0,101.57,Cloudy,1.7434626346010758
10/4/2012 0:00,17.0,15.1,89,11,16.1,101.55,Cloudy,1.7590894054480448
10/4/2012 1:00,16.1,14.7,91,11,16.1,101.55,Cloudy,1.762772169746578
10/4/2012 2:00,14.7,14.1,96,11,6.4,101.56,Drizzle,1.7699087340766253
10/4/2012 3:00,12.6,11.8,95,13,9.7,101.55,"Drizzle,Fog",1.768832975474038
10/4/2012 4:00,11.7,11.5,99,15,19.3,101.55,Cloudy,1.7730767632267987
10/4/2012 5:00,11.5,11.0,97,9,16.1,101.59,Cloudy,1.7709745267585884
10/4/2012 6:00,11.3,10.8,97,9,6.4,101.58,Fog,1.7709745267585884
10/4/2012 7:00,11.4,11.1,98,13,4.0,101.58,"Drizzle,Fog",1.7720304913691292
10/4/2012 8:00,12.0,11.8,99,7,4.0,101.57,Fog,1.7730767632267987
10/4/2012 9:00,12.1,12.0,99,11,2.8,101.54,"Drizzle,Fog",1.7730767632267987
10/4/2012 10:00,12.6,12.5,99,9,4.8,101.47,"Drizzle,Fog",1.7730767632267987
10/4/2012 11:00,13.3,12.8,97,6,6.4,101.47,Fog,1.7709745267585884
10/4/2012 12:00,13.6,13.0,96,0,6.4,101.42,"Drizzle,Fog",1.7699087340766253
10/4/2012 13:00,14.4,13.2,92,0,6.4,101.38,"Drizzle,Fog",1.764560779079539
10/4/2012 14:00,15.6,14.3,92,4,8.0,101.3,"Rain,Fog",1.770979830915164
10/4/2012 15:00,15.9,14.7,93,4,9.7,101.24,Fog,1.769648783252719
10/4/2012 16:00,16.0,15.5,97,4,9.7,101.18,Fog,1.7709745267585884
10/4/2012 17:00,15.8,15.3,97,4,9.7,101.13,Fog,1.7709745267585884
10/4/2012 18:00,14.6,14.5,99,0,9.7,101.12,Fog,1.7730767632267987
10/4/2012 19:00,14.8,14.6,99,6,9.7,101.1,Fog,1.7730767632267987
10/4/2012 20:00,14.1,14.1,100,4,9.7,101.1,Fog,1.774113475177305
10/4/2012 21:00,14.4,13.7,96,6,9.7,101.07,Fog,1.7699087340766253
10/4/2012 22:00,15.3,13.8,91,13,12.9,101.01,Mainly Clear,1.762772169746578
10/4/2012 23:00,16.6,13.7,83,13,9.7,100.97,"Rain,Fog",1.7459700090483987
10/5/2012 0:00,15.8,12.7,82,11,12.9,100.94,Mainly Clear,1.7434626346010758
10/5/2012 1:00,15.3,12.6,84,15,12.9,100.94,Mainly Clear,1.7483983249034645
10/5/2012 2:00,15.7,12.7,82,17,16.1,100.92,Clear,1.7434626346010758
10/5/2012 3:00,14.7,12.6,87,17,19.3,100.94,Clear,1.755244623603565
10/5/2012 4:00,14.4,12.6,89,13,19.3,100.96,Clear,1.7590894054480448
10/5/2012 5:00,13.8,12.6,92,17,19.3,100.96,Clear,1.764560779079539
10/5/2012 6:00,13.7,12.9,95,4,16.1,100.93,Mainly Clear,1.768832975474038
10/5/2012 7:00,15.3,14.0,92,6,24.1,100.92,Mainly Clear,1.764560779079539
10/5/2012 8:00,16.8,14.3,85,9,24.1,100.92,Mostly Cloudy,1.7507512632600475
10/5/2012 9:00,17.3,13.6,79,13,24.1,100.84,Mostly Cloudy,1.7357508862871274
10/5/2012 10:00,18.9,14.4,75,11,24.1,100.87,Rain Showers,1.7241591468416737
10/5/2012 11:00,17.5,14.3,81,22,24.1,100.85,Cloudy,1.7408722768108806
10/5/2012 12:00,18.5,15.3,82,19,24.1,100.74,Cloudy,1.7434626346010758
10/5/2012 13:00,19.2,14.9,76,20,24.1,100.69,Cloudy,1.7272721454173066
10/5/2012 14:00,20.2,15.6,75,19,24.1,100.6,Mostly Cloudy,1.7241591468416737
10/5/2012 15:00,20.7,15.4,72,26,24.1,100.57,Cloudy,1.7154802667147235
10/5/2012 16:00,20.3,15.4,73,28,24.1,100.55,Cloudy,1.718324698506683
10/5/2012 17:00,19.7,14.8,73,26,24.1,100.55,Cloudy,1.718324698506683
10/5/2012 18:00,19.0,14.8,77,24,25.0,100.53,Cloudy,1.7302348458823897
10/5/2012 19:00,18.7,14.2,75,32,25.0,100.53,Cloudy,1.7241591468416737
10/5/2012 20:00,18.1,14.0,77,24,25.0,100.55,Cloudy,1.7302348458823897
10/5/2012 21:00,17.8,13.8,77,22,25.0,100.56,Cloudy,1.7302348458823897
10/5/2012 22:00,17.4,12.1,71,19,25.0,100.54,Cloudy,1.712430565280306
10/5/2012 23:00,17.0,10.9,67,17,25.0,100.53,Cloudy,1.2523873978786297
10/6/2012 0:00,16.8,11.2,70,13,25.0,100.51,Cloudy,1.7091525423728813
10/6/2012 1:00,16.1,10.9,71,17,25.0,100.5,Cloudy,1.712430565280306
10/6/2012 2:00,15.4,9.6,68,11,25.0,100.44,Rain Showers,1.3579319565140906
10/6/2012 3:00,14.6,10.1,74,11,25.0,100.39,Rain Showers,1.7209839103698092
10/6/2012 4:00,11.0,9.7,92,13,16.1,100.35,Rain,1.764560779079539
10/6/2012 5:00,9.4,8.8,96,15,16.1,100.32,Rain,1.7699087340766253
10/6/2012 6:00,9.1,8.7,97,6,16.1,100.35,Rain,1.7709745267585884
10/6/2012 7:00,8.6,8.4,99,11,8.0,100.35,"Rain,Fog",1.7730767632267987
10/6/2012 8:00,8.8,8.4,97,7,19.3,100.36,Rain,1.7709745267585884
10/6/2012 9:00,9.5,8.6,94,7,24.1,100.33,Rain,1.7677471105115399
10/6/2012 10:00,9.7,8.7,93,13,24.1,100.32,Rain,1.7663155381997573
10/6/2012 11:00,9.6,8.4,92,13,24.1,100.35,Rain,1.764560779079539
10/6/2012 12:00,10.9,9.3,90,17,24.1,100.32,Mostly Cloudy,1.7609487211792867
10/6/2012 13:00,11.8,9.0,83,20,24.1,100.3,Cloudy,1.7459700090483987
10/6/2012 14:00,13.8,8.9,72,17,24.1,100.28,Mostly Cloudy,1.7154802667147235
10/6/2012 15:00,14.4,8.8,69,28,48.3,100.25,Mainly Clear,1.707666305239642
10/6/2012 16:00,14.6,7.7,63,28,48.3,100.26,Mainly Clear,1.7130657719299527
10/6/2012 17:00,12.0,7.9,76,9,48.3,100.32,Mostly Cloudy,1.7272721454173066
10/6/2012 18:00,9.7,7.2,84,19,25.0,100.43,Mostly Cloudy,1.7483983249034645
10/6/2012 19:00,10.2,5.9,75,26,25.0,100.52,Mostly Cloudy,1.7241591468416737
10/6/2012 20:00,9.8,5.5,75,17,25.0,100.58,Mainly Clear,1.7241591468416737
10/6/2012 21:00,9.7,5.2,74,19,25.0,100.66,Mainly Clear,1.7209839103698092
10/6/2012 22:00,9.2,4.4,72,26,25.0,100.75,Mainly Clear,1.7633303177564608
10/6/2012 23:00,8.7,4.0,72,22,25.0,100.79,Mainly Clear,1.7278387654866636
10/7/2012 0:00,8.8,4.2,73,28,25.0,100.82,Mostly Cloudy,1.7499126666709746
10/7/2012 1:00,8.4,4.4,76,17,25.0,100.9,Mainly Clear,1.728131345174137
10/7/2012 2:00,7.0,4.2,82,15,25.0,100.93,Mainly Clear,1.7435581334556105
10/7/2012 3:00,6.5,3.9,83,11,25.0,101.01,Mainly Clear,1.7459700090483987
10/7/2012 4:00,5.3,3.7,89,13,25.0,101.09,Clear,1.7590894054480448
10/7/2012 5:00,5.7,3.8,88,7,25.0,101.19,Mostly Cloudy,1.7640738112100356
10/7/2012 6:00,5.9,3.7,86,11,24.1,101.25,Mostly Cloudy,1.7530322801745157
10/7/2012 7:00,6.0,3.7,85,13,24.1,101.31,Mostly Cloudy,1.7526607275725599
10/7/2012 8:00,5.9,3.3,83,9,24.1,101.29,Mainly Clear,1.7586094131388077
10/7/2012 9:00,6.9,2.5,74,9,48.3,101.3,Mostly Cloudy,1.7209839103698092
10/7/2012 10:00,8.5,3.1,69,22,48.3,101.3,Mostly Cloudy,1.7480509761038354
10/7/2012 11:00,9.0,1.5,59,15,48.3,101.33,Mainly Clear,1.7287567812027804
10/7/2012 12:00,9.2,0.6,55,22,48.3,101.36,Mostly Cloudy,1.7133760673450282
10/7/2012 13:00,9.3,-0.5,50,20,48.3,101.32,Mostly Cloudy,1.730974725440737
10/7/2012 14:00,10.2,-0.6,47,17,48.3,101.25,Mainly Clear,1.7197161649747221
10/7/2012 15:00,10.5,0.3,49,11,48.3,101.24,Mainly Clear,1.707109686451866
10/7/2012 16:00,9.2,-0.2,52,11,48.3,101.23,Cloudy,1.7151848888044958
10/7/2012 17:00,8.6,-1.2,50,13,48.3,101.26,Cloudy,1.7162820482783938
10/7/2012 18:00,7.3,-0.1,59,9,25.0,101.27,Cloudy,1.7302577300146686
10/7/2012 19:00,7.3,0.9,64,6,25.0,101.3,Cloudy,1.728623300211895
10/7/2012 20:00,7.4,0.4,61,6,25.0,101.33,Cloudy,1.7340892730213702
10/7/2012 21:00,7.3,0.6,62,7,25.0,101.34,Cloudy,1.7303575950815897
10/7/2012 22:00,7.5,0.4,61,0,25.0,101.38,Cloudy,1.215809217577709
10/7/2012 23:00,6.5,1.4,70,15,25.0,101.44,Rain Showers,1.7556865073115269
10/8/2012 0:00,6.4,2.9,78,9,25.0,101.49,Rain Showers,1.755415025565133
10/8/2012 1:00,6.2,2.9,79,7,25.0,101.52,Rain Showers,1.7525477646885819
10/8/2012 2:00,5.4,3.0,84,6,25.0,101.5,Mostly Cloudy,1.7544834252135106
10/8/2012 3:00,5.1,2.9,86,0,25.0,101.52,Clear,1.7556098874804478
10/8/2012 4:00,3.6,2.4,92,6,25.0,101.58,Clear,1.764560779079539
10/8/2012 5:00,2.8,2.6,99,0,25.0,101.62,Clear,1.7730767632267987
10/8/2012 6:00,2.4,1.9,96,9,24.1,101.73,Mainly Clear,1.7699087340766253
10/8/2012 7:00,2.5,1.3,92,6,48.3,101.83,Mainly Clear,1.764560779079539
10/8/2012 8:00,5.4,1.1,74,7,48.3,101.92,Mainly Clear,1.7506817383029396
10/8/2012 9:00,6.6,0.5,65,4,48.3,101.94,Clear,1.7560469030421293
10/8/2012 10:00,8.6,-1.7,48,7,48.3,101.97,Mainly Clear,0.9811952810813258
10/8/2012 11:00,10.0,-1.0,46,9,48.3,101.95,Mainly Clear,1.014108873348764
10/8/2012 12:00,10.7,-2.0,41,13,48.3,101.95,Mainly Clear,1.7137684959911081
10/8/2012 13:00,11.1,-1.3,42,13,48.3,101.93,Mainly Clear,1.7105752191824735
10/8/2012 14:00,11.6,-1.5,40,19,48.3,101.91,Mainly Clear,1.7447765715362828
10/8/2012 15:00,11.9,0.3,45,9,48.3,101.89,Mostly Cloudy,0.9535983203687098
10/8/2012 16:00,12.0,-0.1,43,13,48.3,101.9,Mostly Cloudy,1.6952608528417736
10/8/2012 17:00,11.5,-1.0,42,9,48.3,101.94,Cloudy,1.707534382878877
10/8/2012 18:00,10.6,-0.7,45,7,25.0,101.98,Mostly Cloudy,1.7314794394641946
10/8/2012 19:00,9.7,1.5,57,15,25.0,102.03,Mainly Clear,1.7580368712491912
10/8/2012 20:00,8.1,2.2,66,7,25.0,102.05,Mainly Clear,1.7521396601247747
10/8/2012 21:00,7.3,2.7,73,9,25.0,102.08,Mainly Clear,1.7613804169127592
10/8/2012 22:00,8.0,2.0,66,4,25.0,102.08,Clear,1.756669876380493
10/8/2012 23:00,7.4,1.9,68,7,25.0,102.06,Clear,1.7541081167129178
10/9/2012 0:00,5.8,2.6,80,6,25.0,102.06,Clear,1.7650378596114549
10/9/2012 1:00,5.8,3.3,84,4,25.0,102.08,Clear,1.7605520309283123
10/9/2012 2:00,5.9,3.4,84,6,25.0,102.06,Clear,1.7483983249034645
10/9/2012 3:00,5.9,3.2,83,4,25.0,102.02,Clear,1.7584630545113447
10/9/2012 4:00,4.3,2.7,89,7,25.0,102.04,Clear,1.7739327349333225
10/9/2012 5:00,5.1,3.2,88,4,25.0,102.08,Mainly Clear,1.7683401685207079
10/9/2012 6:00,5.4,3.7,89,7,48.3,102.09,Mainly Clear,1.7590894054480448
10/9/2012 7:00,6.7,5.3,91,9,48.3,102.09,Mainly Clear,1.762772169746578
10/9/2012 8:00,8.4,6.0,85,15,48.3,102.08,Clear,1.7507512632600475
10/9/2012 9:00,10.3,6.4,77,15,48.3,102.06,Clear,1.7302348458823897
10/9/2012 10:00,12.5,6.0,65,17,48.3,102.0,Clear,1.7295515422820416
10/9/2012 11:00,13.5,4.7,55,6,48.3,101.93,Mainly Clear,0.9670092001582486
10/9/2012 12:00,14.4,4.4,51,7,48.3,101.84,Mainly Clear,1.697205366376669
10/9/2012 13:00,15.0,4.4,49,7,48.3,101.71,Mostly Cloudy,1.0528087803829513
10/9/2012 14:00,14.9,3.2,45,11,48.3,101.66,Mostly Cloudy,1.697888455853488
10/9/2012 15:00,15.0,4.6,50,13,48.3,101.59,Mostly Cloudy,1.2402875767017922
10/9/2012 16:00,14.5,4.0,49,13,48.3,101.57,Mostly Cloudy,1.6870373186688261
10/9/2012 17:00,13.6,4.8,55,22,48.3,101.5,Mostly Cloudy,1.7342245189977832
10/9/2012 18:00,13.2,4.8,57,20,25.0,101.44,Mostly Cloudy,1.7170404122861556
10/9/2012 19:00,12.8,4.5,57,19,25.0,101.45,Mostly Cloudy,1.7299813321680932
10/9/2012 20:00,11.9,4.6,61,19,25.0,101.4,Mainly Clear,1.73035759508159
10/9/2012 21:00,11.4,4.5,62,19,25.0,101.36,Mainly Clear,1.7382031187540146
10/9/2012 22:00,10.6,7.4,81,17,25.0,101.32,Mainly Clear,1.7439642894433744
10/9/2012 23:00,10.4,7.4,82,19,25.0,101.26,Mainly Clear,1.7434626346010758
10/10/2012 0:00,10.0,7.4,84,15,25.0,101.22,Mainly Clear,1.7483983249034645
10/10/2012 1:00,10.3,7.8,84,11,25.0,101.18,Mostly Cloudy,1.7483983249034645
10/10/2012 2:00,11.0,7.8,81,15,25.0,101.09,Mostly Cloudy,1.74713916054962
10/10/2012 3:00,11.3,7.9,80,13,25.0,101.01,Mostly Cloudy,1.7383226557949913
10/10/2012 4:00,11.3,8.1,81,30,25.0,100.94,Mostly Cloudy,1.7408722768108806
10/10/2012 5:00,11.2,8.3,82,20,25.0,100.9,Mostly Cloudy,1.7434626346010758
10/10/2012 6:00,11.5,8.4,81,37,24.1,100.85,Mostly Cloudy,1.743558133455611
10/10/2012 7:00,11.6,8.8,83,39,24.1,100.8,Cloudy,1.7459700090483987
10/10/2012 8:00,12.0,8.8,81,32,24.1,100.73,Cloudy,1.7408722768108806
10/10/2012 9:00,12.5,8.9,79,32,24.1,100.64,Cloudy,1.7357508862871274
10/10/2012 10:00,13.5,9.0,74,33,24.1,100.53,Cloudy,1.7209839103698092
10/10/2012 11:00,12.2,10.6,90,13,12.9,100.43,Rain,1.7609487211792867
10/10/2012 12:00,13.3,9.9,80,20,19.3,100.33,Cloudy,1.7383226557949913
10/10/2012 13:00,12.5,10.8,89,19,4.0,100.24,Rain,1.7590894054480448
10/10/2012 14:00,12.8,11.8,94,19,48.3,100.07,Cloudy,1.7677471105115399
10/10/2012 15:00,13.2,11.2,88,15,48.3,100.01,Cloudy,1.7571931537828946
10/10/2012 16:00,13.7,10.4,80,26,16.1,100.02,Rain,1.7383226557949913
10/10/2012 17:00,11.5,7.7,77,33,24.1,100.13,Rain,1.7302348458823897
10/10/2012 18:00,8.9,7.1,88,19,25.0,100.25,Mostly Cloudy,1.7571931537828946
10/10/2012 19:00,7.8,6.1,89,17,25.0,100.31,Mostly Cloudy,1.7590894054480448
10/10/2012 20:00,7.4,5.9,90,15,25.0,100.34,Mostly Cloudy,1.7609487211792867
10/10/2012 21:00,7.9,5.9,87,19,25.0,100.37,Mostly Cloudy,1.755244623603565
10/10/2012 22:00,7.7,5.7,87,11,25.0,100.4,Mostly Cloudy,1.755244623603565
10/10/2012 23:00,6.7,4.9,88,9,25.0,100.37,Mainly Clear,1.7571931537828946
10/11/2012 0:00,7.2,4.4,82,17,25.0,100.4,Mostly Cloudy,1.7434626346010758
10/11/2012 1:00,6.7,3.8,82,20,25.0,100.42,Mostly Cloudy,1.7434626346010758
10/11/2012 2:00,6.6,3.8,82,32,25.0,100.45,Mostly Cloudy,1.7434626346010758
10/11/2012 3:00,6.6,3.9,83,24,25.0,100.51,Mostly Cloudy,1.7459700090483987
10/11/2012 4:00,6.0,3.2,82,26,25.0,100.68,Mostly Cloudy,1.7434626346010758
10/11/2012 5:00,5.5,2.5,81,28,25.0,100.84,Mainly Clear,1.75022824242003
10/11/2012 6:00,5.0,2.4,83,22,24.1,100.95,Mainly Clear,1.7459700090483987
10/11/2012 7:00,4.9,2.3,83,26,24.1,101.05,Mainly Clear,1.7507917895940757
10/11/2012 8:00,6.0,2.3,77,20,24.1,101.14,Mainly Clear,1.751305140788027
10/11/2012 9:00,6.8,1.2,67,24,24.1,101.2,Mainly Clear,1.7526381488443905
10/11/2012 10:00,7.7,0.2,59,32,48.3,101.19,Mostly Cloudy,1.7363267872185664
10/11/2012 11:00,8.7,1.2,59,24,48.3,101.2,Mostly Cloudy,1.7452802264764455
10/11/2012 12:00,8.0,-0.6,55,30,48.3,101.22,Mostly Cloudy,1.765451102751919
10/11/2012 13:00,9.2,-1.8,46,30,48.3,101.22,Mostly Cloudy,1.7412728324448439
10/11/2012 14:00,9.7,-1.7,45,26,48.3,101.2,Mostly Cloudy,1.7416909254913548
10/11/2012 15:00,9.8,-2.9,41,30,48.3,101.21,Mostly Cloudy,1.7194296426118412
10/11/2012 16:00,9.8,-2.7,41,28,48.3,101.18,Mostly Cloudy,1.72294253250381
10/11/2012 17:00,9.1,-2.2,45,19,24.1,101.15,Cloudy,1.3895132950709153
10/11/2012 18:00,9.1,0.9,56,30,25.0,101.19,Rain,1.7738086315087835
10/11/2012 19:00,8.4,2.2,65,37,25.0,101.13,Rain,1.77149580908995
10/11/2012 20:00,7.0,3.6,79,32,25.0,101.07,Rain,1.7498482196114555
10/11/2012 21:00,6.6,4.2,85,22,25.0,100.93,Rain,1.7507686343842752
10/11/2012 22:00,6.9,3.9,81,22,25.0,100.77,Rain,1.7408722768108806
10/11/2012 23:00,8.2,4.2,76,19,25.0,100.69,Rain,1.7272721454173066
10/12/2012 0:00,7.7,5.3,85,22,25.0,100.74,Rain,1.7507512632600475
10/12/2012 1:00,8.1,5.4,83,24,25.0,100.75,Rain,1.7459700090483987
10/12/2012 2:00,7.9,4.4,79,30,25.0,100.76,Cloudy,1.7448642177544273
10/12/2012 3:00,7.2,1.1,65,33,25.0,100.83,Cloudy,1.760875044177472
10/12/2012 4:00,5.5,0.6,71,26,25.0,101.0,Cloudy,1.7536473876632952
10/12/2012 5:00,4.4,-0.1,73,24,25.0,101.14,Mostly Cloudy,1.770002386781877
10/12/2012 6:00,3.6,-0.4,75,24,24.1,101.3,Mainly Clear,1.7603298976773722
10/12/2012 7:00,3.7,-0.4,75,17,24.1,101.45,Mainly Clear,1.7294344580091596
10/12/2012 8:00,4.8,-0.7,68,17,24.1,101.57,Mainly Clear,1.7414233386019184
10/12/2012 9:00,5.4,-1.7,60,19,24.1,101.68,Mostly Cloudy,1.7605658969819977
10/12/2012 10:00,5.4,-2.4,57,20,24.1,101.74,Mostly Cloudy,1.770216164093435
10/12/2012 11:00,6.2,-3.4,50,22,24.1,101.76,Mostly Cloudy,1.740990683658417
10/12/2012 12:00,5.6,-5.1,46,30,24.1,101.83,Mostly Cloudy,1.7643701446326265
10/12/2012 13:00,6.2,-5.5,43,26,24.1,101.87,Mostly Cloudy,1.7504378900247004
10/12/2012 14:00,6.2,-5.1,44,22,24.1,101.93,Mostly Cloudy,1.7506759416325735
10/12/2012 15:00,6.4,-5.4,43,20,24.1,101.98,Mostly Cloudy,1.7531276798126785
10/12/2012 16:00,5.2,-5.3,47,19,24.1,102.07,Mostly Cloudy,1.7676598004524735
10/12/2012 17:00,4.7,-5.1,49,22,24.1,102.13,Mainly Clear,1.7357903375647497
10/12/2012 18:00,4.0,-4.5,54,15,25.0,102.21,Clear,1.7503214916490302
10/12/2012 19:00,2.5,-3.9,63,13,25.0,102.28,Clear,1.7723768260550994
10/12/2012 20:00,1.2,-3.6,70,9,25.0,102.35,Clear,1.7091525423728813
10/12/2012 21:00,0.7,-4.0,71,7,25.0,102.41,Clear,1.7610315392202118
10/12/2012 22:00,0.0,-4.7,71,9,25.0,102.47,Clear,1.7602557374561563
10/12/2012 23:00,-0.2,-4.9,71,9,25.0,102.48,Mainly Clear,1.7667490512290518
10/13/2012 0:00,1.9,-3.8,66,9,25.0,102.49,Mostly Cloudy,1.6960165533823464
10/13/2012 1:00,-0.9,-3.8,81,7,25.0,102.51,Mostly Cloudy,1.756770912074777
10/13/2012 2:00,0.1,-3.6,76,4,25.0,102.47,Mostly Cloudy,1.7272721454173066
10/13/2012 3:00,-1.6,-3.6,86,4,25.0,102.49,Mostly Cloudy,1.7556585419935236
10/13/2012 4:00,-1.9,-3.8,87,4,25.0,102.52,Mainly Clear,1.755244623603565
10/13/2012 5:00,-1.9,-3.9,86,0,25.0,102.53,Clear,1.7530322801745157
10/13/2012 6:00,-1.0,-3.3,84,0,48.3,102.54,Mostly Cloudy,1.7483983249034645
10/13/2012 7:00,1.0,-2.2,79,6,48.3,102.56,Mostly Cloudy,1.7533348867996896
10/13/2012 8:00,3.4,-1.3,71,11,48.3,102.57,Mainly Clear,1.767818001631653
10/13/2012 9:00,4.5,1.2,79,17,48.3,102.55,Mainly Clear,1.768862693327466
10/13/2012 10:00,6.1,-1.1,60,19,48.3,102.52,Mainly Clear,1.7694097544319467
10/13/2012 11:00,7.7,-3.7,44,28,48.3,102.46,Mostly Cloudy,1.7420873754627926
10/13/2012 12:00,9.7,-1.9,44,22,48.3,102.37,Mostly Cloudy,1.7305376522113074
10/13/2012 13:00,8.6,-2.8,45,20,48.3,102.24,Mainly Clear,1.7303503815060066
10/13/2012 14:00,9.8,-3.1,40,19,48.3,102.2,Mostly Cloudy,1.7263930459404506
10/13/2012 15:00,9.4,-2.1,44,19,48.3,102.18,Mostly Cloudy,1.7270897152135052
10/13/2012 16:00,9.5,-2.7,42,17,48.3,102.14,Mostly Cloudy,1.1195665675476323
10/13/2012 17:00,9.1,-2.7,43,13,25.0,102.08,Mostly Cloudy,1.7456176270193526
10/13/2012 18:00,8.8,-2.4,45,7,25.0,102.01,Cloudy,1.7435772192455716
10/13/2012 19:00,8.2,-1.1,52,15,25.0,101.92,Cloudy,1.750936347012698
10/13/2012 20:00,7.9,-1.4,52,15,25.0,101.85,Cloudy,1.7379569497586984
10/13/2012 21:00,8.3,-1.9,49,9,25.0,101.73,Cloudy,1.718680473647229
10/13/2012 22:00,8.2,-0.9,53,24,25.0,101.75,Rain Showers,1.6965467298903247
10/13/2012 23:00,5.6,3.0,83,19,9.7,101.77,"Rain,Fog",1.7635141353457984
10/14/2012 0:00,5.4,3.1,85,7,8.0,101.68,"Rain,Fog",1.7605612751896373
10/14/2012 1:00,4.6,3.4,92,20,9.7,101.51,"Rain,Fog",1.764560779079539
10/14/2012 2:00,4.4,3.2,92,17,11.3,101.35,Rain,1.764560779079539
10/14/2012 3:00,4.6,3.8,95,17,9.7,101.24,"Rain,Fog",1.768832975474038
10/14/2012 4:00,4.9,4.3,96,17,8.0,101.16,"Rain,Fog",1.7699087340766253
10/14/2012 5:00,5.4,4.5,94,9,9.7,101.18,"Rain,Fog",1.7677471105115399
10/14/2012 6:00,5.5,4.5,93,11,12.9,101.11,Rain,1.7663155381997573
10/14/2012 7:00,5.9,4.8,93,6,9.7,101.16,Fog,1.7699676103922999
10/14/2012 8:00,6.2,5.4,95,7,4.8,101.13,Fog,1.768832975474038
10/14/2012 9:00,6.8,5.4,91,7,16.1,101.13,Cloudy,1.762772169746578
10/14/2012 10:00,7.3,5.7,90,6,16.1,101.14,Drizzle,1.7609487211792867
10/14/2012 11:00,6.7,6.4,98,11,3.2,101.11,"Drizzle,Fog",1.7720304913691292
10/14/2012 12:00,6.7,6.3,97,13,2.4,101.0,"Drizzle,Fog",1.7709745267585884
10/14/2012 13:00,6.6,6.3,98,13,1.6,100.94,"Drizzle,Fog",1.7720304913691292
10/14/2012 14:00,6.6,6.3,98,19,2.0,100.84,"Rain,Fog",1.7720304913691292
10/14/2012 15:00,7.0,6.6,97,15,8.0,100.77,"Rain,Fog",1.7709745267585884
10/14/2012 16:00,7.5,7.1,97,15,3.2,100.68,"Rain,Fog",1.7709745267585884
10/14/2012 17:00,7.7,7.3,97,19,6.4,100.67,"Rain,Fog",1.7709745267585884
10/14/2012 18:00,9.9,9.4,97,11,2.0,100.56,"Rain,Fog",1.7709745267585884
10/14/2012 19:00,9.6,9.1,97,15,9.7,100.48,"Drizzle,Fog",1.7709745267585884
10/14/2012 20:00,10.0,9.3,95,15,9.7,100.31,Fog,1.768832975474038
10/14/2012 21:00,9.8,9.3,97,11,9.7,100.27,Fog,1.7709745267585884
10/14/2012 22:00,9.4,9.1,98,7,9.7,100.17,Fog,1.7720304913691292
10/14/2012 23:00,8.9,8.6,98,15,6.4,100.13,"Rain,Fog",1.7720304913691292
10/15/2012 0:00,8.8,8.4,97,13,9.7,100.05,"Rain,Fog",1.7709745267585884
10/15/2012 1:00,8.5,8.2,98,9,9.7,100.02,"Rain,Fog",1.7720304913691292
10/15/2012 2:00,8.7,8.4,98,11,9.7,99.88,"Rain,Fog",1.7720304913691292
10/15/2012 3:00,8.8,8.4,97,9,9.7,99.78,"Rain,Fog",1.7709745267585884
10/15/2012 4:00,11.9,10.7,92,4,12.9,99.66,Mostly Cloudy,1.764560779079539
10/15/2012 5:00,13.5,11.6,88,11,16.1,99.62,Mostly Cloudy,1.7571931537828946
10/15/2012 6:00,13.6,11.5,87,19,24.1,99.56,Cloudy,1.755244623603565
10/15/2012 7:00,13.8,11.1,84,19,24.1,99.53,Mostly Cloudy,1.7483983249034645
10/15/2012 8:00,14.4,11.3,82,20,24.1,99.53,Cloudy,1.7434626346010758
10/15/2012 9:00,16.4,12.1,76,24,24.1,99.51,Mostly Cloudy,1.7272721454173066
10/15/2012 10:00,16.6,12.7,78,20,24.1,99.5,Cloudy,1.733057876440812
10/15/2012 11:00,16.6,12.4,76,17,24.1,99.61,Rain Showers,1.7272721454173066
10/15/2012 12:00,16.4,10.6,69,22,24.1,99.63,Mostly Cloudy,1.7056195602958193
10/15/2012 13:00,16.3,10.7,69,28,24.1,99.64,Mostly Cloudy,1.7056195602958193
10/15/2012 14:00,17.8,9.3,57,30,48.3,99.65,Mostly Cloudy,1.023199108499859
10/15/2012 15:00,16.2,9.0,62,28,24.1,99.7,Mostly Cloudy,1.6969759998274168
10/15/2012 16:00,15.5,8.9,65,30,24.1,99.7,Mostly Cloudy,1.6929583486014415
10/15/2012 17:00,14.7,8.2,65,33,24.1,99.69,Mostly Cloudy,1.708982186998911
10/15/2012 18:00,13.7,8.7,72,32,25.0,99.7,Mostly Cloudy,1.7318111979344235
10/15/2012 19:00,12.9,8.3,74,30,25.0,99.72,Mostly Cloudy,1.7209839103698092
10/15/2012 20:00,12.6,7.9,73,30,25.0,99.76,Mainly Clear,1.718324698506683
10/15/2012 21:00,12.1,6.8,70,26,25.0,99.74,Mainly Clear,1.7220083303052822
10/15/2012 22:00,12.1,5.1,62,32,25.0,99.73,Mostly Cloudy,1.729915969359941
10/15/2012 23:00,11.6,3.5,57,28,25.0,99.75,Mostly Cloudy,1.7561631088672855
10/16/2012 0:00,9.8,3.8,66,28,25.0,99.81,Mainly Clear,1.7487738227215874
10/16/2012 1:00,9.2,3.9,69,24,25.0,99.89,Mostly Cloudy,1.7361637702618657
10/16/2012 2:00,7.6,1.8,67,30,25.0,99.88,Mainly Clear,1.7581507054521033
10/16/2012 3:00,6.7,2.6,75,19,25.0,99.88,Mostly Cloudy,1.7464087419460583
10/16/2012 4:00,6.6,3.0,78,22,25.0,99.94,Cloudy,1.753015432077863
10/16/2012 5:00,5.9,2.9,81,19,25.0,99.99,Cloudy,1.7558480621019654
10/16/2012 6:00,5.2,1.0,74,28,24.1,100.05,Mostly Cloudy,1.7474543960898257
10/16/2012 7:00,4.8,0.8,75,15,24.1,100.18,Mostly Cloudy,1.7241591468416737
10/16/2012 8:00,5.6,0.7,71,22,24.1,100.24,Mainly Clear,1.7323995249983417
10/16/2012 9:00,6.0,1.3,72,19,24.1,100.27,Mostly Cloudy,1.7251409344667346
10/16/2012 10:00,7.6,1.6,66,26,24.1,100.3,Mostly Cloudy,1.7433861515293059
10/16/2012 11:00,7.7,1.4,64,22,24.1,100.34,Mostly Cloudy,1.6996166194252342
10/16/2012 12:00,7.8,1.6,65,28,24.1,100.35,Cloudy,1.7174741412469008
10/16/2012 13:00,8.2,1.2,61,24,24.1,100.38,Mostly Cloudy,1.7223458930328486
10/16/2012 14:00,8.6,0.7,58,30,24.1,100.37,Mostly Cloudy,1.7317619048573354
10/16/2012 15:00,8.4,0.7,58,32,24.1,100.39,Mostly Cloudy,1.7365866454370271
10/16/2012 16:00,8.4,0.0,55,28,24.1,100.43,Mostly Cloudy,1.7148127503879629
10/16/2012 17:00,7.3,-0.5,58,20,24.1,100.47,Mainly Clear,1.7161011638391994
10/16/2012 18:00,6.5,-0.2,62,15,25.0,100.54,Mainly Clear,1.7311244541721593
10/16/2012 19:00,4.9,-0.2,70,9,25.0,100.57,Mainly Clear,1.7153254503102908
10/16/2012 20:00,3.7,-0.3,75,7,25.0,100.63,Clear,1.7405490518218978
10/16/2012 21:00,3.0,-0.5,78,11,25.0,100.66,Clear,1.7465782327776627
10/16/2012 22:00,4.1,-0.4,72,7,25.0,100.73,Clear,1.7623785692812453
10/16/2012 23:00,1.6,-0.5,86,7,25.0,100.75,Clear,1.7530322801745157
10/17/2012 0:00,3.8,0.5,79,11,25.0,100.8,Clear,1.744412408284865
10/17/2012 1:00,2.8,0.6,85,9,25.0,100.86,Clear,1.7507512632600475
10/17/2012 2:00,1.1,-1.2,85,7,25.0,100.91,Clear,1.7602139968410526
10/17/2012 3:00,1.8,-0.9,82,6,25.0,100.92,Mostly Cloudy,1.7472423615700687
10/17/2012 4:00,2.2,-0.2,84,7,25.0,100.96,Mostly Cloudy,1.7561631088672855
10/17/2012 5:00,2.6,0.2,84,0,25.0,100.95,Mostly Cloudy,1.7483983249034645
10/17/2012 6:00,2.7,0.4,85,0,24.1,100.98,Mainly Clear,1.7513281298178769
10/17/2012 7:00,3.3,0.7,83,0,24.1,101.02,Clear,1.7573892505038222
10/17/2012 8:00,6.3,2.0,74,0,24.1,101.06,Mainly Clear,1.738792026953797
10/17/2012 9:00,7.1,4.1,81,6,24.1,101.08,Mainly Clear,1.7408722768108806
10/17/2012 10:00,9.1,1.3,58,6,24.1,101.08,Mainly Clear,1.7563709631031517
10/17/2012 11:00,10.1,2.1,58,6,48.3,101.02,Mainly Clear,1.6898668688530527
10/17/2012 12:00,10.8,2.1,55,7,48.3,100.97,Mainly Clear,1.6997103553377992
10/17/2012 13:00,11.4,1.9,52,6,48.3,100.9,Mostly Cloudy,1.72140286397726
10/17/2012 14:00,12.0,2.4,52,0,48.3,100.88,Mostly Cloudy,1.7021273859547323
10/17/2012 15:00,12.5,2.9,52,4,48.3,100.86,Mostly Cloudy,1.7007971656333039
10/17/2012 16:00,12.5,3.5,54,4,48.3,100.87,Mostly Cloudy,1.691474659373432
10/17/2012 17:00,11.7,4.0,59,11,24.1,100.87,Mostly Cloudy,1.6935736930891003
10/17/2012 18:00,11.0,4.7,65,7,25.0,100.94,Mostly Cloudy,1.7197410558110098
10/17/2012 19:00,11.7,3.6,58,7,25.0,100.93,Cloudy,1.7183453085930356
10/17/2012 20:00,11.7,3.2,56,9,25.0,100.92,Mostly Cloudy,1.7146929754258022
10/17/2012 21:00,11.6,3.6,58,11,25.0,100.92,Mostly Cloudy,1.7232670990070638
10/17/2012 22:00,11.7,4.1,60,7,25.0,100.93,Mostly Cloudy,1.7295296063060521
10/17/2012 23:00,11.1,4.9,66,11,25.0,100.9,Cloudy,1.723137471593421
10/18/2012 0:00,11.1,4.8,65,6,25.0,100.92,Cloudy,1.713514978770025
10/18/2012 1:00,10.9,5.2,68,4,25.0,100.92,Cloudy,1.7018006700167505
10/18/2012 2:00,10.9,4.9,66,4,25.0,100.92,Mostly Cloudy,1.707304822236862
10/18/2012 3:00,8.9,5.3,78,9,25.0,100.91,Mostly Cloudy,1.733057876440812
10/18/2012 4:00,9.1,5.7,79,11,25.0,100.92,Mostly Cloudy,1.7357508862871274
10/18/2012 5:00,9.4,5.8,78,11,25.0,100.94,Mostly Cloudy,1.733057876440812
10/18/2012 6:00,9.0,5.8,80,11,48.3,100.96,Mostly Cloudy,1.7383226557949913
10/18/2012 7:00,10.7,5.1,68,9,48.3,100.98,Mainly Clear,1.7018006700167505
10/18/2012 8:00,12.2,5.7,64,6,48.3,101.02,Mostly Cloudy,1.1614895388072066
10/18/2012 9:00,14.4,6.4,59,15,48.3,100.99,Mainly Clear,1.2793049458773478
10/18/2012 10:00,16.1,6.7,54,15,48.3,100.97,Mainly Clear,0.9773806539017142
10/18/2012 11:00,17.9,6.3,47,15,48.3,100.94,Mainly Clear,0.9616464691232137
10/18/2012 12:00,18.3,6.3,45,17,48.3,100.9,Mainly Clear,0.973303759509079
10/18/2012 13:00,18.3,6.2,45,22,48.3,100.85,Mainly Clear,1.6854013478294367
10/18/2012 14:00,19.3,5.8,41,28,48.3,100.78,Mainly Clear,1.293345533872601
10/18/2012 15:00,18.6,3.6,37,26,48.3,100.78,Mostly Cloudy,0.9681708609999456
10/18/2012 16:00,18.3,3.8,38,28,48.3,100.69,Mostly Cloudy,1.692885548080737
10/18/2012 17:00,16.6,4.7,45,15,48.3,100.74,Mostly Cloudy,0.9701137942211816
10/18/2012 18:00,16.0,5.1,48,17,25.0,100.8,Mostly Cloudy,1.0535441062981628
10/18/2012 19:00,15.6,5.2,50,15,25.0,100.86,Mainly Clear,1.697191521875884
10/18/2012 20:00,14.9,5.7,54,17,25.0,100.9,Mostly Cloudy,1.7240366692886677
10/18/2012 21:00,13.8,6.0,59,17,25.0,100.95,Mostly Cloudy,1.7522352756655715
10/18/2012 22:00,14.4,5.9,57,19,25.0,100.99,Mostly Cloudy,1.7143013700131997
10/18/2012 23:00,12.7,5.7,62,15,25.0,100.96,Mostly Cloudy,1.7534271015376117
10/19/2012 0:00,12.3,6.1,66,17,25.0,100.94,Mainly Clear,1.7189588107939866
10/19/2012 1:00,11.7,5.8,67,17,25.0,100.92,Mainly Clear,1.7310745864686605
10/19/2012 2:00,11.7,6.0,68,15,25.0,100.92,Mainly Clear,1.7355598202468552
10/19/2012 3:00,12.0,6.0,67,19,25.0,100.94,Cloudy,1.698763522260988
10/19/2012 4:00,11.9,6.7,70,13,25.0,100.96,Rain Showers,1.7162387071828433
10/19/2012 5:00,11.7,8.7,82,17,19.3,100.96,Rain Showers,1.7434626346010758
10/19/2012 6:00,11.2,9.8,91,15,9.7,100.91,"Rain,Fog",1.762772169746578
10/19/2012 7:00,11.3,9.9,91,17,9.7,101.0,"Rain,Fog",1.762772169746578
10/19/2012 8:00,11.7,10.2,91,13,16.1,100.92,Rain,1.762772169746578
10/19/2012 9:00,12.8,10.6,86,24,24.1,100.77,Cloudy,1.7530322801745157
10/19/2012 10:00,13.1,11.0,87,24,25.0,100.79,Rain Showers,1.755244623603565
10/19/2012 11:00,12.8,11.5,92,9,19.3,100.79,Rain,1.764560779079539
10/19/2012 12:00,13.0,11.5,91,11,16.1,100.77,Rain,1.762772169746578
10/19/2012 13:00,13.1,11.9,92,17,12.9,100.64,Rain,1.764560779079539
10/19/2012 14:00,13.0,12.1,94,15,8.0,100.55,"Rain,Fog",1.7677471105115399
10/19/2012 15:00,13.3,12.1,92,13,9.7,100.45,"Rain,Fog",1.7694500749400364
10/19/2012 16:00,12.9,12.3,96,7,3.2,100.45,"Rain,Fog",1.7699087340766253
10/19/2012 17:00,13.1,12.1,94,17,6.4,100.38,"Rain,Fog",1.7677471105115399
10/19/2012 18:00,13.1,12.1,94,22,12.9,100.29,Rain,1.7677471105115399
10/19/2012 19:00,13.5,12.4,93,7,9.7,100.29,Rain,1.7663155381997573
10/19/2012 20:00,13.8,12.9,94,19,12.9,100.13,Rain,1.7677471105115399
10/19/2012 21:00,13.8,12.6,92,17,24.1,100.16,Mostly Cloudy,1.764560779079539
10/19/2012 22:00,13.4,12.3,93,7,16.1,100.15,Cloudy,1.7663155381997573
10/19/2012 23:00,13.5,12.3,92,11,16.1,100.1,Cloudy,1.764560779079539
10/20/2012 0:00,13.2,12.3,94,13,16.1,100.02,Cloudy,1.7677471105115399
10/20/2012 1:00,12.9,12.2,96,15,6.4,99.97,Fog,1.7699087340766253
10/20/2012 2:00,12.8,12.2,96,19,4.8,99.84,Fog,1.7699087340766253
10/20/2012 3:00,12.8,12.1,96,13,6.4,99.83,"Rain Showers,Fog",1.7699087340766253
10/20/2012 4:00,12.4,11.9,97,7,11.3,99.83,Cloudy,1.7709745267585884
10/20/2012 5:00,12.5,12.0,97,4,8.0,99.84,Fog,1.7709745267585884
10/20/2012 6:00,10.6,10.6,100,4,0.4,99.87,Fog,1.774113475177305
10/20/2012 7:00,11.8,11.6,99,4,2.4,99.88,Fog,1.7730767632267987
10/20/2012 8:00,12.7,12.5,99,4,1.0,99.89,Fog,1.7730767632267987
10/20/2012 9:00,13.8,13.2,96,4,9.7,99.89,Fog,1.7699087340766253
10/20/2012 10:00,16.0,13.2,83,15,24.1,99.87,Mainly Clear,1.7459700090483987
10/20/2012 11:00,16.4,12.2,76,19,24.1,99.93,Mostly Cloudy,1.7272721454173066
10/20/2012 12:00,18.1,11.9,67,20,48.3,99.89,Mostly Cloudy,1.519192884138292
10/20/2012 13:00,17.6,10.6,64,11,48.3,99.75,Mainly Clear,1.091063667267583
10/20/2012 14:00,17.2,10.4,64,22,48.3,99.79,Mostly Cloudy,1.1123030533319815
10/20/2012 15:00,16.4,8.8,61,22,24.1,99.75,Mostly Cloudy,1.7249757429305668
10/20/2012 16:00,14.0,9.2,73,15,24.1,99.9,Rain Showers,1.718324698506683
10/20/2012 17:00,13.4,9.2,76,11,24.1,99.95,Rain Showers,1.7272721454173066
10/20/2012 18:00,12.3,7.2,71,19,25.0,100.01,Mainly Clear,1.7185508388102217
10/20/2012 19:00,11.6,5.9,68,20,25.0,100.04,Clear,1.7222061443185843
10/20/2012 20:00,10.7,5.5,70,17,25.0,100.06,Mainly Clear,1.7441981377695086
10/20/2012 21:00,11.0,6.1,72,13,25.0,100.07,Mainly Clear,1.7154802667147235
10/20/2012 22:00,10.5,6.2,75,11,25.0,100.05,Mainly Clear,1.7241591468416737
10/20/2012 23:00,10.2,6.4,77,19,25.0,100.05,Mainly Clear,1.7345478252355122
10/21/2012 0:00,9.2,6.3,82,13,25.0,100.07,Mainly Clear,1.7434626346010758
10/21/2012 1:00,9.9,6.8,81,19,25.0,100.14,Mostly Cloudy,1.7408722768108806
10/21/2012 2:00,10.3,7.2,81,19,25.0,100.15,Cloudy,1.749959502522228
10/21/2012 3:00,10.6,7.2,79,26,25.0,100.15,Cloudy,1.7357508862871274
10/21/2012 4:00,10.2,7.1,81,22,25.0,100.15,Mostly Cloudy,1.7441476353806673
10/21/2012 5:00,10.5,7.3,81,24,25.0,100.15,Rain Showers,1.7408722768108806
10/21/2012 6:00,10.1,7.6,84,30,25.0,100.21,Cloudy,1.7483983249034645
10/21/2012 7:00,9.8,7.1,83,28,24.1,100.26,Mostly Cloudy,1.7459700090483987
10/21/2012 8:00,10.2,6.4,77,35,24.1,100.29,Mostly Cloudy,1.7302348458823897
10/21/2012 9:00,10.4,6.0,74,26,24.1,100.27,Mostly Cloudy,1.7257040063499536
10/21/2012 10:00,10.9,5.8,71,32,24.1,100.31,Mostly Cloudy,1.7186804736472285
10/21/2012 11:00,11.2,5.9,70,33,24.1,100.33,Mostly Cloudy,1.7276353859957447
10/21/2012 12:00,12.6,6.4,66,32,24.1,100.3,Mostly Cloudy,1.7140738040067438
10/21/2012 13:00,12.6,5.6,62,32,24.1,100.3,Cloudy,1.699829379603752
10/21/2012 14:00,12.7,5.8,63,28,24.1,100.33,Mostly Cloudy,1.703258789056331
10/21/2012 15:00,12.2,5.7,64,32,24.1,100.39,Cloudy,1.7562163233463706
10/21/2012 16:00,12.0,5.5,64,30,24.1,100.44,Cloudy,1.7610453351730544
10/21/2012 17:00,11.8,5.7,66,28,25.0,100.51,Cloudy,1.7684052742881107
10/21/2012 18:00,11.5,5.8,68,22,25.0,100.56,Mostly Cloudy,1.7018006700167505
10/21/2012 19:00,11.3,5.6,68,22,25.0,100.6,Mostly Cloudy,1.3579319565140906
10/21/2012 20:00,11.4,5.5,67,20,25.0,100.63,Mostly Cloudy,1.722706180305804
10/21/2012 21:00,10.7,5.9,72,22,25.0,100.66,Cloudy,1.7156784864737797
10/21/2012 22:00,10.1,5.3,72,15,25.0,100.72,Mostly Cloudy,1.721285042658073
10/21/2012 23:00,9.3,4.9,74,17,25.0,100.75,Mostly Cloudy,1.7209839103698092
10/22/2012 0:00,8.7,4.1,73,32,25.0,100.73,Mainly Clear,1.7631596263665696
10/22/2012 1:00,8.0,3.9,75,26,25.0,100.77,Mainly Clear,1.7438249114078428
10/22/2012 2:00,7.6,3.9,77,24,25.0,100.81,Mainly Clear,1.7455804403599202
10/22/2012 3:00,7.1,3.9,80,17,25.0,100.84,Mainly Clear,1.741775581651232
10/22/2012 4:00,7.4,4.0,79,19,25.0,100.84,Mainly Clear,1.7357508862871274
10/22/2012 5:00,7.4,4.2,80,24,25.0,100.9,Clear,1.7530940234976111
10/22/2012 6:00,7.2,4.1,81,15,25.0,100.95,Clear,1.7437170395381874
10/22/2012 7:00,7.8,4.4,79,15,24.1,101.0,Mainly Clear,1.7357508862871274
10/22/2012 8:00,10.0,5.1,72,22,24.1,101.04,Mostly Cloudy,1.7324900526374092
10/22/2012 9:00,9.8,5.3,74,24,24.1,101.08,Mostly Cloudy,1.740038465369207
10/22/2012 10:00,11.2,5.6,68,26,48.3,101.01,Mainly Clear,1.7048983677345915
10/22/2012 11:00,12.7,6.3,65,30,48.3,101.06,Mainly Clear,1.6929583486014415
10/22/2012 12:00,13.0,5.6,61,24,48.3,101.03,Mainly Clear,1.6973846865552555
10/22/2012 13:00,14.2,6.2,59,24,48.3,101.0,Mainly Clear,1.688470518056498
10/22/2012 14:00,14.5,4.7,52,22,48.3,101.04,Mainly Clear,1.6899117255641123
10/22/2012 15:00,14.6,5.0,52,28,48.3,101.05,Mainly Clear,1.689432812280432
10/22/2012 16:00,14.3,4.9,53,15,48.3,101.06,Mainly Clear,1.1142905161421164
10/22/2012 17:00,13.2,4.7,56,20,24.1,101.11,Mainly Clear,1.1092939019599481
10/22/2012 18:00,11.9,5.4,64,19,25.0,101.16,Mainly Clear,1.7316349622234974
10/22/2012 19:00,11.1,5.7,69,13,25.0,101.21,Clear,1.748708393705808
10/22/2012 20:00,10.3,5.8,74,13,25.0,101.24,Mainly Clear,1.7281014015160243
10/22/2012 21:00,8.4,5.2,80,9,25.0,101.29,Clear,1.7383226557949913
10/22/2012 22:00,8.1,5.4,83,7,25.0,101.34,Mainly Clear,1.746828719134356
10/22/2012 23:00,6.4,4.4,87,0,25.0,101.34,Clear,1.755244623603565
10/23/2012 0:00,6.2,4.1,86,6,25.0,101.36,Clear,1.7530322801745157
10/23/2012 1:00,5.8,3.8,87,4,25.0,101.38,Clear,1.755244623603565
10/23/2012 2:00,4.9,3.3,89,9,25.0,101.4,Clear,1.7590894054480448
10/23/2012 3:00,5.1,3.5,89,7,25.0,101.42,Clear,1.7590894054480448
10/23/2012 4:00,5.1,3.5,89,4,25.0,101.47,Clear,1.7590894054480448
10/23/2012 5:00,5.4,3.6,88,6,25.0,101.54,Clear,1.7571931537828946
10/23/2012 6:00,5.1,3.5,89,6,24.1,101.59,Mainly Clear,1.7590894054480448
10/23/2012 7:00,4.2,2.8,91,0,24.1,101.68,Mainly Clear,1.762772169746578
10/23/2012 8:00,6.9,4.5,85,11,24.1,101.71,Mostly Cloudy,1.7544558947842737
10/23/2012 9:00,9.4,5.0,74,9,24.1,101.75,Mostly Cloudy,1.7575658737410265
10/23/2012 10:00,9.6,4.9,72,4,24.1,101.73,Mostly Cloudy,1.729057885367729
10/23/2012 11:00,10.9,4.6,65,0,24.1,101.69,Mostly Cloudy,1.71953649417803
10/23/2012 12:00,11.1,3.8,61,0,24.1,101.62,Mainly Clear,1.7019098174233733
10/23/2012 13:00,12.2,3.8,56,4,24.1,101.59,Mostly Cloudy,1.6900369690703752
10/23/2012 14:00,13.1,3.8,53,6,24.1,101.58,Mostly Cloudy,1.4574684959787965
10/23/2012 15:00,12.3,4.3,58,11,24.1,101.57,Mostly Cloudy,1.709086747299894
10/23/2012 16:00,11.9,4.0,58,11,24.1,101.57,Mostly Cloudy,1.709086747299894
10/23/2012 17:00,10.9,3.6,61,9,24.1,101.6,Mainly Clear,1.7029104733386131
10/23/2012 18:00,7.9,3.5,74,0,25.0,101.64,Mainly Clear,1.7433223585212314
10/23/2012 19:00,8.6,3.3,69,0,25.0,101.7,Mainly Clear,1.7396653809578742
10/23/2012 20:00,7.0,2.9,75,0,25.0,101.72,Mainly Clear,1.7422622200669449
10/23/2012 21:00,6.9,2.6,74,0,25.0,101.73,Mainly Clear,1.7481289684713526
10/23/2012 22:00,6.8,3.9,82,7,25.0,101.76,Mainly Clear,1.7494921802042414
10/23/2012 23:00,7.7,0.2,59,13,25.0,101.79,Clear,1.7375251290418186
10/24/2012 0:00,7.3,-1.4,54,13,25.0,101.81,Clear,1.7557752135129714
10/24/2012 1:00,5.1,-1.0,65,13,25.0,101.83,Clear,1.7525590687710122
10/24/2012 2:00,4.0,-1.2,69,7,25.0,101.9,Clear,1.7523779952124134
10/24/2012 3:00,4.9,-0.9,66,7,25.0,101.9,Clear,1.7505483009209963
10/24/2012 4:00,2.0,-1.5,78,9,25.0,101.91,Clear,1.7656964136094289
10/24/2012 5:00,2.6,-1.5,74,9,25.0,101.93,Clear,1.7710514129900197
10/24/2012 6:00,1.9,-1.4,79,7,48.3,101.94,Clear,1.764914407935799
10/24/2012 7:00,2.6,-0.8,78,11,48.3,101.99,Clear,1.7702081546163633
10/24/2012 8:00,5.8,-0.7,63,11,48.3,102.03,Clear,1.7573988059945376
10/24/2012 9:00,7.0,-0.5,59,15,48.3,102.02,Mainly Clear,1.739424076040482
10/24/2012 10:00,7.2,-1.9,52,17,48.3,102.0,Mostly Cloudy,1.6961752687692426
10/24/2012 11:00,8.1,-0.9,53,11,48.3,101.93,Mostly Cloudy,1.7289712174777554
10/24/2012 12:00,9.1,-0.3,52,11,48.3,101.86,Mostly Cloudy,1.7365671972891485
10/24/2012 13:00,10.6,-0.6,46,6,48.3,101.79,Mainly Clear,1.4192778382883804
10/24/2012 14:00,11.7,-1.7,39,6,48.3,101.75,Mostly Cloudy,1.047284177225183
10/24/2012 15:00,12.2,-2.1,37,11,48.3,101.73,Mostly Cloudy,1.5030312312695244
10/24/2012 16:00,11.3,-2.1,39,11,48.3,101.75,Mostly Cloudy,1.428011391756942
10/24/2012 17:00,10.9,-2.2,40,17,48.3,101.78,Mostly Cloudy,0.9557861893691004
10/24/2012 18:00,10.6,-0.3,47,13,25.0,101.83,Cloudy,1.7266580953155528
10/24/2012 19:00,10.3,0.1,49,7,25.0,101.82,Mostly Cloudy,1.723694604091867
10/24/2012 20:00,10.1,-1.2,45,11,25.0,101.85,Mostly Cloudy,1.7235658501855882
10/24/2012 21:00,10.0,-2.3,42,6,25.0,101.88,Mostly Cloudy,1.7288234116644396
10/24/2012 22:00,9.4,-2.1,44,9,25.0,101.87,Mostly Cloudy,1.733312296837695
10/24/2012 23:00,9.6,-2.5,43,15,25.0,101.9,Mostly Cloudy,1.7306956547708674
10/25/2012 0:00,9.5,-2.6,43,17,25.0,101.9,Cloudy,1.734420066002622
10/25/2012 1:00,9.2,-1.8,46,15,25.0,101.92,Mostly Cloudy,1.7343527106623935
10/25/2012 2:00,8.4,-0.9,52,15,25.0,101.89,Mostly Cloudy,1.7495428100211305
10/25/2012 3:00,7.3,-0.5,58,13,25.0,101.84,Mainly Clear,1.7562405020882577
10/25/2012 4:00,6.9,-0.5,59,15,25.0,101.85,Mainly Clear,1.7675642298803755
10/25/2012 5:00,5.7,0.2,68,17,25.0,101.89,Mostly Cloudy,1.7677716546438218
10/25/2012 6:00,4.1,0.6,78,17,24.1,101.9,Mainly Clear,1.7662285893446876
10/25/2012 7:00,4.6,1.5,80,19,24.1,101.93,Mostly Cloudy,1.7668830250777814
10/25/2012 8:00,5.2,1.5,77,22,48.3,101.94,Mostly Cloudy,1.7575515650062565
10/25/2012 9:00,6.4,-0.3,62,17,48.3,101.97,Mostly Cloudy,1.7503098418459708
10/25/2012 10:00,8.0,0.3,58,9,48.3,101.89,Cloudy,1.7585952591769116
10/25/2012 11:00,9.1,0.9,56,11,24.1,101.89,Cloudy,1.759599684446848
10/25/2012 12:00,11.3,1.4,50,13,24.1,101.77,Cloudy,1.7388667604465067
10/25/2012 13:00,12.8,2.8,51,11,24.1,101.71,Cloudy,1.709567230268658
10/25/2012 14:00,12.8,2.9,51,17,24.1,101.66,Mostly Cloudy,1.735493787142207
10/25/2012 15:00,13.5,3.5,51,19,24.1,101.59,Mainly Clear,1.727401039501721
10/25/2012 16:00,13.3,4.2,54,15,24.1,101.59,Mostly Cloudy,1.706528319278534
10/25/2012 17:00,12.6,4.1,56,19,24.1,101.55,Mostly Cloudy,1.7506237513393208
10/25/2012 18:00,11.8,4.9,63,15,25.0,101.54,Mostly Cloudy,1.726231153086734
10/25/2012 19:00,11.4,5.5,67,15,25.0,101.53,Clear,1.698763522260988
10/25/2012 20:00,11.0,5.9,71,15,25.0,101.51,Clear,1.7229262605338043
10/25/2012 21:00,10.0,5.7,75,13,25.0,101.51,Clear,1.7302203882389853
10/25/2012 22:00,9.8,6.4,79,13,25.0,101.47,Clear,1.7584205213604736
10/25/2012 23:00,9.3,6.6,83,9,25.0,101.45,Clear,1.756119548004648
10/26/2012 0:00,8.9,6.4,84,9,25.0,101.47,Clear,1.7483983249034645
10/26/2012 1:00,8.5,6.4,87,7,25.0,101.49,Mostly Cloudy,1.755244623603565
10/26/2012 2:00,8.3,6.4,88,11,25.0,101.5,Mainly Clear,1.7571931537828946
10/26/2012 3:00,7.7,6.4,91,7,25.0,101.49,Clear,1.762772169746578
10/26/2012 4:00,7.2,5.2,87,7,25.0,101.48,Clear,1.755244623603565
10/26/2012 5:00,7.0,5.0,87,9,16.1,101.52,Clear,1.755244623603565
10/26/2012 6:00,6.9,4.8,86,11,16.1,101.53,Clear,1.7530322801745157
10/26/2012 7:00,6.7,4.5,86,11,19.3,101.57,Clear,1.7530322801745157
10/26/2012 8:00,9.1,6.2,82,6,16.1,101.6,Clear,1.7434626346010758
10/26/2012 9:00,11.7,7.9,77,7,16.1,101.6,Clear,1.7376397581222394
10/26/2012 10:00,15.1,9.8,71,6,16.1,101.54,Clear,1.712430565280306
10/26/2012 11:00,18.1,12.7,71,4,16.1,101.51,Clear,1.712430565280306
10/26/2012 12:00,19.8,12.9,64,9,16.1,101.43,Clear,1.6895328361301014
10/26/2012 13:00,20.9,13.3,62,11,19.3,101.36,Clear,1.0305025778855286
10/26/2012 14:00,21.1,13.0,60,9,19.3,101.36,Clear,1.0090818708664402
10/26/2012 15:00,20.4,13.1,63,13,24.1,101.35,Clear,1.062685770199016
10/26/2012 16:00,18.2,12.3,68,19,24.1,101.3,Clear,1.3579319565140906
10/26/2012 17:00,15.7,11.6,77,9,24.1,101.33,Mainly Clear,1.7302348458823897
10/26/2012 18:00,14.7,11.3,80,11,25.0,101.36,Mainly Clear,1.7383226557949913
10/26/2012 19:00,13.5,11.0,85,7,25.0,101.39,Mainly Clear,1.7507512632600475
10/26/2012 20:00,14.2,11.2,82,15,19.3,101.38,Mostly Cloudy,1.7434626346010758
10/26/2012 21:00,13.1,10.9,86,9,25.0,101.38,Mainly Clear,1.7530322801745157
10/26/2012 22:00,13.0,10.9,87,4,19.3,101.41,Mainly Clear,1.755244623603565
10/26/2012 23:00,12.7,10.9,89,9,16.1,101.4,Mainly Clear,1.7590894054480448
10/27/2012 0:00,11.9,10.7,92,4,16.1,101.42,Mostly Cloudy,1.764560779079539
10/27/2012 1:00,12.1,10.8,92,4,16.1,101.42,Cloudy,1.764560779079539
10/27/2012 2:00,11.8,10.8,94,6,19.3,101.41,Cloudy,1.7677471105115399
10/27/2012 3:00,12.2,10.9,92,4,16.1,101.39,Cloudy,1.764560779079539
10/27/2012 4:00,12.1,10.9,92,0,12.9,101.38,Cloudy,1.764560779079539
10/27/2012 5:00,11.7,10.7,94,9,8.0,101.38,Fog,1.7677471105115399
10/27/2012 6:00,11.9,10.6,92,9,9.7,101.41,Fog,1.764560779079539
10/27/2012 7:00,12.3,10.8,91,6,4.0,101.42,Fog,1.762772169746578
10/27/2012 8:00,12.7,10.8,88,11,6.4,101.46,Fog,1.7571931537828946
10/27/2012 9:00,12.5,10.9,90,17,2.4,101.42,Fog,1.7609487211792867
10/27/2012 10:00,12.4,10.9,91,15,2.8,101.4,Fog,1.762772169746578
10/27/2012 11:00,13.4,11.1,86,11,6.4,101.35,Fog,1.7530322801745157
10/27/2012 12:00,14.1,11.1,82,17,6.4,101.26,Haze,1.7434626346010758
10/27/2012 13:00,14.2,10.6,79,15,12.9,101.2,Cloudy,1.7357508862871274
10/27/2012 14:00,14.4,9.9,74,15,24.1,101.14,Cloudy,1.7209839103698092
10/27/2012 15:00,14.6,9.5,71,17,24.1,101.1,Cloudy,1.712430565280306
10/27/2012 16:00,14.6,9.1,70,15,24.1,101.08,Mostly Cloudy,1.7091525423728813
10/27/2012 17:00,13.9,9.3,74,9,24.1,101.09,Mostly Cloudy,1.7209839103698092
10/27/2012 18:00,13.5,9.3,76,9,25.0,101.15,Cloudy,1.7272721454173066
10/27/2012 19:00,13.7,8.8,72,11,25.0,101.13,Cloudy,1.7154802667147235
10/27/2012 20:00,13.5,7.5,67,11,25.0,101.15,Cloudy,1.698763522260988
10/27/2012 21:00,13.3,7.4,67,11,25.0,101.14,Mostly Cloudy,1.698763522260988
10/27/2012 22:00,12.8,7.8,72,13,25.0,101.13,Mostly Cloudy,1.7154802667147235
10/27/2012 23:00,12.0,8.4,79,11,25.0,101.14,Mostly Cloudy,1.7357508862871274
10/28/2012 0:00,11.0,8.4,84,15,25.0,101.18,Mostly Cloudy,1.7483983249034645
10/28/2012 1:00,10.4,7.4,82,15,25.0,101.19,Mostly Cloudy,1.7434626346010758
10/28/2012 2:00,9.9,6.8,81,11,25.0,101.22,Cloudy,1.7408722768108806
10/28/2012 3:00,9.8,6.6,80,9,25.0,101.25,Cloudy,1.7383226557949913
10/28/2012 4:00,9.5,6.5,82,13,25.0,101.23,Mostly Cloudy,1.7434626346010758
10/28/2012 5:00,9.6,6.7,82,7,25.0,101.28,Cloudy,1.7509767729090344
10/28/2012 6:00,9.7,6.7,82,7,25.0,101.29,Cloudy,1.7434626346010758
10/28/2012 7:00,9.5,6.9,84,7,24.1,101.36,Cloudy,1.7483983249034645
10/28/2012 8:00,9.9,7.4,84,7,24.1,101.38,Cloudy,1.7483983249034645
10/28/2012 9:00,10.8,7.9,82,11,24.1,101.34,Cloudy,1.7434626346010758
10/28/2012 10:00,11.4,8.3,81,9,24.1,101.32,Cloudy,1.7408722768108806
10/28/2012 11:00,12.0,8.1,77,11,24.1,101.31,Cloudy,1.7302348458823897
10/28/2012 12:00,12.9,8.4,74,20,24.1,101.2,Cloudy,1.7359216452746205
10/28/2012 13:00,12.9,7.8,71,15,24.1,101.19,Cloudy,1.7391227892612295
10/28/2012 14:00,13.0,6.8,66,20,24.1,101.13,Cloudy,1.7154287241875312
10/28/2012 15:00,13.1,6.0,62,20,24.1,101.06,Cloudy,1.7210160551919262
10/28/2012 16:00,12.9,5.9,62,22,24.1,101.06,Cloudy,1.7164477744588729
10/28/2012 17:00,12.7,6.3,65,26,25.0,101.01,Cloudy,1.7313731666876364
10/28/2012 18:00,12.9,6.9,67,24,25.0,101.0,Cloudy,1.7004308647335253
10/28/2012 19:00,12.7,7.4,70,28,25.0,100.99,Cloudy,1.731585522000584
10/28/2012 20:00,12.3,7.4,72,24,25.0,101.02,Cloudy,1.7299232354097145
10/28/2012 21:00,11.6,7.4,75,24,25.0,101.03,Cloudy,1.734695404570677
10/28/2012 22:00,11.0,7.4,78,32,25.0,101.01,Mostly Cloudy,1.73867973806502
10/28/2012 23:00,10.3,7.1,81,26,25.0,100.98,Cloudy,1.7670383619830472
10/29/2012 0:00,9.9,7.0,82,22,25.0,100.95,Mostly Cloudy,1.7434626346010758
10/29/2012 1:00,9.5,6.9,84,26,25.0,100.89,Mostly Cloudy,1.7483983249034645
10/29/2012 2:00,9.2,6.6,84,26,25.0,100.82,Mostly Cloudy,1.7483983249034645
10/29/2012 3:00,9.6,7.0,84,24,25.0,100.79,Cloudy,1.7483983249034645
10/29/2012 4:00,9.9,7.2,83,30,25.0,100.77,Mostly Cloudy,1.7459700090483987
10/29/2012 5:00,9.6,7.4,86,20,25.0,100.76,Cloudy,1.7530322801745157
10/29/2012 6:00,10.2,7.4,83,33,25.0,100.72,Cloudy,1.7459700090483987
10/29/2012 7:00,10.1,7.5,84,26,24.1,100.7,Cloudy,1.7483983249034645
10/29/2012 8:00,10.7,7.8,82,24,24.1,100.67,Cloudy,1.7434626346010758
10/29/2012 9:00,11.9,8.5,80,26,24.1,100.61,Cloudy,1.7383226557949913
10/29/2012 10:00,12.9,8.7,76,28,24.1,100.57,Cloudy,1.7272721454173066
10/29/2012 11:00,14.3,9.4,72,32,24.1,100.48,Cloudy,1.7154802667147235
10/29/2012 12:00,15.4,9.8,69,26,24.1,100.35,Cloudy,1.718041980985609
10/29/2012 13:00,16.5,9.7,64,33,24.1,100.24,Cloudy,1.7197427146513395
10/29/2012 14:00,16.6,9.9,65,44,24.1,100.13,Cloudy,1.7272189925730297
10/29/2012 15:00,16.6,9.6,63,33,24.1,100.09,Cloudy,1.690690391779968
10/29/2012 16:00,15.2,9.8,70,48,24.1,100.04,Cloudy,1.7439579594753225
10/29/2012 17:00,14.2,9.4,73,48,24.1,99.94,Cloudy,1.7226081219879383
10/29/2012 18:00,14.2,9.2,72,44,25.0,99.83,Mostly Cloudy,1.7154802667147235
10/29/2012 19:00,14.0,9.6,75,50,25.0,99.65,Mostly Cloudy,1.7241591468416737
10/29/2012 20:00,14.3,9.7,74,52,25.0,99.55,Cloudy,1.7209839103698092
10/29/2012 21:00,14.0,9.7,75,48,25.0,99.46,Mostly Cloudy,1.7241591468416737
10/29/2012 22:00,14.2,9.8,75,50,25.0,99.37,Cloudy,1.7241591468416737
10/29/2012 23:00,14.1,10.0,76,54,25.0,99.33,Cloudy,1.7272721454173066
10/30/2012 0:00,14.6,10.2,75,41,25.0,99.28,Cloudy,1.7241591468416737
10/30/2012 1:00,14.6,10.4,76,52,25.0,99.23,Mostly Cloudy,1.7342987698409884
10/30/2012 2:00,14.1,10.3,78,37,25.0,99.31,Mostly Cloudy,1.733057876440812
10/30/2012 3:00,13.9,10.6,80,41,25.0,99.21,Rain Showers,1.7383226557949913
10/30/2012 4:00,13.8,10.4,80,35,25.0,99.28,Mostly Cloudy,1.7383226557949913
10/30/2012 5:00,13.7,10.5,81,37,25.0,99.32,Mainly Clear,1.7408722768108806
10/30/2012 6:00,13.6,10.5,82,37,25.0,99.31,Rain Showers,1.7434626346010758
10/30/2012 7:00,15.0,11.1,77,30,19.3,99.45,Rain Showers,1.7302348458823897
10/30/2012 8:00,15.7,12.0,79,26,24.1,99.5,Mostly Cloudy,1.7357508862871274
10/30/2012 9:00,15.4,12.7,84,22,24.1,99.52,Mostly Cloudy,1.7483983249034645
10/30/2012 10:00,16.1,13.3,83,28,24.1,99.57,Mostly Cloudy,1.7459700090483987
10/30/2012 11:00,15.1,13.8,92,22,4.0,99.6,Rain,1.764560779079539
10/30/2012 12:00,16.1,14.5,90,17,24.1,99.53,Mostly Cloudy,1.7609487211792867
10/30/2012 13:00,19.8,14.7,72,28,24.1,99.44,Mainly Clear,1.7154802667147235
10/30/2012 14:00,20.4,13.2,63,28,24.1,99.5,Mainly Clear,1.2263625684651132
10/30/2012 15:00,20.9,11.8,56,33,24.1,99.47,Mainly Clear,1.68008991975392
10/30/2012 16:00,20.6,9.9,50,20,24.1,99.49,Mainly Clear,0.9729534749364659
10/30/2012 17:00,19.7,9.3,51,17,24.1,99.54,Mainly Clear,0.9961476702366823
10/30/2012 18:00,19.2,10.4,57,17,25.0,99.61,Mostly Cloudy,1.0177662068046847
10/30/2012 19:00,18.8,11.2,61,28,25.0,99.61,Mostly Cloudy,1.6896596624067939
10/30/2012 20:00,18.6,12.5,68,26,25.0,99.57,Rain Showers,1.7030462270782951
10/30/2012 21:00,16.8,13.5,81,26,19.3,99.6,Rain,1.7408722768108806
10/30/2012 22:00,15.0,13.9,93,17,25.0,99.49,Cloudy,1.7663155381997573
10/30/2012 23:00,15.6,14.0,90,11,25.0,99.45,Rain Showers,1.7609487211792867
10/31/2012 0:00,15.0,13.9,93,9,16.1,99.43,Rain Showers,1.7663155381997573
10/31/2012 1:00,14.9,13.6,92,9,25.0,99.36,Mainly Clear,1.764560779079539
10/31/2012 2:00,13.7,12.7,94,11,25.0,99.41,Mainly Clear,1.7677471105115399
10/31/2012 3:00,13.7,12.5,92,11,25.0,99.43,Mainly Clear,1.764560779079539
10/31/2012 4:00,13.8,11.6,87,13,25.0,99.37,Mainly Clear,1.755244623603565
10/31/2012 5:00,13.6,11.2,85,17,25.0,99.34,Mainly Clear,1.756225995567218
10/31/2012 6:00,14.0,10.1,77,11,25.0,99.24,Mostly Cloudy,1.7302348458823897
10/31/2012 7:00,11.6,10.4,92,11,24.1,99.26,Mostly Cloudy,1.764560779079539
10/31/2012 8:00,14.0,12.1,88,17,24.1,99.22,Mostly Cloudy,1.7571931537828946
10/31/2012 9:00,14.6,12.7,88,15,19.3,99.16,Cloudy,1.7571931537828946
10/31/2012 10:00,14.6,12.9,90,19,16.1,99.14,Cloudy,1.7609487211792867
10/31/2012 11:00,14.8,13.7,93,11,9.7,99.12,Rain Showers,1.7663155381997573
10/31/2012 12:00,10.8,9.4,91,24,24.1,99.2,Cloudy,1.762772169746578
10/31/2012 13:00,10.2,8.5,89,20,24.1,99.26,Rain Showers,1.7590894054480448
10/31/2012 14:00,10.3,8.8,90,11,12.9,99.28,Drizzle,1.7609487211792867
10/31/2012 15:00,10.2,8.6,90,4,24.1,99.28,Rain Showers,1.7609487211792867
10/31/2012 16:00,10.2,8.6,90,4,24.1,99.26,Cloudy,1.7609487211792867
10/31/2012 17:00,9.7,8.1,90,15,24.1,99.31,Cloudy,1.7609487211792867
10/31/2012 18:00,8.8,7.4,91,13,25.0,99.37,Cloudy,1.762772169746578
10/31/2012 19:00,8.5,6.6,88,7,25.0,99.37,Mostly Cloudy,1.7571931537828946
10/31/2012 20:00,8.4,6.3,87,7,25.0,99.4,Mostly Cloudy,1.755244623603565
10/31/2012 21:00,8.1,6.5,90,0,25.0,99.39,Rain Showers,1.7609487211792867
10/31/2012 22:00,7.8,6.7,93,0,25.0,99.4,Mostly Cloudy,1.7663155381997573
10/31/2012 23:00,8.1,6.4,89,4,25.0,99.38,Cloudy,1.7590894054480448
11/1/2012 0:00,7.8,6.8,93,7,25.0,99.39,Mostly Cloudy,1.7663155381997573
11/1/2012 1:00,7.6,6.8,95,6,25.0,99.37,Cloudy,1.768832975474038
11/1/2012 2:00,7.6,6.2,91,4,25.0,99.35,Rain Showers,1.762772169746578
11/1/2012 3:00,7.3,5.5,88,6,19.3,99.33,Rain Showers,1.7571931537828946
11/1/2012 4:00,7.7,4.7,81,0,25.0,99.32,Rain Showers,1.7461548279184833
11/1/2012 5:00,7.7,5.0,83,4,25.0,99.32,Rain,1.747605489291279
11/1/2012 6:00,7.4,5.4,87,4,25.0,99.31,Cloudy,1.755244623603565
11/1/2012 7:00,7.3,4.7,84,7,24.1,99.32,Rain,1.7483983249034645
11/1/2012 8:00,7.2,4.5,83,9,24.1,99.33,Rain,1.757105977949006
11/1/2012 9:00,7.6,5.6,87,9,24.1,99.34,Rain,1.755244623603565
11/1/2012 10:00,7.7,5.1,84,9,24.1,99.31,Cloudy,1.7483983249034645
11/1/2012 11:00,8.1,4.7,79,11,24.1,99.29,Cloudy,1.738410572276269
11/1/2012 12:00,8.4,4.9,79,13,24.1,99.25,Cloudy,1.7372375304666332
11/1/2012 13:00,8.4,4.9,79,15,24.1,99.22,Rain,1.7434244024051835
11/1/2012 14:00,8.4,5.3,81,17,19.3,99.22,Drizzle,1.7439516289936685
11/1/2012 15:00,7.7,6.0,89,11,12.9,99.22,Rain,1.7590894054480448
11/1/2012 16:00,8.0,6.2,88,17,19.3,99.23,Rain,1.7571931537828946
11/1/2012 17:00,8.1,5.9,86,17,16.1,99.26,Rain,1.7530322801745157
11/1/2012 18:00,7.5,4.4,81,28,25.0,99.3,Cloudy,1.7499068101335449
11/1/2012 19:00,6.9,4.7,86,22,25.0,99.33,Rain,1.7530322801745157
11/1/2012 20:00,6.7,4.8,88,24,25.0,99.33,Rain,1.7571931537828946
11/1/2012 21:00,6.4,4.5,88,22,25.0,99.35,Rain,1.7571931537828946
11/1/2012 22:00,5.6,3.6,87,20,25.0,99.37,Rain,1.755244623603565
11/1/2012 23:00,5.5,2.9,83,19,25.0,99.38,Rain,1.7537197421459514
11/2/2012 0:00,5.3,2.8,84,19,25.0,99.4,Cloudy,1.7551901270836507
11/2/2012 1:00,5.1,2.6,84,20,25.0,99.42,Cloudy,1.7561292298882576
11/2/2012 2:00,5.0,2.6,84,22,25.0,99.45,Cloudy,1.758245464208115
11/2/2012 3:00,4.8,2.8,87,24,25.0,99.45,Cloudy,1.7557606372345598
11/2/2012 4:00,4.7,2.5,86,20,25.0,99.46,Cloudy,1.7591034864248951
11/2/2012 5:00,4.8,2.9,87,19,25.0,99.46,Rain Showers,1.7584394273149546
11/2/2012 6:00,4.4,2.6,88,20,25.0,99.48,Rain,1.7583117396603871
11/2/2012 7:00,4.1,2.4,89,19,25.0,99.53,Rain,1.7593753109521568
11/2/2012 8:00,3.9,2.5,91,17,24.1,99.58,Rain,1.762772169746578
11/2/2012 9:00,3.7,2.1,89,22,24.1,99.61,Rain,1.7590894054480448
11/2/2012 10:00,3.9,2.4,90,20,24.1,99.64,Rain,1.7609487211792867
11/2/2012 11:00,4.2,2.8,91,22,24.1,99.67,Drizzle,1.762772169746578
11/2/2012 12:00,4.3,2.9,91,15,24.1,99.68,Drizzle,1.762772169746578
11/2/2012 13:00,4.3,3.1,92,20,24.1,99.7,Drizzle,1.764560779079539
11/2/2012 14:00,4.6,3.3,91,20,24.1,99.7,Cloudy,1.762772169746578
11/2/2012 15:00,4.8,3.4,91,19,24.1,99.74,Cloudy,1.762772169746578
11/2/2012 16:00,4.9,3.6,91,22,19.3,99.78,Cloudy,1.762772169746578
11/2/2012 17:00,5.3,3.7,89,19,25.0,99.81,Cloudy,1.7590894054480448
11/2/2012 18:00,5.7,4.0,89,15,25.0,99.87,Cloudy,1.7590894054480448
11/2/2012 19:00,5.9,4.2,89,19,25.0,99.9,Rain Showers,1.7590894054480448
11/2/2012 20:00,5.8,3.7,86,17,25.0,99.94,Rain Showers,1.7530322801745157
11/2/2012 21:00,5.7,3.1,83,17,25.0,99.96,Cloudy,1.748535627332575
11/2/2012 22:00,5.6,3.1,84,13,25.0,100.0,Rain Showers,1.7483983249034645
11/2/2012 23:00,5.6,2.8,82,13,25.0,100.02,Rain Showers,1.745307189832201
11/3/2012 0:00,5.3,2.3,81,17,25.0,100.06,Rain Showers,1.7556974480713319
11/3/2012 1:00,4.9,2.2,83,13,25.0,100.1,Rain,1.7459700090483987
11/3/2012 2:00,4.7,1.9,82,17,25.0,100.13,Rain,1.761485744543836
11/3/2012 3:00,4.5,1.2,79,17,25.0,100.14,Cloudy,1.7716514677278166
11/3/2012 4:00,4.1,0.9,80,20,25.0,100.17,Mostly Cloudy,1.7572314479057283
11/3/2012 5:00,4.0,0.7,79,19,25.0,100.22,Cloudy,1.7596976818438208
11/3/2012 6:00,3.7,0.2,78,17,25.0,100.27,Mostly Cloudy,1.7554052722137727
11/3/2012 7:00,3.5,0.3,80,20,24.1,100.33,Cloudy,1.7471816719702509
11/3/2012 8:00,4.2,1.2,81,20,24.1,100.39,Cloudy,1.749100120750354
11/3/2012 9:00,4.8,1.0,76,22,25.0,100.42,Cloudy,1.754653881683176
11/3/2012 10:00,5.1,1.6,78,22,24.1,100.45,Rain Showers,1.7455928379034131
11/3/2012 11:00,5.3,2.2,80,24,24.1,100.45,Rain Showers,1.747689970818286
11/3/2012 12:00,5.4,2.0,79,22,24.1,100.45,Drizzle,1.7464373570120044
11/3/2012 13:00,5.1,2.6,84,22,24.1,100.46,Drizzle,1.7483983249034645
11/3/2012 14:00,5.5,2.6,82,20,24.1,100.47,Drizzle,1.7434626346010758
11/3/2012 15:00,5.4,2.7,83,24,24.1,100.52,Drizzle,1.7459700090483987
11/3/2012 16:00,5.0,2.7,85,20,24.1,100.57,Drizzle,1.7507512632600475
11/3/2012 17:00,5.0,2.3,83,20,24.1,100.62,Drizzle,1.7459700090483987
11/3/2012 18:00,4.7,2.4,85,13,25.0,100.66,Drizzle,1.7507512632600475
11/3/2012 19:00,4.8,2.3,84,15,25.0,100.69,Drizzle,1.7483983249034645
11/3/2012 20:00,5.0,1.6,79,17,25.0,100.73,Cloudy,1.7357508862871274
11/3/2012 21:00,5.0,0.9,75,15,25.0,100.76,Cloudy,1.7457352667062567
11/3/2012 22:00,4.7,0.5,74,17,25.0,100.79,Cloudy,1.7432457382786566
11/3/2012 23:00,4.3,-0.1,73,17,25.0,100.82,Cloudy,1.7490942006275347
11/4/2012 0:00,3.8,-0.3,75,15,25.0,100.85,Mostly Cloudy,1.752504416310452
11/4/2012 1:00,3.2,-0.7,76,11,25.0,100.87,Mostly Cloudy,1.743919968879182
11/4/2012 2:00,3.0,-1.3,73,15,25.0,100.88,Mostly Cloudy,1.7634768033657462
11/4/2012 3:00,3.1,-1.2,73,17,25.0,100.88,Mostly Cloudy,1.7499829094879629
11/4/2012 4:00,2.9,-0.9,76,19,25.0,100.9,Cloudy,1.7427972890075267
11/4/2012 5:00,3.0,-1.0,75,15,25.0,100.96,Cloudy,1.750664346941545
11/4/2012 6:00,3.0,-1.6,72,17,25.0,100.99,Cloudy,1.7453755930851416
11/4/2012 7:00,2.8,-1.9,71,15,25.0,101.05,Cloudy,1.7394651363985085
11/4/2012 8:00,2.2,-1.2,78,17,24.1,101.11,"Rain Showers,Snow Showers",1.7535972541541331
11/4/2012 9:00,2.9,-1.2,74,17,24.1,101.12,Snow Showers,1.7460932709286416
11/4/2012 10:00,3.0,-2.2,69,19,24.1,101.1,Mostly Cloudy,1.7529704849292191
11/4/2012 11:00,3.3,-2.3,67,13,24.1,101.08,Cloudy,1.750733888091213
11/4/2012 12:00,3.7,-2.4,64,13,24.1,101.07,Cloudy,1.7567853371253024
11/4/2012 13:00,3.4,-2.6,65,11,24.1,101.09,Cloudy,1.7451826651030118
11/4/2012 14:00,3.4,-3.3,61,15,24.1,101.08,Cloudy,1.7447703073024103
11/4/2012 15:00,3.6,-3.9,58,17,24.1,101.08,Cloudy,1.7535415099564926
11/4/2012 16:00,3.5,-4.5,56,13,24.1,101.12,Cloudy,1.7495663471688614
11/4/2012 17:00,3.2,-4.1,59,13,24.1,101.17,Cloudy,1.7187757303094466
11/4/2012 18:00,3.0,-4.5,58,11,25.0,101.21,Cloudy,1.7079857493174495
11/4/2012 19:00,2.5,-4.3,61,9,25.0,101.25,Cloudy,1.7519062561953034
11/4/2012 20:00,2.2,-5.2,58,13,25.0,101.28,Cloudy,1.7065394180694635
11/4/2012 21:00,2.0,-5.1,59,13,25.0,101.3,Cloudy,1.74672902996676
11/4/2012 22:00,1.8,-5.1,60,9,25.0,101.3,Cloudy,1.758209151084237
11/4/2012 23:00,1.7,-5.0,61,11,25.0,101.27,Cloudy,1.744061284684324
11/5/2012 0:00,1.5,-4.9,62,9,25.0,101.28,Cloudy,1.7239493252046811
11/5/2012 1:00,1.2,-4.8,64,11,25.0,101.27,Cloudy,1.7394877065999945
11/5/2012 2:00,1.3,-6.0,58,17,25.0,101.29,Cloudy,1.7377245180278513
11/5/2012 3:00,0.8,-7.7,53,17,25.0,101.29,Cloudy,1.7591597895670308
11/5/2012 4:00,0.4,-7.0,58,13,25.0,101.32,Cloudy,1.7675970057896286
11/5/2012 5:00,-1.1,-6.7,66,11,25.0,101.34,Mostly Cloudy,1.7628849680568581
11/5/2012 6:00,-0.6,-5.1,72,11,25.0,101.38,Mostly Cloudy,1.7577147966403368
11/5/2012 7:00,-0.3,-5.9,66,15,24.1,101.4,Mostly Cloudy,1.7522986356003671
11/5/2012 8:00,-0.5,-5.8,67,15,24.1,101.45,Mainly Clear,1.7648791057544282
11/5/2012 9:00,0.8,-6.0,60,17,24.1,101.46,Mainly Clear,1.7651435443333334
11/5/2012 10:00,1.8,-7.0,52,17,48.3,101.49,Mainly Clear,1.7501407156839253
11/5/2012 11:00,1.7,-7.4,51,17,48.3,101.47,Mostly Cloudy,1.7432840577650748
11/5/2012 12:00,1.8,-7.7,49,15,48.3,101.44,Mostly Cloudy,1.7545934428587033
11/5/2012 13:00,1.9,-8.2,47,17,48.3,101.44,Mostly Cloudy,0.9720688737814057
11/5/2012 14:00,1.8,-8.3,47,15,48.3,101.42,Cloudy,1.7389600361813662
11/5/2012 15:00,1.8,-7.6,50,20,24.1,101.41,Mostly Cloudy,1.7464863866124019
11/5/2012 16:00,1.1,-6.0,59,19,24.1,101.44,Snow Showers,1.7657095368595206
11/5/2012 17:00,0.9,-7.8,52,17,25.0,101.49,Mostly Cloudy,1.7671589974939328
11/5/2012 18:00,0.5,-8.6,50,20,25.0,101.57,Mostly Cloudy,1.767978709527268
11/5/2012 19:00,-0.6,-10.4,47,13,25.0,101.62,Mostly Cloudy,1.757718367957589
11/5/2012 20:00,-1.0,-9.5,52,7,25.0,101.64,Mostly Cloudy,1.7422492818937956
11/5/2012 21:00,-2.0,-9.1,58,7,25.0,101.66,Mainly Clear,1.7607229038499788
11/5/2012 22:00,-2.2,-9.6,57,11,25.0,101.65,Mainly Clear,1.760835111818763
11/5/2012 23:00,-3.2,-9.6,61,9,25.0,101.65,Mainly Clear,1.7698498276146906
11/6/2012 0:00,-2.9,-9.9,58,15,25.0,101.68,Mainly Clear,1.7692626891459597
11/6/2012 1:00,-3.6,-10.3,60,13,25.0,101.69,Clear,1.7711282476157622
11/6/2012 2:00,-4.7,-9.7,68,9,25.0,101.72,Clear,1.7357311504258526
11/6/2012 3:00,-5.5,-8.9,77,4,25.0,101.76,Clear,1.7304080657665202
11/6/2012 4:00,-3.3,-9.9,60,0,25.0,101.76,Mostly Cloudy,1.7691145376897437
11/6/2012 5:00,-3.0,-8.9,64,0,25.0,101.79,Mostly Cloudy,1.7709877866893844
11/6/2012 6:00,-3.7,-7.5,75,6,25.0,101.83,Mostly Cloudy,1.7241591468416737
11/6/2012 7:00,-3.4,-7.0,76,6,48.3,101.86,Mostly Cloudy,1.7728265348117482
11/6/2012 8:00,-1.6,-5.6,74,6,48.3,101.89,Mainly Clear,1.7739017218460544
11/6/2012 9:00,-0.2,-5.8,66,7,48.3,101.9,Mainly Clear,1.7699970372525213
11/6/2012 10:00,0.4,-6.1,62,7,48.3,101.93,Mostly Cloudy,1.7711838542969192
11/6/2012 11:00,1.9,-4.5,62,9,48.3,101.94,Mostly Cloudy,1.7690300511573966
11/6/2012 12:00,1.5,-6.4,56,17,48.3,101.89,Cloudy,1.7721303017601147
11/6/2012 13:00,2.3,-7.7,48,15,48.3,101.88,Mostly Cloudy,1.7590992623499442
11/6/2012 14:00,2.1,-7.4,49,9,48.3,101.87,Mostly Cloudy,1.7433542615200954
11/6/2012 15:00,2.6,-7.7,47,15,48.3,101.87,Mostly Cloudy,1.7446925887759535
11/6/2012 16:00,1.9,-8.1,47,13,48.3,101.87,Mostly Cloudy,1.694261142443796
11/6/2012 17:00,0.0,-7.5,57,6,48.3,101.89,Mainly Clear,1.7725888291045364
11/6/2012 18:00,-0.9,-7.8,59,4,25.0,101.89,Clear,1.7674904502725068
11/6/2012 19:00,-0.3,-7.7,57,0,25.0,101.93,Clear,1.7733238430237956
11/6/2012 20:00,-1.5,-7.3,65,0,25.0,101.94,Clear,1.7474967323781367
11/6/2012 21:00,-0.7,-6.9,63,4,25.0,101.97,Clear,1.706636195693719
11/6/2012 22:00,-0.9,-6.6,65,4,25.0,101.98,Clear,1.7695279879525005
11/6/2012 23:00,-1.5,-6.4,69,6,25.0,101.96,Clear,1.7726672485699102
11/7/2012 0:00,-0.6,-5.9,67,7,25.0,101.93,Clear,1.7649805632488575
11/7/2012 1:00,-0.9,-6.5,66,9,25.0,101.9,Clear,1.767443972411079
11/7/2012 2:00,-2.6,-6.9,72,7,25.0,101.94,Clear,1.7647112363218336
11/7/2012 3:00,-3.6,-6.1,83,9,25.0,101.95,Clear,1.773668852185449
11/7/2012 4:00,-4.0,-6.2,85,11,25.0,102.02,Clear,1.7507512632600475
11/7/2012 5:00,-4.3,-6.5,85,13,25.0,101.98,Clear,1.7574799894020976
11/7/2012 6:00,-4.2,-6.4,85,13,25.0,101.92,Mainly Clear,1.7692483312690759
11/7/2012 7:00,-3.7,-6.3,82,15,24.1,101.96,Mainly Clear,1.7697908909833382
11/7/2012 8:00,-3.1,-6.0,80,17,24.1,102.0,Mainly Clear,1.7709426966589097
11/7/2012 9:00,-1.3,-6.6,67,22,24.1,102.02,Mostly Cloudy,1.7580036441560911
11/7/2012 10:00,0.0,-6.8,60,20,24.1,102.01,Mostly Cloudy,1.7602069720119637
11/7/2012 11:00,1.1,-7.4,53,26,24.1,101.97,Mostly Cloudy,1.7019593497124625
11/7/2012 12:00,2.1,-7.4,49,26,24.1,101.88,Mostly Cloudy,1.7492184257382661
11/7/2012 13:00,2.4,-7.5,48,32,24.1,101.78,Mostly Cloudy,1.7307386738669202
11/7/2012 14:00,2.2,-7.4,49,24,24.1,101.75,Mostly Cloudy,1.7261693680149515
11/7/2012 15:00,1.8,-7.8,49,24,24.1,101.73,Mostly Cloudy,1.7684757642525974
11/7/2012 16:00,1.5,-7.1,53,26,24.1,101.7,Mostly Cloudy,1.7670081782283025
11/7/2012 17:00,1.2,-6.2,58,20,25.0,101.67,Mainly Clear,1.7687681099884554
11/7/2012 18:00,1.0,-5.6,61,19,25.0,101.68,Mostly Cloudy,1.7651259386008664
11/7/2012 19:00,1.4,-6.7,55,20,25.0,101.69,Mainly Clear,1.7579941485880883
11/7/2012 20:00,1.3,-7.8,51,26,25.0,101.65,Mostly Cloudy,1.75956699621539
11/7/2012 21:00,0.8,-6.4,59,22,25.0,101.64,Mainly Clear,1.7258129033145975
11/7/2012 22:00,0.0,-5.6,66,22,25.0,101.58,Clear,1.7681663740489975
11/7/2012 23:00,-0.7,-4.7,74,22,25.0,101.55,Mostly Cloudy,1.773697339761012
11/8/2012 0:00,-0.2,-4.5,73,26,25.0,101.54,Mostly Cloudy,1.769027353760533
11/8/2012 1:00,-0.9,-4.9,74,30,25.0,101.49,Mostly Cloudy,1.7599306034529167
11/8/2012 2:00,-1.0,-6.0,69,33,25.0,101.48,Mostly Cloudy,1.7631326465548163
11/8/2012 3:00,-0.8,-5.8,69,20,25.0,101.46,Mostly Cloudy,1.773248475738225
11/8/2012 4:00,-1.3,-5.9,71,26,25.0,101.44,Mostly Cloudy,1.75152324994433
11/8/2012 5:00,-1.3,-6.2,69,22,25.0,101.43,Mainly Clear,1.7574131374530495
11/8/2012 6:00,-1.4,-5.7,72,19,25.0,101.42,Mainly Clear,1.7691836987044063
11/8/2012 7:00,-1.0,-5.1,74,26,24.1,101.44,Mostly Cloudy,1.7734977760023976
11/8/2012 8:00,-0.2,-4.6,72,20,24.1,101.46,Mostly Cloudy,1.7702188337950502
11/8/2012 9:00,0.8,-4.4,68,19,24.1,101.45,Cloudy,1.7644411241504196
11/8/2012 10:00,2.4,-3.9,63,30,24.1,101.41,Mostly Cloudy,1.7734251200700144
11/8/2012 11:00,2.6,-4.0,62,30,24.1,101.38,Mostly Cloudy,1.7691729230900428
11/8/2012 12:00,3.9,-3.6,58,24,24.1,101.29,Mostly Cloudy,1.746253216746389
11/8/2012 13:00,4.7,-3.3,56,26,24.1,101.24,Mostly Cloudy,1.7689086058930965
11/8/2012 14:00,5.1,-3.4,54,26,24.1,101.21,Mostly Cloudy,1.767667988559016
11/8/2012 15:00,5.2,-3.3,54,20,24.1,101.18,Mostly Cloudy,1.7147454183899264
11/8/2012 16:00,4.4,-3.8,55,19,24.1,101.17,Mostly Cloudy,1.7567709120747772
11/8/2012 17:00,3.2,-4.2,58,13,24.1,101.2,Mostly Cloudy,1.1080894157348293
11/8/2012 18:00,2.4,-3.0,67,7,25.0,101.25,Mostly Cloudy,1.7586046953841046
11/8/2012 19:00,1.8,-3.3,69,9,25.0,101.27,Mostly Cloudy,1.7590894054480448
11/8/2012 20:00,1.7,-4.8,62,19,25.0,101.28,Mostly Cloudy,1.75105755895662
11/8/2012 21:00,0.5,-4.6,69,13,25.0,101.24,Mainly Clear,1.767055605372664
11/8/2012 22:00,-0.3,-4.8,72,11,25.0,101.21,Mainly Clear,1.7593987078616968
11/8/2012 23:00,-1.3,-5.0,76,7,25.0,101.19,Mainly Clear,1.7354921353382189
11/9/2012 0:00,-3.4,-5.7,84,7,25.0,101.21,Mainly Clear,1.7694710360321477
11/9/2012 1:00,-3.7,-5.9,85,7,25.0,101.18,Mainly Clear,1.7707975808410283
11/9/2012 2:00,-4.3,-6.3,86,7,25.0,101.19,Clear,1.7567447812217571
11/9/2012 3:00,-3.6,-5.6,86,7,25.0,101.19,Clear,1.7567447812217571
11/9/2012 4:00,-3.4,-5.2,87,7,25.0,101.2,Clear,1.755244623603565
11/9/2012 5:00,-5.4,-6.7,91,7,25.0,101.22,Mainly Clear,1.7718569285072021
11/9/2012 6:00,-3.2,-4.8,89,7,25.0,101.25,Mainly Clear,1.7682967443358575
11/9/2012 7:00,-2.5,-4.2,88,7,24.1,101.3,Mostly Cloudy,1.771138841448169
11/9/2012 8:00,-1.6,-3.6,86,7,48.3,101.36,Mostly Cloudy,1.765481802315467
11/9/2012 9:00,1.3,-2.4,76,17,48.3,101.34,Mostly Cloudy,1.7641835647808817
11/9/2012 10:00,2.3,-3.3,66,19,48.3,101.36,Cloudy,1.766115432694603
11/9/2012 11:00,3.3,-4.1,58,20,48.3,101.36,Mostly Cloudy,1.7536659469174867
11/9/2012 12:00,3.4,-3.6,60,22,48.3,101.31,Mostly Cloudy,1.7130579860596176
11/9/2012 13:00,4.0,-3.2,59,20,24.1,101.26,Cloudy,1.7539585596607283
11/9/2012 14:00,4.8,-2.7,58,20,24.1,101.27,Mostly Cloudy,1.7524855612387753
11/9/2012 15:00,4.6,-2.0,62,24,24.1,101.29,Cloudy,1.7594174212544982
11/9/2012 16:00,4.5,-1.9,63,26,24.1,101.32,Cloudy,1.7716171882804304
11/9/2012 17:00,4.6,-1.2,66,22,25.0,101.36,Cloudy,1.7587979328004693
11/9/2012 18:00,4.6,-0.5,69,15,25.0,101.42,Cloudy,1.756934269964821
11/9/2012 19:00,4.6,-0.3,70,15,25.0,101.45,Cloudy,1.7599212975363812
11/9/2012 20:00,4.2,-0.3,72,11,25.0,101.47,Cloudy,1.739885317679287
11/9/2012 21:00,4.6,0.5,75,9,25.0,101.54,Cloudy,1.747978912016432
11/9/2012 22:00,4.5,0.6,76,11,25.0,101.48,Mostly Cloudy,1.7533125142350177
11/9/2012 23:00,4.0,0.8,80,15,25.0,101.5,Mostly Cloudy,1.7688032499778417
11/10/2012 0:00,2.8,0.4,84,13,25.0,101.55,Mostly Cloudy,1.768014089836028
11/10/2012 1:00,3.6,0.6,81,9,25.0,101.62,Mostly Cloudy,1.7408722768108806
11/10/2012 2:00,2.7,-0.5,79,9,25.0,101.66,Mainly Clear,1.7545329537491443
11/10/2012 3:00,2.6,-2.7,68,11,25.0,101.75,Mainly Clear,1.7498936312530786
11/10/2012 4:00,1.1,-3.5,71,11,25.0,101.84,Mainly Clear,1.771996325633094
11/10/2012 5:00,0.7,-4.0,71,6,25.0,101.98,Mainly Clear,1.7721408030331625
11/10/2012 6:00,-0.6,-5.2,71,9,25.0,102.07,Mainly Clear,1.7739198138476335
11/10/2012 7:00,-1.4,-6.0,71,13,24.1,102.22,Clear,1.7691082482695275
11/10/2012 8:00,0.4,-4.9,68,13,24.1,102.32,Clear,1.7624646691810528
11/10/2012 9:00,2.0,-5.2,59,15,48.3,102.39,Clear,1.7673564342449202
11/10/2012 10:00,2.4,-5.9,54,7,48.3,102.43,Mainly Clear,1.772209037722648
11/10/2012 11:00,3.3,-7.3,46,6,48.3,102.45,Mainly Clear,1.7705760135781548
11/10/2012 12:00,4.2,-7.7,42,6,48.3,102.43,Mainly Clear,1.7646094831542818
11/10/2012 13:00,4.7,-8.0,39,6,48.3,102.39,Mostly Cloudy,1.7632629768463826
11/10/2012 14:00,5.6,-7.6,38,4,48.3,102.37,Mostly Cloudy,1.743907301235985
11/10/2012 15:00,5.2,-6.9,41,11,48.3,102.4,Mostly Cloudy,1.7554783985252396
11/10/2012 16:00,3.6,-8.2,42,9,48.3,102.39,Mostly Cloudy,1.7674576442990877
11/10/2012 17:00,3.5,-7.8,43,7,25.0,102.47,Mostly Cloudy,1.767266091461138
11/10/2012 18:00,3.4,-7.0,46,7,25.0,102.53,Mostly Cloudy,1.7698203630716403
11/10/2012 19:00,2.6,-6.4,51,7,25.0,102.58,Mainly Clear,1.7727342978621081
11/10/2012 20:00,2.6,-5.3,56,15,25.0,102.56,Mainly Clear,1.7282360322282397
11/10/2012 21:00,1.8,-6.1,56,9,25.0,102.53,Clear,1.771659376908206
11/10/2012 22:00,0.9,-4.6,67,11,25.0,102.55,Mainly Clear,1.773081970457137
11/10/2012 23:00,1.1,-6.7,56,11,25.0,102.5,Mainly Clear,1.7737102862884597
11/11/2012 0:00,2.4,-7.2,49,7,25.0,102.45,Mostly Cloudy,1.7722719873273116
11/11/2012 1:00,2.7,-7.3,48,13,25.0,102.34,Mostly Cloudy,1.7737905217074466
11/11/2012 2:00,3.0,-7.8,45,11,25.0,102.33,Cloudy,1.761247444630985
11/11/2012 3:00,3.1,-7.6,45,17,25.0,102.24,Cloudy,1.7585716645877039
11/11/2012 4:00,0.9,-4.3,68,20,25.0,102.34,Cloudy,1.7018006700167505
11/11/2012 5:00,0.3,-4.0,73,20,25.0,102.23,Rain,1.759473539391838
11/11/2012 6:00,0.5,-2.3,81,17,25.0,102.26,Rain,1.749994610232352
11/11/2012 7:00,0.6,-2.1,82,22,24.1,102.3,Cloudy,1.7733004585386736
11/11/2012 8:00,0.6,-2.0,83,20,24.1,102.34,Cloudy,1.7737439403283093
11/11/2012 9:00,1.1,-2.0,80,20,24.1,102.29,Cloudy,1.7738293248743215
11/11/2012 10:00,1.7,-0.6,85,17,24.1,102.31,Rain Showers,1.7716857368863004
11/11/2012 11:00,2.9,-0.2,80,22,24.1,102.21,Rain Showers,1.769452762472556
11/11/2012 12:00,3.7,0.3,78,24,24.1,102.15,Mostly Cloudy,1.7708737010818425
11/11/2012 13:00,5.5,1.4,75,17,48.3,102.11,Mainly Clear,1.7687762201648465
11/11/2012 14:00,6.3,1.6,72,20,48.3,102.08,Clear,1.7564771348478738
11/11/2012 15:00,7.0,1.9,70,19,48.3,102.07,Mainly Clear,1.7614491221907387
11/11/2012 16:00,6.6,1.8,71,20,24.1,102.07,Mostly Cloudy,1.7630381558223245
11/11/2012 17:00,4.8,1.5,79,17,25.0,102.12,Mostly Cloudy,1.7650378596114549
11/11/2012 18:00,3.3,1.1,85,13,25.0,102.13,Mainly Clear,1.7650995237133782
11/11/2012 19:00,1.9,0.2,88,17,25.0,102.14,Clear,1.7682152800953383
11/11/2012 20:00,1.5,-0.1,89,15,25.0,102.15,Clear,1.7694635119760902
11/11/2012 21:00,1.3,-0.3,89,15,25.0,102.13,Mainly Clear,1.7697935705759564
11/11/2012 22:00,1.0,-0.5,90,13,25.0,102.07,Clear,1.7737724090059888
11/11/2012 23:00,1.1,-0.3,90,15,25.0,102.04,Clear,1.7732068723302152
11/12/2012 0:00,0.9,-0.3,92,19,19.3,101.99,Mainly Clear,1.7716620131799174
11/12/2012 1:00,0.6,-0.8,90,17,25.0,101.97,Mainly Clear,1.771149434299904
11/12/2012 2:00,0.4,-0.7,92,15,19.3,101.98,Mainly Clear,1.7730090474780795
11/12/2012 3:00,0.2,-0.9,92,15,19.3,101.94,Clear,1.7729152204642957
11/12/2012 4:00,-0.3,-1.1,94,11,19.3,101.95,Clear,1.7733056555078717
11/12/2012 5:00,-0.2,-1.2,93,11,19.3,101.91,Clear,1.773914644999779
11/12/2012 6:00,-0.3,-1.2,94,13,19.3,101.87,Mainly Clear,1.7713134981998269
11/12/2012 7:00,-0.2,-1.0,94,11,16.1,101.9,Mainly Clear,1.7731314272287368
11/12/2012 8:00,1.0,0.0,93,9,19.3,101.88,Mainly Clear,1.7712288494427249
11/12/2012 9:00,4.2,1.8,84,7,19.3,101.83,Mainly Clear,1.773271870948271
11/12/2012 10:00,7.2,3.3,76,6,19.3,101.78,Mostly Cloudy,1.7661633236641943
11/12/2012 11:00,11.8,5.3,64,6,19.3,101.71,Mostly Cloudy,1.7069404977244822
11/12/2012 12:00,17.5,8.5,55,13,19.3,101.61,Mostly Cloudy,1.235372596380655
11/12/2012 13:00,16.9,8.4,57,22,24.1,101.52,Mostly Cloudy,1.6980229580479604
11/12/2012 14:00,16.3,8.2,59,22,24.1,101.43,Cloudy,1.7025107129086003
11/12/2012 15:00,17.0,8.4,57,20,24.1,101.33,Cloudy,1.7199082531108394
11/12/2012 16:00,16.7,8.0,56,22,24.1,101.21,Cloudy,1.6969061008244049
11/12/2012 17:00,17.1,7.5,53,33,25.0,101.13,Mostly Cloudy,1.741625743699852
11/12/2012 18:00,17.1,7.3,52,35,25.0,101.09,Mainly Clear,1.7032587890563313
11/12/2012 19:00,17.1,7.8,54,32,25.0,100.98,Mainly Clear,1.7069137273596857
11/12/2012 20:00,16.4,7.5,56,33,25.0,100.91,Mostly Cloudy,1.7079901099177317
11/12/2012 21:00,15.9,7.7,58,30,25.0,100.9,Cloudy,1.7190534168702647
11/12/2012 22:00,16.0,8.2,60,26,25.0,100.87,Cloudy,1.7083116514337424
11/12/2012 23:00,15.6,8.9,64,24,25.0,100.84,Cloudy,1.7308389312106607
11/13/2012 0:00,14.8,10.0,73,48,25.0,100.94,Rain,1.728041470034376
11/13/2012 1:00,9.1,7.4,89,37,12.9,101.25,Rain,1.7590894054480448
11/13/2012 2:00,8.0,6.2,88,35,25.0,101.36,Rain,1.7571931537828946
11/13/2012 3:00,7.9,5.6,85,41,25.0,101.45,Rain,1.7540306068688978
11/13/2012 4:00,6.2,4.1,86,28,25.0,101.53,Rain,1.7575086260317225
11/13/2012 5:00,5.6,3.4,86,30,25.0,101.6,Rain,1.7580605978467867
11/13/2012 6:00,5.7,3.3,85,30,25.0,101.76,Cloudy,1.7564626637392937
11/13/2012 7:00,5.4,2.3,80,30,24.1,101.78,Cloudy,1.7725286708654429
11/13/2012 8:00,5.2,0.9,74,33,24.1,101.89,Mostly Cloudy,1.7716277368988407
11/13/2012 9:00,4.6,-1.2,66,32,24.1,101.95,Mostly Cloudy,1.732670690434801
11/13/2012 10:00,4.7,-1.3,65,37,24.1,102.07,Mostly Cloudy,1.7697077926601894
11/13/2012 11:00,4.8,-2.0,61,30,48.3,102.09,Mostly Cloudy,1.7661067225646672
11/13/2012 12:00,6.1,-1.8,57,28,48.3,102.08,Mostly Cloudy,1.7617918991621007
11/13/2012 13:00,5.3,-3.2,54,33,48.3,102.13,Mostly Cloudy,1.7714852482801269
11/13/2012 14:00,5.6,-6.5,41,30,24.1,102.18,Mainly Clear,1.7450579397322983
11/13/2012 15:00,5.4,-2.9,55,28,24.1,102.25,Mainly Clear,1.766632204499147
11/13/2012 16:00,4.9,-5.1,48,24,24.1,102.33,Mainly Clear,1.7581649252354596
11/13/2012 17:00,3.7,-6.1,49,13,25.0,102.41,Clear,1.773458858977414
11/13/2012 18:00,2.5,-5.5,56,11,25.0,102.54,Clear,1.77048549104395
11/13/2012 19:00,0.8,-5.6,62,11,25.0,102.6,Clear,1.6859356623943846
11/13/2012 20:00,-0.7,-6.0,67,9,25.0,102.68,Clear,1.7204138479904496
11/13/2012 21:00,-1.0,-6.0,69,7,25.0,102.75,Clear,1.766532550799728
11/13/2012 22:00,-0.9,-5.7,70,7,25.0,102.81,Clear,1.7626366321294151
11/13/2012 23:00,-1.5,-5.9,72,7,25.0,102.84,Clear,1.7419056452481074
11/14/2012 0:00,-0.1,-6.0,64,4,25.0,102.91,Clear,1.7174214904408556
11/14/2012 1:00,-0.7,-5.7,69,6,25.0,102.91,Clear,1.7056195602958193
11/14/2012 2:00,-2.3,-6.1,75,6,25.0,102.97,Clear,1.7241591468416737
11/14/2012 3:00,-2.4,-6.7,72,6,25.0,102.99,Clear,1.7154802667147235
11/14/2012 4:00,-4.0,-7.0,80,4,25.0,103.01,Clear,1.7383226557949913
11/14/2012 5:00,-4.7,-6.6,87,4,25.0,103.09,Clear,1.755244623603565
11/14/2012 6:00,-3.6,-6.1,83,4,25.0,103.15,Clear,1.7459700090483987
11/14/2012 7:00,-5.2,-7.0,87,4,48.3,103.25,Clear,1.755244623603565
11/14/2012 8:00,-3.0,-4.9,87,4,48.3,103.29,Clear,1.755244623603565
11/14/2012 9:00,0.6,-3.1,76,6,24.1,103.31,Clear,1.7679433184251185
11/14/2012 10:00,2.4,-4.3,61,2,24.1,103.34,Clear,1.7730090474780795
11/14/2012 11:00,4.6,-5.0,50,4,24.1,103.31,Clear,1.7737965586300937
11/14/2012 12:00,4.8,-6.4,44,7,24.1,103.25,Mainly Clear,1.7646006297709562
11/14/2012 13:00,4.8,-6.6,43,4,48.3,103.2,Mainly Clear,1.7619241057049198
11/14/2012 14:00,5.2,-6.2,44,6,48.3,103.15,Clear,1.7641746706701154
11/14/2012 15:00,4.6,-7.4,41,6,48.3,103.15,Clear,1.7618694220827371
11/14/2012 16:00,4.2,-7.4,43,6,48.3,103.16,Mainly Clear,1.7617188780277122
11/14/2012 17:00,3.6,-7.2,45,7,24.1,103.15,Mainly Clear,1.766361153420236
11/14/2012 18:00,2.8,-6.3,51,7,25.0,103.16,Clear,1.7697120830741428
11/14/2012 19:00,2.5,-5.9,54,9,25.0,103.17,Clear,1.7714817277932533
11/14/2012 20:00,2.1,-5.8,56,11,25.0,103.18,Clear,1.7709983935285658
11/14/2012 21:00,1.8,-6.1,56,7,25.0,103.16,Clear,1.771820078161474
11/14/2012 22:00,1.4,-5.7,59,13,25.0,103.15,Clear,1.7568285993573658
11/14/2012 23:00,0.4,-6.2,61,11,25.0,103.12,Clear,1.6768881290465567
11/15/2012 0:00,-1.4,-6.1,70,13,25.0,103.1,Clear,1.7091525423728813
11/15/2012 1:00,-2.0,-5.1,79,9,25.0,103.06,Mainly Clear,1.7479308313045228
11/15/2012 2:00,-2.3,-5.1,81,13,25.0,103.0,Mainly Clear,1.7462163356869822
11/15/2012 3:00,-2.9,-5.4,83,9,25.0,103.01,Mainly Clear,1.7476658427984593
11/15/2012 4:00,-3.6,-6.3,82,9,25.0,103.0,Clear,1.7445004661150825
11/15/2012 5:00,-2.9,-6.0,79,13,25.0,102.94,Mainly Clear,1.745809473127167
11/15/2012 6:00,-3.1,-6.1,80,15,25.0,102.91,Mainly Clear,1.7383226557949913
11/15/2012 7:00,-2.9,-5.9,80,13,24.1,102.94,Mostly Cloudy,1.7464618757263803
11/15/2012 8:00,-2.1,-5.1,80,11,24.1,102.99,Cloudy,1.7383226557949913
11/15/2012 9:00,-1.0,-4.8,75,19,24.1,102.93,Cloudy,1.731620840658719
11/15/2012 10:00,0.3,-4.6,70,15,24.1,102.84,Cloudy,1.7655212581782143
11/15/2012 11:00,1.3,-4.8,64,11,24.1,102.79,Cloudy,1.7721591779321915
11/15/2012 12:00,1.8,-4.7,62,15,24.1,102.73,Cloudy,1.7668139017555435
11/15/2012 13:00,2.6,-5.6,55,13,24.1,102.65,Mostly Cloudy,1.7715354034345843
11/15/2012 14:00,2.6,-5.5,55,11,24.1,102.59,Mostly Cloudy,1.7728239253615445
11/15/2012 15:00,2.4,-5.8,55,13,24.1,102.55,Mainly Clear,1.7725495990799862
11/15/2012 16:00,1.8,-5.5,58,11,24.1,102.53,Mainly Clear,1.767171913292577
11/15/2012 17:00,1.2,-5.9,59,9,25.0,102.53,Mainly Clear,1.7715301249814506
11/15/2012 18:00,1.0,-5.9,60,7,25.0,102.54,Clear,1.7546099311587804
11/15/2012 19:00,0.5,-5.8,63,7,25.0,102.51,Clear,1.7491119596026026
11/15/2012 20:00,-0.7,-5.7,69,4,25.0,102.46,Clear,1.744235993087571
11/15/2012 21:00,-2.9,-6.3,77,6,25.0,102.46,Clear,1.7485415913619538
11/15/2012 22:00,-1.7,-5.2,77,4,25.0,102.42,Clear,1.7566554340839993
11/15/2012 23:00,-4.3,-6.3,86,6,25.0,102.44,Clear,1.7530322801745157
11/16/2012 0:00,-3.1,-5.5,83,4,25.0,102.42,Clear,1.7459700090483987
11/16/2012 1:00,-5.3,-6.9,88,4,19.3,102.4,Clear,1.7571931537828946
11/16/2012 2:00,-4.5,-6.3,87,0,19.3,102.42,Clear,1.755244623603565
11/16/2012 3:00,-3.6,-5.1,89,0,19.3,102.4,Clear,1.7590894054480448
11/16/2012 4:00,-6.7,-8.1,90,0,19.3,102.42,Clear,1.7609487211792867
11/16/2012 5:00,-6.5,-7.7,91,4,19.3,102.48,Clear,1.762772169746578
11/16/2012 6:00,-5.4,-6.4,93,4,16.1,102.48,Mostly Cloudy,1.7663155381997573
11/16/2012 7:00,-5.2,-6.5,91,4,16.1,102.49,Mostly Cloudy,1.762772169746578
11/16/2012 8:00,-3.2,-4.8,89,0,19.3,102.54,Mostly Cloudy,1.7590894054480448
11/16/2012 9:00,0.4,-1.7,86,9,19.3,102.55,Mostly Cloudy,1.7627179782378417
11/16/2012 10:00,2.0,-2.0,75,13,24.1,102.57,Mainly Clear,1.7692321765215657
11/16/2012 11:00,3.1,-2.5,67,15,24.1,102.53,Mostly Cloudy,1.7723165555843603
11/16/2012 12:00,3.9,-2.8,62,17,24.1,102.48,Mainly Clear,1.773523713258267
11/16/2012 13:00,4.9,-2.6,58,15,24.1,102.49,Mainly Clear,1.762835353549402
11/16/2012 14:00,5.3,-2.1,59,13,24.1,102.5,Mainly Clear,1.7568862522059112
11/16/2012 15:00,5.5,-1.9,59,9,24.1,102.5,Mostly Cloudy,1.7597489735652825
11/16/2012 16:00,4.8,-2.0,61,13,24.1,102.55,Mostly Cloudy,1.7583259355830796
11/16/2012 17:00,4.4,-1.3,66,13,25.0,102.61,Cloudy,1.6960165533823464
11/16/2012 18:00,4.2,-1.5,66,15,25.0,102.66,Cloudy,1.6960165533823464
11/16/2012 19:00,3.7,-1.7,68,13,25.0,102.69,Mostly Cloudy,1.7688167625146605
11/16/2012 20:00,3.3,-1.7,70,9,25.0,102.75,Mostly Cloudy,1.7740876728385204
11/16/2012 21:00,0.8,-2.5,79,9,25.0,102.79,Mainly Clear,1.7728734946666425
11/16/2012 22:00,-0.9,-3.1,85,11,25.0,102.81,Mainly Clear,1.7645784926127355
11/16/2012 23:00,-1.5,-3.5,86,13,25.0,102.84,Mainly Clear,1.7615269276898342
11/17/2012 0:00,-1.1,-3.5,84,9,25.0,102.9,Clear,1.7483983249034645
11/17/2012 1:00,-1.3,-3.5,85,9,25.0,102.94,Clear,1.7507512632600475
11/17/2012 2:00,-2.4,-4.2,87,11,25.0,103.05,Mainly Clear,1.755244623603565
11/17/2012 3:00,-2.0,-5.0,80,11,25.0,103.13,Clear,1.7490527467577226
11/17/2012 4:00,-3.1,-6.5,77,17,25.0,103.17,Clear,1.7302348458823897
11/17/2012 5:00,-2.2,-7.3,68,13,25.0,103.24,Clear,1.742255751245667
11/17/2012 6:00,-2.6,-8.2,65,13,25.0,103.28,Clear,1.7424882950438632
11/17/2012 7:00,-3.2,-8.2,68,13,24.1,103.39,Mainly Clear,1.7573796940649102
11/17/2012 8:00,-2.7,-8.2,66,15,24.1,103.47,Mainly Clear,1.7530435100933246
11/17/2012 9:00,-2.1,-8.9,60,15,24.1,103.51,Mainly Clear,1.7569726669823114
11/17/2012 10:00,-1.0,-8.9,55,7,48.3,103.52,Mostly Cloudy,1.7727116622645165
11/17/2012 11:00,-0.1,-9.1,51,4,48.3,103.5,Mostly Cloudy,1.7736636718556729
11/17/2012 12:00,1.2,-9.0,46,4,48.3,103.47,Mainly Clear,1.7703229037927448
11/17/2012 13:00,2.3,-8.3,45,4,48.3,103.43,Mainly Clear,1.767793467295704
11/17/2012 14:00,2.8,-7.4,47,6,48.3,103.43,Mainly Clear,1.7681449032114394
11/17/2012 15:00,2.4,-7.4,48,6,48.3,103.43,Mainly Clear,1.768988504258711
11/17/2012 16:00,2.0,-7.3,50,4,48.3,103.46,Mainly Clear,1.7721276762906106
11/17/2012 17:00,0.9,-7.7,53,4,25.0,103.46,Clear,1.7718779805041622
11/17/2012 18:00,-1.7,-7.9,63,4,25.0,103.5,Mainly Clear,1.7641613279074138
11/17/2012 19:00,-2.1,-7.2,68,4,25.0,103.51,Clear,1.760847400494293
11/17/2012 20:00,-0.1,-7.0,60,7,25.0,103.49,Clear,1.7707887263676474
11/17/2012 21:00,-1.4,-6.5,68,7,25.0,103.51,Clear,1.7654686466104061
11/17/2012 22:00,-1.0,-6.3,67,7,25.0,103.54,Clear,1.7662111896947945
11/17/2012 23:00,-1.3,-6.7,67,9,25.0,103.56,Clear,1.765029047096341
11/18/2012 0:00,-1.6,-6.2,71,0,25.0,103.58,Clear,1.7536139691397243
11/18/2012 1:00,-3.2,-6.9,76,0,25.0,103.59,Clear,1.7478345785821303
11/18/2012 2:00,-4.6,-6.9,84,0,25.0,103.63,Clear,1.7483983249034645
11/18/2012 3:00,-3.9,-6.1,85,7,25.0,103.61,Clear,1.7507512632600475
11/18/2012 4:00,-4.8,-6.9,85,7,25.0,103.59,Clear,1.7507512632600475
11/18/2012 5:00,-5.0,-7.4,83,7,25.0,103.61,Clear,1.7459700090483987
11/18/2012 6:00,-5.4,-7.4,86,9,25.0,103.59,Mainly Clear,1.7530322801745157
11/18/2012 7:00,-6.4,-8.4,86,9,24.1,103.63,Mostly Cloudy,1.7530322801745157
11/18/2012 8:00,-4.5,-6.4,87,7,24.1,103.65,Cloudy,1.755244623603565
11/18/2012 9:00,-2.4,-5.4,80,9,24.1,103.65,Cloudy,1.7383226557949913
11/18/2012 10:00,-0.5,-6.8,62,7,24.1,103.65,Mostly Cloudy,1.7671719132925767
11/18/2012 11:00,1.9,-6.5,54,7,48.3,103.59,Mostly Cloudy,1.7716989145932032
11/18/2012 12:00,4.1,-10.1,35,4,48.3,103.51,Mostly Cloudy,1.7615635198276813
11/18/2012 13:00,4.0,-11.6,31,6,48.3,103.46,Mostly Cloudy,1.76075519649141
11/18/2012 14:00,4.5,-10.6,32,7,48.3,103.39,Mostly Cloudy,1.7591738601635458
11/18/2012 15:00,4.5,-11.9,29,9,48.3,103.38,Mostly Cloudy,1.7661807323779817
11/18/2012 16:00,2.7,-9.3,41,9,24.1,103.36,Mostly Cloudy,1.7680548998637564
11/18/2012 17:00,1.5,-8.5,47,9,25.0,103.36,Mostly Cloudy,1.7686679023893277
11/18/2012 18:00,2.6,-7.5,47,9,25.0,103.36,Mostly Cloudy,1.7686679023893277
11/18/2012 19:00,1.1,-7.0,55,4,25.0,103.36,Mostly Cloudy,1.7712374494410619
11/18/2012 20:00,-1.8,-6.8,69,6,25.0,103.3,Mostly Cloudy,1.7543015316698494
11/18/2012 21:00,-0.6,-7.1,61,11,25.0,103.27,Mainly Clear,1.7549170278289308
11/18/2012 22:00,-1.3,-6.9,66,11,25.0,103.25,Cloudy,1.7499243783748297
11/18/2012 23:00,-2.1,-6.0,75,11,25.0,103.22,Cloudy,1.7547307311959275
11/19/2012 0:00,-1.8,-5.7,75,7,25.0,103.2,Mostly Cloudy,1.7557752135129714
11/19/2012 1:00,-2.4,-5.9,77,6,25.0,103.15,Cloudy,1.7478706876285854
11/19/2012 2:00,-3.1,-6.4,78,13,25.0,103.11,Mostly Cloudy,1.7449517650503341
11/19/2012 3:00,-3.6,-6.9,78,9,25.0,103.11,Mostly Cloudy,1.741331760169754
11/19/2012 4:00,-3.7,-6.9,78,6,25.0,103.05,Mostly Cloudy,1.733057876440812
11/19/2012 5:00,-4.0,-7.1,79,9,25.0,103.03,Mainly Clear,1.741684409726711
11/19/2012 6:00,-4.3,-7.0,81,7,25.0,103.01,Clear,1.7408722768108806
11/19/2012 7:00,-4.6,-7.1,83,9,16.1,102.99,Clear,1.7459700090483987
11/19/2012 8:00,-2.8,-5.9,79,11,24.1,102.99,Mainly Clear,1.7357508862871274
11/19/2012 9:00,-0.5,-4.5,74,7,24.1,102.92,Clear,1.7209839103698092
11/19/2012 10:00,1.3,-3.4,71,7,19.3,102.9,Mainly Clear,1.7666625124017032
11/19/2012 11:00,2.4,-3.4,65,6,24.1,102.83,Mainly Clear,1.7721775498679024
11/19/2012 12:00,4.9,-2.7,58,4,24.1,102.72,Clear,1.7261539121073843
11/19/2012 13:00,4.9,-0.4,69,6,19.3,102.64,Mainly Clear,1.7721749254870582
11/19/2012 14:00,5.9,-0.9,62,6,19.3,102.54,Mainly Clear,1.6884423056111486
11/19/2012 15:00,6.2,-1.2,59,4,24.1,102.5,Mainly Clear,1.7705653675746014
11/19/2012 16:00,3.7,-2.0,66,6,24.1,102.45,Mainly Clear,1.772429209229014
11/19/2012 17:00,3.0,-1.5,72,4,25.0,102.42,Clear,1.7692644837549396
11/19/2012 18:00,1.1,-1.9,80,4,19.3,102.39,Mainly Clear,1.7620288271738795
11/19/2012 19:00,0.1,-2.9,80,4,25.0,102.33,Mainly Clear,1.7383226557949913
11/19/2012 20:00,-1.4,-3.6,85,6,25.0,102.29,Clear,1.7507512632600475
11/19/2012 21:00,-2.5,-3.8,91,4,19.3,102.23,Mainly Clear,1.762772169746578
11/19/2012 22:00,-3.3,-4.3,93,6,12.9,102.21,Clear,1.7663155381997573
11/19/2012 23:00,-0.7,-2.2,90,6,9.7,102.16,Fog,1.7731184143790926
11/20/2012 0:00,-3.3,-4.5,91,7,9.7,102.12,Fog,1.7684106981169225
11/20/2012 1:00,-3.6,-4.3,95,7,9.7,102.08,Fog,1.768832975474038
11/20/2012 2:00,-1.8,-3.5,88,6,8.0,102.08,Fog,1.7672715687786953
11/20/2012 3:00,-3.6,-4.5,93,6,9.7,102.08,Fog,1.7663155381997573
11/20/2012 4:00,-2.9,-4.5,89,6,6.4,102.02,Fog,1.7590894054480448
11/20/2012 5:00,-2.9,-4.5,89,6,6.4,102.0,Fog,1.7590894054480448
11/20/2012 6:00,-2.9,-4.8,87,6,6.4,102.01,Fog,1.755244623603565
11/20/2012 7:00,-3.4,-5.2,87,7,4.8,102.02,Fog,1.7569342699648203
11/20/2012 8:00,-2.0,-4.4,84,9,9.7,102.03,Haze,1.763599196408185
11/20/2012 9:00,-0.7,-3.6,81,6,9.7,102.01,Haze,1.7737827594762652
11/20/2012 10:00,1.9,-1.9,76,9,12.9,102.0,Mostly Cloudy,1.768145537428195
11/20/2012 11:00,3.0,-2.2,69,6,11.3,101.96,Cloudy,1.7491001207503545
11/20/2012 12:00,4.6,-1.9,63,2,11.3,101.88,Cloudy,1.7589249737637944
11/20/2012 13:00,5.5,-1.0,63,4,11.3,101.83,Mostly Cloudy,1.7639966094823487
11/20/2012 14:00,5.8,-1.6,59,6,12.9,101.77,Mostly Cloudy,1.7643657066097316
11/20/2012 15:00,5.9,-1.5,59,11,16.1,101.77,Cloudy,1.745419090939828
11/20/2012 16:00,5.6,-1.6,60,6,16.1,101.78,Cloudy,1.7344732532988152
11/20/2012 17:00,4.2,-0.4,72,7,16.1,101.79,Cloudy,1.7624537977649744
11/20/2012 18:00,2.4,-0.9,79,6,19.3,101.82,Mostly Cloudy,1.7382094165566369
11/20/2012 19:00,1.9,-1.1,80,7,16.1,101.85,Mostly Cloudy,1.7717805824357182
11/20/2012 20:00,3.4,-2.0,68,9,19.3,101.86,Mostly Cloudy,1.769959583578094
11/20/2012 21:00,1.9,-2.5,73,9,25.0,101.84,Mostly Cloudy,1.755716895269236
11/20/2012 22:00,1.9,-2.3,74,7,25.0,101.81,Mostly Cloudy,1.7738254451566982
11/20/2012 23:00,2.0,-2.3,73,9,25.0,101.83,Mostly Cloudy,1.7738241518879116
11/21/2012 0:00,3.1,-2.1,69,6,25.0,101.8,Mostly Cloudy,1.7502107452530955
11/21/2012 1:00,0.6,-2.3,81,6,25.0,101.82,Mostly Cloudy,1.772735168371978
11/21/2012 2:00,0.4,-2.5,81,7,25.0,101.82,Mainly Clear,1.7739534055986514
11/21/2012 3:00,-0.7,-3.3,83,9,25.0,101.83,Mainly Clear,1.7738655291546621
11/21/2012 4:00,-1.9,-3.7,87,9,25.0,101.85,Mainly Clear,1.769887317034227
11/21/2012 5:00,-1.4,-3.4,86,11,25.0,101.86,Mostly Cloudy,1.7675287122112506
11/21/2012 6:00,-1.6,-3.6,86,4,12.9,101.92,Mostly Cloudy,1.7689787898411475
11/21/2012 7:00,-0.1,-2.8,82,11,9.7,102.0,Haze,1.773862943519031
11/21/2012 8:00,0.4,-2.2,83,7,12.9,102.01,Mostly Cloudy,1.7731366319506456
11/21/2012 9:00,2.9,-1.6,72,7,16.1,102.01,Mostly Cloudy,1.7683464998544614
11/21/2012 10:00,5.2,-1.5,62,4,19.3,101.98,Mainly Clear,1.7689814883724233
11/21/2012 11:00,6.3,-0.3,63,4,19.3,101.93,Mainly Clear,1.7725312871028764
11/21/2012 12:00,7.2,-0.4,58,6,19.3,101.89,Mainly Clear,1.7448829862111928
11/21/2012 13:00,7.4,-0.6,57,7,19.3,101.89,Mainly Clear,1.7481469553413478
11/21/2012 14:00,8.3,-1.6,50,4,19.3,101.86,Mainly Clear,1.7232509100692075
11/21/2012 15:00,8.2,-2.1,48,4,19.3,101.87,Mainly Clear,1.7281163751841762
11/21/2012 16:00,5.5,-1.5,61,7,24.1,101.86,Mainly Clear,1.7695655822864305
11/21/2012 17:00,2.8,-2.0,71,7,25.0,101.85,Mainly Clear,1.7704721728812964
11/21/2012 18:00,2.1,-1.0,80,6,25.0,101.89,Mainly Clear,1.766818223492022
11/21/2012 19:00,2.5,-0.8,79,4,25.0,101.89,Mainly Clear,1.7703948970476133
11/21/2012 20:00,1.4,-0.9,85,6,25.0,101.9,Mostly Cloudy,1.7709983935285658
11/21/2012 21:00,2.2,-0.5,82,6,25.0,101.88,Mainly Clear,1.7710752637388758
11/21/2012 22:00,0.9,-1.4,85,4,19.3,101.88,Mostly Cloudy,1.7725626772586287
11/21/2012 23:00,1.0,-0.7,88,4,19.3,101.86,Mainly Clear,1.7714852482801269
11/22/2012 0:00,1.3,0.4,94,4,16.1,101.87,Mainly Clear,1.7713743008114522
11/22/2012 1:00,1.5,0.6,94,6,16.1,101.83,Clear,1.7678398055782896
11/22/2012 2:00,1.3,-0.1,90,4,16.1,101.85,Clear,1.771231495664928
11/22/2012 3:00,1.1,-0.9,86,4,16.1,101.86,Clear,1.771933223515779
11/22/2012 4:00,-0.9,-2.3,90,4,12.9,101.84,Clear,1.7732224753971306
11/22/2012 5:00,-1.4,-3.3,87,6,16.1,101.85,Clear,1.7693290710914285
11/22/2012 6:00,-0.3,-2.6,84,9,19.3,101.84,Clear,1.7714350710995705
11/22/2012 7:00,0.8,-2.6,78,4,24.1,101.85,Mainly Clear,1.7725888291045364
11/22/2012 8:00,1.7,-1.9,77,4,24.1,101.87,Mainly Clear,1.7522645982120435
11/22/2012 9:00,3.3,-0.8,74,6,24.1,101.81,Clear,1.7682940297837657
11/22/2012 10:00,6.4,-1.2,58,0,24.1,101.8,Clear,1.7482008903970783
11/22/2012 11:00,8.4,-0.8,52,6,24.1,101.72,Mainly Clear,1.6941061791097745
11/22/2012 12:00,10.8,-1.5,42,13,24.1,101.6,Mainly Clear,1.7208937655136878
11/22/2012 13:00,11.6,-3.2,35,13,24.1,101.52,Mainly Clear,1.7032298582312264
11/22/2012 14:00,12.1,-2.6,36,9,24.1,101.45,Mainly Clear,1.6901705804651566
11/22/2012 15:00,10.7,-1.2,44,15,24.1,101.39,Mainly Clear,1.6916864988761227
11/22/2012 16:00,9.2,0.4,54,15,24.1,101.37,Mainly Clear,1.6968956000758812
11/22/2012 17:00,7.1,0.1,61,15,25.0,101.35,Mainly Clear,1.7278913831913274
11/22/2012 18:00,6.9,0.5,64,15,25.0,101.34,Mainly Clear,1.7593940289392709
11/22/2012 19:00,6.3,0.6,67,6,25.0,101.3,Mainly Clear,1.7270287845634091
11/22/2012 20:00,5.9,0.4,68,7,25.0,101.28,Mainly Clear,1.736877569451752
11/22/2012 21:00,5.6,0.8,71,17,25.0,101.24,Mainly Clear,1.7582975416347588
11/22/2012 22:00,3.4,-0.9,73,13,25.0,101.16,Mainly Clear,1.718324698506683
11/22/2012 23:00,4.4,-1.3,66,11,25.0,101.11,Mainly Clear,1.727831244969698
11/23/2012 0:00,4.5,-1.5,65,15,25.0,101.06,Clear,1.741016972365007
11/23/2012 1:00,2.7,-1.0,77,17,25.0,100.96,Mainly Clear,1.748886703280131
11/23/2012 2:00,2.6,-1.3,75,11,25.0,100.96,Mainly Clear,1.7486726812829176
11/23/2012 3:00,2.8,-2.2,70,6,25.0,100.9,Mainly Clear,1.7357640397410075
11/23/2012 4:00,1.2,-2.5,76,11,25.0,100.79,Mainly Clear,1.7640856827111673
11/23/2012 5:00,2.5,-2.4,70,11,25.0,100.69,Mostly Cloudy,1.7589202715535195
11/23/2012 6:00,3.7,-2.1,66,13,25.0,100.61,Mostly Cloudy,1.743831252174676
11/23/2012 7:00,4.1,-1.5,67,13,48.3,100.54,Mostly Cloudy,1.733181786959219
11/23/2012 8:00,4.3,-1.1,68,17,48.3,100.47,Cloudy,1.7224115514289575
11/23/2012 9:00,6.2,-1.2,59,20,48.3,100.34,Mostly Cloudy,1.7422686883576926
11/23/2012 10:00,8.2,0.3,57,17,24.1,100.25,Mostly Cloudy,1.7346484884515392
11/23/2012 11:00,10.4,0.4,50,24,24.1,100.11,Mostly Cloudy,0.9342617671748155
11/23/2012 12:00,12.1,1.5,48,22,24.1,99.93,Mostly Cloudy,1.7080249798467582
11/23/2012 13:00,10.9,1.3,51,24,48.3,99.8,Cloudy,1.7032780666646647
11/23/2012 14:00,10.4,1.5,54,24,48.3,99.71,Cloudy,1.7327815763814818
11/23/2012 15:00,10.4,2.5,58,17,16.1,99.79,Rain,1.710772486249046
11/23/2012 16:00,9.2,6.4,83,30,12.9,99.83,Rain,1.7531725309179225
11/23/2012 17:00,8.8,6.8,87,22,16.1,99.78,Rain,1.755244623603565
11/23/2012 18:00,8.6,7.0,90,19,25.0,99.73,Cloudy,1.7609487211792867
11/23/2012 19:00,8.7,6.6,87,20,25.0,99.7,Mostly Cloudy,1.755244623603565
11/23/2012 20:00,10.0,5.4,73,39,25.0,99.71,Cloudy,1.718324698506683
11/23/2012 21:00,9.3,4.1,70,39,25.0,99.72,Cloudy,1.7269906722203159
11/23/2012 22:00,8.6,3.0,68,26,25.0,99.7,Rain Showers,1.7223787306758604
11/23/2012 23:00,7.9,1.6,64,26,25.0,99.65,Cloudy,1.7458403714030362
11/24/2012 0:00,7.5,0.4,61,19,25.0,99.59,Cloudy,1.7449830080001107
11/24/2012 1:00,5.3,2.3,81,32,25.0,99.6,Rain Showers,1.7507165088763599
11/24/2012 2:00,5.1,2.1,81,30,25.0,99.61,Rain Showers,1.7501115173671518
11/24/2012 3:00,4.6,-0.6,69,28,25.0,99.59,Cloudy,1.744651190720758
11/24/2012 4:00,4.1,-2.2,63,37,25.0,99.56,Mostly Cloudy,1.7496956699597306
11/24/2012 5:00,3.0,-1.9,70,35,25.0,99.57,Mainly Clear,1.7594875637627063
11/24/2012 6:00,2.8,-1.8,72,28,25.0,99.58,Mostly Cloudy,1.7606952156700961
11/24/2012 7:00,2.6,-1.7,73,32,25.0,99.54,Mostly Cloudy,1.762785712723887
11/24/2012 8:00,2.2,-2.0,74,30,25.0,99.57,Mostly Cloudy,1.7614903213377067
11/24/2012 9:00,1.6,-0.9,83,33,24.1,99.58,Rain Showers,1.7552609645620265
11/24/2012 10:00,1.8,-2.5,73,30,24.1,99.62,Snow Showers,1.762568789705586
11/24/2012 11:00,1.6,-3.7,68,33,24.1,99.6,Snow Showers,1.7604456570406095
11/24/2012 12:00,1.8,-5.0,61,30,24.1,99.6,Snow Showers,1.7459144767650345
11/24/2012 13:00,1.5,-7.4,52,37,24.1,99.64,Cloudy,1.7584630545113447
11/24/2012 14:00,1.3,-6.3,57,39,24.1,99.65,Mostly Cloudy,1.756693942080584
11/24/2012 15:00,0.7,-6.4,59,35,2.4,99.7,Snow Pellets,1.672110259985864
11/24/2012 16:00,-0.5,-5.1,71,28,24.1,99.74,Mostly Cloudy,1.7644544267674314
11/24/2012 17:00,-0.6,-5.3,70,37,12.9,99.81,Snow Showers,1.7629976305347885
11/24/2012 18:00,-0.4,-5.5,68,28,25.0,99.85,Snow Showers,1.7614308056777488
11/24/2012 19:00,-0.9,-5.0,74,22,19.3,99.9,Snow Showers,1.7717779489011907
11/24/2012 20:00,-0.9,-5.8,69,32,25.0,99.92,Cloudy,1.7706877369957539
11/24/2012 21:00,-1.5,-7.8,62,28,25.0,99.96,Mostly Cloudy,1.7681337585508643
11/24/2012 22:00,-1.8,-8.3,61,24,25.0,100.0,Mostly Cloudy,1.7694527624725562
11/24/2012 23:00,-2.1,-8.8,60,32,25.0,100.0,Mostly Cloudy,1.7739947355911372
11/25/2012 0:00,-2.6,-9.0,61,30,25.0,100.04,Mostly Cloudy,1.7672149527792098
11/25/2012 1:00,-2.9,-9.3,61,26,25.0,100.08,Mainly Clear,1.7720987921325426
11/25/2012 2:00,-3.3,-9.4,63,33,25.0,100.15,Clear,1.77022417301218
11/25/2012 3:00,-3.6,-9.8,62,26,25.0,100.19,Mainly Clear,1.7547910559690456
11/25/2012 4:00,-4.1,-9.3,67,30,25.0,100.2,Mainly Clear,1.7646404633383113
11/25/2012 5:00,-4.3,-10.0,64,32,25.0,100.25,Mainly Clear,1.7723244187600868
11/25/2012 6:00,-4.3,-9.7,66,28,25.0,100.26,Mainly Clear,1.7721197995190847
11/25/2012 7:00,-4.8,-9.5,70,26,25.0,100.27,Mainly Clear,1.7723453845736898
11/25/2012 8:00,-4.3,-9.4,68,24,24.1,100.3,Mainly Clear,1.7575420246675202
11/25/2012 9:00,-3.8,-9.4,65,33,24.1,100.33,Mainly Clear,1.7668743875154587
11/25/2012 10:00,-3.0,-9.5,61,32,48.3,100.33,Mostly Cloudy,1.7609901392717995
11/25/2012 11:00,-2.9,-9.6,60,35,48.3,100.28,Snow Showers,1.7341569354842485
11/25/2012 12:00,-2.5,-9.9,57,33,48.3,100.21,Cloudy,1.7620197255888885
11/25/2012 13:00,-2.1,-9.9,55,32,48.3,100.19,Cloudy,1.744286438239061
11/25/2012 14:00,-1.8,-10.3,52,30,48.3,100.22,Mostly Cloudy,1.7587319931783416
11/25/2012 15:00,-1.8,-10.9,50,28,48.3,100.22,Mostly Cloudy,1.6948410397310465
11/25/2012 16:00,-2.1,-10.9,51,24,48.3,100.24,Mostly Cloudy,1.7694420119665146
11/25/2012 17:00,-3.1,-11.8,51,24,25.0,100.27,Clear,1.7668139017555435
11/25/2012 18:00,-3.4,-11.5,53,20,25.0,100.35,Clear,1.7665498896579068
11/25/2012 19:00,-3.7,-11.0,57,22,25.0,100.39,Clear,1.6697155658983585
11/25/2012 20:00,-3.7,-10.7,58,17,25.0,100.42,Mostly Cloudy,1.7723584862464727
11/25/2012 21:00,-3.4,-10.3,59,15,25.0,100.46,Mostly Cloudy,1.7729126130510993
11/25/2012 22:00,-3.6,-10.3,60,13,25.0,100.47,Mostly Cloudy,1.7607044459634205
11/25/2012 23:00,-4.2,-10.5,61,15,25.0,100.5,Mostly Cloudy,1.7681419132857126
11/26/2012 0:00,-4.9,-10.1,67,9,25.0,100.52,Mostly Cloudy,1.7606767523826987
11/26/2012 1:00,-6.5,-10.6,73,7,25.0,100.53,Mainly Clear,1.7684134099360613
11/26/2012 2:00,-5.0,-10.0,68,7,25.0,100.57,Mainly Clear,1.7650686968027867
11/26/2012 3:00,-4.5,-9.3,69,7,25.0,100.62,Cloudy,1.7079639401147462
11/26/2012 4:00,-4.3,-9.3,68,9,25.0,100.66,Cloudy,1.7723558660325587
11/26/2012 5:00,-4.3,-10.4,62,13,25.0,100.72,Cloudy,1.7688455839814625
11/26/2012 6:00,-4.5,-10.9,61,11,25.0,100.77,Cloudy,1.7637512174284173
11/26/2012 7:00,-4.7,-10.5,64,11,25.0,100.9,Cloudy,1.732187750434231
11/26/2012 8:00,-5.5,-10.6,67,19,24.1,101.03,Mainly Clear,1.7738707002485439
11/26/2012 9:00,-4.2,-11.0,59,17,48.3,101.14,Mainly Clear,1.7536863566611902
11/26/2012 10:00,-3.4,-11.3,54,19,48.3,101.25,Clear,1.7560808107980355
11/26/2012 11:00,-2.5,-10.9,52,22,48.3,101.3,Clear,1.758609413138808
11/26/2012 12:00,-1.3,-10.6,49,24,48.3,101.33,Mainly Clear,1.7736274029063237
11/26/2012 13:00,-1.0,-10.6,48,24,48.3,101.34,Clear,1.771218263941694
11/26/2012 14:00,-0.8,-11.3,45,24,48.3,101.38,Clear,1.76507310127647
11/26/2012 15:00,-0.9,-9.9,50,26,48.3,101.48,Clear,1.771122950331764
11/26/2012 16:00,-1.8,-9.0,58,24,48.3,101.56,Clear,1.769226791103059
11/26/2012 17:00,-3.0,-9.5,61,20,25.0,101.67,Clear,1.7461548279184833
11/26/2012 18:00,-3.4,-9.5,63,20,25.0,101.75,Clear,1.7576612109575813
11/26/2012 19:00,-3.8,-10.0,62,15,25.0,101.81,Clear,1.7294930285852905
11/26/2012 20:00,-4.6,-10.0,66,13,25.0,101.85,Clear,1.7730116526772428
11/26/2012 21:00,-7.3,-10.3,79,7,25.0,101.87,Clear,1.7357508862871274
11/26/2012 22:00,-5.4,-9.6,72,0,25.0,101.9,Clear,1.768594957259089
11/26/2012 23:00,-5.8,-9.7,74,4,25.0,101.94,Clear,1.7546099311587804
11/27/2012 0:00,-7.4,-9.9,82,4,25.0,101.97,Clear,1.7434626346010758
11/27/2012 1:00,-9.0,-11.0,85,4,25.0,101.98,Clear,1.7507512632600475
11/27/2012 2:00,-7.0,-9.3,84,4,25.0,102.04,Mainly Clear,1.7483983249034645
11/27/2012 3:00,-6.1,-8.5,83,7,25.0,102.03,Cloudy,1.7459700090483987
11/27/2012 4:00,-4.8,-8.1,78,7,25.0,102.01,Cloudy,1.7534689790050288
11/27/2012 5:00,-4.4,-9.0,70,7,25.0,102.02,Cloudy,1.7638673015894282
11/27/2012 6:00,-4.4,-8.7,72,6,25.0,102.04,Cloudy,1.7390097192466842
11/27/2012 7:00,-4.4,-8.8,71,9,24.1,102.05,Mostly Cloudy,1.761472012828698
11/27/2012 8:00,-5.2,-8.4,78,9,24.1,102.15,Mostly Cloudy,1.748779768007821
11/27/2012 9:00,-4.3,-8.6,72,9,24.1,102.13,Mostly Cloudy,1.7721880467866866
11/27/2012 10:00,-3.1,-7.8,70,9,24.1,102.2,Mostly Cloudy,1.7714905288070586
11/27/2012 11:00,-2.4,-7.8,66,6,24.1,102.2,Mostly Cloudy,1.7620470277000468
11/27/2012 12:00,-0.7,-7.4,60,4,24.1,102.16,Mainly Clear,1.7646581616522983
11/27/2012 13:00,0.3,-7.2,57,7,24.1,102.12,Mainly Clear,1.7365477424701798
11/27/2012 14:00,0.5,-6.9,58,6,24.1,102.08,Mainly Clear,1.7681310401784411
11/27/2012 15:00,0.4,-6.8,58,7,24.1,102.07,Mainly Clear,1.7737724090059888
11/27/2012 16:00,-0.5,-6.9,62,7,24.1,102.08,Clear,1.7730298873971106
11/27/2012 17:00,-2.2,-7.0,70,6,25.0,102.09,Clear,1.7622923902859655
11/27/2012 18:00,-2.8,-7.0,73,4,25.0,102.15,Clear,1.7552446236035653
11/27/2012 19:00,-2.8,-6.7,74,6,25.0,102.16,Clear,1.7518092627052295
11/27/2012 20:00,-4.5,-7.5,80,6,25.0,102.14,Clear,1.7438185701260924
11/27/2012 21:00,-3.0,-6.5,77,7,25.0,102.13,Mainly Clear,1.7491119596026032
11/27/2012 22:00,-3.4,-6.0,82,7,25.0,102.1,Mostly Cloudy,1.749971206918063
11/27/2012 23:00,-3.8,-6.5,81,7,25.0,102.07,Mostly Cloudy,1.7547307311959273
11/28/2012 0:00,-3.8,-6.2,83,7,25.0,102.03,Mainly Clear,1.7459700090483987
11/28/2012 1:00,-4.0,-6.0,86,6,25.0,101.99,Mainly Clear,1.7530322801745157
11/28/2012 2:00,-3.6,-6.1,83,4,25.0,101.99,Mostly Cloudy,1.768973392589462
11/28/2012 3:00,-3.4,-5.9,83,11,25.0,101.96,Mostly Cloudy,1.7507860014653087
11/28/2012 4:00,-3.4,-5.5,85,4,25.0,101.93,Mostly Cloudy,1.7734251200700144
11/28/2012 5:00,-3.2,-5.0,87,7,25.0,101.92,Cloudy,1.755244623603565
11/28/2012 6:00,-3.4,-5.2,87,11,25.0,101.89,Cloudy,1.7574322427470264
11/28/2012 7:00,-3.1,-5.3,85,9,24.1,101.86,Cloudy,1.762835353549402
11/28/2012 8:00,-3.1,-5.0,87,4,24.1,101.85,Cloudy,1.7658887008239244
11/28/2012 9:00,-1.1,-3.4,84,6,24.1,101.79,Mostly Cloudy,1.7718779805041622
11/28/2012 10:00,0.0,-4.1,74,4,24.1,101.76,Mostly Cloudy,1.7656701615014385
11/28/2012 11:00,0.5,-4.2,71,6,24.1,101.66,Cloudy,1.7637512174284176
11/28/2012 12:00,1.0,-6.4,58,9,24.1,101.55,Cloudy,1.751055636497207
11/28/2012 13:00,1.8,-4.3,64,20,19.3,101.47,Cloudy,1.772109296309939
11/28/2012 14:00,0.7,-1.3,86,19,3.2,101.42,Snow Showers,1.7629976305347885
11/28/2012 15:00,0.0,-0.8,94,15,2.4,101.37,Snow Showers,1.7677471105115399
11/28/2012 16:00,0.6,-0.9,90,20,6.4,101.37,Snow Showers,1.7609487211792867
11/28/2012 17:00,0.4,-0.7,92,22,4.8,101.36,Snow,1.7649099958994638
11/28/2012 18:00,0.8,-0.6,90,24,8.0,101.35,Snow,1.7657270316194544
11/28/2012 19:00,1.0,-0.7,88,22,12.9,101.35,Snow Showers,1.7682098471091654
11/28/2012 20:00,0.9,-0.9,88,20,16.1,101.36,Snow Showers,1.7663459508642496
11/28/2012 21:00,0.4,-1.9,85,24,16.1,101.38,Snow Showers,1.7692590998442501
11/28/2012 22:00,-0.7,-6.1,67,30,25.0,101.45,Mostly Cloudy,1.7325595944983385
11/28/2012 23:00,-2.6,-7.5,69,20,25.0,101.56,Mainly Clear,1.7617736491889833
11/29/2012 0:00,-3.9,-8.6,70,28,25.0,101.62,Clear,1.7328507737271095
11/29/2012 1:00,-5.1,-10.6,65,22,25.0,101.71,Clear,1.717196090119432
11/29/2012 2:00,-6.3,-11.9,64,17,25.0,101.8,Clear,1.7629615933054583
11/29/2012 3:00,-7.4,-12.2,68,17,25.0,101.87,Clear,1.7272265886551288
11/29/2012 4:00,-8.4,-12.4,73,9,25.0,101.86,Clear,1.7429769762703005
11/29/2012 5:00,-8.4,-11.7,77,6,25.0,101.85,Mainly Clear,1.7302348458823897
11/29/2012 6:00,-6.0,-10.2,72,13,25.0,101.84,Mostly Cloudy,1.7478104963599237
11/29/2012 7:00,-5.0,-10.6,65,11,24.1,101.81,Cloudy,1.7740902533376548
11/29/2012 8:00,-4.8,-8.3,76,13,19.3,101.77,Snow,1.7533907883657238
11/29/2012 9:00,-4.6,-7.0,83,19,9.7,101.67,Snow,1.7710381604264083
11/29/2012 10:00,-4.7,-6.8,85,20,4.8,101.56,Snow,1.7507512632600475
11/29/2012 11:00,-3.5,-5.2,88,15,19.3,101.46,Snow,1.7571931537828946
11/29/2012 12:00,-1.8,-4.2,84,15,6.4,101.35,Snow,1.76744123784056
11/29/2012 13:00,-1.4,-3.4,86,17,24.1,101.33,Snow,1.7711361930820106
11/29/2012 14:00,-0.8,-3.3,83,22,24.1,101.33,Snow,1.7690408401148507
11/29/2012 15:00,-1.2,-4.6,78,22,24.1,101.4,Snow,1.7642991107922386
11/29/2012 16:00,-1.4,-5.4,74,15,24.1,101.5,Cloudy,1.7737491169844488
11/29/2012 17:00,-2.2,-8.3,63,24,25.0,101.63,Cloudy,1.744651190720758
11/29/2012 18:00,-4.2,-11.8,55,28,25.0,101.78,Snow Showers,1.7310959634637504
11/29/2012 19:00,-4.9,-11.9,58,22,25.0,101.9,Cloudy,1.7386984686244322
11/29/2012 20:00,-5.7,-12.1,61,20,25.0,102.08,Cloudy,1.7397619144805416
11/29/2012 21:00,-6.4,-12.3,63,19,25.0,102.18,Cloudy,1.706438231652655
11/29/2012 22:00,-7.3,-14.0,59,17,25.0,102.29,Mostly Cloudy,1.6994706044971162
11/29/2012 23:00,-9.4,-15.3,62,20,25.0,102.42,Mainly Clear,1.681279062923068
11/30/2012 0:00,-10.6,-16.1,64,19,25.0,102.52,Clear,1.6895328361301014
11/30/2012 1:00,-12.0,-16.5,69,9,25.0,102.6,Clear,1.7056195602958193
11/30/2012 2:00,-13.5,-16.9,76,6,25.0,102.72,Clear,1.7272721454173066
11/30/2012 3:00,-12.6,-16.7,71,4,25.0,102.78,Clear,1.712430565280306
11/30/2012 4:00,-12.4,-17.0,68,4,25.0,102.82,Clear,1.7018006700167505
11/30/2012 5:00,-13.6,-17.0,75,6,25.0,102.9,Clear,1.7252037498100399
11/30/2012 6:00,-13.0,-16.6,74,9,25.0,102.96,Mainly Clear,1.7209839103698092
11/30/2012 7:00,-13.4,-17.3,72,9,24.1,103.03,Mainly Clear,1.7154802667147235
11/30/2012 8:00,-12.8,-16.7,73,13,48.3,103.12,Mainly Clear,1.718324698506683
11/30/2012 9:00,-11.9,-16.0,72,7,48.3,103.16,Mainly Clear,1.7154802667147235
11/30/2012 10:00,-10.4,-16.3,62,11,48.3,103.2,Mostly Cloudy,1.681279062923068
11/30/2012 11:00,-9.9,-15.9,61,9,48.3,103.18,Mostly Cloudy,1.6768881290465567
11/30/2012 12:00,-9.3,-15.2,62,0,48.3,103.16,Mostly Cloudy,1.681279062923068
11/30/2012 13:00,-9.0,-15.2,61,6,48.3,103.15,Mostly Cloudy,1.6768881290465567
11/30/2012 14:00,-9.0,-15.6,59,6,48.3,103.15,Mostly Cloudy,1.7028230021476323
11/30/2012 15:00,-8.8,-15.8,57,11,48.3,103.14,Cloudy,1.6846254260896347
11/30/2012 16:00,-9.1,-15.8,58,11,24.1,103.16,Cloudy,1.7613070760726748
11/30/2012 17:00,-9.3,-15.6,60,15,25.0,103.2,Cloudy,1.6747229916897506
11/30/2012 18:00,-9.5,-15.5,62,13,25.0,103.24,Cloudy,1.6940362807878349
11/30/2012 19:00,-9.7,-15.8,61,15,25.0,103.24,Mostly Cloudy,1.6768881290465567
11/30/2012 20:00,-10.0,-16.3,60,15,25.0,103.26,Cloudy,1.6747229916897506
11/30/2012 21:00,-10.4,-16.9,59,19,25.0,103.3,Mainly Clear,1.672110259985864
11/30/2012 22:00,-10.7,-16.8,61,19,25.0,103.29,Mainly Clear,1.6768881290465567
11/30/2012 23:00,-10.8,-16.1,65,17,25.0,103.25,Mainly Clear,1.6929583486014415
12/1/2012 0:00,-10.8,-16.2,64,9,25.0,103.26,Clear,1.6895328361301014
12/1/2012 1:00,-11.0,-16.5,64,13,25.0,103.25,Mainly Clear,1.700121401518125
12/1/2012 2:00,-11.1,-16.5,64,20,25.0,103.21,Mainly Clear,1.6895328361301014
12/1/2012 3:00,-12.5,-15.7,77,15,25.0,103.27,Mainly Clear,1.7302348458823897
12/1/2012 4:00,-11.8,-15.1,76,17,25.0,103.22,Mostly Cloudy,1.7272721454173066
12/1/2012 5:00,-11.9,-14.6,80,20,25.0,103.19,Mostly Cloudy,1.7383226557949913
12/1/2012 6:00,-11.8,-15.0,77,26,25.0,103.18,Mostly Cloudy,1.7302348458823897
12/1/2012 7:00,-11.3,-14.2,79,24,24.1,103.19,Cloudy,1.7357508862871274
12/1/2012 8:00,-10.9,-15.3,70,19,24.1,103.23,Mostly Cloudy,1.7091525423728813
12/1/2012 9:00,-10.6,-15.9,65,24,24.1,103.18,Cloudy,1.6929583486014415
12/1/2012 10:00,-10.9,-15.7,68,24,24.1,103.18,Cloudy,1.7018006700167505
12/1/2012 11:00,-10.3,-15.1,68,20,24.1,103.08,Cloudy,1.7018006700167505
12/1/2012 12:00,-9.4,-14.6,66,24,24.1,102.97,Cloudy,1.6960165533823464
12/1/2012 13:00,-8.9,-14.6,63,22,24.1,102.9,Cloudy,1.6856696145686971
12/1/2012 14:00,-8.3,-13.6,66,22,24.1,102.86,Cloudy,1.6960165533823464
12/1/2012 15:00,-8.3,-13.5,66,17,24.1,102.84,Cloudy,1.6960165533823464
12/1/2012 16:00,-7.9,-12.4,70,20,24.1,102.82,Cloudy,1.7091525423728813
12/1/2012 17:00,-7.5,-12.0,70,20,19.3,102.73,Snow,1.7091525423728813
12/1/2012 18:00,-6.9,-11.3,71,19,25.0,102.71,Snow,1.712430565280306
12/1/2012 19:00,-6.6,-10.8,72,17,25.0,102.63,Cloudy,1.7154802667147235
12/1/2012 20:00,-6.0,-10.0,73,17,25.0,102.55,Cloudy,1.7192486856389215
12/1/2012 21:00,-5.9,-9.6,75,17,25.0,102.49,Cloudy,1.7241591468416737
12/1/2012 22:00,-4.8,-8.4,76,13,19.3,102.36,Snow,1.7272721454173066
12/1/2012 23:00,-4.7,-8.0,78,19,16.1,102.28,Cloudy,1.7473030029850212
12/2/2012 0:00,-4.3,-7.3,80,15,24.1,102.18,Cloudy,1.7629435694817401
12/2/2012 1:00,-4.2,-6.8,82,15,24.1,102.11,Cloudy,1.772046256717128
12/2/2012 2:00,-3.9,-6.5,82,15,25.0,102.06,Cloudy,1.754686827142585
12/2/2012 3:00,-3.5,-5.8,84,13,25.0,102.02,Snow,1.7563661343466732
12/2/2012 4:00,-3.2,-5.3,85,13,25.0,101.86,Cloudy,1.7550700901840988
12/2/2012 5:00,-2.7,-5.1,84,11,25.0,101.75,Cloudy,1.766707522789894
12/2/2012 6:00,-1.9,-4.0,86,9,25.0,101.67,Cloudy,1.7655869804654014
12/2/2012 7:00,-0.3,-2.3,86,6,25.0,101.58,Cloudy,1.7615269276898342
12/2/2012 8:00,4.7,2.4,85,28,25.0,101.46,Cloudy,1.7667577006187192
12/2/2012 9:00,5.1,2.6,84,32,24.1,101.34,Cloudy,1.7565398179862655
12/2/2012 10:00,5.7,3.0,83,28,19.3,101.27,Cloudy,1.7582786076618793
12/2/2012 11:00,6.2,3.2,81,28,24.1,101.16,Cloudy,1.7533404788745757
12/2/2012 12:00,6.6,3.3,79,28,24.1,101.0,Rain Showers,1.738297511350109
12/2/2012 13:00,6.2,4.3,88,19,12.9,100.89,Rain,1.7571931537828946
12/2/2012 14:00,6.0,4.5,90,19,9.7,100.82,"Rain,Fog",1.7609487211792867
12/2/2012 15:00,5.6,4.9,95,22,4.8,100.75,"Rain,Fog",1.768832975474038
12/2/2012 16:00,5.5,4.9,96,20,6.4,100.68,"Rain,Fog",1.7699087340766253
12/2/2012 17:00,5.5,5.0,97,17,6.4,100.65,"Rain,Fog",1.7709745267585884
12/2/2012 18:00,5.8,5.6,99,15,4.8,100.65,"Rain,Fog",1.7730767632267987
12/2/2012 19:00,5.9,5.9,100,15,3.6,100.67,"Drizzle,Fog",1.774113475177305
12/2/2012 20:00,6.6,6.5,99,13,3.2,100.68,"Drizzle,Fog",1.7730767632267987
12/2/2012 21:00,6.7,6.6,99,11,8.0,100.7,Fog,1.7730767632267987
12/2/2012 22:00,7.1,6.9,99,15,8.0,100.71,"Drizzle,Fog",1.7730767632267987
12/2/2012 23:00,8.2,7.7,97,19,8.0,100.72,"Drizzle,Fog",1.7709745267585884
12/3/2012 0:00,8.1,7.5,96,15,9.7,100.78,"Drizzle,Fog",1.7699087340766253
12/3/2012 1:00,7.8,6.8,93,22,12.9,100.85,Cloudy,1.7663155381997573
12/3/2012 2:00,6.8,5.3,90,28,25.0,100.99,Mostly Cloudy,1.7609487211792867
12/3/2012 3:00,5.5,2.9,83,26,25.0,101.22,Mostly Cloudy,1.75832593558308
12/3/2012 4:00,4.1,1.6,84,13,25.0,101.35,Mostly Cloudy,1.7734977760023976
12/3/2012 5:00,3.2,0.6,83,13,25.0,101.48,Mostly Cloudy,1.7704242146951659
12/3/2012 6:00,1.8,-0.1,87,11,25.0,101.58,Clear,1.7643923315644428
12/3/2012 7:00,1.2,-0.6,88,9,25.0,101.7,Mainly Clear,1.7670900824030207
12/3/2012 8:00,2.2,0.0,85,11,24.1,101.78,Mainly Clear,1.7701488671275434
12/3/2012 9:00,3.6,1.0,83,11,48.3,101.87,Mostly Cloudy,1.7590095739917497
12/3/2012 10:00,3.9,1.2,83,13,24.1,101.99,Mostly Cloudy,1.7683455953993994
12/3/2012 11:00,3.7,1.1,83,11,24.1,101.96,Cloudy,1.7613162467965888
12/3/2012 12:00,3.9,1.3,83,9,24.1,101.96,Cloudy,1.7604086294208596
12/3/2012 13:00,4.0,1.2,82,9,24.1,101.95,Cloudy,1.7650686968027867
12/3/2012 14:00,4.2,0.8,79,13,24.1,101.95,Cloudy,1.772949111387902
12/3/2012 15:00,4.0,1.0,81,9,24.1,101.98,Cloudy,1.767133160421291
12/3/2012 16:00,3.7,-0.1,76,4,24.1,102.01,Cloudy,1.7604086294208596
12/3/2012 17:00,2.9,1.1,88,4,25.0,102.03,Cloudy,1.7696031643576697
12/3/2012 18:00,3.0,0.6,84,4,25.0,102.03,Cloudy,1.7732874650731383
12/3/2012 19:00,3.4,0.5,81,6,25.0,102.01,Cloudy,1.7652666906329564
12/3/2012 20:00,3.5,0.7,82,0,25.0,101.99,Cloudy,1.761832948665163
12/3/2012 21:00,3.1,1.2,87,6,25.0,101.99,Cloudy,1.755244623603565
12/3/2012 22:00,3.7,1.3,84,11,25.0,101.94,Cloudy,1.7569102640706424
12/3/2012 23:00,3.7,1.1,83,13,25.0,101.91,Cloudy,1.7632719584414687
12/4/2012 0:00,3.7,1.3,84,13,25.0,101.92,Cloudy,1.7621107017950162
12/4/2012 1:00,3.6,1.4,86,7,25.0,101.86,Cloudy,1.7717173608275145
12/4/2012 2:00,3.9,1.1,82,6,25.0,101.81,Mostly Cloudy,1.7685760029451763
12/4/2012 3:00,3.8,1.2,83,19,25.0,101.71,Cloudy,1.767460378483788
12/4/2012 4:00,3.1,1.3,88,20,25.0,101.56,Mainly Clear,1.7690084702182525
12/4/2012 5:00,2.9,1.5,90,13,25.0,101.52,Mostly Cloudy,1.768402562278434
12/4/2012 6:00,4.2,2.6,89,15,25.0,101.41,Cloudy,1.7658188246417843
12/4/2012 7:00,5.1,3.4,89,13,25.0,101.35,Cloudy,1.7720436293105553
12/4/2012 8:00,5.5,3.9,89,9,19.3,101.29,Rain Showers,1.7590894054480448
12/4/2012 9:00,5.9,4.8,93,11,19.3,101.23,Rain Showers,1.7663155381997573
12/4/2012 10:00,8.0,6.3,89,19,19.3,101.16,Mostly Cloudy,1.7590894054480448
12/4/2012 11:00,10.1,7.7,85,17,24.1,101.06,Cloudy,1.7507512632600475
12/4/2012 12:00,11.5,8.3,81,19,24.1,100.92,Mostly Cloudy,1.7408722768108806
12/4/2012 13:00,11.9,8.4,79,17,24.1,100.84,Cloudy,1.7357508862871274
12/4/2012 14:00,11.3,8.1,81,24,24.1,100.74,Cloudy,1.7408722768108806
12/4/2012 15:00,11.0,7.9,81,24,24.1,100.66,Cloudy,1.7408722768108806
12/4/2012 16:00,10.7,7.9,83,24,19.3,100.64,Cloudy,1.7459700090483987
12/4/2012 17:00,10.8,8.1,83,30,25.0,100.55,Cloudy,1.7459700090483987
12/4/2012 18:00,10.7,8.2,85,32,25.0,100.5,Cloudy,1.7507512632600475
12/4/2012 19:00,10.7,8.4,86,7,25.0,100.57,Rain Showers,1.7530322801745157
12/4/2012 20:00,9.9,9.1,95,15,12.9,100.53,Rain,1.768832975474038
12/4/2012 21:00,10.4,9.7,95,9,6.4,100.56,Rain,1.768832975474038
12/4/2012 22:00,9.8,9.3,97,6,12.9,100.57,Rain,1.7709745267585884
12/4/2012 23:00,9.7,9.1,96,19,9.7,100.63,Rain,1.7699087340766253
12/5/2012 0:00,9.5,8.0,90,19,12.9,100.56,Rain,1.7609487211792867
12/5/2012 1:00,9.0,7.3,89,30,16.1,100.45,Rain,1.7590894054480448
12/5/2012 2:00,8.7,7.1,90,24,16.1,100.5,Rain,1.7609487211792867
12/5/2012 3:00,7.8,6.7,93,24,9.7,100.53,Rain,1.7663155381997573
12/5/2012 4:00,7.2,4.8,85,15,25.0,100.55,Mainly Clear,1.7507512632600475
12/5/2012 5:00,6.6,4.1,84,17,25.0,100.62,Cloudy,1.7483983249034645
12/5/2012 6:00,5.7,2.7,81,24,25.0,100.68,Mostly Cloudy,1.7408722768108806
12/5/2012 7:00,5.2,0.4,71,30,25.0,100.74,Mostly Cloudy,1.7668700684287173
12/5/2012 8:00,4.2,-0.5,71,26,24.1,100.85,Cloudy,1.7537864674294195
12/5/2012 9:00,3.6,-1.5,69,26,24.1,100.95,Cloudy,1.7553426140452402
12/5/2012 10:00,2.1,-1.8,75,28,19.3,101.09,"Rain Showers,Snow Showers",1.7627586248097442
12/5/2012 11:00,2.2,-2.5,71,30,24.1,101.17,Snow Showers,1.7502282424200297
12/5/2012 12:00,1.1,-4.8,65,26,24.1,101.23,Snow Showers,1.7701467300703662
12/5/2012 13:00,1.3,-7.0,54,30,24.1,101.29,Mostly Cloudy,1.7732172746133799
12/5/2012 14:00,0.8,-6.7,57,35,24.1,101.34,Mostly Cloudy,1.7736895711334477
12/5/2012 15:00,0.1,-7.6,56,26,24.1,101.47,Mostly Cloudy,1.7712870521931985
12/5/2012 16:00,-0.4,-9.4,51,30,24.1,101.58,Cloudy,1.772834362802691
12/5/2012 17:00,-0.7,-8.3,56,30,25.0,101.66,Cloudy,1.753947469161794
12/5/2012 18:00,-0.8,-8.0,58,22,25.0,101.76,Mostly Cloudy,1.7606906001858653
12/5/2012 19:00,-1.0,-8.5,57,28,25.0,101.84,Snow,1.7506121485416333
12/5/2012 20:00,-1.4,-8.6,58,19,25.0,101.88,Mostly Cloudy,1.7467677003490845
12/5/2012 21:00,-1.9,-8.7,60,24,25.0,101.93,Mostly Cloudy,1.7371798341675946
12/5/2012 22:00,-1.6,-9.5,55,26,25.0,102.01,Mostly Cloudy,1.7479668946890543
12/5/2012 23:00,-1.8,-9.7,55,20,25.0,102.07,Mostly Cloudy,1.7582217832958555
12/6/2012 0:00,-2.1,-9.7,56,20,25.0,102.1,Mostly Cloudy,1.7569822638504218
12/6/2012 1:00,-2.3,-9.3,59,17,25.0,102.12,Mostly Cloudy,1.7332230321330024
12/6/2012 2:00,-2.9,-9.4,61,17,25.0,102.21,Mostly Cloudy,1.6984091172468543
12/6/2012 3:00,-3.4,-9.1,65,15,25.0,102.26,Mostly Cloudy,1.6963330536216685
12/6/2012 4:00,-3.9,-9.0,68,11,25.0,102.33,Mostly Cloudy,1.7273530517929374
12/6/2012 5:00,-5.2,-9.7,71,9,25.0,102.38,Mainly Clear,1.712430565280306
12/6/2012 6:00,-5.7,-9.7,73,13,25.0,102.45,Mainly Clear,1.7183246985066831
12/6/2012 7:00,-5.9,-10.0,73,11,24.1,102.47,Mainly Clear,1.718324698506683
12/6/2012 8:00,-4.6,-8.8,72,7,24.1,102.52,Mainly Clear,1.7281014015160243
12/6/2012 9:00,-3.4,-8.9,66,9,48.3,102.53,Mostly Cloudy,1.7295076623386827
12/6/2012 10:00,-2.6,-8.4,64,13,48.3,102.56,Mostly Cloudy,1.7382796938499465
12/6/2012 11:00,-1.8,-8.9,58,13,48.3,102.46,Mainly Clear,1.7694742604772575
12/6/2012 12:00,-1.8,-9.4,56,6,48.3,102.37,Mainly Clear,1.7575849487445672
12/6/2012 13:00,-1.0,-8.3,58,7,48.3,102.27,Mainly Clear,1.773578162164689
12/6/2012 14:00,-0.9,-8.7,55,13,48.3,102.21,Mainly Clear,1.7677307448741924
12/6/2012 15:00,-1.2,-7.9,60,11,48.3,102.18,Mainly Clear,1.772064646867412
12/6/2012 16:00,-2.8,-7.9,68,7,48.3,102.11,Mainly Clear,1.7699140877143245
12/6/2012 17:00,-2.8,-7.6,69,7,25.0,102.1,Mainly Clear,1.772766502286537
12/6/2012 18:00,-2.7,-6.8,73,13,25.0,102.06,Mostly Cloudy,1.759033060761595
12/6/2012 19:00,-2.8,-7.4,71,9,25.0,102.05,Mostly Cloudy,1.7631146556844592
12/6/2012 20:00,-1.9,-7.4,66,7,25.0,101.95,Mostly Cloudy,1.7654861871336505
12/6/2012 21:00,-1.7,-7.0,67,11,25.0,101.88,Cloudy,1.7726672485699102
12/6/2012 22:00,-1.4,-7.2,65,17,25.0,101.8,Cloudy,1.766826866353256
12/6/2012 23:00,-1.1,-6.0,69,7,25.0,101.73,Mostly Cloudy,1.7703709043113116
12/7/2012 0:00,-1.3,-5.9,71,13,25.0,101.67,Mostly Cloudy,1.7704375384237077
12/7/2012 1:00,-1.5,-5.7,73,7,25.0,101.58,Mostly Cloudy,1.7411646845239048
12/7/2012 2:00,-1.3,-5.3,74,9,25.0,101.51,Mainly Clear,1.7702722148030527
12/7/2012 3:00,-1.8,-5.3,77,9,25.0,101.46,Mainly Clear,1.7684106981169225
12/7/2012 4:00,-2.7,-5.7,80,11,25.0,101.38,Mostly Cloudy,1.7423656490998203
12/7/2012 5:00,-2.2,-5.5,78,11,25.0,101.3,Mostly Cloudy,1.7683483087433984
12/7/2012 6:00,-2.9,-5.5,82,7,25.0,101.27,Cloudy,1.767864330123768
12/7/2012 7:00,-2.8,-5.3,83,11,24.1,101.3,Mostly Cloudy,1.7734796163881457
12/7/2012 8:00,-3.3,-5.4,85,7,24.1,101.29,Cloudy,1.7721250507606057
12/7/2012 9:00,-2.1,-4.7,82,7,24.1,101.32,Mostly Cloudy,1.764702392654583
12/7/2012 10:00,1.2,-5.8,60,9,48.3,101.26,Mostly Cloudy,1.745195126596805
12/7/2012 11:00,2.6,-5.0,57,4,48.3,101.24,Mostly Cloudy,0.9774806032719253
12/7/2012 12:00,3.0,-5.0,56,4,24.1,101.2,Cloudy,1.0118744583799222
12/7/2012 13:00,3.7,-4.3,56,6,48.3,101.15,Cloudy,1.7197825062579049
12/7/2012 14:00,3.9,-4.3,55,11,48.3,101.09,Cloudy,1.7091865369525112
12/7/2012 15:00,3.9,-3.3,59,11,48.3,101.11,Cloudy,0.9967947009008318
12/7/2012 16:00,3.5,-3.8,59,9,24.1,101.13,Cloudy,1.7121373102753101
12/7/2012 17:00,2.8,-3.3,64,11,25.0,101.14,Cloudy,1.7277258604225554
12/7/2012 18:00,2.2,-3.5,66,7,25.0,101.13,Mostly Cloudy,1.7532901348438006
12/7/2012 19:00,2.2,-3.3,67,6,25.0,101.17,Cloudy,1.7363463178837186
12/7/2012 20:00,2.1,-3.1,68,4,25.0,101.18,Cloudy,1.761017741252683
12/7/2012 21:00,2.0,-3.1,69,6,25.0,101.18,Cloudy,1.7469079709407302
12/7/2012 22:00,2.3,-2.5,71,4,25.0,101.19,Cloudy,1.7625778382005899
12/7/2012 23:00,1.5,-2.2,76,4,19.3,101.22,Snow,1.7591550989070712
12/8/2012 0:00,1.8,-1.4,79,4,25.0,101.2,Snow,1.7595810068317015
12/8/2012 1:00,2.0,-1.3,79,6,25.0,101.17,Cloudy,1.7575801803482174
12/8/2012 2:00,2.0,-1.9,75,7,25.0,101.17,Cloudy,1.7535861087095894
12/8/2012 3:00,2.1,-1.5,77,6,25.0,101.18,Cloudy,1.7499477963000296
12/8/2012 4:00,2.5,-1.2,77,0,25.0,101.13,Cloudy,1.7401315423477923
12/8/2012 5:00,2.7,-1.0,77,9,25.0,101.07,Cloudy,1.7437995431907134
12/8/2012 6:00,2.4,0.3,86,9,25.0,101.05,Cloudy,1.7530322801745157
12/8/2012 7:00,2.3,1.0,91,6,8.0,101.09,Fog,1.762772169746578
12/8/2012 8:00,2.7,1.6,92,7,6.4,101.06,"Rain,Fog",1.7739611561236308
12/8/2012 9:00,2.7,1.8,94,11,4.8,100.98,"Rain,Fog",1.7693236901944738
12/8/2012 10:00,3.2,2.1,92,11,8.0,100.95,"Rain,Fog",1.764560779079539
12/8/2012 11:00,2.2,1.5,95,17,8.0,100.83,"Rain,Fog",1.768832975474038
12/8/2012 12:00,2.1,1.6,96,15,4.8,100.74,"Rain,Fog",1.7699087340766253
12/8/2012 13:00,1.9,1.3,96,17,3.6,100.59,"Rain,Fog",1.7699087340766253
12/8/2012 14:00,2.1,1.2,94,15,6.4,100.52,"Rain,Fog",1.7677471105115399
12/8/2012 15:00,2.0,1.0,93,17,4.8,100.48,"Rain,Fog",1.7690111680561904
12/8/2012 16:00,1.8,0.8,93,17,4.8,100.49,"Rain,Fog",1.76988196215064
12/8/2012 17:00,1.6,0.6,93,9,8.0,100.46,"Rain,Fog",1.7685570455259254
12/8/2012 18:00,1.1,0.5,96,9,6.4,100.54,"Rain,Fog",1.7699087340766253
12/8/2012 19:00,0.9,0.2,95,9,6.4,100.61,"Rain,Fog",1.768832975474038
12/8/2012 20:00,0.8,0.3,96,9,6.4,100.67,"Rain,Fog",1.7699087340766253
12/8/2012 21:00,0.8,0.3,96,9,6.4,100.73,"Rain,Snow,Fog",1.7699087340766253
12/8/2012 22:00,1.2,0.6,96,13,6.4,100.84,Fog,1.7699087340766253
12/8/2012 23:00,1.3,0.6,95,17,8.0,100.96,"Drizzle,Fog",1.768973392589462
12/9/2012 0:00,1.5,0.7,94,20,9.7,101.07,Fog,1.7677471105115399
12/9/2012 1:00,1.9,0.7,92,17,16.1,101.22,Cloudy,1.764560779079539
12/9/2012 2:00,1.8,0.1,88,17,19.3,101.37,Cloudy,1.7623695015346657
12/9/2012 3:00,1.5,-0.5,87,17,25.0,101.47,Mainly Clear,1.7708498083122972
12/9/2012 4:00,1.5,-0.3,88,13,25.0,101.59,Mostly Cloudy,1.768962597329493
12/9/2012 5:00,1.1,-0.9,86,15,25.0,101.72,Cloudy,1.7680820985730268
12/9/2012 6:00,0.8,-1.5,85,11,25.0,101.84,Cloudy,1.772046256717128
12/9/2012 7:00,0.2,-2.3,83,20,24.1,102.02,Cloudy,1.772237893944232
12/9/2012 8:00,-0.5,-2.9,84,11,24.1,102.16,Cloudy,1.7694178196617794
12/9/2012 9:00,-0.9,-3.9,80,20,24.1,102.24,Cloudy,1.7717726816497923
12/9/2012 10:00,-1.5,-4.5,80,20,24.1,102.35,Cloudy,1.76461390952887
12/9/2012 11:00,-1.7,-4.8,79,17,24.1,102.35,Cloudy,1.754356698927311
12/9/2012 12:00,-1.9,-5.1,79,17,12.9,102.32,Snow Showers,1.76018151921958
12/9/2012 13:00,-2.3,-5.4,79,9,24.1,102.28,Cloudy,1.7567035666831152
12/9/2012 14:00,-1.9,-5.1,79,7,24.1,102.28,Cloudy,1.7576612109575813
12/9/2012 15:00,-1.9,-4.9,80,6,24.1,102.33,Cloudy,1.753773497836618
12/9/2012 16:00,-1.6,-5.2,76,4,24.1,102.31,Cloudy,1.7360133811670921
12/9/2012 17:00,-1.2,-5.7,71,15,25.0,102.31,Cloudy,1.739319233921707
12/9/2012 18:00,-1.4,-5.9,71,19,25.0,102.25,Cloudy,1.7189114247794326
12/9/2012 19:00,-1.7,-6.2,71,22,24.1,102.22,Cloudy,1.7544779199608984
12/9/2012 20:00,-2.2,-7.2,69,28,25.0,102.11,Cloudy,1.7429256789819276
12/9/2012 21:00,-2.4,-6.5,73,20,25.0,101.91,Cloudy,1.7617280087680418
12/9/2012 22:00,-3.0,-8.2,67,28,25.0,101.78,Cloudy,1.7404366055170366
12/9/2012 23:00,-3.6,-8.6,68,32,25.0,101.64,Cloudy,1.7268303420663886
12/10/2012 0:00,-3.9,-8.1,73,20,25.0,101.54,Cloudy,1.7723191767032835
12/10/2012 1:00,-5.0,-6.2,91,32,1.6,101.31,Snow,1.762772169746578
12/10/2012 2:00,-4.7,-6.2,89,33,4.0,101.1,Snow,1.7590894054480448
12/10/2012 3:00,-4.3,-5.9,89,33,2.8,100.96,"Snow,Ice Pellets",1.7590894054480448
12/10/2012 4:00,-3.3,-4.4,92,28,3.6,100.73,"Freezing Drizzle,Fog",1.764560779079539
12/10/2012 5:00,-1.9,-2.8,94,33,4.0,100.55,"Freezing Drizzle,Fog",1.7687897358613291
12/10/2012 6:00,0.1,-0.9,93,22,8.0,100.3,"Freezing Rain,Fog",1.7663155381997573
12/10/2012 7:00,1.0,0.0,93,19,8.0,100.09,"Rain,Fog",1.7663155381997573
12/10/2012 8:00,1.7,0.8,94,17,6.4,99.98,"Moderate Rain,Fog",1.7677471105115399
12/10/2012 9:00,2.2,1.5,95,19,6.4,99.78,"Rain,Fog",1.768832975474038
12/10/2012 10:00,2.2,1.6,96,17,2.4,99.7,"Rain,Fog",1.771670141301167
12/10/2012 11:00,1.9,1.5,97,15,3.2,99.6,"Rain,Fog",1.7709745267585884
12/10/2012 12:00,1.4,0.8,96,15,4.8,99.44,"Drizzle,Fog",1.7706159272938913
12/10/2012 13:00,0.6,0.3,98,19,2.4,99.34,"Rain,Fog",1.7724449194800636
12/10/2012 14:00,0.1,-0.2,98,15,2.4,99.32,"Rain,Fog",1.7726881512940562
12/10/2012 15:00,0.0,-0.5,96,9,4.0,99.34,"Drizzle,Fog",1.773471832804906
12/10/2012 16:00,0.0,-0.5,96,6,4.0,99.41,"Rain,Fog",1.7699087340766253
12/10/2012 17:00,0.1,-0.3,97,4,4.8,99.42,"Rain,Fog",1.771817445538393
12/10/2012 18:00,1.5,1.1,97,15,12.9,99.57,Cloudy,1.7709745267585884
12/10/2012 19:00,2.6,0.9,89,22,25.0,99.54,Cloudy,1.7640767792274508
12/10/2012 20:00,2.5,-0.5,81,24,25.0,99.58,Cloudy,1.7674220940460894
12/10/2012 21:00,2.2,-1.3,78,24,25.0,99.63,Cloudy,1.7621470676257414
12/10/2012 22:00,1.7,-1.3,80,20,25.0,99.73,Cloudy,1.7654554890292717
12/10/2012 23:00,1.2,-2.1,79,20,25.0,99.78,Mostly Cloudy,1.7646050565683158
12/11/2012 0:00,0.7,-2.7,78,17,25.0,99.89,Cloudy,1.7649011711957237
12/11/2012 1:00,0.0,-3.6,77,28,25.0,99.99,Cloudy,1.7672441796124663
12/11/2012 2:00,-1.1,-5.2,74,22,25.0,100.09,Mostly Cloudy,1.76350965629724
12/11/2012 3:00,-2.5,-6.0,77,24,25.0,100.27,Mostly Cloudy,1.7688248692786142
12/11/2012 4:00,-4.5,-8.0,76,20,25.0,100.38,Mainly Clear,1.7712658909835401
12/11/2012 5:00,-5.9,-9.6,75,17,25.0,100.51,Mainly Clear,1.7241591468416737
12/11/2012 6:00,-7.3,-10.3,79,15,25.0,100.62,Mainly Clear,1.773458858977414
12/11/2012 7:00,-8.0,-11.5,76,15,24.1,100.78,Mainly Clear,1.767659800452474
12/11/2012 8:00,-8.4,-12.0,75,17,24.1,100.91,Mainly Clear,1.773572977682557
12/11/2012 9:00,-7.9,-12.0,72,19,24.1,101.03,Mainly Clear,1.7679378726818644
12/11/2012 10:00,-7.1,-12.0,68,9,24.1,101.12,Mainly Clear,1.7696675622532625
12/11/2012 11:00,-6.6,-12.2,64,7,24.1,101.1,Mainly Clear,1.721801621784699
12/11/2012 12:00,-6.1,-12.4,61,11,24.1,101.13,Mainly Clear,1.7637020612988508
12/11/2012 13:00,-5.5,-11.1,65,17,24.1,101.18,Mainly Clear,1.7702828880285348
12/11/2012 14:00,-5.2,-11.0,64,17,24.1,101.21,Mainly Clear,1.7721670519817387
12/11/2012 15:00,-5.7,-11.5,64,13,24.1,101.29,Clear,1.77106996400192
12/11/2012 16:00,-6.1,-11.6,65,15,24.1,101.35,Clear,1.773409544876886
12/11/2012 17:00,-6.8,-11.7,68,11,24.1,101.45,Clear,1.7740399229687203
12/11/2012 18:00,-6.9,-11.5,70,13,25.0,101.51,Clear,1.7731288247782266
12/11/2012 19:00,-7.9,-11.0,78,13,25.0,101.6,Clear,1.733057876440812
12/11/2012 20:00,-7.9,-11.3,77,15,25.0,101.68,Clear,1.7302348458823897
12/11/2012 21:00,-8.7,-11.6,79,9,25.0,101.74,Clear,1.7390643192927335
12/11/2012 22:00,-9.1,-11.4,83,6,25.0,101.78,Clear,1.757748837802967
12/11/2012 23:00,-8.3,-11.2,80,9,25.0,101.84,Clear,1.7383226557949913
12/12/2012 0:00,-9.2,-11.6,83,7,25.0,101.87,Clear,1.7459700090483987
12/12/2012 1:00,-9.4,-11.5,85,7,25.0,101.91,Clear,1.7507512632600475
12/12/2012 2:00,-10.3,-12.0,87,4,25.0,101.96,Clear,1.755244623603565
12/12/2012 3:00,-9.6,-11.3,87,4,25.0,102.0,Clear,1.755244623603565
12/12/2012 4:00,-10.1,-11.6,89,6,25.0,102.04,Clear,1.7590894054480448
12/12/2012 5:00,-10.3,-11.7,89,4,25.0,102.06,Clear,1.7590894054480448
12/12/2012 6:00,-9.5,-11.3,87,4,25.0,102.1,Clear,1.755244623603565
12/12/2012 7:00,-11.2,-12.4,91,4,24.1,102.19,Mainly Clear,1.762772169746578
12/12/2012 8:00,-7.3,-9.2,86,11,24.1,102.14,Mostly Cloudy,1.7712791171984328
12/12/2012 9:00,-6.1,-9.0,80,4,24.1,102.21,Snow Showers,1.7383226557949913
12/12/2012 10:00,-4.7,-7.6,80,9,24.1,102.2,Snow Showers,1.7486607733950255
12/12/2012 11:00,-3.7,-6.8,79,7,19.3,102.15,Cloudy,1.7565751597946353
12/12/2012 12:00,-2.7,-6.5,75,7,19.3,102.14,Mostly Cloudy,1.7611908363612598
12/12/2012 13:00,-3.0,-6.7,76,6,19.3,102.14,Mainly Clear,1.752525151322917
12/12/2012 14:00,-2.9,-6.5,76,7,16.1,102.16,Cloudy,1.7630666630898164
12/12/2012 15:00,-3.2,-6.7,77,6,19.3,102.17,Mostly Cloudy,1.7635932297425454
12/12/2012 16:00,-2.8,-6.2,77,4,12.9,102.2,Mostly Cloudy,1.7577850082042048
12/12/2012 17:00,-3.2,-6.0,81,7,9.7,102.25,Snow Showers,1.7563371567493888
12/12/2012 18:00,-3.6,-5.7,85,7,12.9,102.28,Snow Showers,1.7507512632600475
12/12/2012 19:00,-4.0,-6.1,85,11,12.9,102.3,Cloudy,1.751305140788027
12/12/2012 20:00,-4.4,-6.4,86,7,16.1,102.36,Snow Showers,1.7530322801745157
12/12/2012 21:00,-3.9,-5.9,86,6,16.1,102.37,Snow Showers,1.7530322801745157
12/12/2012 22:00,-3.8,-5.6,87,4,11.3,102.4,Snow Showers,1.755244623603565
12/12/2012 23:00,-4.3,-5.8,89,4,16.1,102.45,Mainly Clear,1.7590894054480448
12/13/2012 0:00,-6.1,-7.4,90,6,12.9,102.44,Clear,1.7609487211792867
12/13/2012 1:00,-4.3,-5.3,93,11,12.9,102.49,Clear,1.7663155381997573
12/13/2012 2:00,-5.9,-6.6,95,6,11.3,102.57,Clear,1.768832975474038
12/13/2012 3:00,-6.1,-7.0,93,11,11.3,102.61,Clear,1.7663155381997573
12/13/2012 4:00,-5.4,-6.2,94,6,8.0,102.61,Fog,1.7677471105115399
12/13/2012 5:00,-6.0,-6.8,94,4,9.7,102.63,Fog,1.7677471105115399
12/13/2012 6:00,-6.4,-7.5,92,4,9.7,102.66,Fog,1.764560779079539
12/13/2012 7:00,-6.1,-7.4,90,4,9.7,102.69,Fog,1.7609487211792867
12/13/2012 8:00,-6.0,-7.1,92,4,8.0,102.67,Fog,1.764560779079539
12/13/2012 9:00,-4.7,-6.0,91,4,8.0,102.68,Fog,1.762772169746578
12/13/2012 10:00,-2.3,-4.2,87,4,6.4,102.64,Fog,1.755244623603565
12/13/2012 11:00,-0.7,-3.1,84,9,9.7,102.55,Haze,1.7483983249034645
12/13/2012 12:00,-0.4,-2.9,83,9,9.7,102.46,Haze,1.7461302110324153
12/13/2012 13:00,0.1,-2.5,83,9,12.9,102.36,Cloudy,1.7633392928750036
12/13/2012 14:00,1.1,-2.1,79,11,19.3,102.28,Mostly Cloudy,1.7707036886019307
12/13/2012 15:00,2.1,-1.9,75,7,19.3,102.25,Mainly Clear,1.7725234382100274
12/13/2012 16:00,1.3,-2.1,78,9,19.3,102.21,Mainly Clear,1.7739379029540616
12/13/2012 17:00,1.4,-1.8,79,19,25.0,102.1,Mainly Clear,1.7674029470995982
12/13/2012 18:00,1.1,-2.0,80,19,25.0,102.01,Mostly Cloudy,1.7699301471327409
12/13/2012 19:00,1.7,-2.5,74,15,25.0,101.99,Mainly Clear,1.7700425003215166
12/13/2012 20:00,0.4,-2.5,81,11,25.0,101.98,Mainly Clear,1.7649496966556275
12/13/2012 21:00,0.6,-2.3,81,15,25.0,101.9,Mostly Cloudy,1.7685543370696337
12/13/2012 22:00,0.2,-2.5,82,15,25.0,101.84,Cloudy,1.770602624265165
12/13/2012 23:00,0.7,-2.3,80,17,25.0,101.77,Cloudy,1.7707579074666635
12/14/2012 0:00,0.8,-2.6,78,15,25.0,101.71,Cloudy,1.7721513033383622
12/14/2012 1:00,0.0,-3.0,80,17,25.0,101.62,Mostly Cloudy,1.7670857734848975
12/14/2012 2:00,-0.6,-3.2,83,15,25.0,101.59,Cloudy,1.7702001445809061
12/14/2012 3:00,-0.8,-3.4,83,15,25.0,101.51,Cloudy,1.7677089204363245
12/14/2012 4:00,-0.2,-3.5,78,20,25.0,101.44,Mostly Cloudy,1.764303551999925
12/14/2012 5:00,0.3,-3.3,77,11,25.0,101.4,Cloudy,1.7669477808319012
12/14/2012 6:00,0.5,-3.5,75,15,25.0,101.36,Cloudy,1.726107521226481
12/14/2012 7:00,2.0,-3.6,66,20,48.3,101.3,Mainly Clear,1.7631551302723087
12/14/2012 8:00,1.5,-3.5,69,13,48.3,101.32,Mostly Cloudy,1.762835353549402
12/14/2012 9:00,2.3,-3.1,67,26,48.3,101.32,Mostly Cloudy,1.7701200135022914
12/14/2012 10:00,2.8,-2.4,69,22,24.1,101.34,Cloudy,1.7566939420805836
12/14/2012 11:00,2.6,-2.0,72,22,24.1,101.35,Rain Showers,1.7587319931783414
12/14/2012 12:00,2.8,-1.5,73,17,24.1,101.33,Cloudy,1.7558642432566967
12/14/2012 13:00,3.3,-1.2,72,22,24.1,101.33,Mostly Cloudy,1.7656745373721106
12/14/2012 14:00,3.2,-1.1,73,19,24.1,101.38,Mostly Cloudy,1.7449767604174922
12/14/2012 15:00,3.0,-1.0,75,15,24.1,101.44,Cloudy,1.7579133983221005
12/14/2012 16:00,2.8,-1.0,76,17,24.1,101.53,Mostly Cloudy,1.767978709527268
12/14/2012 17:00,2.5,-0.6,80,13,25.0,101.61,Mostly Cloudy,1.760468791959279
12/14/2012 18:00,2.3,-1.3,77,17,25.0,101.7,Cloudy,1.7712156174133709
12/14/2012 19:00,1.8,-3.6,67,19,25.0,101.76,Mostly Cloudy,1.750018006246313
12/14/2012 20:00,0.8,-4.7,67,15,25.0,101.85,Mostly Cloudy,1.7700451740599947
12/14/2012 21:00,-1.5,-6.4,69,22,25.0,101.96,Mainly Clear,1.738259773445598
12/14/2012 22:00,-2.9,-7.4,71,20,25.0,102.06,Mainly Clear,1.7576230874090564
12/14/2012 23:00,-4.3,-8.6,72,22,25.0,102.13,Mainly Clear,1.7563178335323402
12/15/2012 0:00,-5.3,-10.5,67,20,25.0,102.18,Clear,1.7279664727601123
12/15/2012 1:00,-6.5,-11.4,68,17,25.0,102.27,Clear,1.7034416166632185
12/15/2012 2:00,-7.1,-11.8,69,19,25.0,102.36,Clear,1.7056195602958193
12/15/2012 3:00,-8.0,-13.2,66,17,25.0,102.41,Clear,1.6960165533823464
12/15/2012 4:00,-8.5,-13.8,66,15,25.0,102.42,Clear,1.6960165533823464
12/15/2012 5:00,-9.3,-14.2,67,20,25.0,102.47,Clear,1.698763522260988
12/15/2012 6:00,-9.9,-14.5,69,17,25.0,102.58,Clear,1.7056195602958193
12/15/2012 7:00,-10.2,-15.1,67,19,48.3,102.63,Clear,1.698763522260988
12/15/2012 8:00,-10.7,-15.6,67,13,48.3,102.69,Clear,1.698763522260988
12/15/2012 9:00,-10.4,-15.9,64,19,48.3,102.74,Clear,1.6895328361301014
12/15/2012 10:00,-9.9,-15.2,65,13,48.3,102.78,Mainly Clear,1.6929583486014415
12/15/2012 11:00,-9.3,-14.9,64,19,48.3,102.74,Mainly Clear,1.6895328361301014
12/15/2012 12:00,-9.1,-15.1,62,19,48.3,102.71,Mainly Clear,1.681279062923068
12/15/2012 13:00,-8.4,-14.7,60,19,48.3,102.64,Clear,1.6747229916897506
12/15/2012 14:00,-8.0,-14.2,61,13,48.3,102.59,Mainly Clear,1.6768881290465567
12/15/2012 15:00,-7.8,-13.7,63,15,48.3,102.55,Mainly Clear,1.7421079019906045
12/15/2012 16:00,-8.5,-14.8,60,20,48.3,102.54,Mainly Clear,1.6747229916897506
12/15/2012 17:00,-8.7,-15.3,59,15,25.0,102.53,Mainly Clear,1.6874091377029796
12/15/2012 18:00,-9.1,-15.1,62,17,25.0,102.54,Clear,1.681279062923068
12/15/2012 19:00,-9.1,-14.7,64,20,25.0,102.58,Mainly Clear,1.6895328361301014
12/15/2012 20:00,-8.7,-15.1,60,20,25.0,102.5,Clear,1.682090161580336
12/15/2012 21:00,-9.0,-15.5,59,24,25.0,102.46,Mainly Clear,1.672110259985864
12/15/2012 22:00,-9.5,-15.0,64,19,25.0,102.47,Mostly Cloudy,1.6895328361301014
12/15/2012 23:00,-9.9,-15.0,66,26,25.0,102.38,Cloudy,1.6960165533823464
12/16/2012 0:00,-10.0,-14.9,67,24,25.0,102.31,Cloudy,1.698763522260988
12/16/2012 1:00,-10.1,-14.8,68,24,25.0,102.27,Cloudy,1.7018006700167505
12/16/2012 2:00,-10.1,-14.6,70,28,25.0,102.17,Cloudy,1.7091525423728813
12/16/2012 3:00,-10.1,-14.5,70,28,25.0,102.15,Cloudy,1.7091525423728813
12/16/2012 4:00,-10.1,-14.5,70,24,25.0,102.08,Cloudy,1.7091525423728813
12/16/2012 5:00,-10.0,-14.4,70,22,25.0,102.0,Cloudy,1.7091525423728813
12/16/2012 6:00,-9.9,-14.6,68,35,25.0,101.93,Cloudy,1.72740861307585
12/16/2012 7:00,-9.8,-14.9,66,32,25.0,101.89,Cloudy,1.6960165533823464
12/16/2012 8:00,-9.5,-14.8,65,32,48.3,101.85,Cloudy,1.746572113119285
12/16/2012 9:00,-9.4,-14.7,65,33,19.3,101.82,Snow,1.6929583486014415
12/16/2012 10:00,-7.7,-13.8,62,32,24.1,101.8,Cloudy,1.6877188591962105
12/16/2012 11:00,-8.2,-13.9,63,35,24.1,101.71,Snow,1.6856696145686971
12/16/2012 12:00,-8.5,-12.2,75,32,4.8,101.62,Snow,1.7241591468416737
12/16/2012 13:00,-8.0,-11.2,78,26,12.9,101.54,Snow,1.733057876440812
12/16/2012 14:00,-7.7,-10.2,82,32,4.8,101.45,Snow,1.7434626346010758
12/16/2012 15:00,-7.6,-9.4,87,32,3.2,101.38,"Snow,Fog",1.755244623603565
12/16/2012 16:00,-7.0,-8.7,88,35,4.0,101.33,"Snow,Fog",1.7571931537828946
12/16/2012 17:00,-6.4,-8.0,88,30,4.8,101.28,"Snow,Fog",1.7571931537828946
12/16/2012 18:00,-5.9,-7.4,89,30,4.0,101.25,"Snow,Fog",1.7590894054480448
12/16/2012 19:00,-5.1,-6.6,89,22,16.1,101.2,Snow,1.7590894054480448
12/16/2012 20:00,-4.7,-6.0,91,28,12.9,101.18,Snow,1.762772169746578
12/16/2012 21:00,-4.0,-5.4,90,24,16.1,101.17,Snow,1.7731444385857569
12/16/2012 22:00,-3.6,-4.7,92,22,9.7,101.12,Snow,1.7656964136094286
12/16/2012 23:00,-3.1,-4.2,92,24,12.9,101.09,Cloudy,1.7725652927138833
12/17/2012 0:00,-2.3,-3.3,93,24,12.9,101.02,Freezing Drizzle,1.7725025051807466
12/17/2012 1:00,-2.3,-3.3,93,26,9.7,101.01,"Freezing Rain,Fog",1.7710858624766876
12/17/2012 2:00,-2.2,-3.3,92,24,11.3,101.0,Freezing Rain,1.769286016885463
12/17/2012 3:00,-2.6,-3.7,92,28,8.0,100.95,"Freezing Rain,Ice Pellets,Fog",1.764560779079539
12/17/2012 4:00,-3.0,-4.1,92,24,6.4,100.91,"Snow,Ice Pellets",1.772460627562162
12/17/2012 5:00,-3.0,-4.2,91,24,8.0,100.89,"Snow,Ice Pellets",1.7736274029063237
12/17/2012 6:00,-2.1,-3.2,92,19,8.0,100.88,"Snow,Ice Pellets",1.7726567957661699
12/17/2012 7:00,-0.3,-1.3,93,13,12.9,100.88,Cloudy,1.7663155381997573
12/17/2012 8:00,0.3,-0.5,94,20,3.2,100.84,"Drizzle,Fog",1.7731314272287368
12/17/2012 9:00,0.4,-0.7,92,20,4.0,100.79,"Drizzle,Ice Pellets,Fog",1.772421353289992
12/17/2012 10:00,0.5,-0.8,91,20,3.6,100.78,"Snow,Fog",1.7711917959028427
12/17/2012 11:00,0.4,-0.4,94,19,1.6,100.76,"Snow,Fog",1.7709241250145924
12/17/2012 12:00,0.4,-0.3,95,22,2.0,100.71,"Snow,Fog",1.7727430026607265
12/17/2012 13:00,0.6,-0.1,95,17,4.8,100.66,"Snow,Fog",1.7692967819436283
12/17/2012 14:00,0.8,0.1,95,19,4.0,100.65,"Snow,Fog",1.7689895835880096
12/17/2012 15:00,0.9,0.2,95,19,11.3,100.63,"Drizzle,Snow",1.768832975474038
12/17/2012 16:00,1.3,0.4,94,15,12.9,100.62,Drizzle,1.7677471105115399
12/17/2012 17:00,1.9,0.7,92,17,16.1,100.57,Cloudy,1.764560779079539
12/17/2012 18:00,2.0,0.6,90,19,16.1,100.61,Drizzle,1.7632135626248369
12/17/2012 19:00,2.1,0.4,88,15,16.1,100.63,Drizzle,1.7571931537828946
12/17/2012 20:00,2.3,0.5,88,19,16.1,100.64,Drizzle,1.760685984476566
12/17/2012 21:00,1.7,0.3,90,20,16.1,100.58,Cloudy,1.7609487211792867
12/17/2012 22:00,1.9,0.1,88,13,19.3,100.56,Cloudy,1.7571931537828946
12/17/2012 23:00,1.2,-0.1,91,20,16.1,100.5,Cloudy,1.762772169746578
12/18/2012 0:00,0.6,-0.5,92,19,16.1,100.44,Cloudy,1.764560779079539
12/18/2012 1:00,0.1,-0.9,93,24,19.3,100.37,Cloudy,1.7663155381997573
12/18/2012 2:00,0.4,-0.9,91,24,19.3,100.32,Cloudy,1.762772169746578
12/18/2012 3:00,0.4,-0.9,91,24,16.1,100.24,Rain,1.762772169746578
12/18/2012 4:00,0.5,-0.8,91,24,11.3,100.15,Rain,1.7685407938372504
12/18/2012 5:00,0.6,-0.6,92,24,9.7,100.12,"Rain,Ice Pellets",1.77011199732074
12/18/2012 6:00,0.5,-0.4,94,24,3.6,100.07,Snow,1.7708949349168077
12/18/2012 7:00,0.5,-0.2,95,24,3.2,100.0,Snow,1.7723244187600868
12/18/2012 8:00,0.7,0.0,95,24,2.8,99.92,Snow,1.772471098412144
12/18/2012 9:00,0.7,0.1,96,22,2.0,99.88,Snow,1.7722877192926014
12/18/2012 10:00,0.6,0.0,96,24,1.2,99.86,Snow,1.7728943594820246
12/18/2012 11:00,0.5,-0.2,95,22,1.2,99.76,Snow,1.7731444385857569
12/18/2012 12:00,0.8,0.0,94,32,4.8,99.64,Snow,1.7720804074918461
12/18/2012 13:00,1.0,0.0,93,26,4.0,99.56,Snow,1.7722719873273116
12/18/2012 14:00,1.0,0.2,94,24,4.0,99.53,Snow,1.7705351985316813
12/18/2012 15:00,1.1,0.2,94,22,4.8,99.51,Snow,1.7705414104537933
12/18/2012 16:00,1.1,0.1,93,26,8.0,99.48,"Rain,Snow",1.7663155381997573
12/18/2012 17:00,1.2,0.3,94,22,8.0,99.48,"Rain,Snow",1.770021108175133
12/18/2012 18:00,1.4,0.5,94,22,8.0,99.49,"Rain,Snow",1.7698444709861316
12/18/2012 19:00,1.4,0.7,95,15,8.0,99.53,Rain,1.768832975474038
12/18/2012 20:00,1.3,0.7,96,15,6.4,99.54,Drizzle,1.7699087340766253
12/18/2012 21:00,1.0,0.6,97,13,3.2,99.58,"Drizzle,Snow,Fog",1.7714294357944937
12/18/2012 22:00,0.8,0.4,97,15,3.2,99.6,"Drizzle,Snow,Fog",1.7709745267585884
12/18/2012 23:00,0.8,0.5,98,11,3.2,99.64,"Drizzle,Snow,Fog",1.7720304913691292
12/19/2012 0:00,0.6,0.2,97,9,4.0,99.65,"Drizzle,Snow,Fog",1.772258001533177
12/19/2012 1:00,0.5,0.1,97,7,6.4,99.71,"Drizzle,Snow,Fog",1.7709745267585884
12/19/2012 2:00,0.4,0.1,98,7,8.0,99.78,"Drizzle,Snow,Fog",1.7720304913691292
12/19/2012 3:00,0.4,0.0,97,9,4.8,99.82,"Drizzle,Snow,Fog",1.7709745267585884
12/19/2012 4:00,0.4,0.0,97,11,4.0,99.87,"Drizzle,Snow,Fog",1.7721976681125358
12/19/2012 5:00,0.3,-0.1,97,11,3.2,99.95,"Drizzle,Snow,Fog",1.7709745267585884
12/19/2012 6:00,0.4,-0.1,96,9,2.4,100.05,"Drizzle,Snow,Fog",1.7710275572708185
12/19/2012 7:00,0.4,0.0,97,11,3.2,100.15,"Drizzle,Snow,Fog",1.7709745267585884
12/19/2012 8:00,0.5,0.1,97,11,2.4,100.24,"Drizzle,Fog",1.7731027969888928
12/19/2012 9:00,0.6,0.2,97,13,2.4,100.33,"Drizzle,Fog",1.7716488312125938
12/19/2012 10:00,0.6,0.2,97,15,2.4,100.42,"Drizzle,Fog",1.7709745267585884
12/19/2012 11:00,0.8,0.2,96,11,9.7,100.44,Fog,1.7699087340766253
12/19/2012 12:00,0.8,0.0,94,17,19.3,100.53,Cloudy,1.7677471105115399
12/19/2012 13:00,1.0,-0.2,92,11,24.1,100.61,Cloudy,1.764560779079539
12/19/2012 14:00,1.1,-0.1,92,13,24.1,100.72,Cloudy,1.764560779079539
12/19/2012 15:00,1.3,-0.1,90,9,24.1,100.83,Drizzle,1.7609487211792867
12/19/2012 16:00,1.3,-0.4,88,7,24.1,100.96,Cloudy,1.7571931537828946
12/19/2012 17:00,1.1,-0.2,91,6,16.1,101.04,Drizzle,1.762772169746578
12/19/2012 18:00,1.2,0.1,92,9,9.7,101.15,"Drizzle,Snow",1.7734121408911097
12/19/2012 19:00,0.8,0.3,96,11,4.8,101.26,"Snow,Fog",1.7701333725626218
12/19/2012 20:00,0.7,0.1,96,11,6.4,101.32,"Snow,Fog",1.7699087340766253
12/19/2012 21:00,0.6,-0.1,95,13,11.3,101.38,Snow,1.768832975474038
12/19/2012 22:00,0.6,-0.5,92,9,25.0,101.42,Cloudy,1.7665758918011691
12/19/2012 23:00,0.6,-0.9,90,13,25.0,101.5,Snow,1.7709400437512308
12/20/2012 0:00,0.4,-2.1,83,20,25.0,101.57,Snow,1.7712553089102192
12/20/2012 1:00,0.1,-2.2,84,17,25.0,101.6,Cloudy,1.7726698616206593
12/20/2012 2:00,-0.2,-2.4,85,19,25.0,101.68,Cloudy,1.773464048686737
12/20/2012 3:00,-0.5,-2.9,84,17,25.0,101.69,Cloudy,1.7707036886019307
12/20/2012 4:00,-0.7,-3.4,82,15,25.0,101.72,Cloudy,1.7730168628961724
12/20/2012 5:00,-1.1,-3.9,81,13,25.0,101.78,Cloudy,1.7696364410992749
12/20/2012 6:00,-1.6,-4.2,82,15,25.0,101.82,Snow,1.770184122834602
12/20/2012 7:00,-1.8,-4.9,79,20,25.0,101.88,Cloudy,1.7562985064588572
12/20/2012 8:00,-1.9,-4.6,82,15,24.1,101.91,Cloudy,1.770469509063287
12/20/2012 9:00,-1.7,-4.5,81,13,24.1,101.98,Cloudy,1.7715406816438228
12/20/2012 10:00,-1.4,-4.2,81,7,24.1,101.97,Cloudy,1.7688329754740377
12/20/2012 11:00,-1.1,-4.0,81,4,24.1,101.92,Snow,1.757087766452389
12/20/2012 12:00,-1.0,-3.9,81,6,24.1,101.83,Cloudy,1.7697211996730184
12/20/2012 13:00,-0.9,-4.0,79,15,24.1,101.65,Cloudy,1.7711600261711022
12/20/2012 14:00,-1.0,-4.3,78,15,24.1,101.62,Cloudy,1.7739120604872196
12/20/2012 15:00,-0.5,-3.8,78,13,24.1,101.55,Cloudy,1.7710381604264083
12/20/2012 16:00,-0.3,-3.3,80,13,24.1,101.56,Cloudy,1.7592676111426104
12/20/2012 17:00,-0.3,-3.2,81,19,25.0,101.38,Mostly Cloudy,1.7548403753489406
12/20/2012 18:00,0.2,-3.0,79,19,25.0,101.25,Mostly Cloudy,1.7357508862871274
12/20/2012 19:00,0.3,-2.7,80,17,25.0,101.23,Mostly Cloudy,1.773003836900347
12/20/2012 20:00,0.1,-2.4,83,20,25.0,101.12,Mostly Cloudy,1.7695064999679622
12/20/2012 21:00,0.7,-2.3,80,22,25.0,101.0,Cloudy,1.7716910081516077
12/20/2012 22:00,1.1,-2.4,77,20,25.0,100.88,Cloudy,1.7323297933829305
12/20/2012 23:00,1.2,-2.1,79,28,25.0,100.69,Cloudy,1.7435390430076094
12/21/2012 0:00,1.9,-2.1,75,26,25.0,100.6,"Rain,Snow Grains",1.7241591468416737
12/21/2012 1:00,1.1,-0.7,88,17,6.4,100.47,"Rain,Snow,Ice Pellets",1.7571931537828946
12/21/2012 2:00,1.0,-0.3,91,20,6.4,100.35,"Rain,Snow",1.7632450110638795
12/21/2012 3:00,0.9,0.0,94,28,4.8,100.12,"Rain,Snow,Ice Pellets",1.7721906708652448
12/21/2012 4:00,1.1,-0.1,92,22,6.4,99.98,"Rain,Snow,Ice Pellets",1.7682098471091656
12/21/2012 5:00,1.3,0.1,92,26,6.4,99.85,"Rain,Snow,Ice Pellets",1.764560779079539
12/21/2012 6:00,1.0,0.0,93,22,4.0,99.76,"Rain,Snow",1.7663155381997573
12/21/2012 7:00,0.9,-0.1,93,32,6.4,99.64,"Rain,Snow",1.7663155381997573
12/21/2012 8:00,0.8,-0.2,93,32,2.4,99.5,"Rain,Snow",1.772803047601611
12/21/2012 9:00,0.8,-0.2,93,33,2.4,99.38,"Rain,Snow",1.7724030206561532
12/21/2012 10:00,1.0,0.0,93,32,12.9,99.24,Snow,1.7663155381997573
12/21/2012 11:00,0.9,0.0,94,30,2.0,99.01,Snow,1.7729829921970182
12/21/2012 12:00,1.3,0.3,93,41,9.7,98.67,Snow,1.7665065363661296
12/21/2012 13:00,1.8,0.3,90,41,19.3,98.36,Snow,1.7611004988463819
12/21/2012 14:00,2.1,0.4,88,41,19.3,98.16,Rain,1.7608335756220517
12/21/2012 15:00,1.8,0.2,89,33,12.9,98.1,Rain,1.7693129276474022
12/21/2012 16:00,1.4,0.2,92,43,9.7,97.93,Rain,1.7693236901944738
12/21/2012 17:00,1.3,0.2,92,46,12.9,97.76,Rain,1.769815005071433
12/21/2012 18:00,1.4,0.3,92,46,25.0,97.56,Rain,1.764560779079539
12/21/2012 19:00,2.3,1.1,92,37,11.3,97.52,Rain,1.7686653318216485
12/21/2012 20:00,2.4,1.7,95,15,9.7,97.58,Rain,1.768832975474038
12/21/2012 21:00,1.3,0.4,94,22,9.7,97.64,Rain,1.7677471105115399
12/21/2012 22:00,0.7,0.0,95,28,3.6,97.75,Snow,1.772706438024726
12/21/2012 23:00,1.1,0.0,92,30,9.7,97.79,"Drizzle,Snow,Fog",1.7705360859697181
12/22/2012 0:00,1.1,-0.1,92,32,9.7,97.81,"Drizzle,Snow,Fog",1.7704988076611425
12/22/2012 1:00,1.2,0.1,92,30,12.9,97.84,Drizzle,1.770714321773174
12/22/2012 2:00,1.1,0.1,93,30,8.0,97.89,"Drizzle,Snow,Fog",1.7688572906497255
12/22/2012 3:00,1.1,0.1,93,28,9.7,97.93,"Drizzle,Snow,Fog",1.7663155381997573
12/22/2012 4:00,0.6,-0.6,92,35,11.3,97.98,Snow,1.7708630826883016
12/22/2012 5:00,-0.9,-1.9,93,35,4.8,98.07,Snow,1.7721985427382236
12/22/2012 6:00,-1.6,-3.0,90,41,4.0,98.19,Snow,1.7645253418580393
12/22/2012 7:00,-2.2,-3.7,89,35,4.8,98.32,Snow,1.76855162854995
12/22/2012 8:00,-2.5,-4.5,86,41,4.0,98.44,Snow,1.7536585237806868
12/22/2012 9:00,-3.0,-5.0,86,35,3.2,98.58,Snow,1.7530322801745157
12/22/2012 10:00,-3.6,-5.0,90,37,1.6,98.7,Snow,1.7609487211792867
12/22/2012 11:00,-4.3,-5.4,92,35,1.2,98.78,Snow,1.764560779079539
12/22/2012 12:00,-4.5,-5.9,90,33,1.6,98.86,Snow,1.7609487211792867
12/22/2012 13:00,-4.7,-6.9,85,37,4.0,98.96,Snow,1.7507512632600475
12/22/2012 14:00,-5.0,-7.6,82,32,4.0,99.08,"Snow,Blowing Snow",1.7434626346010758
12/22/2012 15:00,-5.4,-7.1,88,35,1.6,99.24,"Snow,Blowing Snow",1.7571931537828946
12/22/2012 16:00,-5.9,-7.8,86,41,1.6,99.37,"Snow,Blowing Snow",1.7530322801745157
12/22/2012 17:00,-5.7,-8.5,81,32,6.4,99.5,Snow,1.7408722768108806
12/22/2012 18:00,-6.0,-8.7,81,33,4.8,99.62,Snow,1.7408722768108806
12/22/2012 19:00,-6.7,-9.1,83,32,6.4,99.75,Snow,1.75765168148708
12/22/2012 20:00,-6.9,-10.6,75,32,16.1,99.83,Snow,1.7670943911181374
12/22/2012 21:00,-7.2,-11.6,71,28,16.1,99.96,Snow,1.756124389067328
12/22/2012 22:00,-7.4,-11.9,70,35,16.1,100.0,Snow,1.7193560173909008
12/22/2012 23:00,-7.8,-12.6,68,39,19.3,100.12,Cloudy,1.740714126428412
12/23/2012 0:00,-7.8,-11.6,74,32,19.3,100.19,Snow Showers,1.7677471105115399
12/23/2012 1:00,-7.9,-11.8,74,32,25.0,100.27,Snow Showers,1.773624811822293
12/23/2012 2:00,-8.2,-12.5,71,30,25.0,100.36,Mostly Cloudy,1.7693021640959985
12/23/2012 3:00,-8.2,-12.4,72,30,25.0,100.4,Cloudy,1.7441097370980625
12/23/2012 4:00,-8.3,-12.7,71,28,25.0,100.43,Cloudy,1.7134610106333168
12/23/2012 5:00,-8.5,-13.2,69,30,25.0,100.49,Cloudy,1.7675232469910092
12/23/2012 6:00,-8.4,-12.3,73,26,25.0,100.51,Cloudy,1.7522872915470642
12/23/2012 7:00,-8.5,-12.1,75,20,19.3,100.52,Snow Showers,1.7619650975641745
12/23/2012 8:00,-8.7,-12.0,77,20,19.3,100.54,Snow Showers,1.7665585578580787
12/23/2012 9:00,-8.7,-12.2,76,22,24.1,100.52,Cloudy,1.747484638693845
12/23/2012 10:00,-8.6,-12.5,73,24,24.1,100.54,Cloudy,1.7445381746794864
12/23/2012 11:00,-8.3,-12.6,71,26,24.1,100.5,Cloudy,1.7463760259523937
12/23/2012 12:00,-7.9,-12.6,69,24,24.1,100.44,Cloudy,1.7297121623393368
12/23/2012 13:00,-7.4,-12.4,67,20,24.1,100.37,Mostly Cloudy,1.7680372172814187
12/23/2012 14:00,-6.9,-11.9,67,11,24.1,100.33,Cloudy,1.770341573045456
12/23/2012 15:00,-6.8,-11.1,71,13,24.1,100.34,Snow Showers,1.7697051110702853
12/23/2012 16:00,-7.0,-9.6,82,13,9.7,100.35,Snow Showers,1.7434626346010758
12/23/2012 17:00,-7.1,-9.4,84,9,12.9,100.36,Snow,1.7483983249034645
12/23/2012 18:00,-7.2,-10.0,80,11,12.9,100.4,Snow,1.7383226557949913
12/23/2012 19:00,-7.2,-10.1,80,9,25.0,100.46,Snow,1.7723925435392311
12/23/2012 20:00,-7.2,-10.4,78,9,25.0,100.55,Cloudy,1.769694384086135
12/23/2012 21:00,-8.0,-11.2,78,9,25.0,100.62,Mainly Clear,1.7558140728954947
12/23/2012 22:00,-9.0,-11.7,81,9,25.0,100.68,Mainly Clear,1.7408722768108806
12/23/2012 23:00,-8.3,-10.9,81,9,25.0,100.76,Cloudy,1.7721486783527907
12/24/2012 0:00,-8.5,-10.7,84,15,25.0,100.8,Mostly Cloudy,1.769388244393795
12/24/2012 1:00,-8.4,-10.7,83,17,25.0,100.85,Cloudy,1.7622379206447754
12/24/2012 2:00,-8.8,-11.4,81,17,25.0,100.91,Cloudy,1.760014315715691
12/24/2012 3:00,-8.9,-12.3,76,20,25.0,100.99,Cloudy,1.7272721454173066
12/24/2012 4:00,-10.0,-12.7,81,24,25.0,101.02,Mostly Cloudy,1.7445381746794864
12/24/2012 5:00,-10.4,-13.3,79,19,25.0,101.07,Mostly Cloudy,1.738467016955849
12/24/2012 6:00,-10.9,-14.0,78,15,25.0,101.13,Mainly Clear,1.7435135818281515
12/24/2012 7:00,-11.1,-13.9,80,15,25.0,101.23,Clear,1.7383226557949913
12/24/2012 8:00,-11.0,-13.9,79,13,25.0,101.32,Clear,1.7357508862871274
12/24/2012 9:00,-10.5,-13.7,77,13,24.1,101.41,Clear,1.7639832411359235
12/24/2012 10:00,-9.9,-13.4,76,11,48.3,101.45,Mainly Clear,1.7272721454173066
12/24/2012 11:00,-9.0,-13.7,69,11,48.3,101.44,Mainly Clear,1.7645489681770727
12/24/2012 12:00,-7.9,-13.3,65,9,48.3,101.43,Mainly Clear,1.7714562010190413
12/24/2012 13:00,-7.6,-13.1,65,15,48.3,101.45,Mainly Clear,1.744945514949069
12/24/2012 14:00,-7.8,-13.7,63,15,48.3,101.46,Mainly Clear,1.7438439321638433
12/24/2012 15:00,-7.5,-13.3,63,13,48.3,101.49,Mainly Clear,1.7719726664315398
12/24/2012 16:00,-8.2,-13.3,67,11,24.1,101.45,Mainly Clear,1.7495369245833188
12/24/2012 17:00,-9.7,-13.7,73,6,25.0,101.49,Mainly Clear,1.7719042900374815
12/24/2012 18:00,-10.4,-13.8,76,9,25.0,101.45,Clear,1.7272721454173066
12/24/2012 19:00,-9.7,-13.1,76,7,25.0,101.43,Mainly Clear,1.7697061837137404
12/24/2012 20:00,-9.6,-12.8,77,6,25.0,101.43,Mainly Clear,1.7302348458823897
12/24/2012 21:00,-9.4,-13.2,74,7,25.0,101.44,Mainly Clear,1.7351059614764184
12/24/2012 22:00,-9.8,-13.2,76,4,25.0,101.44,Mostly Cloudy,1.7272721454173066
12/24/2012 23:00,-10.5,-12.8,83,4,25.0,101.48,Mostly Cloudy,1.761022340799074
12/25/2012 0:00,-9.0,-12.5,76,11,25.0,101.44,Mostly Cloudy,1.7687167323232482
12/25/2012 1:00,-10.5,-13.0,82,6,25.0,101.51,Mostly Cloudy,1.7434626346010758
12/25/2012 2:00,-10.6,-13.1,82,13,25.0,101.51,Mostly Cloudy,1.7434626346010758
12/25/2012 3:00,-10.5,-12.6,85,19,25.0,101.47,Cloudy,1.7507512632600475
12/25/2012 4:00,-10.1,-13.2,78,15,24.1,101.49,Mostly Cloudy,1.733057876440812
12/25/2012 5:00,-10.8,-13.1,83,17,25.0,101.49,Cloudy,1.7738448424138793
12/25/2012 6:00,-10.6,-13.6,79,13,25.0,101.59,Cloudy,1.7357508862871274
12/25/2012 7:00,-11.3,-14.1,80,11,25.0,101.72,Cloudy,1.7507049204846372
12/25/2012 8:00,-11.3,-14.4,78,11,24.1,101.79,Cloudy,1.733057876440812
12/25/2012 9:00,-11.0,-14.2,77,13,24.1,101.87,Cloudy,1.7302348458823897
12/25/2012 10:00,-10.1,-14.3,71,15,24.1,101.95,Cloudy,1.7386360089004078
12/25/2012 11:00,-9.6,-14.4,68,9,24.1,101.93,Cloudy,1.7294783912769383
12/25/2012 12:00,-9.4,-14.4,67,9,24.1,101.92,Cloudy,1.7704108894199246
12/25/2012 13:00,-8.7,-14.5,63,7,24.1,101.92,Mostly Cloudy,1.6890755000668602
12/25/2012 14:00,-7.7,-14.1,60,6,48.3,101.95,Mainly Clear,1.756616910742202
12/25/2012 15:00,-7.1,-13.7,59,17,48.3,101.98,Clear,1.758193358479327
12/25/2012 16:00,-7.5,-13.9,60,11,48.3,102.03,Clear,1.7539141875560373
12/25/2012 17:00,-8.3,-13.4,67,13,25.0,102.1,Clear,1.76382267096411
12/25/2012 18:00,-8.9,-13.4,70,13,25.0,102.16,Mainly Clear,1.718802905522896
12/25/2012 19:00,-8.8,-12.6,74,19,25.0,102.27,Mainly Clear,1.7209839103698092
12/25/2012 20:00,-9.4,-12.6,77,13,25.0,102.3,Mainly Clear,1.7302348458823897
12/25/2012 21:00,-9.7,-12.5,80,4,25.0,102.28,Clear,1.7383226557949913
12/25/2012 22:00,-10.9,-13.2,83,4,25.0,102.34,Clear,1.7459700090483987
12/25/2012 23:00,-10.4,-12.7,83,11,25.0,102.45,Clear,1.7459700090483987
12/26/2012 0:00,-11.8,-13.5,87,4,25.0,102.41,Clear,1.755244623603565
12/26/2012 1:00,-11.2,-12.9,87,6,25.0,102.42,Clear,1.755244623603565
12/26/2012 2:00,-12.7,-14.4,87,4,25.0,102.45,Clear,1.755244623603565
12/26/2012 3:00,-14.2,-15.8,88,6,25.0,102.52,Clear,1.7571931537828946
12/26/2012 4:00,-13.1,-14.7,88,6,25.0,102.55,Clear,1.7571931537828946
12/26/2012 5:00,-12.7,-14.1,89,4,25.0,102.48,Clear,1.7590894054480448
12/26/2012 6:00,-13.4,-14.8,89,4,25.0,102.47,Clear,1.7590894054480448
12/26/2012 7:00,-13.0,-14.4,89,7,25.0,102.46,Mainly Clear,1.7590894054480448
12/26/2012 8:00,-13.7,-15.2,88,4,16.1,102.53,Mostly Cloudy,1.7571931537828946
12/26/2012 9:00,-11.3,-12.7,89,15,4.0,102.52,"Snow Showers,Fog",1.7590894054480448
12/26/2012 10:00,-11.0,-13.2,84,15,24.1,102.54,Mainly Clear,1.7483983249034645
12/26/2012 11:00,-11.3,-14.5,77,20,48.3,102.5,Mainly Clear,1.7302348458823897
12/26/2012 12:00,-10.6,-14.3,74,20,48.3,102.36,Mainly Clear,1.7209839103698092
12/26/2012 13:00,-10.3,-14.0,74,15,24.1,102.35,Mostly Cloudy,1.7209839103698092
12/26/2012 14:00,-10.0,-14.0,72,19,24.1,102.27,Cloudy,1.7154802667147235
12/26/2012 15:00,-10.0,-14.2,71,19,24.1,102.28,Cloudy,1.712430565280306
12/26/2012 16:00,-10.3,-14.1,74,19,25.0,102.17,Cloudy,1.7313802574682495
12/26/2012 17:00,-10.2,-13.9,74,22,25.0,102.16,Cloudy,1.7209839103698092
12/26/2012 18:00,-10.0,-13.8,74,24,25.0,102.14,Cloudy,1.726876193313687
12/26/2012 19:00,-9.6,-13.1,76,39,25.0,102.03,Cloudy,1.7272721454173066
12/26/2012 20:00,-10.3,-12.9,81,28,25.0,101.88,Cloudy,1.7408722768108806
12/26/2012 21:00,-9.8,-12.5,81,22,25.0,101.87,Cloudy,1.7408722768108806
12/26/2012 22:00,-9.7,-12.8,78,37,25.0,101.7,Cloudy,1.733057876440812
12/26/2012 23:00,-9.7,-12.3,81,24,25.0,101.61,Cloudy,1.7408722768108806
12/27/2012 0:00,-9.8,-12.5,81,30,25.0,101.46,Cloudy,1.7408722768108806
12/27/2012 1:00,-9.4,-12.2,80,26,25.0,101.37,Cloudy,1.7383226557949913
12/27/2012 2:00,-8.5,-11.3,80,30,25.0,101.31,Cloudy,1.7383226557949913
12/27/2012 3:00,-8.1,-10.2,85,37,2.4,101.21,Snow,1.7507512632600475
12/27/2012 4:00,-7.9,-9.5,88,33,2.0,101.03,Snow,1.7571931537828946
12/27/2012 5:00,-7.5,-9.1,88,43,1.2,100.95,Snow,1.7571931537828946
12/27/2012 6:00,-6.8,-8.1,90,39,1.2,100.83,Snow,1.7609487211792867
12/27/2012 7:00,-6.5,-7.6,92,44,1.2,100.73,Snow,1.764560779079539
12/27/2012 8:00,-6.3,-7.4,92,39,0.8,100.65,Moderate Snow,1.764560779079539
12/27/2012 9:00,-5.7,-6.7,93,37,0.8,100.67,Moderate Snow,1.7663155381997573
12/27/2012 10:00,-5.4,-6.4,93,41,0.6,100.64,"Moderate Snow,Blowing Snow",1.7663155381997573
12/27/2012 11:00,-5.2,-6.4,91,39,0.6,100.62,"Snow,Blowing Snow",1.762772169746578
12/27/2012 12:00,-5.5,-6.6,92,39,0.6,100.5,"Moderate Snow,Blowing Snow",1.764560779079539
12/27/2012 13:00,-5.4,-6.7,91,48,0.6,100.36,"Snow,Blowing Snow",1.762772169746578
12/27/2012 14:00,-5.2,-6.7,89,46,0.6,100.35,"Snow,Blowing Snow",1.7590894054480448
12/27/2012 15:00,-5.0,-6.2,91,37,0.6,100.37,"Snow,Blowing Snow",1.762772169746578
12/27/2012 16:00,-4.5,-6.2,88,37,2.0,100.44,"Snow,Blowing Snow",1.7571931537828946
12/27/2012 17:00,-4.2,-5.9,88,32,3.2,100.47,"Snow,Blowing Snow",1.7571931537828946
12/27/2012 18:00,-4.0,-5.7,88,28,8.0,100.49,"Snow,Blowing Snow",1.7692483312690759
12/27/2012 19:00,-3.9,-5.6,88,26,9.7,100.52,"Snow,Blowing Snow",1.7697372860279816
12/27/2012 20:00,-3.7,-5.3,89,37,16.1,100.58,Snow,1.7688897029281818
12/27/2012 21:00,-3.7,-4.8,92,24,4.8,100.62,"Freezing Drizzle,Snow",1.764560779079539
12/27/2012 22:00,-3.8,-4.6,94,20,4.8,100.65,"Freezing Drizzle,Snow",1.773279668278851
12/27/2012 23:00,-4.0,-5.6,89,24,9.7,100.7,Snow,1.7590894054480448
12/28/2012 0:00,-4.2,-5.7,89,19,8.0,100.78,"Freezing Drizzle,Snow",1.7590894054480448
12/28/2012 1:00,-4.4,-6.6,85,15,6.4,100.83,"Freezing Drizzle,Snow",1.770128029124815
12/28/2012 2:00,-4.3,-6.3,86,11,12.9,100.93,"Freezing Drizzle,Snow",1.7734432884226543
12/28/2012 3:00,-4.6,-5.9,91,13,4.0,101.01,Snow,1.7631326465548163
12/28/2012 4:00,-4.9,-5.9,93,9,9.7,101.0,Snow,1.7663155381997573
12/28/2012 5:00,-5.0,-6.1,92,7,25.0,101.01,Cloudy,1.7646493129177876
12/28/2012 6:00,-4.8,-6.6,87,9,25.0,101.04,Cloudy,1.755244623603565
12/28/2012 7:00,-5.0,-6.5,89,9,25.0,101.07,Cloudy,1.7725600617432191
12/28/2012 8:00,-5.2,-7.0,87,17,24.1,101.15,Mostly Cloudy,1.7678767850515669
12/28/2012 9:00,-5.5,-8.0,83,17,24.1,101.23,Mostly Cloudy,1.7459700090483987
12/28/2012 10:00,-6.1,-8.6,82,19,24.1,101.27,Clear,1.773712875416194
12/28/2012 11:00,-6.2,-8.8,82,24,48.3,101.24,Mainly Clear,1.7434626346010758
12/28/2012 12:00,-7.2,-9.9,81,24,48.3,101.22,Mainly Clear,1.7408722768108806
12/28/2012 13:00,-6.8,-9.8,79,20,48.3,101.17,Mainly Clear,1.7606536682081892
12/28/2012 14:00,-6.5,-9.9,77,22,48.3,101.17,Mainly Clear,1.7681609387698607
12/28/2012 15:00,-6.8,-10.3,76,24,48.3,101.22,Mainly Clear,1.7563951032734715
12/28/2012 16:00,-7.7,-11.0,77,30,48.3,101.25,Mainly Clear,1.7315925874180935
12/28/2012 17:00,-8.6,-12.0,76,26,25.0,101.34,Mainly Clear,1.7272721454173066
12/28/2012 18:00,-9.0,-12.2,78,24,25.0,101.37,Mainly Clear,1.733057876440812
12/28/2012 19:00,-9.4,-12.3,79,22,25.0,101.37,Mainly Clear,1.7357508862871274
12/28/2012 20:00,-9.8,-12.6,80,20,25.0,101.35,Mainly Clear,1.7383226557949913
12/28/2012 21:00,-9.8,-12.5,81,19,25.0,101.36,Mainly Clear,1.7408722768108806
12/28/2012 22:00,-9.9,-12.5,81,17,25.0,101.38,Mainly Clear,1.743500848130662
12/28/2012 23:00,-10.9,-13.2,83,13,25.0,101.38,Mainly Clear,1.7459700090483987
12/29/2012 0:00,-11.6,-13.5,86,13,25.0,101.35,Mainly Clear,1.7530322801745157
12/29/2012 1:00,-11.9,-13.6,87,11,25.0,101.31,Clear,1.755244623603565
12/29/2012 2:00,-11.8,-13.1,90,13,25.0,101.33,Clear,1.7609487211792867
12/29/2012 3:00,-13.4,-15.2,86,4,4.8,101.33,Fog,1.7729047904522328
12/29/2012 4:00,-16.0,-17.2,90,6,9.7,101.25,Fog,1.7609487211792867
12/29/2012 5:00,-14.8,-15.9,91,4,6.4,101.25,Fog,1.762772169746578
12/29/2012 6:00,-13.8,-15.3,88,4,9.7,101.25,Fog,1.7571931537828946
12/29/2012 7:00,-14.8,-16.4,88,7,8.0,101.22,Fog,1.7571931537828946
12/29/2012 8:00,-13.6,-15.1,88,11,12.9,101.19,Cloudy,1.7571931537828946
12/29/2012 9:00,-13.2,-14.8,88,11,12.9,101.13,Cloudy,1.7718042815117196
12/29/2012 10:00,-12.0,-13.3,90,7,6.4,101.15,Fog,1.7609487211792867
12/29/2012 11:00,-10.9,-12.2,90,7,6.4,101.09,"Snow Showers,Fog",1.7609487211792867
12/29/2012 12:00,-10.5,-11.6,92,11,8.0,100.93,"Snow Showers,Fog",1.764560779079539
12/29/2012 13:00,-10.0,-11.1,92,22,9.7,100.63,"Snow Showers,Fog",1.764560779079539
12/29/2012 14:00,-9.3,-10.5,91,22,4.8,100.6,"Snow,Fog",1.762772169746578
12/29/2012 15:00,-8.8,-10.0,91,20,1.2,100.55,"Snow,Fog",1.762772169746578
12/29/2012 16:00,-8.5,-9.9,90,24,1.2,100.49,"Snow,Fog",1.7609487211792867
12/29/2012 17:00,-9.0,-10.4,90,19,2.4,100.46,"Snow,Fog",1.7609487211792867
12/29/2012 18:00,-9.3,-10.9,88,26,6.4,100.38,"Snow,Fog",1.7571931537828946
12/29/2012 19:00,-9.5,-11.2,87,26,3.2,100.33,"Snow,Fog",1.755244623603565
12/29/2012 20:00,-9.7,-11.6,86,24,9.7,100.25,"Snow,Fog",1.759408065017444
12/29/2012 21:00,-9.8,-11.8,85,24,8.0,100.24,"Snow,Fog",1.7507512632600475
12/29/2012 22:00,-10.1,-11.6,89,15,2.4,100.2,"Snow,Fog",1.7590894054480448
12/29/2012 23:00,-10.0,-12.0,85,20,6.4,100.19,"Snow,Fog",1.7507512632600475
12/30/2012 0:00,-9.6,-11.3,87,13,3.2,100.23,"Snow,Fog",1.755244623603565
12/30/2012 1:00,-9.4,-10.5,92,9,2.4,100.22,"Snow,Fog",1.764560779079539
12/30/2012 2:00,-9.3,-10.4,92,9,4.0,100.28,"Snow,Fog",1.764560779079539
12/30/2012 3:00,-9.1,-10.4,90,11,3.6,100.3,"Snow,Fog",1.7609487211792867
12/30/2012 4:00,-9.3,-10.6,90,13,9.7,100.28,"Snow,Fog",1.7609487211792867
12/30/2012 5:00,-9.1,-10.4,90,11,4.0,100.32,"Snow,Fog",1.7609487211792867
12/30/2012 6:00,-9.3,-10.8,89,17,8.0,100.39,"Snow,Fog",1.7590894054480448
12/30/2012 7:00,-9.9,-13.2,77,19,25.0,100.48,Mostly Cloudy,1.7737982834059527
12/30/2012 8:00,-11.3,-14.5,77,20,24.1,100.57,Cloudy,1.7302348458823897
12/30/2012 9:00,-11.7,-15.0,76,19,24.1,100.69,Cloudy,1.751672114224445
12/30/2012 10:00,-12.4,-16.0,74,24,24.1,100.82,Cloudy,1.763697591273126
12/30/2012 11:00,-11.9,-15.4,75,32,24.1,100.89,Cloudy,1.7241591468416737
12/30/2012 12:00,-12.2,-15.7,75,26,48.3,100.91,Mostly Cloudy,1.737944296481568
12/30/2012 13:00,-12.4,-16.2,73,37,48.3,100.92,Mostly Cloudy,1.718324698506683
12/30/2012 14:00,-11.8,-16.1,70,37,48.3,100.96,Mainly Clear,1.7625325869868942
12/30/2012 15:00,-11.3,-15.6,70,32,48.3,101.05,Mainly Clear,1.7217684864451601
12/30/2012 16:00,-11.4,-15.5,72,26,48.3,101.15,Mainly Clear,1.7539807356064212
12/30/2012 17:00,-12.1,-15.8,74,28,25.0,101.26,Mainly Clear,1.7209839103698092
12/30/2012 18:00,-12.6,-16.0,76,24,25.0,101.36,Mainly Clear,1.7272721454173066
12/30/2012 19:00,-13.4,-16.5,77,26,25.0,101.47,Mainly Clear,1.7302348458823897
12/30/2012 20:00,-13.8,-16.5,80,24,25.0,101.52,Clear,1.7383226557949913
12/30/2012 21:00,-13.8,-16.5,80,20,25.0,101.5,Mainly Clear,1.7383226557949913
12/30/2012 22:00,-13.7,-16.3,81,19,25.0,101.54,Mainly Clear,1.7408722768108806
12/30/2012 23:00,-12.1,-15.1,78,28,25.0,101.52,Mostly Cloudy,1.733057876440812
12/31/2012 0:00,-11.1,-14.4,77,26,25.0,101.51,Cloudy,1.7302348458823897
12/31/2012 1:00,-10.7,-14.0,77,15,25.0,101.5,Cloudy,1.7302348458823897
12/31/2012 2:00,-10.1,-13.4,77,9,25.0,101.45,Cloudy,1.7302348458823897
12/31/2012 3:00,-11.8,-14.4,81,6,25.0,101.42,Mostly Cloudy,1.7408722768108806
12/31/2012 4:00,-10.5,-12.8,83,11,25.0,101.34,Cloudy,1.7459700090483987
12/31/2012 5:00,-10.2,-12.4,84,6,25.0,101.28,Cloudy,1.7483983249034645
12/31/2012 6:00,-9.7,-11.7,85,4,25.0,101.23,Cloudy,1.7552119306148304
12/31/2012 7:00,-9.3,-11.3,85,0,19.3,101.19,Snow Showers,1.7521396601247752
12/31/2012 8:00,-8.6,-10.3,87,4,3.2,101.14,Snow Showers,1.755244623603565
12/31/2012 9:00,-8.1,-9.6,89,4,2.4,101.09,Snow,1.7590894054480448
12/31/2012 10:00,-7.4,-8.9,89,4,6.4,101.05,"Snow,Fog",1.7590894054480448
12/31/2012 11:00,-6.7,-7.9,91,9,9.7,100.93,Snow,1.762772169746578
12/31/2012 12:00,-5.8,-7.5,88,4,12.9,100.78,Snow,1.7725208217920414
12/31/2012 13:00,-4.6,-6.6,86,4,12.9,100.63,Snow,1.7530322801745157
12/31/2012 14:00,-3.4,-5.7,84,6,11.3,100.57,Snow,1.7621197945726221
12/31/2012 15:00,-2.3,-4.6,84,9,9.7,100.47,Snow,1.7678942975327294
12/31/2012 16:00,-1.4,-4.0,82,13,12.9,100.4,Snow,1.7739611561236308
12/31/2012 17:00,-1.1,-3.3,85,19,9.7,100.3,Snow,1.7507512632600475
12/31/2012 18:00,-1.3,-3.1,88,17,9.7,100.19,Snow,1.7571931537828946
12/31/2012 19:00,0.1,-2.7,81,30,9.7,100.13,Snow,1.7639029906862196
12/31/2012 20:00,0.2,-2.4,83,24,9.7,100.03,Snow,1.7608842569430716
12/31/2012 21:00,-0.5,-1.5,93,28,4.8,99.95,Snow,1.7723427640581584
12/31/2012 22:00,-0.2,-1.8,89,28,9.7,99.91,Snow,1.7655300238563139
12/31/2012 23:00,0.0,-2.1,86,30,11.3,99.89,Snow,1.7579988964894926
