Date/Time,Temp_C,Dew Point Temp_C,Rel Hum_%,Wind Speed_km/h,Visibility_km,Press_kPa,Weather,Predicted_Temp_C,Clothing_Score
1/1/2012 0:00,-1.8,-3.9,86,4,8.0,101.24,Fog,-1.8350000000000009,1.762455609755183
1/1/2012 1:00,-1.8,-3.7,87,4,8.0,101.24,Fog,-1.8460000000000019,1.7623558982712606
1/1/2012 2:00,-1.8,-3.4,89,7,4.0,101.26,"Freezing Drizzle,Fog",-1.7430000000000003,1.763285429214242
1/1/2012 3:00,-1.5,-3.2,88,6,4.0,101.27,"Freezing Drizzle,Fog",-1.4769999999999999,1.7656439019137096
1/1/2012 4:00,-1.5,-3.3,88,7,4.8,101.23,Fog,-1.5050000000000003,1.7653984511554819
1/1/2012 5:00,-1.4,-3.3,87,9,6.4,101.27,Fog,-1.4020000000000021,1.7662981550115469
1/1/2012 6:00,-1.5,-3.1,89,7,6.4,101.29,Fog,-1.4680000000000002,1.7657226582408756
1/1/2012 7:00,-1.4,-3.6,85,7,8.0,101.26,Fog,-1.3730000000000009,1.7665498896579068
1/1/2012 8:00,-1.4,-3.6,85,9,8.0,101.23,Fog,-1.3460000000000014,1.7667836438894322
1/1/2012 9:00,-1.3,-3.1,88,15,4.0,101.2,Fog,-1.3429999999999986,1.7668095798151384
1/1/2012 10:00,-1.0,-2.3,91,9,1.2,101.15,Fog,-1.0040000000000004,1.7688113576894786
1/1/2012 11:00,-0.5,-2.1,89,7,4.0,100.98,Fog,-0.486,1.771577622280828
1/1/2012 12:00,-0.2,-2.0,88,9,4.8,100.79,Fog,-0.1829999999999998,1.7731652536529698
1/1/2012 13:00,0.2,-1.7,87,13,4.8,100.58,Fog,0.25699999999999984,1.7734484788453886
1/1/2012 14:00,0.8,-1.1,87,20,4.8,100.31,Fog,0.9889999999999991,1.7715327642385055
1/1/2012 15:00,1.8,-0.4,85,22,6.4,100.07,Fog,1.8030000000000013,1.7693640408035565
1/1/2012 16:00,2.6,-0.2,82,13,12.9,99.93,Mostly Cloudy,2.4719999999999978,1.767550570522858
1/1/2012 17:00,3.0,0.0,81,13,16.1,99.81,Cloudy,2.634999999999999,1.767029739069227
1/1/2012 18:00,3.8,1.0,82,15,12.9,99.74,Rain,3.809000000000002,1.7618238281009102
1/1/2012 19:00,3.1,1.3,88,15,12.9,99.68,Rain,3.133999999999997,1.7648526202796284
1/1/2012 20:00,3.2,1.3,87,19,25.0,99.5,Cloudy,3.2389999999999954,1.7643878946023834
1/1/2012 21:00,4.0,1.7,85,20,25.0,99.39,Cloudy,4.039000000000001,1.7607690328219885
1/1/2012 22:00,4.4,1.9,84,24,19.3,99.32,Rain Showers,4.405999999999996,1.75906123726155
1/1/2012 23:00,5.3,2.0,79,30,25.0,99.31,Cloudy,5.511000000000003,1.7535303560225486
1/2/2012 0:00,5.2,1.5,77,35,25.0,99.26,Rain Showers,5.239999999999997,1.7550263910477821
1/2/2012 1:00,4.6,0.0,72,39,25.0,99.26,Cloudy,4.557000000000005,1.7583495907823117
1/2/2012 2:00,3.9,-0.9,71,32,25.0,99.26,Mostly Cloudy,3.7929999999999966,1.7618967678681068
1/2/2012 3:00,3.7,-1.5,69,33,25.0,99.3,Mostly Cloudy,3.616999999999997,1.76269538918275
1/2/2012 4:00,2.9,-2.3,69,32,25.0,99.26,Mostly Cloudy,2.874000000000002,1.7659934157404054
1/2/2012 5:00,2.6,-2.3,70,32,25.0,99.21,Mostly Cloudy,2.653999999999998,1.7669477808319012
1/2/2012 6:00,2.3,-2.6,70,26,25.0,99.18,Mostly Cloudy,2.3140000000000023,1.7679814314726148
1/2/2012 7:00,2.0,-2.9,70,33,25.0,99.14,Mostly Cloudy,2.0170000000000003,1.768787032848439
1/2/2012 8:00,1.9,-3.3,68,39,24.1,99.14,Mostly Cloudy,1.9200000000000026,1.7690489311715056
1/2/2012 9:00,1.8,-3.7,67,44,24.1,99.14,Mostly Cloudy,1.6679999999999982,1.769726562041069
1/2/2012 10:00,1.5,-4.1,66,43,24.1,99.18,Mostly Cloudy,1.5549999999999997,1.770029130696425
1/2/2012 11:00,2.2,-3.5,66,30,24.1,99.19,Mostly Cloudy,2.1299999999999972,1.768481184780273
1/2/2012 12:00,1.7,-6.2,56,48,24.1,99.21,Mainly Clear,1.6969999999999998,1.769648783252719
1/2/2012 13:00,1.1,-6.5,57,37,24.1,99.27,Mostly Cloudy,1.2179999999999995,1.770926778291015
1/2/2012 14:00,1.1,-6.8,56,33,24.1,99.33,Mostly Cloudy,0.9409999999999994,1.771659376908206
1/2/2012 15:00,0.0,-7.0,59,33,24.1,99.41,Mostly Cloudy,0.07100000000000001,1.7739301508343417
1/2/2012 16:00,-0.7,-8.7,55,24,24.1,99.5,Mostly Cloudy,-0.740000000000001,1.7702295119811902
1/2/2012 17:00,-2.1,-9.5,57,22,25.0,99.66,Snow Showers,-2.085999999999999,1.760153672409882
1/2/2012 18:00,-4.1,-11.4,57,28,25.0,99.86,Mostly Cloudy,-4.161000000000004,1.7362616364948593
1/2/2012 19:00,-4.8,-12.1,57,24,25.0,100.0,Mostly Cloudy,-4.887000000000004,1.7259371235755214
1/2/2012 20:00,-5.6,-13.4,54,24,25.0,100.07,Snow Showers,-5.549000000000006,1.716224250176896
1/2/2012 21:00,-5.8,-12.8,58,26,25.0,100.15,Snow Showers,-5.778000000000002,1.7127767629113408
1/2/2012 22:00,-7.0,-14.7,54,20,25.0,100.26,Cloudy,-7.043999999999998,1.6922384564730282
1/2/2012 23:00,-7.4,-14.1,59,17,19.3,100.27,Snow Showers,-7.449999999999991,1.684625426089635
1/3/2012 0:00,-9.0,-16.0,57,28,25.0,100.35,Snow Showers,-9.217999999999996,1.6648421508897826
1/3/2012 1:00,-9.7,-17.2,54,20,25.0,100.43,Cloudy,-9.738000000000012,1.6499999999999997
1/3/2012 2:00,-10.5,-15.8,65,22,12.9,100.53,Snow Showers,-10.540999999999997,1.6929583486014415
1/3/2012 3:00,-11.3,-18.7,54,33,25.0,100.61,Snow Showers,-11.242999999999984,1.6499999999999997
1/3/2012 4:00,-12.6,-20.1,53,24,25.0,100.68,Cloudy,-12.495999999999995,1.6500000000000004
1/3/2012 5:00,-12.9,-19.1,60,22,25.0,100.76,Snow Showers,-12.931000000000001,1.6747229916897506
1/3/2012 6:00,-13.3,-19.3,61,19,25.0,100.85,Snow Showers,-13.264999999999986,1.6768881290465567
1/3/2012 7:00,-14.0,-19.5,63,19,25.0,100.95,Snow,-14.029000000000002,1.6856696145686971
1/3/2012 8:00,-14.8,-21.3,58,26,24.1,101.07,Mostly Cloudy,-15.014000000000001,1.6688951382675015
1/3/2012 9:00,-15.0,-21.9,56,19,24.1,101.2,Mostly Cloudy,-14.993000000000004,1.659574703732418
1/3/2012 10:00,-15.3,-22.2,56,24,24.1,101.29,Cloudy,-15.131000000000007,1.659574703732418
1/3/2012 11:00,-14.9,-22.2,54,22,24.1,101.33,Mostly Cloudy,-15.073000000000015,1.6499999999999997
1/3/2012 12:00,-14.9,-22.6,52,20,24.1,101.34,Mainly Clear,-14.93500000000001,1.6499999999999997
1/3/2012 13:00,-15.1,-22.4,54,22,24.1,101.34,Mainly Clear,-15.22900000000001,1.6499999999999997
1/3/2012 14:00,-14.9,-22.9,50,22,24.1,101.38,Mainly Clear,-14.902000000000012,1.5
1/3/2012 15:00,-14.8,-22.2,53,19,24.1,101.44,Mainly Clear,-14.832999999999984,1.6500000000000004
1/3/2012 16:00,-15.3,-22.9,52,22,24.1,101.51,Mainly Clear,-15.204999999999982,1.6499999999999997
1/3/2012 17:00,-15.8,-23.2,53,22,24.1,101.58,Mainly Clear,-15.704999999999986,1.6500000000000004
1/3/2012 18:00,-16.3,-23.8,52,24,25.0,101.64,Mainly Clear,-16.337999999999973,1.6499999999999997
1/3/2012 19:00,-16.9,-24.8,50,24,25.0,101.74,Clear,-16.750000000000018,1.5
1/3/2012 20:00,-17.3,-25.4,49,24,25.0,101.82,Mainly Clear,-16.736000000000004,1.5
1/3/2012 21:00,-17.0,-24.6,52,15,25.0,101.86,Mostly Cloudy,-17.095999999999997,1.6499999999999997
1/3/2012 22:00,-17.1,-24.6,52,20,25.0,101.86,Mostly Cloudy,-16.99099999999998,1.6499999999999997
1/3/2012 23:00,-17.3,-24.2,55,17,25.0,101.87,Mostly Cloudy,-17.245999999999977,1.6524507409216738
1/4/2012 0:00,-17.5,-24.2,56,13,25.0,101.88,Mostly Cloudy,-17.461,1.659574703732418
1/4/2012 1:00,-17.9,-24.1,58,11,25.0,101.86,Mainly Clear,-17.723000000000006,1.6688951382675015
1/4/2012 2:00,-18.1,-23.8,61,15,25.0,101.89,Mainly Clear,-18.115999999999982,1.6768881290465567
1/4/2012 3:00,-18.5,-24.6,59,13,25.0,101.88,Mainly Clear,-18.413999999999998,1.672110259985864
1/4/2012 4:00,-18.5,-24.6,59,13,25.0,101.82,Mainly Clear,-18.438999999999997,1.672110259985864
1/4/2012 5:00,-18.6,-24.0,62,9,25.0,101.77,Mainly Clear,-18.55699999999998,1.681279062923068
1/4/2012 6:00,-18.5,-24.1,61,11,25.0,101.74,Cloudy,-18.431999999999995,1.6768881290465567
1/4/2012 7:00,-18.2,-24.1,60,11,25.0,101.75,Cloudy,-18.407999999999998,1.6747229916897506
1/4/2012 8:00,-17.8,-24.2,57,17,24.1,101.73,Mostly Cloudy,-17.285999999999987,1.6648421508897826
1/4/2012 9:00,-16.8,-22.5,61,9,24.1,101.68,Mostly Cloudy,-17.59999999999999,1.6768881290465567
1/4/2012 10:00,-15.2,-20.6,63,7,24.1,101.54,Mostly Cloudy,-15.03000000000002,1.6856696145686971
1/4/2012 11:00,-14.2,-21.1,56,13,24.1,101.41,Mostly Cloudy,-14.18700000000002,1.659574703732418
1/4/2012 12:00,-13.7,-21.7,51,11,24.1,101.25,Snow,-13.875000000000018,1.6499999999999997
1/4/2012 13:00,-12.4,-20.1,53,11,24.1,101.07,Cloudy,-12.442000000000005,1.6500000000000004
1/4/2012 14:00,-11.3,-19.0,53,7,19.3,100.97,Snow,-11.348999999999982,1.6500000000000004
1/4/2012 15:00,-10.2,-16.3,61,11,9.7,100.89,Snow,-10.295999999999998,1.6768881290465567
1/4/2012 16:00,-9.4,-15.5,61,13,19.3,100.79,Snow,-9.276000000000002,1.6768881290465567
1/4/2012 17:00,-8.9,-13.2,71,9,4.8,100.76,Snow,-8.81199999999999,1.712430565280306
1/4/2012 18:00,-8.9,-12.6,75,11,9.7,100.69,Snow,-8.96499999999999,1.7241591468416737
1/4/2012 19:00,-8.4,-12.7,71,9,16.1,100.65,Snow,-8.355999999999991,1.712430565280306
1/4/2012 20:00,-7.8,-12.1,71,9,16.1,100.61,Snow,-7.730999999999995,1.712430565280306
1/4/2012 21:00,-7.6,-11.6,73,7,11.3,100.54,Snow,-7.598000000000001,1.718324698506683
1/4/2012 22:00,-9.5,-12.7,77,6,9.7,100.5,Snow,-9.542,1.7302348458823897
1/4/2012 23:00,-9.6,-12.6,79,6,9.7,100.42,Snow,-9.6,1.7357508862871274
1/5/2012 0:00,-8.8,-11.7,79,4,9.7,100.32,Snow,-8.737000000000007,1.7357508862871274
1/5/2012 1:00,-7.5,-10.2,81,0,9.7,100.29,Snow,-7.519000000000001,1.7408722768108806
1/5/2012 2:00,-5.4,-8.3,80,9,8.0,100.28,Snow,-5.437999999999993,1.7383226557949913
1/5/2012 3:00,-5.0,-7.7,81,11,9.7,100.24,Snow,-5.034999999999999,1.7408722768108806
1/5/2012 4:00,-4.1,-6.5,83,9,4.8,100.21,Snow,-4.084000000000004,1.7459700090483987
1/5/2012 5:00,-7.0,-9.5,82,4,4.0,100.19,Snow,-7.031000000000006,1.7434626346010758
1/5/2012 6:00,-8.2,-10.7,82,6,6.4,100.26,Snow,-8.202000000000004,1.7434626346010758
1/5/2012 7:00,-7.1,-9.7,82,9,9.7,100.31,Snow,-7.09800000000001,1.7434626346010758
1/5/2012 8:00,-6.1,-9.1,79,11,9.7,100.39,Snow,-5.99200000000001,1.7357508862871274
1/5/2012 9:00,-6.6,-10.1,76,9,24.1,100.42,Mainly Clear,-6.57700000000001,1.7272721454173066
1/5/2012 10:00,-6.0,-10.0,73,17,48.3,100.45,Mainly Clear,-5.950000000000001,1.718324698506683
1/5/2012 11:00,-5.6,-10.2,70,22,48.3,100.41,Mainly Clear,-5.589000000000007,1.7156418492871488
1/5/2012 12:00,-4.7,-9.6,69,20,48.3,100.38,Mainly Clear,-4.751999999999996,1.727996482735628
1/5/2012 13:00,-4.4,-9.7,66,26,48.3,100.4,Mainly Clear,-4.389999999999997,1.7331955385873516
1/5/2012 14:00,-5.1,-10.7,65,22,48.3,100.46,Mainly Clear,-5.144000000000008,1.7218181830336075
1/5/2012 15:00,-4.3,-12.0,55,26,48.3,100.52,Mainly Clear,-4.261000000000005,1.7349427571465623
1/5/2012 16:00,-5.0,-12.7,55,19,24.1,100.6,Mainly Clear,-5.062000000000001,1.7231617969285644
1/5/2012 17:00,-6.7,-14.1,56,11,25.0,100.65,Mainly Clear,-6.784000000000004,1.6962471040195655
1/5/2012 18:00,-7.1,-14.4,56,11,25.0,100.71,Clear,-7.038000000000008,1.6923376917148278
1/5/2012 19:00,-9.2,-15.4,61,7,25.0,100.8,Clear,-9.140000000000008,1.6768881290465567
1/5/2012 20:00,-9.8,-15.7,62,9,25.0,100.83,Clear,-9.719999999999988,1.681279062923068
1/5/2012 21:00,-9.0,-14.8,63,13,25.0,100.83,Clear,-9.068999999999999,1.6856696145686971
1/5/2012 22:00,-9.9,-15.7,63,7,25.0,100.85,Cloudy,-9.889999999999988,1.6856696145686971
1/5/2012 23:00,-9.4,-15.5,61,9,25.0,100.83,Cloudy,-9.253,1.6768881290465567
1/6/2012 0:00,-9.6,-16.8,56,13,25.0,100.81,Cloudy,-9.617000000000008,1.659574703732418
1/6/2012 1:00,-10.0,-17.3,55,17,25.0,100.81,Cloudy,-10.083999999999998,1.6524507409216738
1/6/2012 2:00,-10.5,-16.5,61,9,25.0,100.84,Cloudy,-10.482999999999999,1.6768881290465567
1/6/2012 3:00,-10.6,-16.0,64,0,9.7,100.76,Snow,-10.66300000000001,1.6895328361301014
1/6/2012 4:00,-11.3,-16.1,68,15,3.2,100.7,Snow,-11.334999999999987,1.7018006700167505
1/6/2012 5:00,-11.8,-16.0,71,19,2.8,100.61,Snow,-11.809999999999985,1.712430565280306
1/6/2012 6:00,-12.0,-16.2,71,22,4.8,100.58,Snow,-11.957999999999995,1.712430565280306
1/6/2012 7:00,-14.4,-16.3,85,22,2.4,100.52,Snow,-14.324000000000003,1.7507512632600475
1/6/2012 8:00,-12.3,-16.2,73,24,11.3,100.51,Snow,-12.312999999999983,1.718324698506683
1/6/2012 9:00,-12.5,-16.7,71,26,19.3,100.53,Snow,-12.548,1.712430565280306
1/6/2012 10:00,-12.3,-16.3,72,28,16.1,100.47,Snow,-12.285999999999985,1.7154802667147235
1/6/2012 11:00,-12.0,-16.0,72,17,24.1,100.36,Snow,-12.01799999999999,1.7154802667147235
1/6/2012 12:00,-11.7,-15.4,74,28,19.3,100.23,Snow,-11.739000000000003,1.7209839103698092
1/6/2012 13:00,-11.9,-15.6,74,20,24.1,100.13,Snow,-11.819000000000003,1.7209839103698092
1/6/2012 14:00,-11.2,-14.8,75,19,19.3,100.07,Snow,-11.271000000000013,1.7241591468416737
1/6/2012 15:00,-11.5,-14.4,79,19,12.9,100.06,Snow,-11.463999999999999,1.7357508862871274
1/6/2012 16:00,-11.6,-14.7,78,19,19.3,100.1,Snow,-11.562000000000001,1.733057876440812
1/6/2012 17:00,-11.2,-14.3,78,17,25.0,100.15,Snow,-11.184000000000012,1.733057876440812
1/6/2012 18:00,-10.5,-13.6,78,17,19.3,100.12,Cloudy,-10.55,1.733057876440812
1/6/2012 19:00,-10.5,-13.4,79,15,25.0,100.13,Cloudy,-10.504000000000001,1.7357508862871274
1/6/2012 20:00,-10.2,-13.0,80,11,25.0,100.15,Cloudy,-10.148000000000005,1.7383226557949913
1/6/2012 21:00,-9.5,-12.5,79,9,25.0,100.13,Cloudy,-9.603,1.7357508862871274
1/6/2012 22:00,-9.3,-12.2,79,11,19.3,100.16,Cloudy,-9.228999999999987,1.7357508862871274
1/6/2012 23:00,-9.0,-12.0,79,7,16.1,100.15,Cloudy,-8.908000000000003,1.7357508862871274
1/7/2012 0:00,-8.7,-11.7,79,6,16.1,100.13,Cloudy,-8.716000000000006,1.7357508862871274
1/7/2012 1:00,-8.5,-11.4,80,0,19.3,100.11,Cloudy,-8.527999999999999,1.7383226557949913
1/7/2012 2:00,-8.1,-11.1,79,4,19.3,100.15,Cloudy,-8.07800000000001,1.7357508862871274
1/7/2012 3:00,-7.8,-10.8,79,4,19.3,100.12,Cloudy,-7.875999999999996,1.7357508862871274
1/7/2012 4:00,-7.5,-10.5,79,6,19.3,100.1,Cloudy,-7.437,1.7357508862871274
1/7/2012 5:00,-6.9,-9.7,80,4,19.3,100.12,Cloudy,-6.982,1.7383226557949913
1/7/2012 6:00,-6.7,-9.5,80,7,16.1,100.12,Cloudy,-6.679000000000005,1.7383226557949913
1/7/2012 7:00,-7.0,-9.7,81,7,16.1,100.16,Cloudy,-7.011,1.7408722768108806
1/7/2012 8:00,-6.4,-9.0,82,9,8.0,100.1,"Freezing Drizzle,Fog",-6.409999999999996,1.7434626346010758
1/7/2012 9:00,-6.1,-8.7,82,7,9.7,100.15,"Freezing Rain,Fog",-6.099000000000007,1.7434626346010758
1/7/2012 10:00,-5.7,-8.0,84,7,8.0,100.13,Freezing Rain,-5.658999999999996,1.7483983249034645
1/7/2012 11:00,-5.4,-7.7,84,9,9.7,100.08,Freezing Drizzle,-5.385999999999993,1.7483983249034645
1/7/2012 12:00,-5.5,-7.8,84,13,9.7,100.05,Freezing Drizzle,-5.5219999999999985,1.7483983249034645
1/7/2012 13:00,-4.8,-7.2,83,15,9.7,100.07,Freezing Rain,-4.724000000000004,1.7459700090483987
1/7/2012 14:00,-4.4,-6.9,83,6,8.0,100.09,Snow,-4.463999999999998,1.7459700090483987
1/7/2012 15:00,-3.7,-6.1,83,11,8.0,100.09,Snow,-3.6989999999999967,1.7459700090483987
1/7/2012 16:00,-3.6,-5.9,84,0,8.0,100.15,Snow,-3.6080000000000028,1.7483983249034645
1/7/2012 17:00,-3.1,-5.4,84,13,8.0,100.27,Snow,-3.125,1.7492893197322013
1/7/2012 18:00,-3.2,-5.3,85,6,9.7,100.33,Snow,-3.1809999999999956,1.7507512632600475
1/7/2012 19:00,-3.0,-5.0,86,6,8.0,100.41,Snow,-2.9890000000000008,1.7530322801745157
1/7/2012 20:00,-1.8,-3.7,87,4,9.7,100.48,Snow,-1.8500000000000023,1.7623196132570773
1/7/2012 21:00,-1.3,-3.1,88,0,6.4,100.5,Snow,-1.3249999999999986,1.7669650412987494
1/7/2012 22:00,-1.5,-3.0,89,4,4.0,100.54,Fog,-1.475,1.765661409136769
1/7/2012 23:00,0.4,-1.5,87,22,9.7,100.62,Snow,0.4059999999999996,1.773061140101762
1/8/2012 0:00,0.6,-3.2,76,32,25.0,100.72,Cloudy,0.6030000000000006,1.7725469832637697
1/8/2012 1:00,-0.6,-4.6,74,32,25.0,100.8,Mostly Cloudy,-0.5940000000000004,1.7710063480131928
1/8/2012 2:00,-1.7,-6.2,71,30,25.0,100.98,Mostly Cloudy,-1.6849999999999992,1.7638048127205874
1/8/2012 3:00,-3.5,-8.3,69,32,25.0,101.13,Mainly Clear,-3.5340000000000003,1.7442990444220412
1/8/2012 4:00,-4.4,-9.2,69,22,25.0,101.21,Mainly Clear,-4.161999999999999,1.7362485973873665
1/8/2012 5:00,-5.9,-10.5,70,13,25.0,101.33,Mainly Clear,-5.915999999999993,1.710558740880663
1/8/2012 6:00,-5.8,-10.8,68,13,25.0,101.47,Cloudy,-5.758000000000002,1.7130891211762804
1/8/2012 7:00,-5.6,-10.3,69,11,25.0,101.59,Cloudy,-5.578000000000002,1.7158028152199427
1/8/2012 8:00,-5.9,-10.7,69,11,24.1,101.7,Snow,-5.930000000000002,1.710327405350242
1/8/2012 9:00,-6.4,-11.9,65,17,24.1,101.81,Snow,-6.420000000000003,1.701401714432876
1/8/2012 10:00,-6.5,-11.6,67,17,9.7,101.89,Snow,-6.533000000000002,1.699622291240762
1/8/2012 11:00,-7.1,-12.6,65,22,24.1,101.92,Snow,-7.317999999999995,1.6929583486014415
1/8/2012 12:00,-6.7,-11.9,66,15,24.1,101.9,Snow,-6.695000000000005,1.6974944332293904
1/8/2012 13:00,-6.5,-12.4,63,15,24.1,101.94,Cloudy,-6.565999999999998,1.6992029430531272
1/8/2012 14:00,-6.5,-12.0,65,19,24.1,101.97,Mostly Cloudy,-6.482000000000002,1.7002569277613422
1/8/2012 15:00,-6.6,-12.9,61,20,48.3,102.04,Mostly Cloudy,-6.577000000000006,1.6990616045899964
1/8/2012 16:00,-6.6,-13.3,59,20,24.1,102.09,Mostly Cloudy,-6.630000000000009,1.6983694360328268
1/8/2012 17:00,-7.2,-13.8,59,17,25.0,102.17,Mainly Clear,-7.2379999999999995,1.6888349405205811
1/8/2012 18:00,-8.1,-14.1,62,17,25.0,102.23,Mainly Clear,-8.126000000000007,1.681279062923068
1/8/2012 19:00,-8.0,-13.9,62,15,25.0,102.26,Mostly Cloudy,-8.000000000000002,1.681279062923068
1/8/2012 20:00,-8.3,-13.7,65,15,25.0,102.28,Mostly Cloudy,-8.262999999999987,1.6929583486014415
1/8/2012 21:00,-8.3,-13.9,64,11,25.0,102.26,Mostly Cloudy,-8.333999999999996,1.6895328361301014
1/8/2012 22:00,-8.7,-14.0,65,7,25.0,102.22,Mostly Cloudy,-8.669000000000006,1.6929583486014415
1/8/2012 23:00,-9.0,-13.9,68,7,25.0,102.22,Mostly Cloudy,-9.026,1.7018006700167505
1/9/2012 0:00,-9.2,-14.3,66,6,25.0,102.17,Mostly Cloudy,-9.210000000000012,1.6960165533823464
1/9/2012 1:00,-9.8,-14.5,68,0,25.0,102.13,Mostly Cloudy,-9.835999999999988,1.7018006700167505
1/9/2012 2:00,-9.0,-14.1,66,4,25.0,102.15,Mostly Cloudy,-8.952000000000004,1.6960165533823464
1/9/2012 3:00,-8.8,-13.2,70,0,25.0,102.11,Cloudy,-8.803999999999991,1.7091525423728813
1/9/2012 4:00,-8.5,-13.2,69,9,25.0,102.02,Cloudy,-8.653999999999998,1.7056195602958193
1/9/2012 5:00,-8.4,-12.7,71,11,25.0,101.93,Cloudy,-8.382999999999988,1.712430565280306
1/9/2012 6:00,-7.7,-11.9,72,11,25.0,101.86,Cloudy,-7.640000000000004,1.7154802667147235
1/9/2012 7:00,-6.8,-11.0,72,15,25.0,101.8,Mostly Cloudy,-6.685000000000003,1.7154802667147235
1/9/2012 8:00,-5.9,-10.5,70,13,16.1,101.74,Snow,-5.917999999999991,1.7105257660515876
1/9/2012 9:00,-5.4,-9.2,75,11,12.9,101.68,Snow,-5.450999999999993,1.7241591468416737
1/9/2012 10:00,-4.8,-8.3,76,9,16.1,101.64,Snow,-4.826000000000007,1.7272721454173066
1/9/2012 11:00,-3.7,-7.2,77,7,24.1,101.54,Snow,-3.6779999999999955,1.7424624907075834
1/9/2012 12:00,-2.5,-6.6,73,9,24.1,101.4,Cloudy,-2.5490000000000004,1.7557557779888864
1/9/2012 13:00,-1.7,-5.8,74,7,24.1,101.27,Cloudy,-1.7509999999999997,1.7632135626248369
1/9/2012 14:00,-1.4,-5.1,76,7,24.1,101.2,Cloudy,-1.4620000000000024,1.76577512508691
1/9/2012 15:00,-1.0,-5.1,74,9,24.1,101.13,Mostly Cloudy,-1.0650000000000004,1.7684811847802733
1/9/2012 16:00,-1.3,-5.7,72,11,24.1,101.05,Mostly Cloudy,-1.3299999999999994,1.7669218840269378
1/9/2012 17:00,-1.4,-5.8,72,15,24.1,100.96,Mostly Cloudy,-1.4200000000000024,1.7661415581344342
1/9/2012 18:00,-1.0,-5.6,71,20,25.0,100.9,Mostly Cloudy,-1.045,1.7685895420576547
1/9/2012 19:00,-1.1,-5.8,70,19,25.0,100.83,Mostly Cloudy,-0.8549999999999994,1.7696138998408182
1/9/2012 20:00,-1.5,-6.2,70,15,25.0,100.77,Mostly Cloudy,-1.39,1.7664024048164848
1/9/2012 21:00,-1.7,-6.3,71,11,25.0,100.64,Mostly Cloudy,-1.6549999999999994,1.7640723271657925
1/9/2012 22:00,-0.3,-6.3,64,19,25.0,100.54,Mostly Cloudy,-0.33000000000000007,1.7723977822182642
1/9/2012 23:00,-0.2,-6.1,64,17,25.0,100.45,Cloudy,-0.12899999999999978,1.7734458836637501
1/10/2012 0:00,2.5,-5.2,57,30,25.0,100.38,Cloudy,2.5139999999999993,1.7674357685065865
1/10/2012 1:00,2.3,-3.4,66,35,25.0,100.28,Snow,2.2470000000000003,1.7681636564412857
1/10/2012 2:00,1.4,-2.5,75,19,6.4,100.23,Snow,1.411000000000002,1.770413554598722
1/10/2012 3:00,1.6,-2.0,77,28,25.0,100.16,Snow,1.6869999999999974,1.7696756094590826
1/10/2012 4:00,1.2,-1.7,81,26,25.0,100.07,Cloudy,1.1730000000000014,1.7710461121486771
1/10/2012 5:00,0.8,-1.2,86,30,9.7,100.02,"Rain,Snow",0.8489999999999996,1.77190165935724
1/10/2012 6:00,0.7,-1.2,87,30,8.0,100.04,Snow,0.8099999999999997,1.772004210942635
1/10/2012 7:00,1.5,-0.7,85,20,8.0,100.08,Snow,1.5139999999999998,1.770138715752014
1/10/2012 8:00,1.2,-1.1,85,24,16.1,100.11,Cloudy,1.1800000000000006,1.7710275572708187
1/10/2012 9:00,1.6,-0.8,84,17,19.3,100.23,Cloudy,1.5879999999999972,1.7699408521662912
1/10/2012 10:00,2.0,-0.9,81,24,24.1,100.27,Mostly Cloudy,1.9540000000000004,1.7689571993211746
1/10/2012 11:00,2.6,-1.1,77,22,24.1,100.29,Mainly Clear,2.559999999999997,1.7673099027840014
1/10/2012 12:00,1.4,-3.1,72,30,24.1,100.32,Mostly Cloudy,1.4010000000000014,1.7704402029838362
1/10/2012 13:00,0.7,-5.4,64,26,24.1,100.36,Mostly Cloudy,0.6360000000000006,1.772460627562162
1/10/2012 14:00,-0.2,-6.2,64,26,24.1,100.45,Mainly Clear,-0.24700000000000003,1.772831753532319
1/10/2012 15:00,-1.4,-7.9,61,30,24.1,100.65,Mainly Clear,-1.376000000000001,1.7665238801414886
1/10/2012 16:00,-3.1,-10.9,55,30,24.1,100.81,Mostly Cloudy,-3.097000000000001,1.7496192788354277
1/10/2012 17:00,-4.0,-12.0,54,17,24.1,100.91,Mostly Cloudy,-4.013000000000002,1.738159014259507
1/10/2012 18:00,-4.9,-12.7,54,15,25.0,101.04,Mostly Cloudy,-4.771999999999998,1.7276957171495801
1/10/2012 19:00,-5.7,-13.8,53,15,25.0,101.15,Mostly Cloudy,-5.772999999999997,1.7128550627794268
1/10/2012 20:00,-6.4,-14.3,53,13,25.0,101.24,Mostly Cloudy,-6.456999999999993,1.700655035997987
1/10/2012 21:00,-6.6,-13.6,57,9,25.0,101.32,Mostly Cloudy,-6.5370000000000115,1.6995718302844802
1/10/2012 22:00,-7.3,-14.7,55,13,25.0,101.34,Mostly Cloudy,-7.250999999999994,1.68859247375157
1/10/2012 23:00,-8.6,-15.6,57,19,25.0,101.44,Mostly Cloudy,-8.649999999999999,1.6648421508897826
1/11/2012 0:00,-9.5,-16.8,55,17,25.0,101.43,Mostly Cloudy,-9.489000000000003,1.6524507409216738
1/11/2012 1:00,-10.7,-17.8,56,17,25.0,101.49,Clear,-10.680000000000012,1.659574703732418
1/11/2012 2:00,-12.0,-18.9,56,19,25.0,101.57,Clear,-11.928999999999998,1.659574703732418
1/11/2012 3:00,-12.7,-19.4,57,19,25.0,101.64,Clear,-12.879000000000019,1.6648421508897826
1/11/2012 4:00,-13.4,-20.1,57,17,25.0,101.66,Clear,-13.41300000000001,1.6648421508897826
1/11/2012 5:00,-13.9,-21.0,55,19,25.0,101.66,Mainly Clear,-14.159000000000013,1.6524507409216738
1/11/2012 6:00,-14.4,-21.1,57,20,25.0,101.72,Mainly Clear,-14.408000000000014,1.6648421508897826
1/11/2012 7:00,-14.4,-21.0,57,13,25.0,101.77,Mostly Cloudy,-14.408000000000014,1.6648421508897826
1/11/2012 8:00,-14.7,-21.4,57,15,24.1,101.8,Mostly Cloudy,-14.743999999999996,1.6648421508897826
1/11/2012 9:00,-14.3,-20.8,58,15,24.1,101.81,Mostly Cloudy,-14.312999999999983,1.6688951382675015
1/11/2012 10:00,-13.9,-20.9,55,11,19.3,101.89,Cloudy,-13.895000000000016,1.6524507409216738
1/11/2012 11:00,-13.4,-20.8,54,15,24.1,101.78,Mostly Cloudy,-13.604000000000015,1.6499999999999997
1/11/2012 12:00,-12.7,-20.4,53,17,24.1,101.68,Cloudy,-12.603000000000018,1.6500000000000004
1/11/2012 13:00,-12.2,-20.0,52,19,24.1,101.63,Mostly Cloudy,-12.198000000000015,1.6499999999999997
1/11/2012 14:00,-11.4,-19.4,52,20,24.1,101.56,Mostly Cloudy,-11.455999999999996,1.6499999999999997
1/11/2012 15:00,-11.6,-19.9,50,20,24.1,101.61,Mostly Cloudy,-11.728000000000003,1.5
1/11/2012 16:00,-11.8,-20.9,47,20,24.1,101.6,Mostly Cloudy,-11.902999999999981,1.5
1/11/2012 17:00,-11.9,-20.1,51,26,24.1,101.56,Mostly Cloudy,-12.017999999999999,1.6499999999999997
1/11/2012 18:00,-12.0,-19.9,52,24,25.0,101.51,Mostly Cloudy,-11.986,1.6499999999999997
1/11/2012 19:00,-11.8,-19.2,54,30,25.0,101.43,Mostly Cloudy,-11.868999999999986,1.6499999999999997
1/11/2012 20:00,-11.2,-18.1,57,24,25.0,101.4,Cloudy,-11.261000000000013,1.6648421508897826
1/11/2012 21:00,-11.2,-16.5,65,19,25.0,101.32,Cloudy,-11.12500000000001,1.6929583486014415
1/11/2012 22:00,-10.8,-16.0,65,22,25.0,101.29,Cloudy,-10.797999999999988,1.6929583486014415
1/11/2012 23:00,-10.7,-15.7,67,20,25.0,101.19,Mostly Cloudy,-10.708999999999996,1.698763522260988
1/12/2012 0:00,-10.0,-15.2,66,19,25.0,101.17,Mostly Cloudy,-10.026999999999996,1.6960165533823464
1/12/2012 1:00,-9.8,-15.2,65,24,25.0,101.13,Mostly Cloudy,-9.938999999999998,1.6929583486014415
1/12/2012 2:00,-9.4,-15.0,64,26,25.0,101.08,Cloudy,-9.402999999999988,1.6895328361301014
1/12/2012 3:00,-9.0,-14.7,63,33,25.0,101.02,Cloudy,-8.978999999999996,1.6856696145686971
1/12/2012 4:00,-8.5,-14.1,64,22,25.0,100.93,Cloudy,-8.493,1.6895328361301014
1/12/2012 5:00,-8.0,-13.7,64,30,25.0,100.81,Cloudy,-8.042000000000002,1.6895328361301014
1/12/2012 6:00,-7.6,-13.1,65,28,25.0,100.76,Cloudy,-7.630000000000008,1.6929583486014415
1/12/2012 7:00,-7.3,-12.7,65,28,16.1,100.69,Snow Showers,-7.308999999999994,1.6929583486014415
1/12/2012 8:00,-7.1,-11.3,72,33,6.4,100.61,Snow,-7.115000000000008,1.7154802667147235
1/12/2012 9:00,-6.8,-10.5,75,33,3.2,100.54,Snow,-6.801999999999993,1.7241591468416737
1/12/2012 10:00,-6.2,-9.6,77,35,4.8,100.46,Snow,-6.405000000000004,1.7302348458823897
1/12/2012 11:00,-6.0,-9.5,76,32,2.0,100.35,Snow,-6.028999999999999,1.7272721454173066
1/12/2012 12:00,-5.8,-8.9,79,32,4.8,100.22,Snow,-5.813000000000001,1.7357508862871274
1/12/2012 13:00,-5.8,-8.6,81,33,1.2,100.09,Snow,-5.808,1.7408722768108806
1/12/2012 14:00,-5.7,-8.5,81,28,1.2,99.97,Snow,-5.724999999999998,1.7408722768108806
1/12/2012 15:00,-5.2,-7.6,83,26,0.8,99.9,Moderate Snow,-5.129999999999999,1.7459700090483987
1/12/2012 16:00,-4.9,-7.3,83,33,0.6,99.88,Moderate Snow,-4.873999999999993,1.7459700090483987
1/12/2012 17:00,-5.1,-7.6,83,33,1.0,99.83,Snow,-5.097000000000005,1.7459700090483987
1/12/2012 18:00,-5.4,-8.1,81,35,1.2,99.76,Snow,-5.329999999999996,1.7408722768108806
1/12/2012 19:00,-5.0,-7.6,82,30,4.0,99.72,Snow,-5.005000000000001,1.7434626346010758
1/12/2012 20:00,-5.0,-7.8,81,28,6.4,99.64,Snow,-5.085000000000001,1.7408722768108806
1/12/2012 21:00,-4.7,-7.6,80,24,6.4,99.56,Snow,-4.739999999999996,1.7383226557949913
1/12/2012 22:00,-4.1,-6.8,81,26,25.0,99.47,Snow,-4.155000000000004,1.7408722768108806
1/12/2012 23:00,-4.6,-7.0,83,28,3.2,99.4,Snow,-4.629000000000004,1.7459700090483987
1/13/2012 0:00,-5.1,-7.5,83,28,2.4,99.3,Snow,-5.025000000000002,1.7459700090483987
1/13/2012 1:00,-5.0,-7.7,81,24,4.8,99.24,Snow,-4.984,1.7408722768108806
1/13/2012 2:00,-4.8,-7.5,81,22,25.0,99.22,Snow,-4.8330000000000055,1.7408722768108806
1/13/2012 3:00,-4.5,-6.9,83,19,4.8,99.19,"Freezing Drizzle,Snow",-4.5200000000000005,1.7459700090483987
1/13/2012 4:00,-5.0,-7.4,83,24,11.3,99.13,Cloudy,-4.975000000000002,1.7459700090483987
1/13/2012 5:00,-5.1,-7.7,82,20,12.9,99.06,Cloudy,-5.103000000000006,1.7434626346010758
1/13/2012 6:00,-5.4,-7.8,83,22,16.1,98.94,Cloudy,-5.328999999999996,1.7459700090483987
1/13/2012 7:00,-5.1,-7.7,82,22,16.1,98.84,Cloudy,-5.103000000000007,1.7434626346010758
1/13/2012 8:00,-5.1,-7.5,83,26,8.0,98.69,Freezing Rain,-5.0830000000000055,1.7459700090483987
1/13/2012 9:00,-5.0,-7.3,84,32,4.8,98.56,"Freezing Rain,Snow Grains",-4.989,1.7483983249034645
1/13/2012 10:00,-4.8,-7.2,83,26,12.9,98.44,Freezing Drizzle,-4.771000000000007,1.7459700090483987
1/13/2012 11:00,-4.8,-7.3,83,28,9.7,98.22,Freezing Rain,-4.825000000000005,1.7459700090483987
1/13/2012 12:00,-4.8,-7.5,81,24,2.0,98.07,Snow,-4.928000000000003,1.7408722768108806
1/13/2012 13:00,-4.9,-7.3,83,20,1.2,97.99,Snow,-4.867999999999996,1.7459700090483987
1/13/2012 14:00,-4.8,-7.0,85,6,2.0,98.07,Snow,-4.786000000000006,1.7507512632600475
1/13/2012 15:00,-4.3,-6.5,85,13,8.0,98.1,Snow,-4.308000000000006,1.7507512632600475
1/13/2012 16:00,-3.7,-6.0,84,11,6.4,98.16,Snow,-3.6129999999999995,1.7483983249034645
1/13/2012 17:00,-2.9,-4.8,87,15,1.6,98.23,Snow,-2.9040000000000004,1.755244623603565
1/13/2012 18:00,-1.7,-3.3,89,26,16.1,98.32,Snow,-1.6969999999999994,1.7636975912731259
1/13/2012 19:00,-2.5,-4.5,86,33,2.0,98.6,Snow,-2.5420000000000003,1.7558237853116334
1/13/2012 20:00,-3.2,-5.1,87,32,2.0,98.89,Snow,-3.041999999999998,1.755244623603565
1/13/2012 21:00,-4.8,-7.9,79,37,4.8,99.09,"Snow,Blowing Snow",-4.865000000000004,1.7357508862871274
1/13/2012 22:00,-5.5,-10.1,70,32,12.9,99.28,Snow,-5.531000000000001,1.7164837151035153
1/13/2012 23:00,-7.6,-11.2,75,35,9.7,99.51,"Snow,Blowing Snow",-7.610000000000008,1.7241591468416737
1/14/2012 0:00,-8.9,-13.1,72,39,9.7,99.67,"Snow,Blowing Snow",-8.94499999999999,1.7154802667147235
1/14/2012 1:00,-9.7,-14.3,69,24,12.9,99.85,Snow,-9.736000000000011,1.7056195602958193
1/14/2012 2:00,-11.2,-15.5,70,28,9.7,100.01,"Snow,Blowing Snow",-11.054000000000013,1.7091525423728813
1/14/2012 3:00,-12.0,-16.2,71,24,8.0,100.16,"Snow,Blowing Snow",-11.986999999999997,1.712430565280306
1/14/2012 4:00,-13.4,-18.9,63,20,16.1,100.26,Snow,-13.299000000000001,1.6856696145686971
1/14/2012 5:00,-14.3,-19.8,63,24,25.0,100.39,Cloudy,-14.229999999999988,1.6856696145686971
1/14/2012 6:00,-15.2,-20.6,63,24,25.0,100.6,Cloudy,-14.748,1.6856696145686971
1/14/2012 7:00,-16.8,-22.2,63,26,25.0,100.73,Mostly Cloudy,-16.485000000000017,1.6856696145686971
1/14/2012 8:00,-17.9,-23.5,62,20,24.1,100.84,Mostly Cloudy,-17.811000000000018,1.681279062923068
1/14/2012 9:00,-18.0,-23.6,61,19,24.1,100.97,Cloudy,-17.873000000000008,1.6768881290465567
1/14/2012 10:00,-18.0,-23.9,60,22,24.1,101.08,Mostly Cloudy,-17.872999999999998,1.6747229916897506
1/14/2012 11:00,-17.8,-23.9,59,20,24.1,101.14,Mostly Cloudy,-17.747999999999998,1.672110259985864
1/14/2012 12:00,-17.5,-23.8,58,20,48.3,101.16,Mostly Cloudy,-17.237000000000002,1.6688951382675015
1/14/2012 13:00,-17.1,-24.1,55,17,48.3,101.18,Mainly Clear,-17.076999999999977,1.6524507409216738
1/14/2012 14:00,-16.7,-23.4,56,17,48.3,101.2,Mostly Cloudy,-16.779000000000018,1.659574703732418
1/14/2012 15:00,-16.7,-23.4,56,22,48.3,101.24,Mostly Cloudy,-16.78100000000002,1.659574703732418
1/14/2012 16:00,-16.7,-24.3,52,19,24.1,101.3,Mostly Cloudy,-16.550999999999984,1.6499999999999997
1/14/2012 17:00,-17.4,-24.4,54,13,25.0,101.36,Mostly Cloudy,-17.307000000000013,1.6499999999999997
1/14/2012 18:00,-17.7,-24.3,56,20,25.0,101.46,Mainly Clear,-17.226999999999993,1.659574703732418
1/14/2012 19:00,-18.3,-24.4,59,17,25.0,101.56,Mainly Clear,-18.12699999999998,1.672110259985864
1/14/2012 20:00,-19.6,-25.8,58,13,25.0,101.62,Mainly Clear,-18.426,1.6688951382675015
1/14/2012 21:00,-20.0,-25.9,59,11,25.0,101.65,Mostly Cloudy,-20.28799999999999,1.672110259985864
1/14/2012 22:00,-19.9,-26.0,58,13,25.0,101.74,Mostly Cloudy,-20.145999999999987,1.6688951382675015
1/14/2012 23:00,-20.3,-26.2,59,9,25.0,101.79,Mostly Cloudy,-20.489999999999988,1.672110259985864
1/15/2012 0:00,-21.2,-26.8,61,11,25.0,101.81,Cloudy,-21.145000000000014,1.6768881290465567
1/15/2012 1:00,-21.1,-26.6,61,9,25.0,101.86,Cloudy,-21.171000000000014,1.6768881290465567
1/15/2012 2:00,-21.4,-26.6,63,9,25.0,101.99,Cloudy,-21.29300000000002,1.6856696145686971
1/15/2012 3:00,-20.7,-26.1,62,4,25.0,102.04,Cloudy,-20.572000000000013,1.681279062923068
1/15/2012 4:00,-21.0,-26.6,61,0,25.0,102.12,Cloudy,-21.107999999999997,1.6768881290465567
1/15/2012 5:00,-21.3,-26.5,63,6,25.0,102.19,Mostly Cloudy,-21.346999999999984,1.6856696145686971
1/15/2012 6:00,-23.2,-28.5,62,7,25.0,102.28,Mostly Cloudy,-22.944000000000003,1.681279062923068
1/15/2012 7:00,-22.8,-28.0,62,9,25.0,102.37,Mainly Clear,-22.794000000000004,1.681279062923068
1/15/2012 8:00,-23.3,-28.5,62,7,24.1,102.45,Clear,-23.162999999999993,1.681279062923068
1/15/2012 9:00,-22.2,-27.8,60,9,48.3,102.57,Mainly Clear,-22.35600000000001,1.6747229916897506
1/15/2012 10:00,-20.6,-26.8,58,9,48.3,102.66,Mainly Clear,-20.896,1.6688951382675015
1/15/2012 11:00,-19.3,-26.1,55,9,48.3,102.68,Mainly Clear,-20.253999999999987,1.6524507409216738
1/15/2012 12:00,-18.0,-25.5,52,13,48.3,102.67,Mainly Clear,-17.634,1.6499999999999997
1/15/2012 13:00,-16.8,-24.2,53,20,48.3,102.65,Mainly Clear,-16.62399999999999,1.6500000000000004
1/15/2012 14:00,-16.0,-23.4,53,26,48.3,102.66,Mainly Clear,-16.083,1.6500000000000004
1/15/2012 15:00,-15.4,-22.8,53,24,48.3,102.71,Clear,-15.292000000000007,1.6500000000000004
1/15/2012 16:00,-15.1,-22.8,52,24,48.3,102.79,Clear,-15.15899999999999,1.6499999999999997
1/15/2012 17:00,-16.2,-23.2,55,15,25.0,102.85,Clear,-16.453999999999997,1.6524507409216738
1/15/2012 18:00,-16.3,-22.9,57,17,25.0,102.89,Clear,-16.06299999999999,1.6648421508897826
1/15/2012 19:00,-16.3,-22.7,58,20,25.0,102.94,Clear,-16.37299999999998,1.6688951382675015
1/15/2012 20:00,-16.7,-22.4,61,17,25.0,102.98,Clear,-16.73900000000002,1.6768881290465567
1/15/2012 21:00,-16.9,-22.2,63,15,25.0,103.02,Clear,-16.80200000000002,1.6856696145686971
1/15/2012 22:00,-16.9,-21.7,66,17,25.0,103.07,Clear,-16.84000000000002,1.6960165533823464
1/15/2012 23:00,-16.9,-21.4,68,15,25.0,103.09,Clear,-16.880000000000024,1.7018006700167505
1/16/2012 0:00,-17.1,-21.9,66,15,25.0,103.09,Clear,-16.933000000000025,1.6960165533823464
1/16/2012 1:00,-17.8,-22.7,65,6,25.0,103.05,Clear,-17.891999999999985,1.6929583486014415
1/16/2012 2:00,-18.5,-23.0,68,6,25.0,103.08,Clear,-18.550000000000004,1.7018006700167505
1/16/2012 3:00,-19.2,-23.8,67,6,25.0,103.07,Clear,-18.97700000000002,1.698763522260988
1/16/2012 4:00,-18.7,-23.5,66,0,25.0,103.05,Clear,-18.663000000000014,1.6960165533823464
1/16/2012 5:00,-19.1,-23.3,69,0,25.0,103.02,Clear,-18.88599999999998,1.7056195602958193
1/16/2012 6:00,-18.7,-23.2,68,0,25.0,103.01,Clear,-18.686000000000014,1.7018006700167505
1/16/2012 7:00,-17.9,-21.5,73,4,48.3,102.96,Mainly Clear,-17.69000000000002,1.718324698506683
1/16/2012 8:00,-17.9,-22.6,67,9,48.3,102.9,Mostly Cloudy,-17.87200000000002,1.698763522260988
1/16/2012 9:00,-14.4,-20.7,59,22,48.3,102.75,Cloudy,-14.430000000000005,1.672110259985864
1/16/2012 10:00,-13.6,-18.7,65,19,48.3,102.62,Mostly Cloudy,-13.567999999999998,1.6929583486014415
1/16/2012 11:00,-12.7,-17.7,66,20,48.3,102.44,Mostly Cloudy,-12.616000000000012,1.6960165533823464
1/16/2012 12:00,-10.7,-16.9,60,19,48.3,102.17,Mostly Cloudy,-10.683000000000009,1.6747229916897506
1/16/2012 13:00,-10.1,-16.1,61,13,48.3,101.92,Cloudy,-10.155000000000006,1.6768881290465567
1/16/2012 14:00,-9.0,-13.8,68,13,48.3,101.71,Mostly Cloudy,-8.888,1.7018006700167505
1/16/2012 15:00,-8.0,-13.8,63,17,48.3,101.49,Cloudy,-7.955999999999996,1.6856696145686971
1/16/2012 16:00,-7.1,-14.1,57,9,48.3,101.41,Cloudy,-7.07100000000001,1.6917876380627075
1/16/2012 17:00,-7.6,-14.8,56,4,25.0,101.34,Mostly Cloudy,-7.562000000000009,1.6821587943266738
1/16/2012 18:00,-12.5,-17.5,66,15,25.0,101.31,Mainly Clear,-12.510000000000005,1.6960165533823464
1/16/2012 19:00,-14.8,-19.1,70,15,25.0,101.23,Mainly Clear,-14.342,1.7091525423728813
1/16/2012 20:00,-14.0,-18.3,70,13,25.0,101.19,Cloudy,-13.939,1.7091525423728813
1/16/2012 21:00,-12.9,-17.1,71,11,25.0,101.12,Cloudy,-12.928000000000004,1.712430565280306
1/16/2012 22:00,-12.2,-16.5,70,9,25.0,101.05,Cloudy,-12.20700000000001,1.7091525423728813
1/16/2012 23:00,-11.5,-15.7,71,7,25.0,100.98,Cloudy,-11.62,1.712430565280306
1/17/2012 0:00,-10.8,-15.0,71,9,25.0,100.94,Cloudy,-10.750999999999987,1.712430565280306
1/17/2012 1:00,-10.4,-14.6,71,9,25.0,100.88,Cloudy,-10.303999999999995,1.712430565280306
1/17/2012 2:00,-9.7,-13.7,73,9,25.0,100.84,Cloudy,-9.671000000000014,1.718324698506683
1/17/2012 3:00,-9.2,-13.2,73,6,25.0,100.84,Cloudy,-9.194000000000004,1.718324698506683
1/17/2012 4:00,-9.0,-12.2,78,6,6.4,100.8,Freezing Drizzle,-9.001999999999999,1.733057876440812
1/17/2012 5:00,-8.3,-10.4,85,6,3.6,100.75,"Freezing Drizzle,Snow",-8.400999999999993,1.7507512632600475
1/17/2012 6:00,-7.7,-9.9,84,6,2.4,100.72,"Freezing Drizzle,Snow",-7.677000000000005,1.7483983249034645
1/17/2012 7:00,-7.5,-9.6,85,9,2.0,100.69,Snow,-7.600999999999999,1.7507512632600475
1/17/2012 8:00,-7.4,-9.6,84,9,2.4,100.65,Snow,-7.437999999999995,1.7483983249034645
1/17/2012 9:00,-7.0,-9.5,82,15,4.0,100.59,Snow,-7.0050000000000034,1.7434626346010758
1/17/2012 10:00,-6.5,-9.0,82,15,1.2,100.6,Snow,-6.4810000000000025,1.7434626346010758
1/17/2012 11:00,-6.1,-8.5,83,15,2.4,100.53,Snow,-6.07400000000001,1.7459700090483987
1/17/2012 12:00,-5.3,-7.9,82,19,2.8,100.38,Snow,-5.308000000000004,1.7434626346010758
1/17/2012 13:00,-5.1,-7.7,82,22,2.4,100.23,Snow,-5.084000000000006,1.7434626346010758
1/17/2012 14:00,-4.3,-6.5,85,22,1.6,100.05,Snow,-4.306000000000005,1.7507512632600475
1/17/2012 15:00,-3.7,-6.0,84,24,1.2,99.9,Snow,-3.6599999999999966,1.7483983249034645
1/17/2012 16:00,-3.5,-6.0,83,28,1.2,99.69,Snow,-3.5340000000000003,1.7459700090483987
1/17/2012 17:00,-3.6,-5.9,84,22,1.6,99.57,Snow,-3.616000000000003,1.7483983249034645
1/17/2012 18:00,-3.5,-5.8,84,22,2.4,99.38,Snow,-3.515000000000003,1.7483983249034645
1/17/2012 19:00,-3.3,-5.6,84,24,4.8,99.22,"Freezing Drizzle,Snow",-3.3810000000000047,1.7483983249034645
1/17/2012 20:00,-3.6,-5.7,85,24,3.2,98.98,Freezing Rain,-3.562000000000004,1.7507512632600475
1/17/2012 21:00,-2.9,-4.9,86,26,2.8,98.71,Freezing Rain,-2.877000000000001,1.7530322801745157
1/17/2012 22:00,-1.6,-3.2,89,17,3.2,98.47,Freezing Rain,-1.5959999999999983,1.7645962027621889
1/17/2012 23:00,-0.6,-2.1,90,7,2.8,98.32,"Freezing Rain,Fog",-0.5520000000000005,1.7712288494427249
1/18/2012 0:00,2.1,0.7,90,11,8.0,98.31,Fog,2.049999999999999,1.7686977979540166
1/18/2012 1:00,3.7,-2.1,66,83,25.0,98.36,Mostly Cloudy,3.6829999999999945,1.7623967021453197
1/18/2012 2:00,0.5,-4.0,72,70,25.0,98.62,Mostly Cloudy,0.5329999999999999,1.7727299452127239
1/18/2012 3:00,-3.5,-8.2,70,57,25.0,99.0,Mostly Cloudy,-3.468,1.7451265635445712
1/18/2012 4:00,-6.1,-10.9,69,48,25.0,99.36,Snow,-6.055000000000008,1.7082076142175446
1/18/2012 5:00,-7.7,-12.4,69,46,19.3,99.7,Snow,-7.688000000000004,1.7056195602958193
1/18/2012 6:00,-8.5,-13.9,65,39,19.3,100.0,Mostly Cloudy,-8.469000000000001,1.6929583486014415
1/18/2012 7:00,-9.8,-15.4,64,39,19.3,100.22,Mainly Clear,-9.632999999999992,1.6895328361301014
1/18/2012 8:00,-10.9,-16.6,63,35,24.1,100.43,Mainly Clear,-10.918,1.6856696145686971
1/18/2012 9:00,-11.2,-17.2,61,43,24.1,100.65,Mainly Clear,-11.171000000000014,1.6768881290465567
1/18/2012 10:00,-11.2,-17.2,61,35,24.1,100.78,Mainly Clear,-11.177000000000012,1.6768881290465567
1/18/2012 11:00,-11.1,-17.7,58,39,24.1,100.92,Mainly Clear,-11.102000000000006,1.6688951382675015
1/18/2012 12:00,-11.0,-17.8,57,37,24.1,101.0,Mainly Clear,-11.024000000000003,1.6648421508897826
1/18/2012 13:00,-10.6,-17.8,55,32,24.1,101.09,Mainly Clear,-10.659000000000006,1.6524507409216738
1/18/2012 14:00,-10.3,-17.6,55,28,48.3,101.19,Mainly Clear,-10.410999999999987,1.6524507409216738
1/18/2012 15:00,-10.4,-18.0,54,30,48.3,101.32,Mainly Clear,-10.445999999999993,1.6499999999999997
1/18/2012 16:00,-10.6,-18.4,53,26,48.3,101.45,Mainly Clear,-10.660000000000007,1.6500000000000004
1/18/2012 17:00,-11.3,-18.8,54,26,48.3,101.54,Clear,-11.290999999999986,1.6499999999999997
1/18/2012 18:00,-12.0,-18.2,60,22,25.0,101.67,Clear,-12.033000000000007,1.6747229916897506
1/18/2012 19:00,-12.7,-18.7,61,22,25.0,101.78,Clear,-12.646000000000017,1.6768881290465567
1/18/2012 20:00,-13.4,-19.2,62,17,25.0,101.83,Clear,-13.490000000000007,1.681279062923068
1/18/2012 21:00,-13.7,-19.3,63,17,25.0,101.89,Clear,-13.820000000000004,1.6856696145686971
1/18/2012 22:00,-14.2,-19.8,62,13,25.0,101.92,Clear,-14.082000000000024,1.681279062923068
1/18/2012 23:00,-14.9,-19.9,66,6,25.0,101.93,Clear,-15.096000000000002,1.6960165533823464
1/19/2012 0:00,-16.6,-20.9,69,7,25.0,101.94,Clear,-16.255999999999986,1.7056195602958193
1/19/2012 1:00,-15.2,-18.4,76,4,25.0,101.89,Clear,-15.090000000000023,1.7272721454173066
1/19/2012 2:00,-14.3,-17.4,77,6,25.0,101.86,Clear,-14.276999999999985,1.7302348458823897
1/19/2012 3:00,-18.0,-21.6,73,6,25.0,101.83,Clear,-17.126999999999995,1.718324698506683
1/19/2012 4:00,-15.4,-18.3,78,7,25.0,101.81,Clear,-15.28100000000002,1.733057876440812
1/19/2012 5:00,-16.6,-19.9,76,6,25.0,101.85,Clear,-16.075999999999986,1.7272721454173066
1/19/2012 6:00,-15.3,-19.7,69,6,25.0,101.83,Clear,-15.205999999999984,1.7056195602958193
1/19/2012 7:00,-14.6,-19.2,68,6,24.1,101.84,Clear,-14.707999999999993,1.7018006700167505
1/19/2012 8:00,-13.7,-18.4,68,19,48.3,101.84,Clear,-13.717000000000011,1.7018006700167505
1/19/2012 9:00,-12.7,-17.2,69,17,48.3,101.73,Clear,-12.718000000000018,1.7056195602958193
1/19/2012 10:00,-11.7,-17.2,64,20,48.3,101.68,Mainly Clear,-11.701000000000015,1.6895328361301014
1/19/2012 11:00,-11.0,-16.9,62,26,48.3,101.56,Mostly Cloudy,-11.092000000000002,1.681279062923068
1/19/2012 12:00,-8.8,-15.4,59,15,48.3,101.42,Mostly Cloudy,-8.722999999999987,1.672110259985864
1/19/2012 13:00,-7.3,-14.7,55,20,48.3,101.22,Mostly Cloudy,-7.196999999999997,1.6895872554723013
1/19/2012 14:00,-7.0,-14.9,53,20,48.3,101.03,Mostly Cloudy,-7.014000000000001,1.6927312461999668
1/19/2012 15:00,-6.7,-15.0,52,26,48.3,100.88,Cloudy,-6.879000000000001,1.6948485928537709
1/19/2012 16:00,-6.7,-14.9,52,24,24.1,100.76,Cloudy,-6.800000000000001,1.6960165533823461
1/19/2012 17:00,-6.9,-14.7,54,17,24.1,100.7,Cloudy,-6.9919999999999956,1.6930873145402046
1/19/2012 18:00,-5.0,-12.9,54,19,25.0,100.66,Cloudy,-5.003000000000001,1.7241112492185295
1/19/2012 19:00,-3.6,-12.7,49,30,25.0,100.61,Snow,-3.649000000000003,1.7428358280326546
1/19/2012 20:00,-3.7,-11.9,53,30,16.1,100.63,Snow,-3.7429999999999968,1.7416192225684228
1/19/2012 21:00,-5.0,-8.4,77,24,2.0,100.6,Snow,-4.908000000000002,1.7302348458823897
1/19/2012 22:00,-4.2,-9.3,68,32,25.0,100.51,Snow,-4.182999999999997,1.73597408385677
1/19/2012 23:00,-4.1,-8.9,69,26,25.0,100.47,Snow,-3.997000000000001,1.7383603512442438
1/20/2012 0:00,-4.1,-8.6,71,26,25.0,100.5,Mostly Cloudy,-4.092000000000001,1.7371541724119466
1/20/2012 1:00,-4.1,-8.3,73,20,25.0,100.54,Snow,-4.1230000000000055,1.7367549171177403
1/20/2012 2:00,-3.9,-8.1,73,22,9.7,100.64,Snow,-3.9209999999999985,1.7393068864826966
1/20/2012 3:00,-4.8,-9.9,67,19,25.0,100.75,Mostly Cloudy,-4.746000000000005,1.7280864241683254
1/20/2012 4:00,-6.0,-10.2,72,19,16.1,100.87,Snow,-5.932,1.7154802667147235
1/20/2012 5:00,-6.3,-12.2,63,33,25.0,100.98,Snow,-6.427,1.7012613130403225
1/20/2012 6:00,-7.6,-14.3,59,28,25.0,101.13,Cloudy,-7.6420000000000075,1.6802797974740085
1/20/2012 7:00,-8.6,-15.6,57,28,25.0,101.27,Mostly Cloudy,-8.606000000000005,1.6648421508897826
1/20/2012 8:00,-10.4,-16.2,62,33,24.1,101.47,Mainly Clear,-10.43999999999999,1.681279062923068
1/20/2012 9:00,-12.2,-18.1,61,32,24.1,101.59,Clear,-11.945000000000011,1.6768881290465567
1/20/2012 10:00,-13.7,-20.3,57,33,24.1,101.72,Mainly Clear,-13.618000000000018,1.6648421508897826
1/20/2012 11:00,-14.2,-21.2,55,32,24.1,101.84,Clear,-14.169000000000024,1.6524507409216738
1/20/2012 12:00,-15.2,-22.1,56,30,24.1,101.88,Clear,-15.163,1.659574703732418
1/20/2012 13:00,-15.8,-23.7,51,30,24.1,101.96,Clear,-15.915999999999983,1.6499999999999997
1/20/2012 14:00,-15.5,-24.1,48,30,48.3,101.98,Mainly Clear,-15.534,1.5
1/20/2012 15:00,-15.0,-23.9,47,30,48.3,102.09,Mainly Clear,-15.214000000000004,1.5
1/20/2012 16:00,-14.8,-24.1,45,24,48.3,102.15,Mainly Clear,-15.336000000000004,1.5
1/20/2012 17:00,-15.4,-24.3,46,17,48.3,102.21,Mainly Clear,-15.658000000000023,1.5
1/20/2012 18:00,-15.9,-24.3,48,13,25.0,102.27,Mainly Clear,-16.00100000000002,1.5
1/20/2012 19:00,-16.3,-24.2,51,13,25.0,102.33,Mainly Clear,-16.407999999999987,1.6499999999999997
1/20/2012 20:00,-16.9,-24.8,50,9,25.0,102.34,Mainly Clear,-16.955000000000005,1.5
1/20/2012 21:00,-18.5,-25.6,54,9,25.0,102.37,Mainly Clear,-18.450999999999997,1.6499999999999997
1/20/2012 22:00,-18.1,-25.1,54,9,25.0,102.36,Mainly Clear,-18.069999999999986,1.6499999999999997
1/20/2012 23:00,-17.4,-24.5,54,6,25.0,102.37,Mostly Cloudy,-17.57000000000002,1.6499999999999997
1/21/2012 0:00,-16.4,-23.7,53,6,25.0,102.29,Cloudy,-16.385000000000012,1.6500000000000004
1/21/2012 1:00,-16.1,-23.6,52,0,25.0,102.26,Cloudy,-16.260999999999992,1.6499999999999997
1/21/2012 2:00,-15.3,-22.8,53,0,25.0,102.27,Cloudy,-15.230999999999984,1.6500000000000004
1/21/2012 3:00,-15.9,-21.9,60,7,25.0,102.23,Cloudy,-16.13399999999999,1.6747229916897506
1/21/2012 4:00,-15.3,-21.8,58,7,25.0,102.18,Cloudy,-15.352999999999978,1.6688951382675015
1/21/2012 5:00,-14.8,-22.9,50,11,25.0,102.08,Cloudy,-14.936999999999976,1.5
1/21/2012 6:00,-14.3,-22.0,52,9,25.0,101.98,Cloudy,-14.60799999999999,1.6499999999999997
1/21/2012 7:00,-13.9,-22.1,50,9,25.0,102.04,Cloudy,-14.416999999999987,1.5
1/21/2012 8:00,-14.0,-21.8,52,9,25.0,102.06,Cloudy,-14.082999999999995,1.6499999999999997
1/21/2012 9:00,-15.9,-21.0,65,13,24.1,102.11,Snow,-15.843000000000016,1.6929583486014415
1/21/2012 10:00,-16.3,-21.4,65,17,24.1,102.12,Snow,-16.45199999999999,1.6929583486014415
1/21/2012 11:00,-15.9,-21.2,64,19,24.1,102.09,Snow,-15.666000000000011,1.6895328361301014
1/21/2012 12:00,-14.6,-20.3,62,15,24.1,102.03,Mostly Cloudy,-14.395999999999997,1.681279062923068
1/21/2012 13:00,-13.4,-19.8,59,15,24.1,102.01,Mainly Clear,-13.41200000000001,1.672110259985864
1/21/2012 14:00,-12.5,-19.7,55,13,24.1,102.01,Clear,-12.709999999999996,1.6524507409216738
1/21/2012 15:00,-11.8,-18.9,56,11,24.1,102.06,Clear,-11.809999999999986,1.659574703732418
1/21/2012 16:00,-11.6,-18.8,55,7,48.3,102.11,Clear,-11.576999999999991,1.6524507409216738
1/21/2012 17:00,-12.1,-19.8,53,11,48.3,102.16,Clear,-12.017000000000001,1.6500000000000004
1/21/2012 18:00,-13.0,-20.2,55,6,25.0,102.24,Clear,-13.078999999999997,1.6524507409216738
1/21/2012 19:00,-13.4,-19.9,58,4,25.0,102.27,Clear,-13.442000000000007,1.6688951382675015
1/21/2012 20:00,-18.5,-24.4,60,4,25.0,102.36,Clear,-18.352999999999994,1.6747229916897506
1/21/2012 21:00,-16.0,-20.8,66,9,25.0,102.47,Clear,-15.926000000000002,1.6960165533823464
1/21/2012 22:00,-17.6,-23.3,61,0,25.0,102.52,Clear,-17.83699999999998,1.6768881290465567
1/21/2012 23:00,-17.4,-21.7,69,0,25.0,102.54,Mainly Clear,-17.211000000000013,1.7056195602958193
1/22/2012 0:00,-18.3,-22.5,70,0,25.0,102.57,Clear,-18.193999999999985,1.7091525423728813
1/22/2012 1:00,-17.5,-21.3,72,4,25.0,102.64,Clear,-17.411000000000005,1.7154802667147235
1/22/2012 2:00,-18.5,-22.6,70,0,25.0,102.71,Clear,-18.283999999999992,1.7091525423728813
1/22/2012 3:00,-18.4,-23.0,67,0,16.1,102.75,Cloudy,-18.289000000000023,1.698763522260988
1/22/2012 4:00,-17.2,-21.5,69,0,25.0,102.79,Mainly Clear,-17.300000000000022,1.7056195602958193
1/22/2012 5:00,-19.5,-23.4,71,6,16.1,102.84,Mainly Clear,-18.583000000000006,1.712430565280306
1/22/2012 6:00,-19.0,-22.9,71,6,0.8,102.85,Freezing Fog,-18.247000000000007,1.712430565280306
1/22/2012 7:00,-18.6,-22.8,69,6,12.9,102.91,Mainly Clear,-18.111000000000004,1.7056195602958193
1/22/2012 8:00,-18.5,-22.0,74,4,24.1,102.98,Mainly Clear,-18.086000000000002,1.7209839103698092
1/22/2012 9:00,-16.2,-19.2,78,7,48.3,103.01,Mostly Cloudy,-16.074000000000023,1.733057876440812
1/22/2012 10:00,-14.5,-17.2,80,9,8.0,103.02,Fog,-14.398000000000001,1.7383226557949913
1/22/2012 11:00,-13.0,-15.5,81,6,8.0,103.04,Fog,-12.931000000000004,1.7408722768108806
1/22/2012 12:00,-11.5,-15.4,73,9,8.0,102.97,Haze,-11.541000000000002,1.718324698506683
1/22/2012 13:00,-11.2,-16.0,68,11,8.0,102.86,Haze,-11.166000000000011,1.7018006700167505
1/22/2012 14:00,-9.4,-14.8,65,9,16.1,102.74,Cloudy,-9.609999999999992,1.6929583486014415
1/22/2012 15:00,-8.7,-14.5,63,9,16.1,102.65,Cloudy,-8.717000000000008,1.6856696145686971
1/22/2012 16:00,-8.0,-14.7,59,6,19.3,102.6,Cloudy,-7.996,1.6747702625033225
1/22/2012 17:00,-9.5,-15.8,60,19,19.3,102.57,Cloudy,-9.479999999999999,1.6747229916897506
1/22/2012 18:00,-10.4,-16.1,63,19,19.3,102.52,Mostly Cloudy,-10.409999999999991,1.6856696145686971
1/22/2012 19:00,-10.4,-16.2,62,19,19.3,102.47,Mostly Cloudy,-10.389999999999988,1.681279062923068
1/22/2012 20:00,-12.3,-16.8,69,15,19.3,102.44,Mainly Clear,-12.293999999999984,1.7056195602958193
1/22/2012 21:00,-12.9,-17.2,70,15,16.1,102.38,Clear,-12.85100000000001,1.7091525423728813
1/22/2012 22:00,-13.2,-17.0,73,13,16.1,102.33,Mostly Cloudy,-13.093000000000009,1.718324698506683
1/22/2012 23:00,-13.3,-17.1,73,9,16.1,102.28,Mainly Clear,-13.269999999999984,1.718324698506683
1/23/2012 0:00,-12.9,-17.0,71,11,25.0,102.22,Mostly Cloudy,-12.874,1.712430565280306
1/23/2012 1:00,-12.9,-17.2,70,11,25.0,102.14,Mainly Clear,-12.916000000000004,1.7091525423728813
1/23/2012 2:00,-13.2,-17.1,72,13,25.0,102.1,Mostly Cloudy,-12.973000000000003,1.7154802667147235
1/23/2012 3:00,-12.1,-16.0,73,13,25.0,101.99,Cloudy,-12.159999999999995,1.718324698506683
1/23/2012 4:00,-11.2,-15.2,72,11,25.0,101.88,Cloudy,-11.181999999999999,1.7154802667147235
1/23/2012 5:00,-9.9,-13.9,73,11,25.0,101.79,Cloudy,-9.847000000000007,1.718324698506683
1/23/2012 6:00,-8.8,-12.8,73,7,25.0,101.76,Cloudy,-8.862999999999989,1.718324698506683
1/23/2012 7:00,-8.1,-12.1,73,13,25.0,101.67,Mostly Cloudy,-8.070000000000007,1.718324698506683
1/23/2012 8:00,-7.2,-11.1,74,11,24.1,101.69,Mostly Cloudy,-7.261000000000008,1.7209839103698092
1/23/2012 9:00,-4.9,-9.2,72,11,48.3,101.59,Mostly Cloudy,-4.774999999999995,1.7276504743636274
1/23/2012 10:00,-3.6,-7.9,72,9,48.3,101.58,Mostly Cloudy,-3.575999999999999,1.743767821327556
1/23/2012 11:00,1.2,-3.2,72,11,48.3,101.49,Cloudy,1.237000000000001,1.770876355526459
1/23/2012 12:00,2.3,-2.4,71,6,48.3,101.33,Cloudy,2.416000000000002,1.76770346368601
1/23/2012 13:00,2.5,-1.5,75,22,48.3,101.14,Cloudy,2.548,1.7673427504530639
1/23/2012 14:00,2.7,-1.1,76,26,48.3,101.01,Rain,2.7239999999999975,1.7666451948271584
1/23/2012 15:00,2.7,-0.9,77,30,24.1,100.86,Rain,2.690999999999998,1.7667879670537023
1/23/2012 16:00,3.1,-0.3,78,28,24.1,100.71,Cloudy,3.2669999999999986,1.7642635734815793
1/23/2012 17:00,3.1,-0.4,78,28,16.1,100.61,Rain,3.139000000000001,1.7648305432607154
1/23/2012 18:00,3.0,1.2,88,19,4.0,100.54,"Rain,Fog",3.0589999999999997,1.7651831449737962
1/23/2012 19:00,3.2,1.4,88,22,8.0,100.43,"Rain,Fog",3.1129999999999973,1.7649452863015642
1/23/2012 20:00,2.9,1.2,89,26,9.7,100.32,"Drizzle,Fog",2.921000000000001,1.7657882371305664
1/23/2012 21:00,3.3,1.7,89,24,11.3,100.22,Drizzle,3.197000000000004,1.7645740645467003
1/23/2012 22:00,3.6,2.2,91,28,25.0,100.1,Cloudy,3.7989999999999977,1.762772169746578
1/23/2012 23:00,4.0,2.5,90,22,25.0,100.08,Cloudy,3.9659999999999997,1.7611050943653108
1/24/2012 0:00,3.5,2.3,92,17,12.9,100.04,Rain,3.582000000000001,1.764560779079539
1/24/2012 1:00,3.1,1.9,92,19,16.1,100.04,Cloudy,2.9989999999999997,1.7654467162660534
1/24/2012 2:00,3.1,2.1,93,9,9.7,100.09,Rain,3.193999999999999,1.7663155381997573
1/24/2012 3:00,5.0,3.6,91,19,9.7,100.19,Rain,5.1110000000000015,1.762772169746578
1/24/2012 4:00,4.2,1.2,81,30,25.0,100.25,Cloudy,4.183999999999996,1.7600979542721444
1/24/2012 5:00,3.7,-0.2,76,41,25.0,100.37,Cloudy,3.6529999999999956,1.7625325869868942
1/24/2012 6:00,3.4,-0.6,75,28,25.0,100.45,Cloudy,3.4399999999999977,1.7634917379512307
1/24/2012 7:00,2.9,-1.1,75,26,16.1,100.49,Cloudy,2.8380000000000027,1.7661502649647771
1/24/2012 8:00,3.0,-1.7,71,28,19.3,100.52,Mostly Cloudy,2.977000000000001,1.7655431708116645
1/24/2012 9:00,2.9,-1.8,71,30,24.1,100.6,Cloudy,2.8700000000000006,1.7660108566469523
1/24/2012 10:00,3.0,-2.0,70,35,24.1,100.65,Cloudy,2.9140000000000015,1.765818824641784
1/24/2012 11:00,3.1,-1.9,70,33,24.1,100.7,Cloudy,3.0200000000000005,1.765354551870235
1/24/2012 12:00,3.2,-2.3,67,30,24.1,100.72,Cloudy,3.2489999999999957,1.7643435133117584
1/24/2012 13:00,2.8,-2.4,69,39,24.1,100.73,Cloudy,2.7680000000000042,1.7664544853606399
1/24/2012 14:00,2.4,-2.4,71,35,24.1,100.75,Rain,2.3830000000000036,1.767793467295704
1/24/2012 15:00,1.9,-2.2,74,26,19.3,100.8,Snow,1.9559999999999989,1.7689518010606093
1/24/2012 16:00,1.7,-2.4,74,30,24.1,100.82,Cloudy,1.752999999999999,1.769498440940708
1/24/2012 17:00,1.6,-2.8,73,26,24.1,100.88,Snow Showers,1.567999999999998,1.7699943623945238
1/24/2012 18:00,1.5,-2.9,72,22,25.0,100.95,Snow Showers,1.5809999999999997,1.769959583578094
1/24/2012 19:00,1.5,-3.2,71,32,25.0,101.01,Snow Showers,1.4890000000000003,1.7702054846665898
1/24/2012 20:00,1.3,-3.2,72,19,25.0,101.06,Cloudy,1.3019999999999987,1.7707036886019307
1/24/2012 21:00,1.1,-3.0,74,20,25.0,101.11,Mostly Cloudy,1.1709999999999985,1.7710514129900197
1/24/2012 22:00,1.1,-3.4,72,22,25.0,101.13,Mostly Cloudy,1.0849999999999989,1.7712791171984328
1/24/2012 23:00,1.0,-3.4,72,28,25.0,101.16,Snow Showers,1.059,1.7713478688665671
1/25/2012 0:00,0.5,-4.6,69,28,25.0,101.2,Cloudy,0.462,1.7729152204642957
1/25/2012 1:00,-0.1,-5.2,68,22,25.0,101.26,Mostly Cloudy,-0.07299999999999997,1.773736174899924
1/25/2012 2:00,-0.4,-5.9,66,20,25.0,101.37,Mostly Cloudy,-0.36299999999999955,1.7722247783862415
1/25/2012 3:00,-0.5,-6.2,65,24,25.0,101.45,Cloudy,-0.5730000000000001,1.7711176528025467
1/25/2012 4:00,-0.7,-6.0,67,24,25.0,101.52,Cloudy,-0.6780000000000009,1.77056004420231
1/25/2012 5:00,-1.7,-7.7,64,33,25.0,101.58,Mostly Cloudy,-1.6399999999999992,1.764205796333397
1/25/2012 6:00,-2.8,-9.0,62,35,25.0,101.66,Mostly Cloudy,-2.7690000000000037,1.7533796114618878
1/25/2012 7:00,-3.9,-10.0,63,37,25.0,101.79,Mostly Cloudy,-3.9179999999999966,1.7393439205376822
1/25/2012 8:00,-4.7,-10.9,62,26,24.1,101.94,Mostly Cloudy,-4.667999999999997,1.7292437098095674
1/25/2012 9:00,-5.2,-11.3,62,28,24.1,102.05,Cloudy,-5.221999999999996,1.7206999036647557
1/25/2012 10:00,-5.3,-11.4,62,22,24.1,102.09,Mostly Cloudy,-5.288999999999999,1.719822258426623
1/25/2012 11:00,-5.3,-11.9,60,19,24.1,102.14,Mostly Cloudy,-5.250000000000003,1.720335474282075
1/25/2012 12:00,-5.0,-11.8,59,20,24.1,102.06,Mostly Cloudy,-5.011999999999999,1.723967337329133
1/25/2012 13:00,-4.7,-11.7,58,20,24.1,102.01,Mainly Clear,-4.760999999999994,1.7278613214831746
1/25/2012 14:00,-4.5,-11.0,60,22,24.1,101.98,Mainly Clear,-4.462999999999999,1.7321830874820532
1/25/2012 15:00,-4.4,-11.2,59,22,24.1,101.94,Mainly Clear,-4.477999999999994,1.7319728719185612
1/25/2012 16:00,-4.4,-11.3,59,19,24.1,101.96,Mostly Cloudy,-4.607999999999999,1.730119086916944
1/25/2012 17:00,-4.8,-11.4,60,20,24.1,102.01,Mainly Clear,-4.812000000000006,1.727089715213505
1/25/2012 18:00,-5.1,-11.4,61,11,25.0,102.07,Mainly Clear,-5.146999999999999,1.72176848644516
1/25/2012 19:00,-5.4,-11.5,62,13,25.0,102.14,Mostly Cloudy,-5.411999999999995,1.7181594425070084
1/25/2012 20:00,-4.9,-11.6,59,7,25.0,102.07,Mostly Cloudy,-4.905999999999995,1.7256416937244619
1/25/2012 21:00,-5.4,-11.1,64,7,25.0,102.01,Mostly Cloudy,-5.4109999999999925,1.7181732393779512
1/25/2012 22:00,-5.5,-11.3,64,0,25.0,101.99,Mostly Cloudy,-5.5139999999999985,1.7167272938723097
1/25/2012 23:00,-5.4,-11.4,63,6,25.0,102.01,Mostly Cloudy,-5.399999999999992,1.7183246985066827
1/26/2012 0:00,-5.9,-11.7,64,6,25.0,101.99,Mostly Cloudy,-6.029999999999996,1.7086395523532865
1/26/2012 1:00,-7.0,-12.1,67,4,25.0,101.95,Clear,-6.949000000000003,1.698763522260988
1/26/2012 2:00,-8.2,-12.6,71,6,25.0,101.99,Clear,-8.238000000000005,1.712430565280306
1/26/2012 3:00,-8.1,-12.5,71,0,25.0,101.97,Clear,-8.186000000000009,1.712430565280306
1/26/2012 4:00,-8.5,-13.5,67,0,25.0,101.95,Clear,-8.44,1.698763522260988
1/26/2012 5:00,-9.0,-13.9,68,6,25.0,102.02,Clear,-9.032999999999998,1.7018006700167505
1/26/2012 6:00,-11.2,-15.0,73,6,25.0,102.06,Clear,-11.211000000000013,1.718324698506683
1/26/2012 7:00,-10.6,-14.4,74,6,24.1,102.01,Mainly Clear,-10.667000000000009,1.7209839103698092
1/26/2012 8:00,-9.2,-13.3,72,6,24.1,102.08,Clear,-9.160000000000009,1.7154802667147235
1/26/2012 9:00,-7.9,-12.4,70,11,24.1,102.01,Mainly Clear,-7.885999999999989,1.7091525423728813
1/26/2012 10:00,-5.7,-12.4,59,11,24.1,102.04,Mainly Clear,-5.744000000000001,1.7133064441593684
1/26/2012 11:00,-5.0,-12.1,57,7,24.1,102.05,Mainly Clear,-5.069,1.723048198815459
1/26/2012 12:00,-4.6,-12.5,54,11,24.1,101.88,Mainly Clear,-4.517000000000005,1.7314227843568981
1/26/2012 13:00,-4.0,-12.0,54,15,24.1,101.71,Mostly Cloudy,-4.029,1.7379569497586986
1/26/2012 14:00,-3.4,-12.5,49,11,24.1,101.6,Mostly Cloudy,-3.4069999999999983,1.745883608190934
1/26/2012 15:00,-3.0,-14.1,42,13,24.1,101.53,Mostly Cloudy,-3.0730000000000013,1.7499009531390444
1/26/2012 16:00,-3.8,-12.2,52,19,24.1,101.52,Cloudy,-3.7310000000000034,1.7417755816512321
1/26/2012 17:00,-4.3,-12.2,54,20,24.1,101.4,Cloudy,-4.1840000000000055,1.735960978731351
1/26/2012 18:00,-4.7,-13.7,49,24,25.0,101.28,Cloudy,-4.647,1.7295515422820416
1/26/2012 19:00,-4.5,-13.5,49,17,25.0,101.25,Cloudy,-4.471000000000001,1.7320710657900467
1/26/2012 20:00,-4.6,-13.0,52,17,25.0,101.15,Snow Showers,-4.595000000000004,1.7303070817789772
1/26/2012 21:00,-5.2,-12.1,58,20,25.0,100.99,Snow,-5.1589999999999945,1.7215693141416255
1/26/2012 22:00,-5.3,-10.2,68,22,16.1,100.92,Snow,-5.271000000000004,1.7200599465177182
1/26/2012 23:00,-5.8,-9.1,77,22,6.4,100.81,Snow,-5.5989999999999975,1.7302348458823897
1/27/2012 0:00,-5.7,-8.8,79,28,4.8,100.68,Snow,-5.743999999999997,1.7357508862871274
1/27/2012 1:00,-5.5,-8.3,81,24,2.4,100.58,Snow,-5.531999999999998,1.7408722768108806
1/27/2012 2:00,-5.5,-8.2,81,26,3.2,100.47,Snow,-5.425,1.7408722768108806
1/27/2012 3:00,-5.3,-8.1,81,28,4.0,100.33,Snow,-5.303000000000003,1.7408722768108806
1/27/2012 4:00,-4.9,-7.6,81,26,2.4,100.13,Snow,-4.929999999999996,1.7408722768108806
1/27/2012 5:00,-4.0,-6.6,82,22,16.1,99.98,Snow,-3.987999999999998,1.7434626346010758
1/27/2012 6:00,-2.1,-4.2,86,19,19.3,99.8,Snow,-2.182999999999999,1.7592488683169492
1/27/2012 7:00,-0.8,-2.9,86,22,16.1,99.61,Freezing Rain,-0.8029999999999989,1.7698926716686012
1/27/2012 8:00,0.3,-1.7,86,20,12.9,99.47,Freezing Rain,0.33300000000000035,1.773251075444431
1/27/2012 9:00,0.7,-1.4,86,17,12.9,99.34,Rain,0.5209999999999997,1.772761280567476
1/27/2012 10:00,0.6,-1.2,88,17,8.0,99.18,"Rain,Fog",0.5820000000000008,1.77260190277232
1/27/2012 11:00,0.7,-1.0,88,20,2.4,99.08,"Drizzle,Fog",0.682000000000001,1.772340143482297
1/27/2012 12:00,0.7,-0.9,89,20,2.8,98.91,"Drizzle,Fog",0.667000000000001,1.7723794457865327
1/27/2012 13:00,0.7,-1.0,88,22,3.2,98.76,"Drizzle,Fog",0.6330000000000008,1.7724684807899955
1/27/2012 14:00,0.5,-1.3,88,20,2.4,98.69,"Drizzle,Fog",0.48700000000000015,1.7728500171662567
1/27/2012 15:00,0.3,-1.6,87,19,2.4,98.65,"Drizzle,Fog",0.28100000000000025,1.7733861780717717
1/27/2012 16:00,-0.3,-2.3,86,19,8.0,98.74,"Freezing Drizzle,Fog",-0.32600000000000023,1.7724187345231195
1/27/2012 17:00,-0.6,-2.3,88,22,2.8,98.97,Snow,-0.6589999999999995,1.7706611460528172
1/27/2012 18:00,-0.3,-1.8,90,11,2.4,99.13,Snow,-0.2940000000000001,1.7725862141905844
1/27/2012 19:00,0.1,-1.6,88,30,12.9,99.31,Snow,0.1029999999999999,1.7738474284634582
1/27/2012 20:00,-0.7,-2.7,86,32,16.1,99.54,Cloudy,-0.5490000000000004,1.7712447258577224
1/27/2012 21:00,-1.3,-3.9,82,19,24.1,99.75,Cloudy,-1.2989999999999988,1.7671891315192318
1/27/2012 22:00,-1.5,-4.4,81,19,25.0,99.88,Mostly Cloudy,-1.4819999999999995,1.765600119303835
1/27/2012 23:00,-1.6,-4.5,81,20,25.0,100.03,Mainly Clear,-1.506999999999999,1.7653808939465052
1/28/2012 0:00,-1.5,-4.3,81,19,25.0,100.19,Mainly Clear,-1.442,1.765949799004424
1/28/2012 1:00,-0.2,-2.9,82,22,25.0,100.34,Snow Showers,-0.18199999999999977,1.7731704568229492
1/28/2012 2:00,0.2,-2.6,81,24,25.0,100.49,Mostly Cloudy,0.26799999999999974,1.773419928576887
1/28/2012 3:00,0.4,-3.0,78,17,25.0,100.59,Mostly Cloudy,0.41499999999999987,1.773037701380235
1/28/2012 4:00,0.1,-3.4,77,15,25.0,100.64,Mostly Cloudy,0.1509999999999999,1.7737232313346794
1/28/2012 5:00,0.3,-2.7,80,19,25.0,100.72,Mostly Cloudy,0.2900000000000003,1.7733628064468263
1/28/2012 6:00,-1.7,-5.4,76,9,25.0,100.79,Mostly Cloudy,-1.7049999999999996,1.7636260416773408
1/28/2012 7:00,-1.2,-4.6,78,11,25.0,100.85,Mainly Clear,-1.1790000000000007,1.7678616054301435
1/28/2012 8:00,-2.1,-5.1,80,7,48.3,100.91,Mainly Clear,-2.0329999999999986,1.7606444329621038
1/28/2012 9:00,-1.6,-4.5,81,13,24.1,100.93,Mostly Cloudy,-1.579999999999998,1.7647377622593474
1/28/2012 10:00,-1.1,-4.4,78,13,48.3,100.94,Cloudy,-1.102999999999999,1.7682750261380256
1/28/2012 11:00,-0.6,-3.6,80,6,48.3,100.9,Cloudy,-0.5400000000000005,1.7712923418838402
1/28/2012 12:00,-0.3,-3.4,80,7,48.3,100.74,Mostly Cloudy,-0.3230000000000004,1.772434446220386
1/28/2012 13:00,0.9,-3.5,72,4,48.3,100.58,Cloudy,0.9090000000000005,1.7717437074205826
1/28/2012 14:00,1.2,-3.5,71,9,48.3,100.48,Cloudy,1.1610000000000011,1.7710779135153385
1/28/2012 15:00,1.2,-3.7,70,15,48.3,100.28,Cloudy,1.1680000000000013,1.7710593637918228
1/28/2012 16:00,1.4,-3.7,69,22,48.3,100.14,Cloudy,1.325,1.77064252872313
1/28/2012 17:00,1.2,-3.5,71,11,48.3,100.16,Cloudy,1.1440000000000006,1.7711229503317638
1/28/2012 18:00,1.6,-3.4,69,9,25.0,100.08,Cloudy,1.5979999999999979,1.7699140877143242
1/28/2012 19:00,2.2,-2.6,71,19,19.3,100.09,Snow,2.1349999999999993,1.7684676329851536
1/28/2012 20:00,1.7,-1.2,81,24,19.3,100.05,Snow,1.6009999999999998,1.7699060571643481
1/28/2012 21:00,2.1,-1.7,76,24,25.0,99.95,Mainly Clear,2.1189999999999976,1.7685109931461358
1/28/2012 22:00,2.3,-2.0,73,37,25.0,99.85,Mostly Cloudy,2.335000000000002,1.7679242572054408
1/28/2012 23:00,1.2,-1.7,81,52,16.1,99.87,"Rain,Snow",1.1700000000000013,1.771054063318647
1/29/2012 0:00,1.5,-5.0,62,57,25.0,99.96,Mainly Clear,1.5129999999999995,1.7701413872535614
1/29/2012 1:00,0.9,-5.3,63,52,25.0,100.09,Mainly Clear,0.8960000000000005,1.7717779489011907
1/29/2012 2:00,0.3,-5.8,64,52,25.0,100.21,Mainly Clear,0.3180000000000002,1.773290063885401
1/29/2012 3:00,-0.2,-6.0,65,43,25.0,100.34,Mainly Clear,-0.2429999999999998,1.7728526260170931
1/29/2012 4:00,-0.9,-7.0,63,43,25.0,100.47,Mainly Clear,-0.9150000000000006,1.7692913995401218
1/29/2012 5:00,-1.5,-7.8,62,43,25.0,100.59,Mainly Clear,-1.4850000000000003,1.7655738397545
1/29/2012 6:00,-2.0,-8.1,63,44,25.0,100.68,Mainly Clear,-2.0820000000000003,1.7601907996741937
1/29/2012 7:00,-1.9,-8.2,62,32,24.1,100.74,Mainly Clear,-1.9780000000000006,1.7611510372596928
1/29/2012 8:00,-2.2,-8.3,63,32,24.1,100.81,Mostly Cloudy,-2.164999999999998,1.759417421254498
1/29/2012 9:00,-2.1,-8.5,62,32,24.1,100.88,Cloudy,-2.0879999999999974,1.7601351033305381
1/29/2012 10:00,-1.8,-8.3,61,24,24.1,100.87,Mostly Cloudy,-1.8610000000000013,1.76221975707206
1/29/2012 11:00,-0.8,-7.7,59,33,24.1,100.84,Mainly Clear,-0.4120000000000001,1.7719674081643784
1/29/2012 12:00,0.1,-7.6,56,37,24.1,100.77,Mainly Clear,0.13499999999999981,1.7737646455316851
1/29/2012 13:00,0.5,-8.8,50,33,24.1,100.7,Mostly Cloudy,0.44699999999999995,1.7729543244782995
1/29/2012 14:00,0.4,-7.9,54,19,24.1,100.63,Mostly Cloudy,0.37699999999999967,1.7731366319506456
1/29/2012 15:00,0.2,-7.5,56,17,24.1,100.65,Mostly Cloudy,0.18999999999999984,1.7736222206789471
1/29/2012 16:00,0.7,-8.3,51,20,24.1,100.67,Mostly Cloudy,0.5880000000000005,1.7725862141905846
1/29/2012 17:00,-0.7,-8.4,56,11,24.1,100.74,Mainly Clear,-0.7110000000000012,1.770384234228267
1/29/2012 18:00,-1.1,-9.3,54,17,25.0,100.77,Mainly Clear,-1.1029999999999984,1.7682750261380256
1/29/2012 19:00,-1.6,-9.3,56,17,25.0,100.81,Mainly Clear,-1.5859999999999972,1.7646847027872385
1/29/2012 20:00,-2.0,-9.1,58,17,25.0,100.83,Mainly Clear,-1.9459999999999993,1.7614445433960921
1/29/2012 21:00,-1.7,-8.4,60,9,25.0,100.85,Mainly Clear,-1.6500000000000012,1.7641168381899774
1/29/2012 22:00,-2.3,-7.0,70,15,25.0,100.84,Mainly Clear,-2.131999999999997,1.7597256625744266
1/29/2012 23:00,-3.4,-7.6,73,15,25.0,100.85,Clear,-3.4619999999999975,1.7452013565914477
1/30/2012 0:00,-3.7,-8.8,68,11,25.0,100.89,Clear,-3.8240000000000007,1.7405556613751165
1/30/2012 1:00,-4.4,-10.0,65,15,25.0,100.92,Mainly Clear,-4.448999999999997,1.7323786141931137
1/30/2012 2:00,-5.1,-10.0,68,15,25.0,100.99,Clear,-5.054000000000008,1.723291374661381
1/30/2012 3:00,-6.1,-10.3,72,11,25.0,101.07,Clear,-6.076000000000007,1.7154802667147235
1/30/2012 4:00,-7.7,-11.8,72,11,25.0,101.19,Clear,-7.589999999999999,1.7154802667147235
1/30/2012 5:00,-7.9,-13.8,63,13,25.0,101.33,Clear,-7.940999999999991,1.6856696145686971
1/30/2012 6:00,-8.9,-15.1,61,15,25.0,101.47,Clear,-8.949999999999992,1.6768881290465567
1/30/2012 7:00,-9.8,-16.0,61,15,25.0,101.55,Clear,-9.899999999999991,1.6768881290465567
1/30/2012 8:00,-10.5,-17.0,59,9,48.3,101.68,Clear,-10.510000000000002,1.672110259985864
1/30/2012 9:00,-9.5,-16.6,56,13,48.3,101.75,Mainly Clear,-9.511000000000001,1.659574703732418
1/30/2012 10:00,-8.8,-16.0,56,17,48.3,101.82,Mostly Cloudy,-9.015999999999996,1.659574703732418
1/30/2012 11:00,-7.7,-14.7,57,19,48.3,101.86,Mostly Cloudy,-7.656000000000005,1.6799402196546638
1/30/2012 12:00,-7.0,-14.2,56,22,48.3,101.83,Mainly Clear,-6.954,1.6936920235832758
1/30/2012 13:00,-7.5,-15.2,54,22,48.3,101.8,Mainly Clear,-7.503999999999999,1.6834589491586476
1/30/2012 14:00,-6.7,-15.0,52,22,48.3,101.81,Clear,-7.0360000000000005,1.6923706943998136
1/30/2012 15:00,-6.9,-15.3,51,22,48.3,101.83,Mainly Clear,-7.1039999999999965,1.691226989170664
1/30/2012 16:00,-7.3,-15.8,51,17,48.3,101.86,Mostly Cloudy,-7.31999999999999,1.687272663776105
1/30/2012 17:00,-7.4,-15.7,51,13,48.3,101.9,Mostly Cloudy,-7.3249999999999895,1.6871748174605579
1/30/2012 18:00,-7.4,-15.6,52,15,25.0,101.94,Mainly Clear,-7.558999999999987,1.682227288486375
1/30/2012 19:00,-8.8,-15.9,56,7,25.0,101.96,Mainly Clear,-8.788999999999993,1.6599050959112673
1/30/2012 20:00,-9.5,-16.0,59,4,25.0,101.95,Mainly Clear,-9.484,1.672110259985864
1/30/2012 21:00,-8.4,-15.5,57,4,25.0,101.96,Mostly Cloudy,-8.478999999999992,1.6674111907515643
1/30/2012 22:00,-7.8,-15.2,55,4,25.0,101.98,Mostly Cloudy,-7.658999999999999,1.6798670221672771
1/30/2012 23:00,-8.6,-13.8,66,6,25.0,101.96,Mostly Cloudy,-8.549000000000008,1.6960165533823464
1/31/2012 0:00,-7.0,-13.1,62,7,25.0,101.92,Mostly Cloudy,-6.974000000000002,1.6933753665141558
1/31/2012 1:00,-7.1,-13.2,62,6,25.0,101.88,Cloudy,-7.148000000000009,1.6904624398313672
1/31/2012 2:00,-6.5,-13.1,59,11,25.0,101.81,Snow,-6.453,1.7007363027606264
1/31/2012 3:00,-6.8,-12.4,64,15,19.3,101.76,Snow,-6.827999999999996,1.695608294933023
1/31/2012 4:00,-7.1,-12.4,66,17,8.0,101.71,Snow,-7.188000000000006,1.6960165533823464
1/31/2012 5:00,-7.1,-12.2,67,17,9.7,101.7,Snow,-7.11800000000001,1.698763522260988
1/31/2012 6:00,-7.0,-11.8,69,13,6.4,101.65,Snow,-7.005000000000001,1.7056195602958193
1/31/2012 7:00,-9.6,-13.5,73,17,12.9,101.6,Snow,-9.550000000000011,1.718324698506683
1/31/2012 8:00,-9.8,-13.9,72,19,16.1,101.61,Snow,-9.707999999999991,1.7154802667147235
1/31/2012 9:00,-10.1,-14.4,71,17,24.1,101.59,Snow,-10.128000000000013,1.712430565280306
1/31/2012 10:00,-9.7,-14.2,70,19,19.3,101.54,Cloudy,-9.717000000000002,1.7091525423728813
1/31/2012 11:00,-9.3,-14.2,67,20,19.3,101.46,Cloudy,-9.267999999999988,1.698763522260988
1/31/2012 12:00,-8.6,-13.3,69,22,4.0,101.36,Snow,-8.585000000000008,1.7056195602958193
1/31/2012 13:00,-8.3,-12.3,73,20,1.6,101.29,Snow,-8.457999999999998,1.718324698506683
1/31/2012 14:00,-8.4,-12.1,75,20,1.2,101.23,Snow,-8.381999999999993,1.7241591468416737
1/31/2012 15:00,-8.2,-12.0,74,17,1.0,101.22,Snow,-8.172000000000006,1.7209839103698092
1/31/2012 16:00,-8.0,-11.5,76,20,1.0,101.2,Snow,-7.938999999999997,1.7272721454173066
1/31/2012 17:00,-7.7,-11.1,77,19,1.0,101.19,Snow,-7.727999999999998,1.7302348458823897
1/31/2012 18:00,-7.8,-11.2,77,20,1.6,101.18,Snow,-7.822999999999994,1.7302348458823897
1/31/2012 19:00,-7.7,-10.9,78,19,1.6,101.14,Snow,-7.763000000000006,1.733057876440812
1/31/2012 20:00,-7.4,-10.7,77,20,1.6,101.09,Snow,-7.457000000000004,1.7302348458823897
1/31/2012 21:00,-7.1,-10.5,77,20,12.9,101.02,Cloudy,-7.095000000000003,1.7302348458823897
1/31/2012 22:00,-7.1,-10.4,77,19,9.7,100.95,Snow,-7.033000000000003,1.7302348458823897
1/31/2012 23:00,-6.8,-9.9,79,22,9.7,100.86,"Freezing Drizzle,Snow",-7.007000000000004,1.7357508862871274
2/1/2012 0:00,-6.7,-9.7,79,19,11.3,100.82,Snow,-6.871000000000007,1.7357508862871274
2/1/2012 1:00,-6.7,-9.5,80,15,9.7,100.69,Snow,-6.695000000000005,1.7383226557949913
2/1/2012 2:00,-6.8,-9.3,82,19,4.8,100.61,Freezing Drizzle,-6.746999999999999,1.7434626346010758
2/1/2012 3:00,-6.5,-9.0,82,15,4.8,100.56,Freezing Rain,-6.440000000000001,1.7434626346010758
2/1/2012 4:00,-5.8,-8.2,83,17,8.0,100.48,Freezing Rain,-5.554999999999998,1.7459700090483987
2/1/2012 5:00,-5.8,-8.5,81,19,8.0,100.42,Freezing Drizzle,-5.766999999999999,1.7408722768108806
2/1/2012 6:00,-5.4,-8.0,82,15,8.0,100.34,Freezing Rain,-5.397999999999995,1.7434626346010758
2/1/2012 7:00,-5.5,-8.2,81,13,9.7,100.33,Freezing Rain,-5.437999999999999,1.7408722768108806
2/1/2012 8:00,-5.5,-8.5,79,11,11.3,100.36,Cloudy,-5.552,1.7357508862871274
2/1/2012 9:00,-5.7,-8.6,80,15,12.9,100.36,Cloudy,-5.701999999999999,1.7383226557949913
2/1/2012 10:00,-5.7,-8.5,81,13,8.0,100.35,Haze,-5.704000000000001,1.7408722768108806
2/1/2012 11:00,-5.8,-8.3,82,9,4.0,100.36,"Freezing Drizzle,Haze",-5.715,1.7434626346010758
2/1/2012 12:00,-5.5,-8.0,83,11,2.0,100.31,"Freezing Drizzle,Haze",-5.515999999999998,1.7459700090483987
2/1/2012 13:00,-5.0,-7.7,81,11,2.0,100.28,"Freezing Drizzle,Haze",-5.024999999999999,1.7408722768108806
2/1/2012 14:00,-4.9,-7.4,83,9,2.0,100.34,"Freezing Rain,Haze",-5.014999999999998,1.7459700090483987
2/1/2012 15:00,-4.9,-7.5,82,6,2.8,100.41,"Freezing Rain,Haze",-5.066999999999998,1.7434626346010758
2/1/2012 16:00,-4.5,-7.2,81,0,4.8,100.47,Haze,-4.493000000000002,1.7408722768108806
2/1/2012 17:00,-4.3,-7.1,81,0,6.4,100.61,"Snow,Haze",-4.348000000000006,1.7408722768108806
2/1/2012 18:00,-4.0,-6.9,80,0,4.0,100.68,"Snow,Haze",-3.997,1.7383603512442434
2/1/2012 19:00,-3.9,-6.7,81,6,4.0,100.78,"Snow,Haze",-3.9039999999999986,1.7408722768108806
2/1/2012 20:00,-3.6,-6.4,81,4,4.8,100.85,"Snow,Haze",-3.6780000000000017,1.742462490707583
2/1/2012 21:00,-4.3,-7.2,80,15,4.0,100.99,"Snow,Haze",-4.279000000000005,1.7383226557949913
2/1/2012 22:00,-5.0,-8.2,78,15,12.9,101.12,Snow,-5.025999999999998,1.733057876440812
2/1/2012 23:00,-4.9,-8.1,78,0,12.9,101.22,Snow,-4.934999999999995,1.733057876440812
2/2/2012 0:00,-5.0,-8.2,78,7,12.9,101.32,Snow,-5.017999999999999,1.733057876440812
2/2/2012 1:00,-5.5,-9.2,75,9,25.0,101.36,Mostly Cloudy,-5.478,1.7241591468416737
2/2/2012 2:00,-6.3,-9.6,77,4,16.1,101.45,Snow Showers,-6.391,1.7302348458823897
2/2/2012 3:00,-5.6,-9.1,76,6,25.0,101.52,Snow Showers,-5.571000000000006,1.7272721454173066
2/2/2012 4:00,-5.5,-8.8,78,4,16.1,101.59,Snow Showers,-5.503000000000001,1.733057876440812
2/2/2012 5:00,-5.2,-9.5,72,9,16.1,101.62,Snow Showers,-5.073999999999999,1.7229669326466373
2/2/2012 6:00,-6.0,-11.8,63,13,25.0,101.63,Snow Showers,-6.004000000000001,1.7090844768044262
2/2/2012 7:00,-6.9,-12.8,63,22,24.1,101.67,Snow,-6.905999999999991,1.694437742073574
2/2/2012 8:00,-7.6,-13.2,64,19,12.9,101.74,Snow,-7.551000000000009,1.6895328361301014
2/2/2012 9:00,-7.7,-13.6,63,19,19.3,101.82,Snow,-7.7410000000000085,1.6856696145686971
2/2/2012 10:00,-8.2,-13.7,65,17,24.1,101.87,Mostly Cloudy,-8.189000000000009,1.6929583486014415
2/2/2012 11:00,-8.3,-14.2,62,19,24.1,101.89,Mostly Cloudy,-8.275999999999993,1.681279062923068
2/2/2012 12:00,-8.1,-13.3,66,13,24.1,101.86,Mostly Cloudy,-8.108000000000011,1.6960165533823464
2/2/2012 13:00,-7.4,-12.7,66,9,24.1,101.86,Mostly Cloudy,-7.475999999999995,1.6960165533823464
2/2/2012 14:00,-6.7,-12.0,66,9,24.1,101.85,Mostly Cloudy,-6.778000000000005,1.6963330536216688
2/2/2012 15:00,-6.7,-12.1,65,9,24.1,101.9,Mostly Cloudy,-6.638000000000006,1.6982633204224282
2/2/2012 16:00,-6.6,-11.7,67,11,24.1,101.94,Mostly Cloudy,-6.626000000000005,1.698763522260988
2/2/2012 17:00,-7.1,-12.0,68,13,24.1,101.99,Mostly Cloudy,-7.051000000000012,1.7018006700167505
2/2/2012 18:00,-7.7,-12.5,68,7,25.0,102.08,Mostly Cloudy,-7.730999999999997,1.7018006700167505
2/2/2012 19:00,-7.0,-12.2,66,6,25.0,102.13,Mostly Cloudy,-7.063999999999997,1.6960165533823464
2/2/2012 20:00,-8.9,-12.8,73,4,25.0,102.22,Mostly Cloudy,-8.907999999999989,1.718324698506683
2/2/2012 21:00,-7.2,-11.0,74,4,25.0,102.26,Snow,-7.206000000000005,1.7209839103698092
2/2/2012 22:00,-8.0,-11.5,76,7,25.0,102.29,Snow,-7.973999999999998,1.7272721454173066
2/2/2012 23:00,-7.2,-11.1,74,7,25.0,102.31,Mostly Cloudy,-7.2160000000000055,1.7209839103698092
2/3/2012 0:00,-9.7,-12.5,80,4,25.0,102.33,Mostly Cloudy,-9.695000000000004,1.7383226557949913
2/3/2012 1:00,-11.0,-13.5,82,0,25.0,102.35,Mainly Clear,-11.052,1.7434626346010758
2/3/2012 2:00,-10.2,-12.7,82,0,25.0,102.39,Mainly Clear,-10.451999999999996,1.7434626346010758
2/3/2012 3:00,-11.6,-14.0,82,0,25.0,102.4,Mainly Clear,-11.499999999999995,1.7434626346010758
2/3/2012 4:00,-12.6,-15.1,82,7,16.1,102.42,Mainly Clear,-12.64,1.7434626346010758
2/3/2012 5:00,-11.2,-13.2,85,9,9.7,102.47,Fog,-11.139000000000015,1.7507512632600475
2/3/2012 6:00,-11.8,-14.1,83,7,16.1,102.51,Mainly Clear,-11.815999999999985,1.7459700090483987
2/3/2012 7:00,-11.3,-13.7,82,9,16.1,102.59,Mostly Cloudy,-11.241999999999985,1.7434626346010758
2/3/2012 8:00,-10.6,-13.3,80,9,19.3,102.62,Mostly Cloudy,-10.632000000000003,1.7383226557949913
2/3/2012 9:00,-8.8,-11.9,78,6,24.1,102.62,Mostly Cloudy,-8.70599999999999,1.733057876440812
2/3/2012 10:00,-6.8,-10.2,77,7,19.3,102.61,Cloudy,-6.809999999999999,1.7302348458823897
2/3/2012 11:00,-6.3,-10.0,75,11,6.4,102.57,Snow,-6.311999999999999,1.7241591468416737
2/3/2012 12:00,-6.2,-9.5,77,11,16.1,102.46,Snow,-6.136000000000003,1.7302348458823897
2/3/2012 13:00,-4.8,-8.3,76,6,16.1,102.34,Snow,-4.809000000000006,1.7272721454173066
2/3/2012 14:00,-3.8,-7.4,76,7,16.1,102.27,Snow,-3.7800000000000025,1.7411351640546586
2/3/2012 15:00,-2.9,-7.8,69,19,19.3,102.25,Snow,-2.812000000000001,1.7528973871541558
2/3/2012 16:00,-3.3,-7.3,74,13,16.1,102.21,Snow,-3.377000000000004,1.7462532167463893
2/3/2012 17:00,-3.4,-7.0,76,11,19.3,102.19,Cloudy,-3.406999999999998,1.7458836081909341
2/3/2012 18:00,-3.7,-7.1,77,7,19.3,102.17,Snow,-3.607999999999995,1.7433606405608562
2/3/2012 19:00,-3.8,-7.2,77,9,25.0,102.17,Snow,-3.668999999999997,1.7425785436884602
2/3/2012 20:00,-4.2,-7.7,77,11,25.0,102.16,Mostly Cloudy,-4.2149999999999945,1.735553220363768
2/3/2012 21:00,-4.7,-8.0,78,7,25.0,102.17,Mostly Cloudy,-4.749999999999995,1.733057876440812
2/3/2012 22:00,-5.3,-8.6,78,0,25.0,102.1,Cloudy,-5.341000000000005,1.733057876440812
2/3/2012 23:00,-3.7,-6.7,80,6,25.0,102.03,Snow,-3.527999999999999,1.7443746386769916
2/4/2012 0:00,-4.5,-6.8,84,9,2.0,102.02,Snow,-4.498999999999999,1.7483983249034645
2/4/2012 1:00,-4.5,-6.7,85,11,25.0,101.98,Mostly Cloudy,-4.477,1.7507512632600475
2/4/2012 2:00,-4.0,-7.4,77,20,25.0,102.07,Mostly Cloudy,-3.927,1.7392327439562165
2/4/2012 3:00,-4.9,-10.5,65,15,25.0,102.11,Mostly Cloudy,-4.923999999999997,1.7253605120001663
2/4/2012 4:00,-7.1,-12.7,64,13,25.0,102.16,Mainly Clear,-7.031000000000006,1.6924530360706094
2/4/2012 5:00,-8.1,-13.3,66,15,25.0,102.21,Mainly Clear,-8.117000000000008,1.6960165533823464
2/4/2012 6:00,-9.4,-13.9,70,9,25.0,102.27,Clear,-9.395999999999994,1.7091525423728813
2/4/2012 7:00,-11.0,-14.7,74,7,48.3,102.25,Clear,-11.029000000000005,1.7209839103698092
2/4/2012 8:00,-11.6,-15.6,72,9,48.3,102.31,Clear,-11.561000000000002,1.7154802667147235
2/4/2012 9:00,-9.6,-14.1,70,13,48.3,102.37,Clear,-9.590000000000007,1.7091525423728813
2/4/2012 10:00,-8.4,-13.7,66,6,48.3,102.32,Mainly Clear,-8.39499999999999,1.6960165533823464
2/4/2012 11:00,-7.6,-13.6,62,0,48.3,102.29,Clear,-7.647000000000008,1.681279062923068
2/4/2012 12:00,-6.6,-13.2,59,4,48.3,102.21,Mainly Clear,-6.563000000000003,1.699241353884172
2/4/2012 13:00,-6.3,-12.7,60,13,48.3,102.11,Mainly Clear,-6.221,1.7052325905929206
2/4/2012 14:00,-6.0,-12.7,59,6,48.3,102.05,Mainly Clear,-6.042000000000001,1.7084327305154756
2/4/2012 15:00,-5.4,-12.6,57,11,48.3,102.01,Mainly Clear,-5.576999999999998,1.7158174180313612
2/4/2012 16:00,-5.7,-12.8,57,9,48.3,101.99,Clear,-5.7689999999999975,1.7129176015297907
2/4/2012 17:00,-6.2,-13.5,56,11,48.3,101.97,Clear,-6.186000000000004,1.7058757891557472
2/4/2012 18:00,-6.6,-13.7,57,9,25.0,101.96,Clear,-6.596000000000011,1.698815613013592
2/4/2012 19:00,-7.7,-14.0,61,7,25.0,101.97,Clear,-7.751000000000008,1.677545574531788
2/4/2012 20:00,-8.8,-14.4,64,6,25.0,101.97,Clear,-8.815999999999992,1.6895328361301014
2/4/2012 21:00,-9.9,-14.5,69,6,25.0,101.97,Clear,-9.902999999999986,1.7056195602958193
2/4/2012 22:00,-10.3,-14.9,69,0,25.0,101.93,Clear,-10.233999999999986,1.7056195602958193
2/4/2012 23:00,-10.1,-14.3,71,0,25.0,101.89,Clear,-10.059000000000012,1.712430565280306
2/5/2012 0:00,-11.9,-15.3,76,6,25.0,101.89,Clear,-11.889000000000003,1.7272721454173066
2/5/2012 1:00,-12.1,-15.0,79,6,25.0,101.87,Clear,-11.928000000000006,1.7357508862871274
2/5/2012 2:00,-14.4,-17.1,80,6,25.0,101.88,Clear,-14.305000000000014,1.7383226557949913
2/5/2012 3:00,-12.9,-15.7,79,6,25.0,101.86,Clear,-12.858000000000004,1.7357508862871274
2/5/2012 4:00,-14.9,-17.9,78,6,25.0,101.86,Clear,-14.77900000000001,1.733057876440812
2/5/2012 5:00,-14.2,-17.0,79,7,25.0,101.91,Clear,-14.188000000000022,1.7357508862871274
2/5/2012 6:00,-14.7,-17.5,79,4,19.3,101.93,Clear,-14.672000000000018,1.7357508862871274
2/5/2012 7:00,-15.7,-18.6,78,4,24.1,101.93,Clear,-15.532000000000023,1.733057876440812
2/5/2012 8:00,-15.0,-17.5,81,4,24.1,101.95,Clear,-14.733000000000002,1.7408722768108806
2/5/2012 9:00,-13.5,-16.1,81,0,24.1,101.97,Clear,-13.611000000000006,1.7408722768108806
2/5/2012 10:00,-11.1,-13.4,83,9,0.8,101.97,Freezing Fog,-11.137000000000002,1.7459700090483987
2/5/2012 11:00,-10.5,-12.4,86,11,12.9,101.95,Cloudy,-10.470999999999998,1.7530322801745157
2/5/2012 12:00,-8.7,-11.7,79,9,24.1,101.82,Mainly Clear,-8.68800000000001,1.7357508862871274
2/5/2012 13:00,-7.2,-12.1,68,13,24.1,101.72,Mainly Clear,-7.181000000000008,1.7018006700167505
2/5/2012 14:00,-5.5,-11.8,61,20,24.1,101.63,Cloudy,-5.538,1.7163830032853995
2/5/2012 15:00,-5.3,-11.4,62,15,24.1,101.55,Cloudy,-5.318000000000004,1.7194363291481165
2/5/2012 16:00,-4.7,-10.7,63,6,19.3,101.48,Cloudy,-4.597,1.7302781978793793
2/5/2012 17:00,-4.2,-10.0,64,9,25.0,101.43,Cloudy,-4.256999999999994,1.7349960993135902
2/5/2012 18:00,-3.9,-9.7,64,15,25.0,101.41,Cloudy,-3.8529999999999966,1.7401713993312928
2/5/2012 19:00,-3.1,-8.6,66,15,25.0,101.34,Cloudy,-3.1950000000000007,1.7484580521864939
2/5/2012 20:00,-2.8,-8.0,67,24,25.0,101.25,Mostly Cloudy,-2.8270000000000035,1.752728422262087
2/5/2012 21:00,-2.5,-7.7,67,26,25.0,101.18,Cloudy,-2.3439999999999994,1.757727890821733
2/5/2012 22:00,-2.1,-6.7,71,28,25.0,101.06,Cloudy,-1.9139999999999984,1.7617371386228193
2/5/2012 23:00,-1.5,-5.7,73,30,25.0,100.93,Cloudy,-1.4390000000000003,1.7659759715269883
2/6/2012 0:00,-0.7,-5.2,72,30,25.0,100.86,Cloudy,-0.6940000000000006,1.7704748366374767
2/6/2012 1:00,-0.8,-5.2,72,24,25.0,100.8,Cloudy,-0.742999999999999,1.7702134943297838
2/6/2012 2:00,0.1,-4.7,70,32,25.0,100.75,Snow,0.14000000000000004,1.77375170522369
2/6/2012 3:00,0.1,-3.3,78,30,25.0,100.77,Cloudy,0.0789999999999999,1.7739094759155696
2/6/2012 4:00,0.8,-3.7,72,35,25.0,100.68,Snow,0.8789999999999998,1.771822710723809
2/6/2012 5:00,1.0,-3.8,70,26,25.0,100.7,Cloudy,1.0299999999999998,1.771424504674599
2/6/2012 6:00,1.1,-3.6,71,32,25.0,100.63,Cloudy,1.1059999999999983,1.7712235568146577
2/6/2012 7:00,1.2,-3.5,71,37,24.1,100.62,Mostly Cloudy,1.1680000000000001,1.7710593637918226
2/6/2012 8:00,1.1,-3.8,70,33,24.1,100.63,Mostly Cloudy,1.0959999999999988,1.7712500175063763
2/6/2012 9:00,1.1,-3.6,71,32,24.1,100.62,Cloudy,1.123999999999999,1.7711759121396926
2/6/2012 10:00,1.4,-3.3,71,32,24.1,100.6,Cloudy,1.349000000000001,1.770578674924674
2/6/2012 11:00,1.9,-2.8,71,35,24.1,100.57,Cloudy,1.8840000000000026,1.7691459796518672
2/6/2012 12:00,2.6,-2.4,70,22,24.1,100.5,Cloudy,2.578999999999997,1.767257875001372
2/6/2012 13:00,2.6,-2.9,67,32,24.1,100.47,Cloudy,2.688999999999999,1.7667966127702162
2/6/2012 14:00,3.0,-3.3,63,33,24.1,100.45,Mostly Cloudy,2.978,1.7655387887014347
2/6/2012 15:00,3.3,-3.3,62,30,24.1,100.46,Cloudy,3.2199999999999984,1.7644721606234626
2/6/2012 16:00,3.3,-3.1,63,17,24.1,100.47,Cloudy,3.323000000000002,1.7640144309555843
2/6/2012 17:00,2.9,-2.8,66,13,25.0,100.51,Cloudy,2.98,1.7655300238563136
2/6/2012 18:00,3.2,-2.8,65,11,25.0,100.57,Cloudy,3.1889999999999965,1.7646094831542818
2/6/2012 19:00,3.1,-2.6,66,13,25.0,100.62,Cloudy,3.1039999999999996,1.7649849719216113
2/6/2012 20:00,2.6,-2.6,69,11,25.0,100.65,Cloudy,2.550999999999997,1.7673345394052544
2/6/2012 21:00,3.0,-2.2,69,15,25.0,100.67,Cloudy,2.983000000000002,1.7655168750267605
2/6/2012 22:00,2.7,-2.6,68,13,25.0,100.68,Mostly Cloudy,2.734999999999996,1.7665975546238764
2/6/2012 23:00,2.2,-2.9,69,13,25.0,100.7,Mostly Cloudy,2.142999999999999,1.7684459468127554
2/7/2012 0:00,1.9,-3.1,69,13,25.0,100.77,Cloudy,1.915000000000002,1.76906241500623
2/7/2012 1:00,1.8,-3.4,68,15,25.0,100.82,Mostly Cloudy,1.8290000000000013,1.7692940907732682
2/7/2012 2:00,1.5,-4.4,65,15,25.0,100.89,Mostly Cloudy,1.3860000000000001,1.770480163964359
2/7/2012 3:00,0.8,-5.0,65,19,25.0,100.94,Snow Showers,0.7599999999999987,1.7721355525176283
2/7/2012 4:00,-1.0,-8.3,58,19,25.0,101.03,Mostly Cloudy,-0.9630000000000003,1.7690327484912576
2/7/2012 5:00,-1.9,-8.4,61,15,25.0,101.14,Mainly Clear,-1.9020000000000021,1.7618466278539469
2/7/2012 6:00,-2.9,-8.8,64,20,25.0,101.27,Mostly Cloudy,-2.9210000000000003,1.7516606737246256
2/7/2012 7:00,-5.5,-12.6,57,17,24.1,101.39,Mainly Clear,-5.524000000000001,1.7165841846104046
2/7/2012 8:00,-6.1,-12.8,59,17,24.1,101.53,Mainly Clear,-6.136000000000009,1.7067796441725351
2/7/2012 9:00,-6.2,-13.3,57,19,24.1,101.64,Mainly Clear,-6.195000000000004,1.7057112305915787
2/7/2012 10:00,-6.2,-13.4,57,19,24.1,101.69,Mainly Clear,-6.201000000000002,1.7056012048426181
2/7/2012 11:00,-6.0,-13.7,54,11,24.1,101.74,Mainly Clear,-5.938999999999998,1.7101780566811895
2/7/2012 12:00,-5.6,-13.1,55,13,24.1,101.73,Mainly Clear,-5.533000000000007,1.7164549650622771
2/7/2012 13:00,-5.2,-14.3,49,15,24.1,101.73,Clear,-5.404999999999994,1.7182559230141605
2/7/2012 14:00,-5.1,-15.1,45,15,24.1,101.79,Clear,-5.132000000000006,1.7220165847817543
2/7/2012 15:00,-4.8,-15.4,43,19,24.1,101.85,Clear,-4.7400000000000055,1.7281762330884152
2/7/2012 16:00,-5.0,-16.4,40,22,24.1,101.88,Clear,-4.72,1.7284746428707234
2/7/2012 17:00,-5.9,-17.6,39,19,48.3,101.94,Clear,-5.693999999999993,1.7140738040067443
2/7/2012 18:00,-7.3,-17.4,44,11,25.0,102.03,Clear,-7.2999999999999945,1.687661020116669
2/7/2012 19:00,-8.2,-17.8,46,9,25.0,102.09,Clear,-8.304000000000007,1.6705260573877845
2/7/2012 20:00,-9.2,-18.4,47,11,25.0,102.12,Clear,-9.455000000000002,1.65
2/7/2012 21:00,-9.6,-18.9,47,13,25.0,102.15,Clear,-9.705000000000007,1.65
2/7/2012 22:00,-10.8,-20.1,46,9,25.0,102.21,Clear,-10.979999999999988,1.5
2/7/2012 23:00,-11.8,-20.8,47,9,25.0,102.21,Clear,-11.854999999999984,1.5
2/8/2012 0:00,-13.8,-21.5,52,4,25.0,102.21,Clear,-13.898999999999985,1.6499999999999997
2/8/2012 1:00,-11.9,-20.6,48,9,25.0,102.21,Clear,-11.864999999999993,1.5
2/8/2012 2:00,-12.1,-20.4,50,6,25.0,102.2,Clear,-12.050999999999995,1.5
2/8/2012 3:00,-12.4,-20.4,51,11,25.0,102.15,Clear,-12.319999999999993,1.6499999999999997
2/8/2012 4:00,-14.0,-21.0,55,4,25.0,102.13,Clear,-14.057000000000002,1.6524507409216738
2/8/2012 5:00,-12.6,-21.2,49,0,25.0,102.11,Clear,-12.658999999999997,1.5
2/8/2012 6:00,-12.4,-21.1,48,9,25.0,102.06,Mainly Clear,-12.352999999999994,1.5
2/8/2012 7:00,-11.7,-18.0,59,15,24.1,102.07,Mainly Clear,-11.732000000000017,1.672110259985864
2/8/2012 8:00,-10.8,-17.0,60,13,48.3,102.09,Mainly Clear,-10.731999999999992,1.6747229916897506
2/8/2012 9:00,-9.6,-15.1,64,15,48.3,102.07,Mainly Clear,-9.355999999999993,1.6895328361301014
2/8/2012 10:00,-8.2,-14.6,60,17,48.3,102.04,Mainly Clear,-8.186000000000009,1.6747229916897506
2/8/2012 11:00,-6.3,-13.7,56,17,48.3,101.93,Mainly Clear,-6.291000000000001,1.7039194562332893
2/8/2012 12:00,-4.6,-12.9,52,20,48.3,101.76,Clear,-4.585000000000005,1.730451292474276
2/8/2012 13:00,-3.3,-12.9,47,32,48.3,101.63,Clear,-3.1790000000000025,1.7486488636329318
2/8/2012 14:00,-2.4,-12.2,47,24,48.3,101.54,Mainly Clear,-2.3820000000000023,1.7573653576283643
2/8/2012 15:00,-1.8,-12.8,43,32,48.3,101.45,Mainly Clear,-1.826999999999999,1.7625280606636955
2/8/2012 16:00,-1.6,-11.9,45,22,48.3,101.37,Mainly Clear,-1.624999999999998,1.7643390740153586
2/8/2012 17:00,-2.1,-12.0,47,17,48.3,101.31,Mainly Clear,-2.207999999999998,1.7590142718078843
2/8/2012 18:00,-2.5,-12.6,46,19,24.1,101.27,Mainly Clear,-2.616,1.7550700901840988
2/8/2012 19:00,-3.2,-12.4,49,22,25.0,101.28,Clear,-3.261999999999997,1.7476537759216586
2/8/2012 20:00,-3.3,-12.1,51,22,25.0,101.26,Clear,-3.463000000000002,1.7451888961006796
2/8/2012 21:00,-3.1,-10.3,57,26,25.0,101.25,Mainly Clear,-3.075,1.7498775205892478
2/8/2012 22:00,-3.6,-8.6,68,17,25.0,101.22,Mainly Clear,-3.629000000000003,1.7430922727553055
2/8/2012 23:00,-3.6,-8.1,71,20,25.0,101.19,Clear,-3.593000000000002,1.7435517704905874
2/9/2012 0:00,-4.0,-8.3,72,13,25.0,101.17,Clear,-3.908000000000001,1.739467188615956
2/9/2012 1:00,-3.4,-7.9,71,13,25.0,101.16,Clear,-3.405999999999998,1.7458959571046215
2/9/2012 2:00,-3.9,-8.0,73,11,25.0,101.17,Clear,-3.9219999999999984,1.739294536288443
2/9/2012 3:00,-3.5,-7.9,72,24,25.0,101.12,Clear,-3.551999999999999,1.7440718203796874
2/9/2012 4:00,-3.4,-8.0,70,26,25.0,101.1,Clear,-3.349000000000001,1.7465965888240662
2/9/2012 5:00,-4.1,-8.3,73,20,25.0,101.11,Clear,-4.120000000000005,1.7367936781575264
2/9/2012 6:00,-4.9,-8.9,73,20,25.0,101.13,Clear,-4.851999999999994,1.726477678050905
2/9/2012 7:00,-5.4,-9.1,75,17,24.1,101.19,Mainly Clear,-5.415999999999996,1.7241591468416737
2/9/2012 8:00,-4.9,-8.8,74,20,24.1,101.23,Clear,-4.927999999999994,1.725297854407725
2/9/2012 9:00,-3.5,-8.0,71,22,24.1,101.25,Mainly Clear,-3.4950000000000006,1.7447890984874073
2/9/2012 10:00,-2.5,-7.8,67,28,24.1,101.26,Mainly Clear,-2.4890000000000003,1.7563371567493886
2/9/2012 11:00,-1.2,-7.3,63,24,24.1,101.27,Clear,-1.1940000000000015,1.7677798348684959
2/9/2012 12:00,-0.1,-7.3,58,24,48.3,101.19,Clear,-0.03500000000000001,1.7739327349333225
2/9/2012 13:00,0.7,-7.1,56,26,48.3,101.13,Clear,0.6050000000000005,1.7725417514508315
2/9/2012 14:00,1.5,-6.3,56,30,24.1,101.05,Clear,1.521,1.7701200135022914
2/9/2012 15:00,2.4,-6.2,53,24,48.3,101.03,Clear,2.353000000000002,1.7678752282586825
2/9/2012 16:00,2.7,-6.5,51,22,48.3,101.01,Clear,2.6709999999999976,1.7668743875154587
2/9/2012 17:00,2.0,-6.3,54,20,48.3,101.02,Clear,2.059,1.7686734492091525
2/9/2012 18:00,1.6,-6.6,54,22,24.1,101.06,Clear,1.5809999999999986,1.769959583578094
2/9/2012 19:00,0.4,-5.9,63,20,25.0,101.1,Clear,0.3919999999999994,1.7730975907143602
2/9/2012 20:00,0.5,-6.6,59,17,25.0,101.11,Clear,0.516,1.7727743344151823
2/9/2012 21:00,0.2,-5.5,65,22,25.0,101.13,Clear,0.184,1.7736377666493215
2/9/2012 22:00,0.8,-4.7,67,28,25.0,101.11,Clear,0.8139999999999995,1.7719936970753718
2/9/2012 23:00,0.1,-4.9,69,26,25.0,101.1,Clear,0.09699999999999989,1.773862943519031
2/10/2012 0:00,0.4,-3.5,75,22,25.0,101.12,Clear,0.29800000000000015,1.7733420276216127
2/10/2012 1:00,0.1,-4.1,73,19,25.0,101.13,Clear,0.06799999999999987,1.7739379029540616
2/10/2012 2:00,0.0,-4.3,73,22,25.0,101.15,Clear,-0.07200000000000002,1.7737413519114065
2/10/2012 3:00,-1.0,-4.3,78,17,25.0,101.13,Clear,-0.9800000000000003,1.7689410037826694
2/10/2012 4:00,-0.8,-4.4,77,20,25.0,101.1,Clear,-0.8199999999999993,1.769801608979544
2/10/2012 5:00,-0.8,-4.3,77,22,25.0,101.07,Clear,-0.7080000000000003,1.7704002280859272
2/10/2012 6:00,-0.7,-4.0,78,22,25.0,101.07,Clear,-0.6530000000000008,1.7706930544444108
2/10/2012 7:00,-0.5,-3.9,78,20,24.1,101.09,Mostly Cloudy,-0.5880000000000003,1.7710381604264083
2/10/2012 8:00,-0.9,-4.2,78,17,24.1,101.12,Mostly Cloudy,-0.8930000000000007,1.7694097544319467
2/10/2012 9:00,-0.1,-3.5,78,19,24.1,101.12,Cloudy,-0.16299999999999987,1.7732692717188925
2/10/2012 10:00,0.9,-3.7,71,28,24.1,101.1,Mostly Cloudy,1.060999999999999,1.771342581744167
2/10/2012 11:00,1.4,-4.1,67,20,24.1,101.08,Cloudy,1.3740000000000012,1.770512122733143
2/10/2012 12:00,1.4,-3.9,68,24,24.1,100.97,Cloudy,1.366000000000001,1.7705334236350154
2/10/2012 13:00,1.3,-4.7,64,24,24.1,100.92,Cloudy,1.3099999999999983,1.7706824193004762
2/10/2012 14:00,1.1,-3.5,71,30,24.1,100.91,Cloudy,1.1099999999999985,1.7712129708238173
2/10/2012 15:00,1.3,-4.0,68,28,24.1,100.94,Cloudy,1.2689999999999992,1.7707913827814943
2/10/2012 16:00,1.0,-4.1,69,30,24.1,100.9,Cloudy,1.038,1.7714033688935074
2/10/2012 17:00,0.9,-4.8,66,22,25.0,100.87,Cloudy,0.8940000000000006,1.7717832159094684
2/10/2012 18:00,0.4,-4.8,68,17,25.0,100.92,Cloudy,0.4469999999999995,1.7729543244782995
2/10/2012 19:00,0.0,-5.2,68,17,25.0,100.91,Mostly Cloudy,-0.04700000000000002,1.7738707002485439
2/10/2012 20:00,-0.2,-5.2,69,15,25.0,100.88,Snow Showers,-0.26299999999999973,1.7727482252198277
2/10/2012 21:00,-0.4,-4.7,73,13,25.0,100.84,Cloudy,-0.3759999999999995,1.7721565531280603
2/10/2012 22:00,-0.7,-3.0,84,11,16.1,100.78,Snow,-0.6330000000000005,1.7707993516536134
2/10/2012 23:00,-0.9,-2.4,90,6,9.7,100.76,"Snow,Fog",-1.0070000000000017,1.768795141697515
2/11/2012 0:00,-1.4,-2.3,94,9,6.4,100.78,"Snow,Fog",-1.291000000000002,1.7677471105115399
2/11/2012 1:00,-7.4,-8.9,89,24,3.6,100.83,Snow,-7.344999999999991,1.7590894054480448
2/11/2012 2:00,-8.6,-11.0,83,30,8.0,100.91,Snow,-8.566000000000008,1.7459700090483987
2/11/2012 3:00,-9.5,-12.4,79,22,6.4,100.93,Snow,-9.481999999999998,1.7357508862871274
2/11/2012 4:00,-10.8,-13.4,81,22,16.1,100.98,Snow,-10.65399999999999,1.7408722768108806
2/11/2012 5:00,-11.5,-14.4,79,20,16.1,100.99,Snow,-11.469000000000001,1.7357508862871274
2/11/2012 6:00,-12.2,-14.8,81,24,9.7,101.0,Snow,-12.266000000000012,1.7408722768108806
2/11/2012 7:00,-13.0,-15.7,80,20,12.9,100.96,Snow,-13.07,1.7383226557949913
2/11/2012 8:00,-13.7,-17.1,75,20,16.1,101.01,Snow,-13.45900000000002,1.7241591468416737
2/11/2012 9:00,-13.7,-19.1,64,20,24.1,101.04,Cloudy,-13.714000000000015,1.6895328361301014
2/11/2012 10:00,-13.4,-18.8,64,19,24.1,101.05,Snow,-13.418000000000006,1.6895328361301014
2/11/2012 11:00,-13.1,-18.8,62,11,24.1,101.03,Snow,-12.980000000000002,1.681279062923068
2/11/2012 12:00,-12.8,-17.2,70,9,19.3,100.97,Snow,-12.981,1.7091525423728813
2/11/2012 13:00,-12.1,-16.4,70,7,24.1,100.85,Mostly Cloudy,-12.085000000000004,1.7091525423728813
2/11/2012 14:00,-11.3,-17.4,61,6,48.3,100.76,Mainly Clear,-11.251999999999992,1.6768881290465567
2/11/2012 15:00,-10.8,-18.8,52,11,48.3,100.73,Mainly Clear,-10.829999999999984,1.6499999999999997
2/11/2012 16:00,-10.4,-18.3,52,6,48.3,100.7,Mainly Clear,-10.52299999999999,1.6499999999999997
2/11/2012 17:00,-10.5,-17.0,59,4,25.0,100.68,Mainly Clear,-10.491,1.672110259985864
2/11/2012 18:00,-12.8,-17.9,66,4,25.0,100.72,Clear,-12.970000000000002,1.6960165533823464
2/11/2012 19:00,-14.0,-21.2,54,7,25.0,100.74,Clear,-13.960000000000003,1.6499999999999997
2/11/2012 20:00,-14.4,-19.9,63,9,25.0,100.73,Clear,-14.293000000000015,1.6856696145686971
2/11/2012 21:00,-13.9,-18.6,68,7,25.0,100.71,Clear,-13.965000000000002,1.7018006700167505
2/11/2012 22:00,-13.5,-18.2,68,6,25.0,100.7,Clear,-13.626000000000003,1.7018006700167505
2/11/2012 23:00,-14.5,-20.8,59,13,25.0,100.68,Clear,-14.532,1.672110259985864
2/12/2012 0:00,-15.0,-22.4,53,11,25.0,100.66,Clear,-14.934000000000001,1.6500000000000004
2/12/2012 1:00,-15.3,-23.1,51,11,25.0,100.62,Mostly Cloudy,-15.107999999999997,1.6499999999999997
2/12/2012 2:00,-15.9,-23.7,51,6,25.0,100.6,Clear,-16.136999999999993,1.6499999999999997
2/12/2012 3:00,-16.8,-23.9,54,9,25.0,100.57,Mainly Clear,-16.810999999999975,1.6499999999999997
2/12/2012 4:00,-16.6,-23.8,54,11,25.0,100.6,Cloudy,-16.67799999999998,1.6499999999999997
2/12/2012 5:00,-16.4,-22.8,58,11,25.0,100.59,Snow,-16.246000000000013,1.6688951382675015
2/12/2012 6:00,-16.7,-23.3,57,15,25.0,100.6,Snow,-16.627000000000024,1.6648421508897826
2/12/2012 7:00,-16.7,-23.5,56,19,24.1,100.64,Snow,-16.717000000000024,1.659574703732418
2/12/2012 8:00,-16.9,-24.1,54,17,24.1,100.68,Cloudy,-16.921000000000006,1.6499999999999997
2/12/2012 9:00,-16.7,-24.6,50,17,24.1,100.72,Snow,-16.587,1.5
2/12/2012 10:00,-16.6,-25.1,48,17,48.3,100.73,Mostly Cloudy,-16.249999999999996,1.5
2/12/2012 11:00,-16.1,-25.3,45,20,48.3,100.72,Mainly Clear,-15.879999999999994,1.5
2/12/2012 12:00,-14.8,-23.8,46,24,48.3,100.61,Mainly Clear,-15.550999999999997,1.5
2/12/2012 13:00,-13.9,-23.2,45,20,48.3,100.55,Mainly Clear,-14.418000000000008,1.5
2/12/2012 14:00,-13.2,-23.0,44,26,48.3,100.52,Mainly Clear,-13.683000000000002,1.5
2/12/2012 15:00,-12.5,-22.8,42,28,48.3,100.51,Mainly Clear,-11.4,1.5
2/12/2012 16:00,-12.0,-21.9,44,32,48.3,100.54,Mainly Clear,-12.306,1.5
2/12/2012 17:00,-12.0,-22.1,43,26,25.0,100.56,Mainly Clear,-11.475999999999997,1.5
2/12/2012 18:00,-12.3,-20.1,52,24,25.0,100.57,Mostly Cloudy,-12.288999999999989,1.6499999999999997
2/12/2012 19:00,-11.9,-19.3,54,24,25.0,100.58,Mostly Cloudy,-11.86199999999999,1.6499999999999997
2/12/2012 20:00,-11.3,-18.9,53,22,25.0,100.58,Cloudy,-11.282999999999983,1.6500000000000004
2/12/2012 21:00,-10.8,-18.8,52,24,25.0,100.55,Cloudy,-10.908999999999983,1.6499999999999997
2/12/2012 22:00,-10.6,-17.9,55,26,25.0,100.55,Cloudy,-10.679000000000006,1.6524507409216738
2/12/2012 23:00,-10.3,-17.3,56,20,25.0,100.53,Cloudy,-10.218999999999989,1.659574703732418
2/13/2012 0:00,-10.0,-16.3,60,19,25.0,100.48,Snow,-10.022999999999998,1.6747229916897506
2/13/2012 1:00,-9.4,-16.5,56,22,25.0,100.37,Cloudy,-9.530999999999992,1.659574703732418
2/13/2012 2:00,-8.8,-15.7,57,24,25.0,100.33,Cloudy,-8.812000000000001,1.6648421508897826
2/13/2012 3:00,-8.8,-14.6,63,20,25.0,100.31,Cloudy,-8.773999999999988,1.6856696145686971
2/13/2012 4:00,-8.4,-14.6,61,20,25.0,100.3,Cloudy,-8.415999999999991,1.6768881290465567
2/13/2012 5:00,-8.0,-15.0,57,22,25.0,100.33,Cloudy,-7.984000000000001,1.6749110200423145
2/13/2012 6:00,-7.9,-14.5,59,22,25.0,100.37,Cloudy,-7.806999999999999,1.676818631913456
2/13/2012 7:00,-7.9,-14.5,59,22,24.1,100.44,Cloudy,-7.8369999999999935,1.6765159912829286
2/13/2012 8:00,-8.0,-13.5,65,24,48.3,100.54,Cloudy,-8.032000000000002,1.6929583486014415
2/13/2012 9:00,-7.5,-14.6,57,20,48.3,100.56,Cloudy,-7.533000000000003,1.6828151612731053
2/13/2012 10:00,-6.8,-19.1,37,26,48.3,100.59,Mostly Cloudy,-4.861,1.7263391287341916
2/13/2012 11:00,-6.5,-13.0,60,20,48.3,100.59,Cloudy,-6.505000000000003,1.6999727099525923
2/13/2012 12:00,-5.2,-13.1,54,17,48.3,100.56,Mostly Cloudy,-5.264000000000001,1.7201520006265258
2/13/2012 13:00,-4.9,-14.0,49,24,48.3,100.52,Mostly Cloudy,-5.078999999999995,1.7228855623686905
2/13/2012 14:00,-4.3,-13.4,49,22,48.3,100.52,Cloudy,-4.401999999999998,1.7330303050636746
2/13/2012 15:00,-3.4,-12.4,50,24,48.3,100.54,Cloudy,-3.283999999999998,1.7473878201245785
2/13/2012 16:00,-3.4,-12.8,48,24,48.3,100.56,Cloudy,-3.3159999999999985,1.746999313486606
2/13/2012 17:00,-3.6,-13.7,45,15,24.1,100.6,Mostly Cloudy,-3.6800000000000033,1.7424366779151335
2/13/2012 18:00,-4.9,-13.4,51,0,25.0,100.64,Mostly Cloudy,-4.897999999999995,1.7257662565603356
2/13/2012 19:00,-5.6,-12.0,61,15,25.0,100.69,Mostly Cloudy,-5.716000000000007,1.7137378458188144
2/13/2012 20:00,-7.2,-12.0,69,7,25.0,100.73,Cloudy,-7.211000000000005,1.7056195602958193
2/13/2012 21:00,-7.5,-12.1,70,11,19.3,100.76,Snow,-7.549999999999998,1.7091525423728813
2/13/2012 22:00,-9.0,-12.9,73,13,25.0,100.78,Cloudy,-8.973999999999997,1.718324698506683
2/13/2012 23:00,-10.8,-14.8,72,19,25.0,100.8,Cloudy,-10.787,1.7154802667147235
2/14/2012 0:00,-11.8,-15.6,73,15,25.0,100.83,Mostly Cloudy,-11.716,1.718324698506683
2/14/2012 1:00,-11.9,-16.0,72,13,25.0,100.86,Mainly Clear,-12.027999999999997,1.7154802667147235
2/14/2012 2:00,-12.9,-17.9,66,11,25.0,100.93,Mainly Clear,-12.771000000000006,1.6960165533823464
2/14/2012 3:00,-13.2,-19.1,61,9,25.0,100.96,Mostly Cloudy,-13.211000000000022,1.6768881290465567
2/14/2012 4:00,-13.4,-19.4,61,11,25.0,101.01,Mostly Cloudy,-13.403000000000006,1.6768881290465567
2/14/2012 5:00,-13.4,-19.7,59,4,25.0,101.03,Mostly Cloudy,-13.45500000000001,1.672110259985864
2/14/2012 6:00,-14.2,-19.6,64,6,25.0,101.04,Mainly Clear,-14.298000000000016,1.6895328361301014
2/14/2012 7:00,-13.7,-19.9,59,7,24.1,101.07,Mainly Clear,-13.664000000000017,1.672110259985864
2/14/2012 8:00,-13.6,-20.0,58,9,24.1,101.12,Mainly Clear,-13.598999999999995,1.6688951382675015
2/14/2012 9:00,-11.6,-18.0,59,4,24.1,101.12,Mainly Clear,-11.559000000000003,1.672110259985864
2/14/2012 10:00,-8.8,-14.3,64,4,24.1,101.15,Mainly Clear,-8.774999999999988,1.6895328361301014
2/14/2012 11:00,-5.0,-10.6,65,0,19.3,101.14,Mostly Cloudy,-5.061,1.723178008636793
2/14/2012 12:00,-3.2,-8.3,68,4,24.1,101.09,Cloudy,-3.3709999999999987,1.7463269258208012
2/14/2012 13:00,-2.1,-6.5,72,4,24.1,101.02,Cloudy,-2.058999999999998,1.760403999951227
2/14/2012 14:00,0.1,-5.1,68,9,24.1,100.98,Mostly Cloudy,0.08399999999999996,1.773896552170886
2/14/2012 15:00,1.1,-5.3,62,9,24.1,100.98,Mostly Cloudy,1.3310000000000002,1.7706265686060239
2/14/2012 16:00,2.3,-4.9,59,7,24.1,100.97,Mostly Cloudy,2.2820000000000022,1.768068500015793
2/14/2012 17:00,1.1,-3.7,70,9,24.1,101.01,Mostly Cloudy,1.0979999999999992,1.7712447258577224
2/14/2012 18:00,1.3,-3.9,68,9,25.0,101.08,Cloudy,1.3650000000000009,1.770536085969718
2/14/2012 19:00,1.8,-6.1,56,7,25.0,101.13,Cloudy,1.7960000000000016,1.7693828662572078
2/14/2012 20:00,-0.2,-5.1,69,4,25.0,101.16,Mostly Cloudy,-0.15299999999999994,1.7733212449859117
2/14/2012 21:00,-0.6,-6.0,67,7,25.0,101.18,Mainly Clear,-0.6300000000000008,1.7708152877356496
2/14/2012 22:00,-0.5,-5.7,68,0,25.0,101.21,Cloudy,-0.4650000000000003,1.7716883725493802
2/14/2012 23:00,-1.2,-5.6,72,0,25.0,101.22,Cloudy,-1.2440000000000007,1.7675068497883775
2/15/2012 0:00,-1.9,-5.6,76,4,25.0,101.26,Cloudy,-1.942000000000002,1.7614811675277222
2/15/2012 1:00,-1.8,-5.2,78,4,25.0,101.31,Cloudy,-1.8180000000000018,1.76260950105422
2/15/2012 2:00,-1.2,-5.2,74,0,25.0,101.33,Cloudy,-1.1930000000000012,1.7677852880314553
2/15/2012 3:00,-1.6,-5.4,75,4,25.0,101.36,Cloudy,-1.638999999999999,1.764214687464964
2/15/2012 4:00,-0.7,-3.5,81,0,25.0,101.39,Snow,-0.6650000000000008,1.7706292287797905
2/15/2012 5:00,-1.3,-3.0,88,7,4.8,101.45,Snow,-1.2749999999999984,1.767337276485588
2/15/2012 6:00,-1.0,-2.3,91,0,4.8,101.48,Snow,-1.0100000000000002,1.7687789234305538
2/15/2012 7:00,-0.3,-1.6,91,4,6.4,101.51,Snow,-0.19799999999999998,1.773087177448499
2/15/2012 8:00,0.1,-1.5,89,4,4.8,101.57,Snow,0.001000000000000005,1.7741108952086586
2/15/2012 9:00,0.6,-1.2,88,4,3.2,101.61,Snow,0.5800000000000006,1.7726071318185512
2/15/2012 10:00,1.0,-0.7,88,0,6.4,101.62,Snow,1.0630000000000002,1.771337294377253
2/15/2012 11:00,2.0,-0.2,85,0,8.0,101.65,Snow,1.989999999999999,1.7688599920201669
2/15/2012 12:00,2.1,-0.3,84,0,9.7,101.67,Snow,2.040999999999998,1.7687221415736674
2/15/2012 13:00,1.7,-0.3,87,6,9.7,101.67,Snow,1.6549999999999985,1.7697614113468862
2/15/2012 14:00,1.5,0.0,90,7,9.7,101.68,Snow,1.4049999999999998,1.7704295443721718
2/15/2012 15:00,1.9,0.1,88,6,12.9,101.72,Cloudy,1.8920000000000021,1.7691244203721181
2/15/2012 16:00,2.2,0.2,87,6,12.9,101.75,Rain,2.220999999999998,1.7682342935414246
2/15/2012 17:00,2.1,0.3,88,6,11.3,101.8,Rain,2.0929999999999973,1.768581418780275
2/15/2012 18:00,1.5,0.2,91,7,9.7,101.85,Rain,1.5089999999999997,1.770152072638801
2/15/2012 19:00,1.5,0.2,91,7,9.7,101.89,Rain,1.5089999999999997,1.770152072638801
2/15/2012 20:00,1.5,0.2,91,7,6.4,101.91,Rain,1.5069999999999997,1.7701574149588823
2/15/2012 21:00,1.3,0.1,92,13,8.0,101.95,Snow,1.2909999999999988,1.7707329274500336
2/15/2012 22:00,1.2,0.0,92,7,6.4,101.98,Fog,1.1620000000000006,1.771075263738876
2/15/2012 23:00,1.4,0.0,90,7,8.0,101.97,Fog,1.3919999999999997,1.7704641812417707
2/16/2012 0:00,0.8,-0.4,92,9,9.7,101.96,Fog,0.7819999999999994,1.7720777808724657
2/16/2012 1:00,1.1,-0.5,89,7,12.9,102.0,Cloudy,1.0849999999999989,1.7712791171984328
2/16/2012 2:00,0.7,-0.8,90,4,12.9,101.97,Cloudy,0.688000000000001,1.7723244187600868
2/16/2012 3:00,0.7,-0.7,90,6,25.0,101.94,Cloudy,0.7550000000000009,1.7721486783527907
2/16/2012 4:00,0.9,-0.7,89,7,12.9,101.94,Cloudy,0.8660000000000002,1.771856928507202
2/16/2012 5:00,0.7,-0.9,89,4,12.9,101.92,Cloudy,0.6880000000000008,1.7723244187600868
2/16/2012 6:00,1.3,-0.9,85,6,12.9,101.93,Cloudy,1.3359999999999983,1.7706132668115813
2/16/2012 7:00,1.7,-0.9,83,7,12.9,101.96,Cloudy,1.6620000000000001,1.7697426476468794
2/16/2012 8:00,1.2,-1.2,84,7,16.1,101.95,Cloudy,1.1960000000000008,1.7709851348260606
2/16/2012 9:00,1.8,-1.3,80,0,16.1,101.91,Mostly Cloudy,1.724000000000001,1.7695763212721025
2/16/2012 10:00,2.7,-1.1,76,11,24.1,101.83,Mainly Clear,2.744999999999997,1.7665542238603906
2/16/2012 11:00,3.3,-2.1,68,11,24.1,101.76,Mostly Cloudy,3.4089999999999985,1.7636305151371177
2/16/2012 12:00,3.6,-3.1,62,19,24.1,101.65,Mostly Cloudy,3.6290000000000027,1.7626411532114952
2/16/2012 13:00,3.3,-2.7,65,19,24.1,101.53,Mostly Cloudy,3.3060000000000036,1.764090134133256
2/16/2012 14:00,3.5,-2.7,64,19,24.1,101.39,Mostly Cloudy,3.501000000000001,1.763218055907427
2/16/2012 15:00,3.6,-2.8,63,19,24.1,101.29,Mostly Cloudy,3.5920000000000027,1.7628082799993914
2/16/2012 16:00,3.7,-2.5,64,15,24.1,101.22,Cloudy,3.635999999999996,1.76260950105422
2/16/2012 17:00,3.6,-2.7,63,15,24.1,101.17,Cloudy,3.6420000000000026,1.7625823621204788
2/16/2012 18:00,3.0,-2.1,69,19,24.1,101.13,Rain,3.0260000000000002,1.76532820227574
2/16/2012 19:00,2.5,-1.4,75,17,25.0,101.02,Rain,2.5809999999999986,1.7672523970392153
2/16/2012 20:00,1.7,-0.7,84,17,16.1,100.94,Rain,1.7059999999999989,1.7696246343235609
2/16/2012 21:00,1.5,-0.5,87,15,25.0,100.88,Rain,1.499,1.7701787817560257
2/16/2012 22:00,1.5,-0.6,86,17,12.9,100.8,Rain,1.4869999999999999,1.7702108245040935
2/16/2012 23:00,1.3,-0.3,89,19,16.1,100.71,Rain,1.3119999999999987,1.7706771013585614
2/17/2012 0:00,1.3,-0.3,89,19,12.9,100.64,Rain,1.313999999999999,1.770671783169991
2/17/2012 1:00,1.3,-0.2,90,19,12.9,100.57,Rain,1.2719999999999985,1.7707834133552307
2/17/2012 2:00,1.3,0.1,92,17,9.7,100.5,Rain,1.2879999999999985,1.7707409003872212
2/17/2012 3:00,1.4,0.2,92,19,12.9,100.45,Rain,1.3810000000000011,1.7704934811997037
2/17/2012 4:00,2.3,1.1,92,20,8.0,100.47,Drizzle,2.341000000000003,1.767907916524639
2/17/2012 5:00,2.8,1.6,92,24,12.9,100.49,Cloudy,2.8040000000000034,1.7662981550115469
2/17/2012 6:00,3.0,0.9,86,30,16.1,100.54,Cloudy,3.13,1.764870278104817
2/17/2012 7:00,3.0,-0.3,79,24,24.1,100.58,Mostly Cloudy,3.003999999999999,1.7654247807085253
2/17/2012 8:00,2.8,-1.2,75,32,24.1,100.67,Cloudy,2.7930000000000037,1.7663459508642496
2/17/2012 9:00,2.3,-2.4,71,32,24.1,100.74,Mostly Cloudy,2.365000000000003,1.767842530783681
2/17/2012 10:00,2.5,-3.0,67,41,48.3,100.76,Mostly Cloudy,2.4760000000000004,1.7675396418808904
2/17/2012 11:00,2.6,-4.0,62,32,48.3,100.77,Cloudy,2.619999999999999,1.7670943911181376
2/17/2012 12:00,2.6,-4.1,61,24,24.1,100.71,Cloudy,2.673999999999998,1.7668614296440013
2/17/2012 13:00,3.0,-4.3,59,22,24.1,100.66,Mostly Cloudy,2.9719999999999995,1.7655650782401084
2/17/2012 14:00,3.5,-5.1,53,28,24.1,100.62,Mostly Cloudy,3.086999999999999,1.765059887225972
2/17/2012 15:00,3.0,-4.4,58,30,24.1,100.63,Mostly Cloudy,3.0739999999999985,1.7651171344769951
2/17/2012 16:00,3.1,-4.9,56,26,24.1,100.64,Cloudy,2.899999999999999,1.7658799692008478
2/17/2012 17:00,2.6,-3.9,62,26,24.1,100.66,Mostly Cloudy,2.6779999999999995,1.7668441496292362
2/17/2012 18:00,2.3,-3.7,64,22,25.0,100.69,Mostly Cloudy,2.367000000000003,1.7678370803089172
2/17/2012 19:00,2.0,-3.5,67,28,25.0,100.68,Mostly Cloudy,1.915,1.7690624150062302
2/17/2012 20:00,1.8,-3.4,68,24,25.0,100.68,Mostly Cloudy,1.8410000000000017,1.7692617918310012
2/17/2012 21:00,1.7,-3.6,68,19,25.0,100.7,Mostly Cloudy,1.6670000000000005,1.7697292431314418
2/17/2012 22:00,1.2,-3.9,69,15,25.0,100.72,Mainly Clear,1.1290000000000016,1.7711626739857091
2/17/2012 23:00,0.9,-4.1,69,26,25.0,100.7,Mainly Clear,0.954000000000001,1.7716250998355936
2/18/2012 0:00,0.7,-3.9,71,24,25.0,100.71,Mainly Clear,0.7590000000000012,1.7721381778056415
2/18/2012 1:00,0.7,-4.5,68,22,25.0,100.71,Mainly Clear,0.7150000000000007,1.7722536306202072
2/18/2012 2:00,0.3,-4.4,71,22,25.0,100.74,Mainly Clear,0.3310000000000003,1.7732562746780132
2/18/2012 3:00,0.3,-4.7,69,26,25.0,100.72,Mostly Cloudy,0.365,1.7731678552677974
2/18/2012 4:00,-0.3,-4.9,71,22,25.0,100.74,Mostly Cloudy,-0.229,1.772925649518345
2/18/2012 5:00,-0.6,-5.1,72,19,25.0,100.79,Cloudy,-0.6989999999999995,1.7704481962930991
2/18/2012 6:00,-0.2,-5.0,70,20,25.0,100.82,Mostly Cloudy,-0.19799999999999993,1.773087177448499
2/18/2012 7:00,-0.6,-5.2,71,24,25.0,100.84,Mostly Cloudy,-0.5870000000000007,1.771043461635957
2/18/2012 8:00,-0.6,-5.3,70,19,24.1,100.85,Mostly Cloudy,-0.5960000000000008,1.7709957419108828
2/18/2012 9:00,-0.6,-5.4,70,24,48.3,100.85,Mainly Clear,-0.6090000000000009,1.7709267782910152
2/18/2012 10:00,0.1,-5.3,67,24,48.3,100.83,Cloudy,-0.079,1.7737051078552424
2/18/2012 11:00,0.5,-5.1,66,17,48.3,100.81,Cloudy,0.3030000000000001,1.7733290389209078
2/18/2012 12:00,1.1,-5.7,60,15,48.3,100.75,Mostly Cloudy,1.1609999999999994,1.7710779135153385
2/18/2012 13:00,1.8,-6.1,56,20,48.3,100.7,Mostly Cloudy,1.7920000000000018,1.7693936222795446
2/18/2012 14:00,1.2,-5.4,61,15,48.3,100.7,Mostly Cloudy,1.4989999999999997,1.7701787817560257
2/18/2012 15:00,1.5,-5.8,58,19,48.3,100.71,Mostly Cloudy,1.4120000000000001,1.7704108894199246
2/18/2012 16:00,1.5,-6.3,56,19,48.3,100.73,Mostly Cloudy,1.6,1.7699087340766253
2/18/2012 17:00,1.0,-6.2,59,13,48.3,100.78,Mostly Cloudy,1.0219999999999998,1.7714456365476725
2/18/2012 18:00,0.8,-6.9,56,15,25.0,100.88,Mostly Cloudy,0.7589999999999993,1.7721381778056415
2/18/2012 19:00,-0.6,-7.8,58,11,25.0,100.99,Mainly Clear,-0.49000000000000044,1.771556514808332
2/18/2012 20:00,-1.7,-7.8,63,11,25.0,101.09,Clear,-1.5889999999999997,1.7646581616522983
2/18/2012 21:00,-2.4,-8.1,65,9,25.0,101.16,Clear,-2.4310000000000023,1.7568958576684128
2/18/2012 22:00,-3.5,-8.3,69,9,25.0,101.21,Clear,-3.5009999999999986,1.744713906437204
2/18/2012 23:00,-3.9,-8.7,69,9,25.0,101.29,Clear,-3.819000000000001,1.7406217267821145
2/19/2012 0:00,-3.9,-8.8,69,13,25.0,101.37,Clear,-3.904000000000002,1.7395164189837011
2/19/2012 1:00,-4.5,-9.8,66,19,25.0,101.46,Mainly Clear,-4.484,1.7318885754992248
2/19/2012 2:00,-5.2,-10.2,68,9,25.0,101.49,Mainly Clear,-5.216999999999996,1.7207646297699875
2/19/2012 3:00,-6.0,-10.3,72,0,25.0,101.43,Clear,-6.0310000000000015,1.7154802667147235
2/19/2012 4:00,-5.8,-10.5,69,7,25.0,101.44,Mainly Clear,-5.727999999999995,1.7135534862459727
2/19/2012 5:00,-5.9,-9.7,74,9,25.0,101.48,Mainly Clear,-5.9009999999999945,1.7209839103698092
2/19/2012 6:00,-6.7,-10.3,76,6,25.0,101.5,Clear,-6.691000000000002,1.7272721454173066
2/19/2012 7:00,-6.3,-10.5,72,7,25.0,101.53,Mainly Clear,-6.1469999999999985,1.7154802667147235
2/19/2012 8:00,-5.8,-9.9,73,7,24.1,101.57,Mostly Cloudy,-5.816999999999997,1.718324698506683
2/19/2012 9:00,-5.2,-9.7,71,9,24.1,101.59,Mostly Cloudy,-5.199999999999996,1.7209839103698088
2/19/2012 10:00,-4.7,-9.7,68,15,48.3,101.59,Cloudy,-4.730999999999998,1.7283106986473133
2/19/2012 11:00,-4.0,-9.1,68,17,48.3,101.59,Mostly Cloudy,-4.018999999999999,1.7380833255390498
2/19/2012 12:00,-3.2,-9.0,64,17,48.3,101.56,Mainly Clear,-3.0480000000000005,1.750193243997452
2/19/2012 13:00,-2.7,-8.6,64,19,48.3,101.51,Mainly Clear,-2.7139999999999964,1.7539918210539476
2/19/2012 14:00,-2.3,-9.5,58,15,48.3,101.45,Clear,-2.239000000000002,1.7587225695194026
2/19/2012 15:00,-1.6,-9.3,56,17,48.3,101.43,Clear,-1.6169999999999973,1.7644100772916167
2/19/2012 16:00,-1.6,-9.7,54,20,48.3,101.37,Clear,-1.5079999999999982,1.7653721140895748
2/19/2012 17:00,-2.1,-9.8,56,15,48.3,101.36,Clear,-1.965999999999999,1.761261209077927
2/19/2012 18:00,-2.9,-9.8,59,13,48.3,101.39,Clear,-2.9050000000000007,1.7518435102059395
2/19/2012 19:00,-3.2,-10.0,59,15,25.0,101.43,Clear,-3.3330000000000006,1.7467921136961908
2/19/2012 20:00,-3.8,-10.1,62,13,25.0,101.47,Clear,-3.8580000000000054,1.7401049599799923
2/19/2012 21:00,-4.8,-10.0,67,11,25.0,101.51,Clear,-4.8770000000000024,1.7260920498752925
2/19/2012 22:00,-5.4,-10.2,69,9,25.0,101.52,Clear,-5.447999999999992,1.7176596375970665
2/19/2012 23:00,-6.3,-11.8,65,7,25.0,101.52,Clear,-6.312,1.703518390135424
2/20/2012 0:00,-6.7,-12.4,64,4,25.0,101.55,Clear,-6.759000000000002,1.6966034231664993
2/20/2012 1:00,-7.6,-12.6,67,0,25.0,101.63,Clear,-7.501999999999997,1.698763522260988
2/20/2012 2:00,-8.8,-12.3,76,4,25.0,101.66,Clear,-8.800999999999988,1.7272721454173066
2/20/2012 3:00,-8.8,-12.7,73,7,25.0,101.68,Clear,-8.729999999999988,1.718324698506683
2/20/2012 4:00,-9.8,-13.0,77,6,25.0,101.69,Clear,-9.794999999999995,1.7302348458823897
2/20/2012 5:00,-10.2,-13.7,75,6,25.0,101.77,Clear,-10.162000000000013,1.7241591468416737
2/20/2012 6:00,-10.7,-14.3,75,4,25.0,101.81,Clear,-10.723000000000015,1.7241591468416737
2/20/2012 7:00,-11.0,-14.4,76,4,24.1,101.87,Clear,-10.966000000000001,1.7272721454173066
2/20/2012 8:00,-9.9,-14.4,70,4,48.3,101.98,Mainly Clear,-9.91099999999999,1.7091525423728813
2/20/2012 9:00,-8.7,-14.1,65,6,48.3,102.04,Mostly Cloudy,-8.72000000000001,1.6929583486014415
2/20/2012 10:00,-8.0,-13.7,64,9,48.3,102.07,Mostly Cloudy,-8.146,1.6895328361301014
2/20/2012 11:00,-7.1,-13.3,61,9,48.3,102.09,Mostly Cloudy,-7.120000000000009,1.6909512538059253
2/20/2012 12:00,-6.0,-12.1,62,11,48.3,102.1,Mostly Cloudy,-6.062999999999999,1.7080685301084142
2/20/2012 13:00,-4.7,-11.7,58,20,48.3,102.08,Mostly Cloudy,-4.761999999999993,1.7278462850777851
2/20/2012 14:00,-3.1,-10.5,57,17,48.3,102.07,Mainly Clear,-3.15,1.7489934874209208
2/20/2012 15:00,-2.0,-9.7,56,19,48.3,102.07,Mostly Cloudy,-1.9519999999999993,1.7613895805093098
2/20/2012 16:00,-1.8,-8.5,60,20,48.3,102.06,Mainly Clear,-1.7730000000000006,1.763015643942408
2/20/2012 17:00,-1.9,-8.9,59,17,48.3,102.08,Clear,-1.9320000000000015,1.7615726656421309
2/20/2012 18:00,-3.2,-8.8,65,9,48.3,102.1,Clear,-3.1449999999999974,1.7490527467577224
2/20/2012 19:00,-3.6,-8.7,68,7,25.0,102.13,Clear,-3.755,1.7414625541484472
2/20/2012 20:00,-4.0,-9.0,68,6,25.0,102.16,Mainly Clear,-3.9799999999999995,1.7385734790352527
2/20/2012 21:00,-3.5,-8.9,66,6,25.0,102.18,Clear,-3.4959999999999996,1.7447765715362828
2/20/2012 22:00,-3.3,-8.8,66,0,25.0,102.2,Clear,-3.3680000000000034,1.7463637538612298
2/20/2012 23:00,-5.8,-9.3,76,4,25.0,102.2,Clear,-5.721000000000003,1.7272721454173066
2/21/2012 0:00,-4.0,-8.1,73,9,25.0,102.21,Clear,-4.027,1.7379822477420832
2/21/2012 1:00,-4.3,-8.4,73,6,25.0,102.18,Clear,-4.351000000000005,1.733729338271375
2/21/2012 2:00,-4.1,-8.1,74,7,25.0,102.21,Clear,-4.165000000000001,1.736209462120881
2/21/2012 3:00,-5.3,-8.9,76,4,25.0,102.19,Clear,-5.374000000000006,1.7272721454173066
2/21/2012 4:00,-5.2,-8.2,79,4,25.0,102.12,Clear,-5.1399999999999935,1.7357508862871274
2/21/2012 5:00,-6.1,-8.6,82,7,25.0,102.05,Mainly Clear,-6.05500000000001,1.7434626346010758
2/21/2012 6:00,-6.1,-8.9,81,6,25.0,102.03,Mainly Clear,-6.0220000000000065,1.7408722768108806
2/21/2012 7:00,-6.2,-9.1,80,7,48.3,102.03,Mainly Clear,-6.117000000000003,1.7383226557949913
2/21/2012 8:00,-5.0,-8.2,78,7,48.3,101.98,Mostly Cloudy,-5.015999999999998,1.733057876440812
2/21/2012 9:00,-3.1,-7.2,73,9,48.3,101.87,Mostly Cloudy,-3.139000000000001,1.7491237965973627
2/21/2012 10:00,-1.4,-7.0,66,11,48.3,101.72,Mostly Cloudy,-1.4400000000000017,1.7659672481799091
2/21/2012 11:00,-0.1,-6.2,63,15,48.3,101.55,Cloudy,-0.051000000000000004,1.7738500144538956
2/21/2012 12:00,0.0,-6.8,60,19,48.3,101.38,Cloudy,0.036,1.7740205591625353
2/21/2012 13:00,1.0,-6.2,59,24,48.3,101.19,Cloudy,1.0450000000000002,1.771384871878403
2/21/2012 14:00,1.9,-6.2,55,22,48.3,100.95,Mostly Cloudy,1.9200000000000017,1.7690489311715056
2/21/2012 15:00,2.2,-5.8,55,19,48.3,100.82,Cloudy,2.1949999999999976,1.7683048876105174
2/21/2012 16:00,2.0,-5.9,56,17,48.3,100.66,Cloudy,2.0360000000000005,1.7687356635928033
2/21/2012 17:00,2.2,-6.4,53,9,48.3,100.59,Cloudy,2.218999999999997,1.7682397253816595
2/21/2012 18:00,1.9,-6.1,55,9,25.0,100.54,Cloudy,1.9560000000000022,1.7689518010606093
2/21/2012 19:00,2.1,-6.5,53,0,25.0,100.5,Cloudy,2.0909999999999975,1.7685868343618945
2/21/2012 20:00,-0.2,-4.9,71,4,25.0,100.43,Cloudy,-0.20599999999999993,1.7730455148253474
2/21/2012 21:00,-0.5,-4.9,72,6,25.0,100.4,Cloudy,-0.43700000000000006,1.7718358726243613
2/21/2012 22:00,-0.6,-4.5,75,6,25.0,100.35,Snow,-0.7480000000000001,1.770186793280796
2/21/2012 23:00,0.5,-4.4,70,0,25.0,100.2,Cloudy,0.48899999999999977,1.7728447992848
2/22/2012 0:00,0.5,-2.1,83,19,9.7,100.1,Snow,0.472,1.7728891436375744
2/22/2012 1:00,0.8,-2.2,80,15,12.9,99.97,Snow,0.7679999999999992,1.7721145480355345
2/22/2012 2:00,1.4,-2.5,75,19,12.9,99.87,Snow,1.4160000000000021,1.7704002280859272
2/22/2012 3:00,1.3,-1.5,82,20,9.7,99.77,"Rain,Snow",1.212999999999999,1.7709400437512308
2/22/2012 4:00,1.2,-1.0,85,15,12.9,99.68,Rain,1.2120000000000006,1.7709426966589097
2/22/2012 5:00,1.4,-0.6,87,15,9.7,99.64,Rain,1.4669999999999999,1.7702642092330434
2/22/2012 6:00,1.5,-0.3,88,13,12.9,99.59,Rain,1.495,1.7701894636649298
2/22/2012 7:00,1.6,0.1,90,15,6.4,99.57,"Rain,Fog",1.570999999999998,1.7699863374472247
2/22/2012 8:00,2.6,0.9,89,17,19.3,99.57,Rain,2.581999999999997,1.7672496579614363
2/22/2012 9:00,2.9,0.7,85,26,24.1,99.57,Cloudy,2.9010000000000007,1.7658756030787246
2/22/2012 10:00,4.0,1.2,82,28,24.1,99.54,Mostly Cloudy,3.9769999999999994,1.7610545313558974
2/22/2012 11:00,4.6,0.4,74,26,24.1,99.56,Mostly Cloudy,4.551000000000005,1.758377969315381
2/22/2012 12:00,5.2,-0.6,66,28,24.1,99.52,Mostly Cloudy,5.211999999999997,1.7551792228553424
2/22/2012 13:00,5.8,-1.1,61,22,24.1,99.4,Mostly Cloudy,5.706999999999997,1.7524289670886324
2/22/2012 14:00,6.1,-1.4,59,17,24.1,99.32,Mostly Cloudy,6.029000000000002,1.7505831336599704
2/22/2012 15:00,5.4,-1.4,62,28,24.1,99.3,Rain Showers,5.428999999999997,1.7539862785405878
2/22/2012 16:00,2.9,0.3,83,19,24.1,99.31,Mainly Clear,2.938999999999999,1.7657095368595206
2/22/2012 17:00,2.6,0.1,84,19,24.1,99.29,Mostly Cloudy,2.5159999999999973,1.7674302989153505
2/22/2012 18:00,2.4,-0.2,83,9,24.1,99.33,Mostly Cloudy,2.3670000000000018,1.7678370803089172
2/22/2012 19:00,1.9,-0.2,86,6,25.0,99.34,Mainly Clear,1.8740000000000023,1.7691729230900428
2/22/2012 20:00,1.6,-0.8,84,13,25.0,99.32,Mostly Cloudy,1.594999999999997,1.7699221177037694
2/22/2012 21:00,2.3,-0.9,79,15,25.0,99.33,Mostly Cloudy,2.3100000000000027,1.7679923186153839
2/22/2012 22:00,2.7,-0.8,78,15,25.0,99.26,Cloudy,2.6279999999999966,1.7670599157122309
2/22/2012 23:00,2.6,-1.0,77,13,25.0,99.27,Cloudy,2.6219999999999963,1.7670857734848975
2/23/2012 0:00,2.3,-0.9,79,20,25.0,99.23,Rain Showers,2.298000000000003,1.7680249739141898
2/23/2012 1:00,1.7,-1.1,82,11,25.0,99.18,Cloudy,1.6859999999999997,1.7696782917360698
2/23/2012 2:00,1.1,-1.1,85,7,25.0,99.17,Snow,1.1209999999999989,1.771183854296919
2/23/2012 3:00,0.6,-1.0,89,6,6.4,99.14,Snow,0.5820000000000006,1.77260190277232
2/23/2012 4:00,0.5,-1.0,90,4,6.4,99.13,Fog,0.5260000000000002,1.7727482252198277
2/23/2012 5:00,0.4,-1.1,90,4,6.4,99.11,Fog,0.43400000000000005,1.7729882037317426
2/23/2012 6:00,0.5,-1.1,89,9,8.0,99.16,Fog,0.48600000000000015,1.7728526260170931
2/23/2012 7:00,0.6,-1.0,89,7,8.0,99.2,Fog,0.5870000000000009,1.7725888291045364
2/23/2012 8:00,0.4,-1.6,86,7,19.3,99.26,Mainly Clear,0.4069999999999995,1.7730585360384399
2/23/2012 9:00,1.1,-1.8,81,17,24.1,99.32,Mostly Cloudy,1.2240000000000009,1.7709108577104682
2/23/2012 10:00,1.6,-1.9,78,19,24.1,99.38,Mainly Clear,1.686999999999999,1.7696756094590826
2/23/2012 11:00,2.3,-1.9,74,22,24.1,99.42,Mostly Cloudy,2.2580000000000022,1.7681337585508639
2/23/2012 12:00,2.1,-2.3,73,20,24.1,99.47,Cloudy,2.1109999999999984,1.768532667137
2/23/2012 13:00,2.1,-2.1,74,20,16.1,99.49,Snow Showers,2.0699999999999976,1.7686436826695688
2/23/2012 14:00,1.4,-1.5,81,13,19.3,99.53,Snow,1.3560000000000014,1.77056004420231
2/23/2012 15:00,1.9,-1.8,76,22,24.1,99.6,Mostly Cloudy,2.017999999999999,1.768784329772348
2/23/2012 16:00,2.7,-2.3,70,22,24.1,99.7,Mostly Cloudy,2.6919999999999975,1.7667836438894322
2/23/2012 17:00,2.3,-3.7,64,24,24.1,99.82,Mostly Cloudy,2.365000000000003,1.767842530783681
2/23/2012 18:00,1.6,-3.8,67,15,24.1,99.9,Mainly Clear,1.609999999999998,1.7698819621506408
2/23/2012 19:00,1.6,-4.8,62,19,25.0,100.05,Clear,1.619999999999998,1.7698551839939156
2/23/2012 20:00,1.1,-5.0,64,15,25.0,100.12,Clear,1.0719999999999985,1.7713134981998269
2/23/2012 21:00,0.5,-5.2,66,13,25.0,100.23,Clear,0.30500000000000005,1.773323843023796
2/23/2012 22:00,-0.2,-5.4,68,9,25.0,100.28,Clear,-0.19799999999999976,1.773087177448499
2/23/2012 23:00,-1.0,-5.2,73,7,25.0,100.31,Clear,-0.9640000000000001,1.7690273537605334
2/24/2012 0:00,-0.9,-5.1,73,6,25.0,100.34,Clear,-0.8830000000000005,1.7694635119760902
2/24/2012 1:00,-1.7,-5.1,78,4,25.0,100.29,Clear,-1.7280000000000013,1.7634200301213807
2/24/2012 2:00,-1.8,-5.4,76,0,25.0,100.2,Clear,-1.7100000000000002,1.7635812952652385
2/24/2012 3:00,-3.8,-6.1,84,0,25.0,100.29,Mainly Clear,-3.767000000000006,1.7483983249034645
2/24/2012 4:00,-2.8,-5.0,85,0,25.0,100.31,Cloudy,-2.8860000000000037,1.7520600439852692
2/24/2012 5:00,-3.1,-5.1,86,0,25.0,100.29,Cloudy,-3.0690000000000013,1.7530322801745157
2/24/2012 6:00,-3.0,-5.1,85,6,25.0,100.26,Cloudy,-2.9779999999999998,1.7510056351272323
2/24/2012 7:00,-1.3,-3.8,83,11,24.1,100.21,Cloudy,-1.3269999999999988,1.766947780831901
2/24/2012 8:00,-0.7,-3.6,81,9,24.1,100.21,Cloudy,-0.718000000000001,1.7703469065602129
2/24/2012 9:00,0.3,-3.3,77,7,19.3,100.27,Cloudy,0.2750000000000003,1.773401756477293
2/24/2012 10:00,0.7,-3.0,76,9,19.3,100.25,Cloudy,0.6970000000000006,1.7723008276033831
2/24/2012 11:00,0.9,-3.2,74,15,19.3,100.13,Cloudy,0.9680000000000004,1.7715881745544444
2/24/2012 12:00,1.1,-3.3,72,20,19.3,99.91,Cloudy,1.111999999999999,1.771207677461011
2/24/2012 13:00,1.0,-3.5,72,20,19.3,99.75,Cloudy,0.9909999999999998,1.7715274856634173
2/24/2012 14:00,1.1,-3.3,72,20,16.1,99.64,Snow,1.1129999999999984,1.7712050306877543
2/24/2012 15:00,1.0,-2.6,77,19,6.4,99.53,"Snow,Fog",0.9679999999999999,1.7715881745544444
2/24/2012 16:00,-0.1,-1.6,90,22,1.2,99.38,"Snow,Fog",-0.06999999999999994,1.77375170522369
2/24/2012 17:00,-0.1,-1.5,90,26,1.0,99.16,Snow,-0.022000000000000002,1.77399990077756
2/24/2012 18:00,0.0,-1.4,90,24,1.0,99.07,Snow,0.010999999999999994,1.7740850922804325
2/24/2012 19:00,0.0,-1.3,91,22,1.2,98.88,Snow,0.011,1.7740850922804325
2/24/2012 20:00,0.0,-1.2,92,15,2.0,98.81,Snow,-0.009000000000000001,1.7740670267229588
2/24/2012 21:00,0.3,-1.1,90,17,2.4,98.69,Snow,0.3570000000000001,1.7731886660382474
2/24/2012 22:00,0.6,-0.8,90,19,16.1,98.55,Rain,0.5990000000000006,1.7725574461676519
2/24/2012 23:00,0.8,-0.5,91,17,19.3,98.39,Cloudy,0.8319999999999992,1.7719463726704159
2/25/2012 0:00,1.0,-0.6,89,11,12.9,98.29,Rain,0.9839999999999992,1.7715459596091823
2/25/2012 1:00,0.8,-0.7,90,15,8.0,98.18,"Rain,Snow",0.7619999999999991,1.7721303017601147
2/25/2012 2:00,0.4,-0.9,91,11,6.4,98.06,Snow,0.4430000000000001,1.772964749940973
2/25/2012 3:00,0.7,-0.8,90,19,4.0,98.0,Snow,0.5760000000000003,1.7726175891895906
2/25/2012 4:00,0.4,-1.0,90,19,3.2,97.97,Snow,0.4699999999999997,1.7728943594820246
2/25/2012 5:00,0.6,-1.1,88,22,12.9,97.99,Snow,0.6080000000000007,1.7725339032801306
2/25/2012 6:00,0.0,-1.6,89,33,2.8,98.03,Snow,-0.028999999999999998,1.7739637395138501
2/25/2012 7:00,-1.4,-2.9,89,33,1.2,98.11,"Snow,Blowing Snow",-1.4160000000000021,1.7661763805086443
2/25/2012 8:00,-1.8,-3.2,90,32,1.2,98.2,"Snow,Blowing Snow",-1.765999999999998,1.7630786635491935
2/25/2012 9:00,-1.4,-2.9,89,33,1.2,98.33,"Snow,Blowing Snow",-1.4070000000000025,1.7662546826431824
2/25/2012 10:00,-1.7,-3.3,89,32,1.6,98.45,Snow,-1.752999999999999,1.7631955873324328
2/25/2012 11:00,-2.1,-3.5,90,33,2.0,98.6,Snow,-2.0369999999999973,1.7609487211792867
2/25/2012 12:00,-2.5,-4.2,88,33,3.2,98.75,Snow,-2.5010000000000003,1.7571931537828946
2/25/2012 13:00,-2.7,-5.0,84,32,2.0,98.89,Snow,-2.687999999999998,1.7542794530630854
2/25/2012 14:00,-3.2,-6.3,79,35,3.2,99.05,Snow,-3.1350000000000025,1.7491711260102534
2/25/2012 15:00,-3.3,-7.5,73,33,19.3,99.22,Snow,-3.366000000000004,1.7463882960831836
2/25/2012 16:00,-3.6,-7.4,75,24,9.7,99.39,Snow,-3.6590000000000034,1.742707291070758
2/25/2012 17:00,-3.2,-8.4,67,24,25.0,99.59,Cloudy,-3.126999999999996,1.7492656958093198
2/25/2012 18:00,-3.6,-9.0,66,30,25.0,99.8,Cloudy,-3.6620000000000035,1.7426686889737066
2/25/2012 19:00,-4.7,-10.5,64,35,25.0,100.04,Cloudy,-4.7470000000000026,1.7280714431397224
2/25/2012 20:00,-5.3,-11.2,63,26,25.0,100.24,Cloudy,-5.293000000000003,1.7197692467739303
2/25/2012 21:00,-5.6,-11.1,65,32,25.0,100.42,Mostly Cloudy,-5.526000000000006,1.7165555037116345
2/25/2012 22:00,-6.6,-12.8,61,28,25.0,100.62,Cloudy,-6.575000000000009,1.6990873609646142
2/25/2012 23:00,-7.6,-13.8,61,26,25.0,100.76,Cloudy,-7.657000000000011,1.6799158374749772
2/26/2012 0:00,-8.3,-14.3,62,19,25.0,100.89,Mostly Cloudy,-8.36599999999999,1.681279062923068
2/26/2012 1:00,-9.0,-14.5,64,20,25.0,101.09,Mainly Clear,-8.844999999999992,1.6895328361301014
2/26/2012 2:00,-9.2,-14.6,65,22,25.0,101.26,Clear,-9.227999999999993,1.6929583486014415
2/26/2012 3:00,-9.9,-15.1,66,28,25.0,101.42,Mainly Clear,-9.958999999999989,1.6960165533823464
2/26/2012 4:00,-10.8,-15.3,69,30,25.0,101.6,Mostly Cloudy,-10.677999999999987,1.7056195602958193
2/26/2012 5:00,-11.6,-15.9,70,20,25.0,101.77,Clear,-11.545999999999998,1.7091525423728813
2/26/2012 6:00,-11.3,-16.8,64,22,25.0,101.92,Clear,-11.224999999999993,1.6895328361301014
2/26/2012 7:00,-12.1,-17.8,62,22,48.3,102.07,Clear,-12.024000000000003,1.681279062923068
2/26/2012 8:00,-12.1,-18.0,61,26,48.3,102.23,Mainly Clear,-12.005000000000011,1.6768881290465567
2/26/2012 9:00,-11.6,-18.6,56,32,48.3,102.32,Mainly Clear,-11.480000000000008,1.659574703732418
2/26/2012 10:00,-11.2,-20.3,47,22,48.3,102.35,Clear,-11.130000000000011,1.5
2/26/2012 11:00,-10.1,-20.1,44,26,48.3,102.39,Clear,-10.30800000000001,1.5
2/26/2012 12:00,-9.3,-18.6,47,28,48.3,102.42,Clear,-9.382999999999987,1.65
2/26/2012 13:00,-8.3,-17.4,48,26,48.3,102.41,Mainly Clear,-8.254999999999992,1.671294297838372
2/26/2012 14:00,-7.6,-17.2,46,28,48.3,102.42,Mainly Clear,-7.66900000000001,1.679621922032844
2/26/2012 15:00,-7.1,-16.3,48,26,48.3,102.49,Mainly Clear,-7.264000000000001,1.6883480769880699
2/26/2012 16:00,-6.8,-16.4,46,24,48.3,102.52,Mainly Clear,-6.899000000000001,1.6945448455858942
2/26/2012 17:00,-7.6,-17.1,46,24,48.3,102.55,Mostly Cloudy,-7.62400000000001,1.680711590482057
2/26/2012 18:00,-7.9,-16.7,49,19,25.0,102.6,Cloudy,-7.960999999999988,1.6751764617769793
2/26/2012 19:00,-7.8,-16.8,48,13,25.0,102.63,Cloudy,-7.880999999999993,1.6760575451981483
2/26/2012 20:00,-7.9,-16.4,50,11,25.0,102.64,Cloudy,-7.837999999999991,1.6765057671100376
2/26/2012 21:00,-8.5,-16.6,52,9,25.0,102.72,Cloudy,-8.560000000000002,1.6657350994620879
2/26/2012 22:00,-8.6,-16.5,53,0,25.0,102.68,Mostly Cloudy,-8.65200000000001,1.6636092994690448
2/26/2012 23:00,-9.5,-16.2,58,0,25.0,102.64,Cloudy,-9.494999999999997,1.6688951382675015
2/27/2012 0:00,-8.2,-16.2,52,7,25.0,102.63,Cloudy,-8.163000000000004,1.6726335699686041
2/27/2012 1:00,-8.6,-15.5,57,4,25.0,102.61,Cloudy,-8.515999999999991,1.6666663774708548
2/27/2012 2:00,-8.5,-14.2,63,13,25.0,102.6,Cloudy,-8.47,1.6856696145686971
2/27/2012 3:00,-8.3,-13.7,65,9,25.0,102.59,Cloudy,-8.271999999999991,1.6929583486014415
2/27/2012 4:00,-8.2,-14.4,61,9,25.0,102.58,Cloudy,-8.222000000000001,1.6768881290465567
2/27/2012 5:00,-8.4,-15.1,58,13,25.0,102.54,Mostly Cloudy,-8.277000000000003,1.6709543861512894
2/27/2012 6:00,-9.0,-15.2,61,17,25.0,102.42,Mostly Cloudy,-9.006000000000004,1.6768881290465567
2/27/2012 7:00,-9.4,-14.6,66,20,48.3,102.31,Cloudy,-9.434999999999988,1.6960165533823464
2/27/2012 8:00,-9.8,-14.8,67,19,48.3,102.25,Cloudy,-9.825999999999986,1.698763522260988
2/27/2012 9:00,-9.4,-14.9,64,22,48.3,102.1,Cloudy,-9.361999999999988,1.6895328361301014
2/27/2012 10:00,-8.7,-14.6,62,22,24.1,101.94,Cloudy,-8.640000000000008,1.681279062923068
2/27/2012 11:00,-8.7,-14.2,64,28,48.3,101.74,Mostly Cloudy,-8.628000000000009,1.6895328361301014
2/27/2012 12:00,-6.3,-12.8,60,15,48.3,101.59,Mostly Cloudy,-6.295000000000001,1.7038433199682723
2/27/2012 13:00,-4.9,-11.6,59,19,48.3,101.41,Cloudy,-4.860999999999995,1.7263391287341916
2/27/2012 14:00,-5.5,-11.5,63,22,24.1,101.34,Cloudy,-5.480000000000001,1.7172102136823808
2/27/2012 15:00,-5.1,-9.4,72,20,1.6,101.19,Snow,-4.887,1.7259371235755216
2/27/2012 16:00,-4.9,-7.9,79,19,19.3,101.13,Snow,-4.901999999999992,1.7357508862871274
2/27/2012 17:00,-5.2,-7.9,81,20,24.1,101.01,Cloudy,-5.136,1.7408722768108806
2/27/2012 18:00,-6.3,-8.9,82,24,25.0,101.1,Cloudy,-6.311000000000002,1.7434626346010758
2/27/2012 19:00,-7.1,-9.6,82,22,2.0,101.14,Snow,-7.206000000000008,1.7434626346010758
2/27/2012 20:00,-7.2,-9.6,83,9,25.0,101.25,Snow,-7.195000000000006,1.7459700090483987
2/27/2012 21:00,-7.3,-9.7,83,4,25.0,101.29,Snow,-7.262,1.7459700090483987
2/27/2012 22:00,-7.1,-9.6,82,0,8.0,101.33,Snow,-7.137000000000009,1.7434626346010758
2/27/2012 23:00,-6.8,-9.1,84,4,6.4,101.38,Snow,-6.810999999999995,1.7483983249034645
2/28/2012 0:00,-6.7,-9.0,84,0,6.4,101.4,Snow,-6.681000000000004,1.7483983249034645
2/28/2012 1:00,-6.5,-8.7,84,0,8.0,101.48,Snow,-6.403000000000008,1.7483983249034645
2/28/2012 2:00,-6.6,-8.9,84,0,9.7,101.55,Snow,-6.586000000000012,1.7483983249034645
2/28/2012 3:00,-5.9,-8.3,83,9,12.9,101.66,Cloudy,-5.828999999999993,1.7459700090483987
2/28/2012 4:00,-5.5,-8.3,81,15,16.1,101.82,Cloudy,-5.544999999999999,1.7408722768108806
2/28/2012 5:00,-5.4,-9.7,72,20,12.9,101.98,Snow,-5.441999999999994,1.7177433619200002
2/28/2012 6:00,-6.9,-10.3,77,22,8.0,102.19,Snow,-6.878999999999994,1.7302348458823897
2/28/2012 7:00,-8.1,-13.4,66,19,24.1,102.35,Mainly Clear,-8.134000000000007,1.6960165533823464
2/28/2012 8:00,-8.4,-13.7,66,19,24.1,102.5,Mainly Clear,-8.270999999999992,1.6960165533823464
2/28/2012 9:00,-8.3,-13.8,64,20,48.3,102.63,Clear,-8.232000000000001,1.6895328361301014
2/28/2012 10:00,-7.5,-13.6,62,13,24.1,102.65,Clear,-7.6930000000000085,1.681279062923068
2/28/2012 11:00,-6.5,-13.1,59,9,48.3,102.69,Clear,-6.5070000000000014,1.6999478417927376
2/28/2012 12:00,-5.8,-13.3,55,11,48.3,102.65,Mainly Clear,-5.732000000000003,1.7134918578130776
2/28/2012 13:00,-5.5,-12.3,59,17,48.3,102.62,Mainly Clear,-5.686,1.7141953227303268
2/28/2012 14:00,-4.8,-12.1,57,15,48.3,102.58,Mostly Cloudy,-5.044000000000004,1.7234529749935161
2/28/2012 15:00,-4.2,-11.8,55,19,48.3,102.58,Mostly Cloudy,-4.2289999999999965,1.7353681140723272
2/28/2012 16:00,-4.3,-12.4,53,17,48.3,102.54,Mostly Cloudy,-4.222000000000002,1.735460742005324
2/28/2012 17:00,-4.4,-12.6,53,15,48.3,102.53,Mainly Clear,-4.423999999999994,1.7327261596196355
2/28/2012 18:00,-5.3,-12.5,57,17,24.1,102.56,Clear,-5.363000000000003,1.7188300625583977
2/28/2012 19:00,-5.9,-12.9,58,7,25.0,102.58,Clear,-5.869999999999992,1.7113105101300323
2/28/2012 20:00,-6.8,-13.4,59,11,25.0,102.56,Clear,-6.695999999999997,1.6974807399390193
2/28/2012 21:00,-8.7,-14.6,62,11,25.0,102.53,Clear,-8.610000000000007,1.681279062923068
2/28/2012 22:00,-8.3,-14.0,63,0,25.0,102.52,Clear,-8.304999999999994,1.6856696145686971
2/28/2012 23:00,-10.0,-15.3,65,9,25.0,102.52,Clear,-9.975999999999999,1.6929583486014415
2/29/2012 0:00,-8.2,-13.8,64,9,25.0,102.51,Clear,-8.200000000000006,1.6895328361301014
2/29/2012 1:00,-9.5,-14.8,65,4,25.0,102.47,Clear,-9.636999999999992,1.6929583486014415
2/29/2012 2:00,-9.7,-13.9,71,4,25.0,102.46,Mainly Clear,-9.605000000000008,1.712430565280306
2/29/2012 3:00,-11.5,-14.7,77,0,25.0,102.45,Clear,-11.518000000000006,1.7302348458823897
2/29/2012 4:00,-10.3,-14.2,73,7,25.0,102.41,Mainly Clear,-10.325000000000005,1.718324698506683
2/29/2012 5:00,-13.1,-16.0,79,0,25.0,102.4,Clear,-13.395000000000005,1.7357508862871274
2/29/2012 6:00,-12.2,-15.2,78,0,25.0,102.41,Clear,-12.165000000000019,1.733057876440812
2/29/2012 7:00,-11.7,-14.6,79,9,24.1,102.4,Mainly Clear,-11.671000000000014,1.7357508862871274
2/29/2012 8:00,-10.6,-13.7,78,11,24.1,102.44,Cloudy,-10.596000000000009,1.733057876440812
2/29/2012 9:00,-8.5,-12.3,74,11,24.1,102.36,Mostly Cloudy,-8.483999999999996,1.7209839103698092
2/29/2012 10:00,-6.6,-11.6,68,17,24.1,102.3,Mostly Cloudy,-6.680000000000002,1.7018006700167505
2/29/2012 11:00,-4.7,-12.5,54,15,24.1,102.24,Mostly Cloudy,-4.507,1.7315643206879956
2/29/2012 12:00,-3.9,-12.2,52,17,24.1,102.08,Mostly Cloudy,-3.7969999999999975,1.7409117653489918
2/29/2012 13:00,-2.9,-10.8,54,11,24.1,101.99,Mostly Cloudy,-2.862999999999999,1.752321318480567
2/29/2012 14:00,-2.9,-11.7,51,13,24.1,101.89,Mostly Cloudy,-3.1460000000000012,1.7490408986114674
2/29/2012 15:00,-3.1,-11.5,52,20,24.1,101.81,Cloudy,-3.070000000000001,1.7499360882510389
2/29/2012 16:00,-3.6,-11.2,56,26,24.1,101.72,Cloudy,-3.8319999999999994,1.7404498427250423
2/29/2012 17:00,-4.1,-12.0,54,28,24.1,101.6,Cloudy,-4.097000000000004,1.737089966920452
2/29/2012 18:00,-4.7,-12.8,53,28,24.1,101.54,Cloudy,-4.685999999999996,1.7289785983039334
2/29/2012 19:00,-4.6,-13.2,51,30,25.0,101.46,Mostly Cloudy,-4.621000000000004,1.7299305005802317
2/29/2012 20:00,-4.5,-13.0,51,30,25.0,101.42,Cloudy,-4.4670000000000005,1.7321271032512788
2/29/2012 21:00,-4.6,-12.7,53,26,25.0,101.23,Cloudy,-4.507999999999998,1.7315501822613752
2/29/2012 22:00,-4.5,-12.3,54,30,25.0,101.14,Snow,-4.198000000000002,1.7357771901665329
2/29/2012 23:00,-5.1,-11.2,62,30,8.0,101.01,Snow,-5.149000000000005,1.7217353339722599
3/1/2012 0:00,-5.5,-9.7,72,24,4.0,100.97,Snow,-5.466999999999998,1.7173933825318268
3/1/2012 1:00,-5.7,-8.7,79,26,2.4,100.87,Snow,-5.6669999999999945,1.7357508862871274
3/1/2012 2:00,-5.4,-8.3,80,28,4.8,100.8,Snow,-5.418999999999992,1.7383226557949913
3/1/2012 3:00,-4.7,-7.7,79,28,4.0,100.69,Snow,-4.747999999999993,1.7357508862871274
3/1/2012 4:00,-5.4,-7.8,83,35,1.6,100.62,Snow,-5.386999999999993,1.7459700090483987
3/1/2012 5:00,-5.3,-7.9,82,33,2.4,100.58,Snow,-5.310000000000005,1.7434626346010758
3/1/2012 6:00,-5.2,-7.8,82,33,4.0,100.57,Snow,-5.2470000000000026,1.7434626346010758
3/1/2012 7:00,-4.9,-7.4,83,30,1.6,100.59,Snow,-4.943999999999995,1.7459700090483987
3/1/2012 8:00,-5.0,-7.5,83,32,1.2,100.59,Snow,-5.017999999999998,1.7459700090483987
3/1/2012 9:00,-4.9,-7.5,82,32,1.6,100.6,Snow,-4.942999999999993,1.7434626346010758
3/1/2012 10:00,-4.7,-7.3,82,32,1.2,100.62,Snow,-4.659999999999996,1.7434626346010758
3/1/2012 11:00,-4.4,-6.8,83,28,1.0,100.66,Snow,-4.418999999999994,1.7459700090483987
3/1/2012 12:00,-4.3,-6.8,83,30,1.2,100.66,Snow,-4.404999999999995,1.7459700090483987
3/1/2012 13:00,-4.3,-6.9,82,28,1.2,100.65,Snow,-4.332000000000006,1.7434626346010758
3/1/2012 14:00,-3.9,-6.6,81,28,1.2,100.67,Snow,-3.930999999999998,1.7408722768108806
3/1/2012 15:00,-3.3,-6.2,80,24,1.6,100.71,Snow,-3.290000000000004,1.7473151254908768
3/1/2012 16:00,-2.7,-5.7,80,19,2.4,100.74,Snow,-2.5919999999999965,1.7553317327703337
3/1/2012 17:00,-2.9,-5.9,80,20,4.0,100.8,Snow,-2.907000000000001,1.7518206802979017
3/1/2012 18:00,-3.0,-6.0,80,19,4.0,100.87,Snow,-3.002,1.750728095469223
3/1/2012 19:00,-3.6,-6.4,81,17,3.2,100.93,Snow,-3.6590000000000007,1.742707291070757
3/1/2012 20:00,-3.7,-6.4,81,20,4.8,100.95,Snow,-3.6999999999999966,1.742178083985322
3/1/2012 21:00,-3.9,-6.7,81,22,6.4,100.98,Snow,-3.9519999999999964,1.7408722768108806
3/1/2012 22:00,-4.3,-6.9,82,22,2.4,101.0,Snow,-4.320000000000007,1.7434626346010758
3/1/2012 23:00,-4.3,-7.1,81,22,4.8,101.04,Snow,-4.325000000000006,1.7408722768108806
3/2/2012 0:00,-4.8,-7.3,83,22,3.2,101.04,Snow,-4.782000000000002,1.7459700090483987
3/2/2012 1:00,-5.3,-7.9,82,20,4.8,101.09,Snow,-5.274000000000005,1.7434626346010758
3/2/2012 2:00,-5.2,-7.8,82,19,6.4,101.11,Snow,-5.221999999999997,1.7434626346010758
3/2/2012 3:00,-5.5,-7.9,83,19,4.8,101.15,Snow,-5.368999999999997,1.7459700090483987
3/2/2012 4:00,-5.6,-8.2,82,24,6.4,101.15,Snow,-5.510000000000003,1.7434626346010758
3/2/2012 5:00,-5.5,-8.3,81,19,12.9,101.15,Snow,-5.5139999999999985,1.7408722768108806
3/2/2012 6:00,-5.6,-8.6,79,19,16.1,101.14,Snow,-5.619999999999999,1.7357508862871274
3/2/2012 7:00,-5.7,-8.7,79,22,24.1,101.17,Cloudy,-5.676999999999996,1.7357508862871274
3/2/2012 8:00,-5.7,-8.8,79,17,24.1,101.2,Snow,-5.748000000000001,1.7357508862871274
3/2/2012 9:00,-6.1,-8.4,84,13,2.0,101.19,Snow,-6.124000000000007,1.7483983249034645
3/2/2012 10:00,-5.9,-8.3,83,15,4.0,101.22,Snow,-5.816999999999994,1.7459700090483987
3/2/2012 11:00,-5.5,-7.5,86,15,2.8,101.21,Snow,-5.547999999999998,1.7530322801745157
3/2/2012 12:00,-5.2,-7.1,86,13,2.4,101.18,"Freezing Drizzle,Snow",-5.072999999999994,1.7530322801745157
3/2/2012 13:00,-4.6,-6.5,87,13,4.8,101.09,Snow,-4.629000000000007,1.755244623603565
3/2/2012 14:00,-4.1,-6.1,86,15,8.0,101.03,Fog,-4.091000000000003,1.7530322801745157
3/2/2012 15:00,-3.3,-5.7,83,15,11.3,100.98,Cloudy,-3.2620000000000005,1.7476537759216595
3/2/2012 16:00,-2.9,-5.3,83,15,11.3,100.93,Cloudy,-2.8280000000000007,1.7527171441339093
3/2/2012 17:00,-2.7,-5.1,84,15,12.9,100.89,Cloudy,-2.713999999999997,1.7539918210539478
3/2/2012 18:00,-2.4,-4.8,84,20,12.9,100.81,Cloudy,-2.490000000000002,1.7563274956228463
3/2/2012 19:00,-1.8,-4.2,84,17,16.1,100.75,Cloudy,-1.935000000000001,1.7615452255350252
3/2/2012 20:00,-2.3,-4.7,84,15,16.1,100.74,Cloudy,-2.3280000000000034,1.7578801284674404
3/2/2012 21:00,-1.4,-4.0,82,15,19.3,100.62,Cloudy,-1.3840000000000017,1.76645448536064
3/2/2012 22:00,0.2,-4.2,72,13,25.0,100.49,Cloudy,0.12499999999999983,1.7737905217074468
3/2/2012 23:00,0.5,-3.6,74,17,25.0,100.29,Cloudy,0.4070000000000001,1.7730585360384399
3/3/2012 0:00,1.0,-3.2,73,22,25.0,100.12,Cloudy,1.128,1.7711653217390433
3/3/2012 1:00,1.2,-2.8,75,19,25.0,99.96,Snow,1.2350000000000019,1.7708816642311853
3/3/2012 2:00,-0.6,-2.9,84,19,2.4,99.75,Snow,-0.5710000000000005,1.771128247615762
3/3/2012 3:00,-0.3,-2.4,86,22,2.8,99.55,Snow,-0.347,1.772308691865478
3/3/2012 4:00,0.3,-1.7,86,24,11.3,99.4,"Snow,Ice Pellets",0.3230000000000004,1.7732770692282487
3/3/2012 5:00,0.8,-1.5,85,41,19.3,99.18,Cloudy,0.8069999999999989,1.772012095706781
3/3/2012 6:00,1.5,-1.6,80,43,25.0,99.02,Mainly Clear,1.4029999999999998,1.7704348738017226
3/3/2012 7:00,2.0,-1.6,77,41,24.1,98.89,Mostly Cloudy,2.0709999999999997,1.768640976240648
3/3/2012 8:00,2.7,-1.5,74,32,24.1,98.79,Mostly Cloudy,2.6799999999999966,1.7668355083989555
3/3/2012 9:00,3.0,-1.0,75,37,24.1,98.7,Cloudy,2.936000000000001,1.7657226582408756
3/3/2012 10:00,3.7,0.4,79,15,24.1,98.86,Cloudy,3.726999999999997,1.762197047663745
3/3/2012 11:00,4.0,-0.7,71,32,24.1,98.82,Rain Showers,3.9929999999999986,1.7609809368196694
3/3/2012 12:00,5.2,-3.0,55,37,48.3,98.82,Mostly Cloudy,5.128999999999996,1.755605020689203
3/3/2012 13:00,5.8,-4.0,49,50,48.3,98.73,Mostly Cloudy,5.964000000000001,1.7509594502101309
3/3/2012 14:00,6.5,-5.5,42,48,48.3,98.68,Mostly Cloudy,6.387000000000005,1.7484759611953733
3/3/2012 15:00,5.3,-5.6,45,57,24.1,98.67,Mostly Cloudy,5.370000000000002,1.7543125684645184
3/3/2012 16:00,5.0,-5.0,48,63,48.3,98.67,Mainly Clear,5.049000000000001,1.7559935954613493
3/3/2012 17:00,4.3,-4.9,51,57,48.3,98.71,Mainly Clear,4.197000000000005,1.7600375560372592
3/3/2012 18:00,3.7,-4.3,56,48,25.0,98.82,Mostly Cloudy,3.6569999999999947,1.7625144803825703
3/3/2012 19:00,3.4,-4.0,58,44,25.0,98.92,Mainly Clear,3.3889999999999976,1.7637199392569338
3/3/2012 20:00,3.2,-3.9,60,50,25.0,98.96,Mainly Clear,3.1559999999999957,1.7647554419987006
3/3/2012 21:00,2.9,-3.6,62,46,25.0,98.98,Snow,2.930999999999999,1.7657445230581361
3/3/2012 22:00,2.8,-3.4,64,57,25.0,99.07,Snow,2.726000000000003,1.766636534812999
3/3/2012 23:00,2.3,-3.1,67,33,25.0,99.18,Snow,2.319000000000003,1.767967821107197
3/4/2012 0:00,0.5,-4.8,68,32,25.0,99.34,Mostly Cloudy,0.514,1.7727795555343382
3/4/2012 1:00,-0.8,-6.0,68,24,25.0,99.46,Mostly Cloudy,-0.6790000000000004,1.7705547205829857
3/4/2012 2:00,-1.8,-7.8,64,26,25.0,99.56,Mostly Cloudy,-1.8530000000000015,1.7622923902859657
3/4/2012 3:00,-2.1,-8.2,63,19,25.0,99.63,Mostly Cloudy,-2.1169999999999978,1.7598654428953573
3/4/2012 4:00,-2.9,-9.0,63,20,25.0,99.7,Mostly Cloudy,-2.8040000000000007,1.7529873433309848
3/4/2012 5:00,-4.3,-10.5,62,19,25.0,99.77,Cloudy,-4.339000000000004,1.733892604140538
3/4/2012 6:00,-4.8,-11.6,59,17,25.0,99.84,Mostly Cloudy,-4.835000000000003,1.7267385370455335
3/4/2012 7:00,-5.7,-12.6,58,22,24.1,99.88,Mostly Cloudy,-5.629999999999996,1.7150364242834597
3/4/2012 8:00,-5.9,-13.8,54,13,24.1,99.97,Mostly Cloudy,-5.909999999999992,1.7106575196984455
3/4/2012 9:00,-6.3,-13.5,57,15,24.1,99.95,Cloudy,-6.2899999999999965,1.7039384714644523
3/4/2012 10:00,-6.3,-13.5,57,17,24.1,99.95,Cloudy,-6.294999999999999,1.7038433199682723
3/4/2012 11:00,-6.5,-14.0,55,17,24.1,99.96,Cloudy,-6.450999999999997,1.7007768863035873
3/4/2012 12:00,-5.8,-12.9,57,19,48.3,99.95,Mostly Cloudy,-5.785000000000002,1.7126669064136988
3/4/2012 13:00,-5.5,-12.8,56,19,48.3,99.88,Mainly Clear,-5.487,1.7171112474425883
3/4/2012 14:00,-5.7,-13.4,55,19,48.3,99.9,Mostly Cloudy,-5.688,1.714164975283539
3/4/2012 15:00,-5.6,-13.5,54,22,48.3,99.9,Mostly Cloudy,-5.597000000000004,1.7155243960455873
3/4/2012 16:00,-5.5,-13.3,54,20,48.3,99.93,Mainly Clear,-5.504,1.716869912934971
3/4/2012 17:00,-6.9,-14.6,54,22,48.3,99.94,Mainly Clear,-6.959999999999992,1.6935973989584243
3/4/2012 18:00,-7.9,-15.7,53,28,25.0,100.04,Mainly Clear,-7.810999999999991,1.6767787312900795
3/4/2012 19:00,-7.9,-15.5,54,22,25.0,100.09,Mostly Cloudy,-7.7689999999999895,1.6771909587772669
3/4/2012 20:00,-8.5,-14.6,61,24,25.0,100.13,Cloudy,-8.435999999999993,1.6768881290465567
3/4/2012 21:00,-9.0,-13.7,69,15,25.0,100.18,Snow Showers,-8.916999999999996,1.7056195602958193
3/4/2012 22:00,-10.1,-15.5,65,17,25.0,100.21,Cloudy,-10.144000000000007,1.6929583486014415
3/4/2012 23:00,-11.1,-16.3,65,24,25.0,100.23,Mostly Cloudy,-10.993000000000004,1.6929583486014415
3/5/2012 0:00,-12.4,-17.4,66,19,25.0,100.26,Mainly Clear,-12.487000000000013,1.6960165533823464
3/5/2012 1:00,-13.6,-18.5,66,24,25.0,100.33,Mainly Clear,-13.53199999999999,1.6960165533823464
3/5/2012 2:00,-14.5,-22.3,52,24,25.0,100.39,Clear,-14.528000000000002,1.6499999999999997
3/5/2012 3:00,-15.0,-21.5,58,22,25.0,100.47,Clear,-15.124000000000002,1.6688951382675015
3/5/2012 4:00,-15.5,-21.9,58,26,25.0,100.55,Clear,-15.408999999999999,1.6688951382675015
3/5/2012 5:00,-15.9,-22.1,59,20,25.0,100.69,Clear,-16.042000000000016,1.672110259985864
3/5/2012 6:00,-16.2,-22.6,58,26,24.1,100.77,Mostly Cloudy,-16.09300000000002,1.6688951382675015
3/5/2012 7:00,-16.2,-22.3,59,22,24.1,100.88,Mostly Cloudy,-16.03700000000001,1.672110259985864
3/5/2012 8:00,-15.7,-22.5,56,24,24.1,101.0,Mostly Cloudy,-15.66900000000001,1.659574703732418
3/5/2012 9:00,-15.1,-22.1,55,24,24.1,101.11,Mostly Cloudy,-15.062000000000012,1.6524507409216738
3/5/2012 10:00,-14.4,-21.5,55,26,24.1,101.21,Mostly Cloudy,-14.507000000000016,1.6524507409216738
3/5/2012 11:00,-13.4,-20.7,54,26,48.3,101.31,Mostly Cloudy,-13.46200000000001,1.6499999999999997
3/5/2012 12:00,-12.2,-19.9,53,6,48.3,101.39,Mostly Cloudy,-12.192000000000016,1.6500000000000004
3/5/2012 13:00,-11.3,-19.5,51,24,48.3,101.46,Mostly Cloudy,-11.396999999999982,1.6499999999999997
3/5/2012 14:00,-10.8,-19.8,47,28,48.3,101.55,Mostly Cloudy,-10.894999999999984,1.5
3/5/2012 15:00,-10.0,-18.6,49,30,48.3,101.64,Mostly Cloudy,-10.026999999999997,1.5
3/5/2012 16:00,-9.9,-18.9,48,26,48.3,101.73,Mostly Cloudy,-9.88599999999999,1.6500000000000001
3/5/2012 17:00,-9.5,-18.8,47,24,48.3,101.82,Mainly Clear,-9.568999999999997,1.6499999999999997
3/5/2012 18:00,-9.8,-19.0,47,22,25.0,101.9,Mainly Clear,-9.822999999999993,1.6500000000000001
3/5/2012 19:00,-10.1,-19.1,48,20,25.0,102.01,Clear,-10.245000000000006,1.5
3/5/2012 20:00,-10.5,-19.2,49,17,25.0,102.11,Mainly Clear,-10.619000000000002,1.5
3/5/2012 21:00,-11.0,-19.6,49,17,25.0,102.23,Clear,-11.034,1.5
3/5/2012 22:00,-11.6,-20.2,49,15,25.0,102.29,Clear,-11.507000000000003,1.5
3/5/2012 23:00,-12.6,-20.3,53,11,25.0,102.34,Clear,-12.272000000000007,1.6500000000000004
3/6/2012 0:00,-13.4,-20.5,55,11,25.0,102.41,Clear,-13.391000000000009,1.6524507409216738
3/6/2012 1:00,-13.4,-20.3,56,11,25.0,102.5,Clear,-13.292000000000005,1.659574703732418
3/6/2012 2:00,-13.7,-20.7,55,4,25.0,102.55,Clear,-13.753,1.6524507409216738
3/6/2012 3:00,-14.8,-21.1,59,9,25.0,102.61,Clear,-14.737999999999982,1.672110259985864
3/6/2012 4:00,-14.5,-21.1,57,9,25.0,102.7,Clear,-14.526,1.6648421508897826
3/6/2012 5:00,-14.6,-21.0,58,13,25.0,102.85,Clear,-14.58699999999999,1.6688951382675015
3/6/2012 6:00,-15.3,-21.3,60,11,24.1,102.9,Clear,-15.374999999999982,1.6747229916897506
3/6/2012 7:00,-14.8,-20.7,61,11,48.3,103.0,Clear,-14.817999999999989,1.6768881290465567
3/6/2012 8:00,-13.0,-19.4,59,0,48.3,103.06,Clear,-13.238000000000008,1.672110259985864
3/6/2012 9:00,-11.3,-19.1,52,6,48.3,103.1,Clear,-11.070999999999993,1.6499999999999997
3/6/2012 10:00,-10.0,-16.8,57,9,48.3,103.12,Mainly Clear,-9.953000000000001,1.6648421508897826
3/6/2012 11:00,-9.0,-17.8,49,15,48.3,103.12,Mainly Clear,-8.857999999999999,1.6577385003130536
3/6/2012 12:00,-7.8,-15.3,55,13,48.3,103.09,Mainly Clear,-7.757999999999994,1.6773626352773707
3/6/2012 13:00,-6.7,-16.0,48,9,48.3,103.01,Mainly Clear,-7.018000000000003,1.6926660272762386
3/6/2012 14:00,-5.8,-15.8,45,9,48.3,102.98,Mainly Clear,-5.899,1.7108380486745363
3/6/2012 15:00,-5.3,-15.7,44,6,48.3,102.96,Mainly Clear,-5.593,1.715583163520947
3/6/2012 16:00,-4.9,-16.2,41,11,48.3,102.94,Mainly Clear,-4.913999999999998,1.725516880852289
3/6/2012 17:00,-4.8,-15.1,44,6,48.3,102.9,Mainly Clear,-4.936000000000006,1.7251723500408174
3/6/2012 18:00,-6.3,-14.6,52,6,48.3,102.84,Mainly Clear,-6.781999999999997,1.6962757844598277
3/6/2012 19:00,-5.4,-13.4,53,11,25.0,102.81,Mostly Cloudy,-5.320999999999994,1.7193961932746953
3/6/2012 20:00,-5.3,-13.6,52,9,25.0,102.72,Mainly Clear,-5.1680000000000055,1.7214195284063936
3/6/2012 21:00,-5.4,-14.4,49,9,25.0,102.69,Mostly Cloudy,-5.500999999999993,1.7169126034412623
3/6/2012 22:00,-5.0,-15.1,45,9,25.0,102.59,Mostly Cloudy,-5.091000000000001,1.7226898477373898
3/6/2012 23:00,-4.5,-15.7,41,6,25.0,102.55,Mostly Cloudy,-4.0440000000000005,1.7377668500442203
3/7/2012 0:00,-3.6,-13.3,47,6,25.0,102.44,Mostly Cloudy,-3.7030000000000043,1.7421392216677867
3/7/2012 1:00,-3.9,-11.3,56,9,25.0,102.46,Mostly Cloudy,-3.907999999999997,1.7394671886159565
3/7/2012 2:00,-5.7,-11.9,62,17,25.0,102.37,Cloudy,-5.850000000000001,1.7116334389241512
3/7/2012 3:00,-5.3,-11.6,61,13,25.0,102.22,Cloudy,-5.389000000000001,1.7184755979777957
3/7/2012 4:00,-5.2,-11.2,63,15,25.0,102.16,Cloudy,-5.242999999999998,1.72042689528523
3/7/2012 5:00,-5.3,-11.2,63,17,25.0,102.13,Mostly Cloudy,-5.279000000000001,1.7199544815783303
3/7/2012 6:00,-4.3,-10.3,63,15,24.1,101.98,Cloudy,-4.323000000000004,1.7341095800581448
3/7/2012 7:00,-3.9,-9.2,67,11,48.3,101.92,Cloudy,-3.945999999999996,1.7389973026489272
3/7/2012 8:00,-4.6,-9.5,69,11,48.3,101.91,Mostly Cloudy,-4.5370000000000035,1.731138694406963
3/7/2012 9:00,-2.5,-7.7,67,11,24.1,101.85,Clear,-2.3680000000000008,1.7574990814351372
3/7/2012 10:00,-0.1,-6.5,62,6,24.1,101.76,Clear,-0.018000000000000044,1.7740205591625353
3/7/2012 11:00,3.0,-4.7,57,6,24.1,101.67,Mainly Clear,3.0739999999999976,1.7651171344769951
3/7/2012 12:00,6.4,-3.6,49,4,24.1,101.58,Mainly Clear,6.402999999999994,1.748380397536739
3/7/2012 13:00,8.9,-4.4,39,13,24.1,101.49,Mainly Clear,8.728999999999996,1.7335451144632341
3/7/2012 14:00,9.3,-4.1,39,13,24.1,101.41,Mainly Clear,9.114999999999995,1.730846085999765
3/7/2012 15:00,9.7,-2.7,42,13,24.1,101.36,Mainly Clear,9.51400000000001,1.7279214301050845
3/7/2012 16:00,11.4,-2.3,38,15,24.1,101.31,Mostly Cloudy,11.586000000000004,1.7125410167945954
3/7/2012 17:00,9.9,-1.9,44,9,24.1,101.25,Mostly Cloudy,9.875999999999987,1.7251409344667348
3/7/2012 18:00,5.5,-1.6,60,7,24.1,101.25,Mainly Clear,5.541999999999998,1.753357252540939
3/7/2012 19:00,6.0,-1.8,57,11,25.0,101.22,Mostly Cloudy,6.037000000000001,1.7505366863986724
3/7/2012 20:00,7.6,-2.1,50,20,25.0,101.18,Mostly Cloudy,7.638000000000006,1.7406217267821145
3/7/2012 21:00,6.8,-2.1,53,22,25.0,101.16,Mostly Cloudy,6.798999999999995,1.7459761768313669
3/7/2012 22:00,6.0,-1.7,58,17,25.0,101.12,Cloudy,5.980000000000003,1.7508669944249002
3/7/2012 23:00,4.8,-1.7,63,15,25.0,101.05,Cloudy,4.803000000000004,1.7571787895640483
3/8/2012 0:00,6.2,-1.5,58,20,25.0,100.98,Cloudy,6.036000000000001,1.750542493885479
3/8/2012 1:00,5.5,-1.4,61,11,25.0,100.92,Cloudy,5.550999999999999,1.7533069200273237
3/8/2012 2:00,7.9,-1.2,53,17,25.0,100.81,Mostly Cloudy,7.8199999999999905,1.739442556976002
3/8/2012 3:00,10.1,-0.9,46,24,25.0,100.69,Mostly Cloudy,10.191000000000011,1.7226162992842682
3/8/2012 4:00,10.0,-0.7,47,28,25.0,100.64,Mostly Cloudy,10.189,1.7226326507279244
3/8/2012 5:00,5.7,-0.8,63,19,25.0,100.57,Mostly Cloudy,5.6679999999999975,1.7526494390734175
3/8/2012 6:00,7.6,-0.4,57,19,24.1,100.52,Cloudy,7.595000000000006,1.7409051852870474
3/8/2012 7:00,10.3,0.8,52,26,48.3,100.47,Cloudy,9.967999999999988,1.7244139865159596
3/8/2012 8:00,6.7,0.2,63,19,48.3,100.39,Cloudy,6.6869999999999985,1.7466638567646515
3/8/2012 9:00,10.2,1.6,55,26,48.3,100.29,Cloudy,10.12599999999999,1.7231455810751073
3/8/2012 10:00,12.1,2.9,53,30,24.1,100.22,Cloudy,11.993,1.70921201619617
3/8/2012 11:00,12.7,3.8,55,26,24.1,100.13,Cloudy,12.789000000000017,1.7019098174233729
3/8/2012 12:00,11.7,4.0,59,20,24.1,100.08,Rain,11.755000000000017,1.7111888024986432
3/8/2012 13:00,11.5,5.2,65,20,24.1,99.99,Cloudy,11.482000000000006,1.7133528720451467
3/8/2012 14:00,11.7,5.9,68,26,24.1,99.88,Cloudy,11.634000000000016,1.7121611608586202
3/8/2012 15:00,11.7,6.6,71,37,19.3,99.82,Rain,11.698,1.712430565280306
3/8/2012 16:00,11.6,6.4,70,32,24.1,99.75,Rain,11.649000000000001,1.7120417782798758
3/8/2012 17:00,11.3,6.9,74,37,19.3,99.66,Rain,11.434999999999986,1.7209839103698092
3/8/2012 18:00,10.5,7.8,83,46,6.4,99.64,Rain,10.631000000000006,1.7459700090483987
3/8/2012 19:00,6.1,3.2,82,30,16.1,99.78,Rain,6.116000000000003,1.7500764643646882
3/8/2012 20:00,5.0,1.6,79,41,25.0,99.9,Rain,4.988,1.7562888414755924
3/8/2012 21:00,3.7,1.0,82,41,12.9,100.04,Rain,3.760999999999994,1.7620424778989419
3/8/2012 22:00,2.0,-0.5,83,46,9.7,100.13,"Rain,Fog",2.0509999999999993,1.7686950927910472
3/8/2012 23:00,0.8,-1.4,85,35,2.4,100.25,Snow,0.8149999999999996,1.7719910684570421
3/9/2012 0:00,-0.1,-2.0,87,28,2.8,100.33,Snow,-0.04399999999999998,1.7738862121112984
3/9/2012 1:00,0.0,-3.7,76,22,25.0,100.41,Mostly Cloudy,-0.04499999999999999,1.773881041726846
3/9/2012 2:00,-1.2,-6.6,67,20,25.0,100.62,Mainly Clear,-1.1910000000000012,1.7677961935890787
3/9/2012 3:00,-2.6,-8.5,64,24,25.0,100.81,Mainly Clear,-2.572999999999997,1.7555222479372952
3/9/2012 4:00,-3.9,-8.7,69,11,25.0,100.97,Mainly Clear,-3.821999999999999,1.7405820941093226
3/9/2012 5:00,-3.9,-9.1,67,20,25.0,101.13,Mainly Clear,-3.924999999999999,1.7392574691649911
3/9/2012 6:00,-4.3,-9.0,70,15,25.0,101.26,Mainly Clear,-4.263000000000004,1.734916067502503
3/9/2012 7:00,-5.0,-9.7,70,15,24.1,101.31,Clear,-5.0809999999999995,1.7228529850621324
3/9/2012 8:00,-4.7,-10.2,65,15,24.1,101.41,Clear,-4.784999999999996,1.7274994230334628
3/9/2012 9:00,-4.0,-9.5,66,20,24.1,101.46,Clear,-4.09,1.7371798341675946
3/9/2012 10:00,-3.7,-10.1,61,19,48.3,101.48,Mainly Clear,-3.7230000000000025,1.74187964963792
3/9/2012 11:00,-3.0,-10.0,58,17,48.3,101.47,Mainly Clear,-2.9430000000000005,1.75140853547353
3/9/2012 12:00,-2.1,-8.5,62,20,48.3,101.44,Mainly Clear,-2.056999999999997,1.7604225164733736
3/9/2012 13:00,-1.5,-8.8,57,15,48.3,101.42,Mainly Clear,-1.436,1.7660021366069791
3/9/2012 14:00,-1.0,-7.6,61,19,48.3,101.43,Mainly Clear,-0.9080000000000001,1.7693290710914285
3/9/2012 15:00,-1.1,-7.9,60,17,48.3,101.45,Mostly Cloudy,-1.1199999999999994,1.768182678357409
3/9/2012 16:00,-0.7,-8.4,56,11,48.3,101.44,Mostly Cloudy,-0.7330000000000009,1.7702668778183748
3/9/2012 17:00,-0.9,-7.9,59,7,48.3,101.47,Mostly Cloudy,-1.009,1.768784329772348
3/9/2012 18:00,-2.0,-8.7,60,7,25.0,101.52,Mainly Clear,-1.9780000000000004,1.7611510372596928
3/9/2012 19:00,-2.6,-8.2,65,4,25.0,101.57,Mostly Cloudy,-2.587999999999998,1.755375248050906
3/9/2012 20:00,-2.0,-9.0,59,4,25.0,101.61,Mostly Cloudy,-2.1090000000000004,1.759939908458295
3/9/2012 21:00,-1.9,-8.6,60,6,25.0,101.63,Mostly Cloudy,-1.9170000000000025,1.761709746401702
3/9/2012 22:00,-2.2,-8.9,60,7,25.0,101.64,Mostly Cloudy,-2.143999999999998,1.7596136902538453
3/9/2012 23:00,-2.6,-8.6,63,6,25.0,101.68,Cloudy,-2.5479999999999965,1.7557654962371194
3/10/2012 0:00,-2.2,-8.7,61,4,25.0,101.77,Cloudy,-2.2759999999999994,1.7583732401435137
3/10/2012 1:00,-2.7,-8.6,64,15,25.0,101.89,Cloudy,-2.719999999999996,1.7539252831098326
3/10/2012 2:00,-3.8,-10.6,59,19,25.0,102.01,Cloudy,-3.806000000000004,1.7407932408948905
3/10/2012 3:00,-4.1,-12.7,51,24,25.0,102.1,Cloudy,-4.190000000000001,1.7358822846753446
3/10/2012 4:00,-5.7,-13.1,56,26,25.0,102.27,Mainly Clear,-5.714000000000001,1.7137684959911086
3/10/2012 5:00,-6.4,-14.0,55,20,25.0,102.42,Mainly Clear,-6.505999999999992,1.699960278962337
3/10/2012 6:00,-6.8,-14.1,56,26,24.1,102.6,Mostly Cloudy,-6.876,1.6948938681861327
3/10/2012 7:00,-7.1,-14.6,55,20,48.3,102.73,Mainly Clear,-7.150000000000006,1.6904272146852655
3/10/2012 8:00,-6.8,-14.6,54,19,48.3,102.84,Mainly Clear,-6.926999999999997,1.694113934813393
3/10/2012 9:00,-6.3,-14.1,54,15,48.3,102.95,Mostly Cloudy,-6.3299999999999965,1.7031719446387144
3/10/2012 10:00,-6.1,-14.5,51,6,48.3,103.01,Mainly Clear,-6.322000000000007,1.7033262270895784
3/10/2012 11:00,-4.0,-13.2,49,0,48.3,103.02,Mainly Clear,-4.175999999999999,1.7360657354657314
3/10/2012 12:00,-4.1,-12.1,54,7,48.3,102.99,Clear,-4.108000000000004,1.7369484573402143
3/10/2012 13:00,-3.2,-11.3,53,7,48.3,102.89,Mainly Clear,-3.329999999999996,1.7468287191343557
3/10/2012 14:00,-2.6,-11.1,52,15,48.3,102.84,Mostly Cloudy,-2.6550000000000007,1.7546428965433851
3/10/2012 15:00,-2.7,-10.2,56,11,48.3,102.75,Mostly Cloudy,-2.4749999999999983,1.7564723113854708
3/10/2012 16:00,-1.8,-10.3,52,13,48.3,102.71,Mainly Clear,-1.7220000000000002,1.7634738161616328
3/10/2012 17:00,-1.6,-10.0,53,17,48.3,102.68,Mainly Clear,-1.6649999999999983,1.7639832411359233
3/10/2012 18:00,-2.1,-10.1,54,9,25.0,102.66,Mainly Clear,-2.0199999999999974,1.760764420936606
3/10/2012 19:00,-1.9,-9.4,56,9,25.0,102.67,Mainly Clear,-1.8580000000000023,1.7622470011135043
3/10/2012 20:00,-2.3,-8.0,65,11,25.0,102.6,Mostly Cloudy,-2.282000000000002,1.758316471868255
3/10/2012 21:00,-2.3,-8.1,64,11,25.0,102.54,Mostly Cloudy,-2.3240000000000025,1.7579181502178631
3/10/2012 22:00,-2.0,-7.1,68,11,25.0,102.5,Snow Showers,-1.9809999999999994,1.7611234742052633
3/10/2012 23:00,-1.7,-7.1,67,7,25.0,102.45,Cloudy,-1.7189999999999992,1.7635006975546224
3/11/2012 0:00,-3.1,-7.2,73,7,25.0,102.36,Mainly Clear,-3.1580000000000017,1.7488985756420843
3/11/2012 1:00,-3.2,-6.9,76,7,25.0,102.28,Mainly Clear,-3.312999999999996,1.747035819992439
3/11/2012 2:00,-3.1,-7.1,74,7,25.0,102.18,Mainly Clear,-3.1290000000000022,1.7492420644791686
3/11/2012 3:00,-2.2,-7.0,70,17,25.0,102.05,Cloudy,-2.1669999999999967,1.7593987078616966
3/11/2012 4:00,-1.7,-6.9,68,13,25.0,102.02,Cloudy,-1.7459999999999993,1.7632584857248217
3/11/2012 5:00,-2.1,-7.0,69,11,25.0,101.98,Mainly Clear,-2.055999999999998,1.7604317733782282
3/11/2012 6:00,-1.5,-6.7,68,7,48.3,101.98,Cloudy,-1.521,1.7652578999101651
3/11/2012 7:00,-1.8,-6.9,68,11,48.3,101.97,Clear,-1.7560000000000013,1.7631686179059791
3/11/2012 8:00,0.1,-6.2,63,7,48.3,102.0,Clear,-0.059999999999999935,1.7738034575757202
3/11/2012 9:00,2.7,-5.9,53,7,48.3,101.98,Mainly Clear,2.6509999999999967,1.7669607264872071
3/11/2012 10:00,3.8,-5.7,50,13,48.3,101.97,Clear,3.7900000000000045,1.761910437779866
3/11/2012 11:00,5.9,-4.2,48,11,48.3,101.92,Clear,5.9200000000000035,1.7512131135290652
3/11/2012 12:00,6.8,-3.2,49,24,48.3,101.86,Clear,6.892999999999994,1.7453942380200425
3/11/2012 13:00,9.0,-1.9,46,20,48.3,101.79,Clear,9.084000000000003,1.731067459095424
3/11/2012 14:00,9.5,-1.6,46,24,48.3,101.74,Clear,9.527999999999999,1.7278162011575442
3/11/2012 15:00,10.5,-1.3,44,20,48.3,101.69,Clear,10.497999999999998,1.7203485472844524
3/11/2012 16:00,10.9,-0.7,45,15,48.3,101.65,Clear,10.839999999999996,1.7180488998195853
3/11/2012 17:00,10.7,-0.6,45,11,48.3,101.65,Clear,10.781000000000015,1.7184550536187362
3/11/2012 18:00,9.1,-1.0,49,7,25.0,101.68,Clear,9.191000000000013,1.730299862110747
3/11/2012 19:00,7.4,-1.2,54,6,25.0,101.69,Clear,7.481999999999997,1.741645303872543
3/11/2012 20:00,4.8,-1.5,64,9,48.3,101.7,Clear,4.887000000000006,1.756775720664268
3/11/2012 21:00,4.8,-1.6,63,13,25.0,101.72,Mainly Clear,4.961000000000004,1.7564192374253214
3/11/2012 22:00,5.2,-1.9,60,6,25.0,101.72,Clear,5.256999999999997,1.7549334428293104
3/11/2012 23:00,6.1,-2.0,56,7,25.0,101.75,Clear,5.906000000000009,1.751293643606812
3/12/2012 0:00,6.0,-1.8,57,20,25.0,101.77,Clear,6.025000000000002,1.7506063464668278
3/12/2012 1:00,5.2,-1.8,61,17,25.0,101.77,Mainly Clear,5.231999999999994,1.7550700901840988
3/12/2012 2:00,4.6,-2.1,62,9,25.0,101.77,Mainly Clear,4.502000000000005,1.7586094131388073
3/12/2012 3:00,1.5,-2.8,73,11,25.0,101.78,Mainly Clear,1.5110000000000001,1.7701467300703662
3/12/2012 4:00,1.8,-2.6,73,4,25.0,101.8,Mainly Clear,1.7100000000000009,1.7696138998408184
3/12/2012 5:00,2.3,-1.9,74,9,25.0,101.82,Clear,2.2050000000000027,1.7682777411354074
3/12/2012 6:00,3.1,-1.8,70,11,48.3,101.89,Clear,3.0480000000000014,1.7652315227212894
3/12/2012 7:00,2.6,-2.3,70,4,48.3,101.98,Mainly Clear,2.6449999999999982,1.7669866123054092
3/12/2012 8:00,4.4,-1.0,68,6,48.3,102.03,Mainly Clear,4.492999999999994,1.7586518624674266
3/12/2012 9:00,6.5,-0.2,62,0,48.3,102.03,Mostly Cloudy,6.5009999999999994,1.747792429690298
3/12/2012 10:00,8.3,0.2,57,9,24.1,102.0,Cloudy,8.203999999999994,1.737025688325821
3/12/2012 11:00,10.6,0.3,49,6,24.1,101.99,Cloudy,10.634000000000007,1.7194496988917245
3/12/2012 12:00,10.8,0.4,49,9,48.3,101.94,Mostly Cloudy,10.986999999999984,1.7170191381247635
3/12/2012 13:00,11.6,0.6,47,13,48.3,101.84,Mostly Cloudy,11.716999999999999,1.7114964819733645
3/12/2012 14:00,12.3,1.4,47,6,48.3,101.79,Mostly Cloudy,12.18999999999999,1.7075079531574129
3/12/2012 15:00,12.4,0.6,44,4,48.3,101.71,Cloudy,12.502999999999997,1.7046648781167657
3/12/2012 16:00,11.8,1.2,48,4,25.0,101.64,Cloudy,11.975999999999985,1.7093561289462225
3/12/2012 17:00,11.6,1.0,48,6,24.1,101.57,Cloudy,11.987999999999989,1.7092544498454278
3/12/2012 18:00,9.0,1.1,58,13,25.0,101.54,Cloudy,8.940000000000003,1.7320850801498617
3/12/2012 19:00,8.7,1.1,59,13,25.0,101.5,Cloudy,8.74900000000001,1.7334082755650724
3/12/2012 20:00,9.2,1.4,58,13,25.0,101.44,Cloudy,9.15900000000001,1.7305304603323355
3/12/2012 21:00,8.4,1.0,60,13,25.0,101.39,Mostly Cloudy,8.292999999999989,1.7364503681887522
3/12/2012 22:00,7.9,0.7,60,11,25.0,101.35,Mostly Cloudy,8.003999999999996,1.7382975113501093
3/12/2012 23:00,6.6,-0.3,61,11,25.0,101.22,Mostly Cloudy,6.633000000000009,1.7469932273747713
3/13/2012 0:00,7.5,-0.7,56,13,25.0,101.11,Mostly Cloudy,7.617000000000003,1.7407602860866425
3/13/2012 1:00,5.1,-0.9,65,13,25.0,101.07,Rain Showers,5.113999999999999,1.7556779969798177
3/13/2012 2:00,4.8,-1.0,66,6,25.0,101.05,Rain Showers,4.750999999999999,1.7574274667789118
3/13/2012 3:00,4.6,-0.2,71,15,25.0,100.87,Cloudy,4.525000000000005,1.7585008459049187
3/13/2012 4:00,6.5,1.1,68,7,25.0,100.74,Cloudy,6.718999999999997,1.746468004181647
3/13/2012 5:00,5.8,1.1,72,6,25.0,100.71,Cloudy,5.821000000000002,1.7517807110242132
3/13/2012 6:00,7.4,1.8,68,9,19.3,100.6,Cloudy,7.39599999999999,1.7422039815685761
3/13/2012 7:00,4.0,1.0,81,11,9.7,100.61,"Rain,Haze",4.015999999999999,1.7608750441774723
3/13/2012 8:00,5.5,2.9,83,7,6.4,100.5,"Rain,Haze",5.489,1.753652955933839
3/13/2012 9:00,4.4,2.3,86,17,4.0,100.51,"Rain,Haze",4.754999999999999,1.7574083605371964
3/13/2012 10:00,3.5,1.5,87,11,2.4,100.54,"Drizzle,Fog",3.3999999999999995,1.763670766613477
3/13/2012 11:00,3.5,1.6,87,11,4.8,100.57,"Drizzle,Fog",3.4379999999999997,1.7635006975546224
3/13/2012 12:00,3.9,2.2,89,9,4.8,100.64,Fog,3.7759999999999985,1.7619742044397397
3/13/2012 13:00,4.9,3.0,87,7,6.4,100.63,Fog,4.927999999999999,1.7565783720460175
3/13/2012 14:00,6.5,4.5,87,7,6.4,100.61,Fog,6.495,1.755244623603565
3/13/2012 15:00,5.3,3.3,87,11,8.0,100.63,Fog,5.137000000000004,1.7555660775845774
3/13/2012 16:00,5.5,2.8,83,11,8.0,100.67,Haze,5.452999999999999,1.7538531318675816
3/13/2012 17:00,4.9,2.2,83,17,8.0,100.68,Haze,4.913999999999994,1.7566458046875215
3/13/2012 18:00,4.0,1.5,84,13,8.0,100.73,Haze,3.9600000000000026,1.7611326627840092
3/13/2012 19:00,3.1,0.9,85,17,6.4,100.79,"Drizzle,Fog",3.3040000000000003,1.76409903633797
3/13/2012 20:00,2.6,0.3,85,17,6.4,100.77,Haze,2.5849999999999973,1.7672414403412697
3/13/2012 21:00,1.1,-1.0,86,20,4.8,100.87,"Rain,Fog",1.0929999999999984,1.7712579545203422
3/13/2012 22:00,1.4,-0.7,86,6,6.4,100.93,Haze,1.4080000000000015,1.7704215497638625
3/13/2012 23:00,1.1,-0.9,86,9,4.8,100.98,Haze,1.1189999999999982,1.7711891487621203
3/14/2012 0:00,0.7,-1.0,88,7,3.2,101.02,Fog,0.691000000000001,1.7723165555843603
3/14/2012 1:00,0.7,-0.9,89,7,1.0,101.06,Fog,0.688000000000001,1.7723244187600868
3/14/2012 2:00,0.6,-1.0,89,7,0.8,101.05,Fog,0.6210000000000009,1.7724998882811953
3/14/2012 3:00,0.8,-0.3,92,6,0.6,101.06,Fog,0.8429999999999989,1.7719174425285444
3/14/2012 4:00,0.8,-0.6,90,4,0.6,101.13,Fog,0.8199999999999986,1.771977924456203
3/14/2012 5:00,0.7,-0.9,89,6,0.6,101.23,Fog,0.703000000000001,1.7722850974493327
3/14/2012 6:00,0.6,-0.9,90,7,0.6,101.28,Fog,0.6730000000000007,1.77236372649335
3/14/2012 7:00,0.8,-0.4,92,6,2.4,101.36,Fog,0.7569999999999989,1.772143428200193
3/14/2012 8:00,1.1,-0.1,92,6,3.2,101.46,"Rain,Fog",1.051999999999999,1.771366371869665
3/14/2012 9:00,1.6,0.4,92,7,4.8,101.51,"Rain,Fog",1.5519999999999976,1.7700371526580263
3/14/2012 10:00,1.1,0.5,96,7,2.4,101.57,"Snow,Fog",1.0209999999999988,1.7714482777570786
3/14/2012 11:00,0.4,0.1,98,6,1.6,101.6,"Snow,Fog",0.41699999999999937,1.7730324921179343
3/14/2012 12:00,1.0,0.8,99,4,2.0,101.65,"Snow,Fog",1.1029999999999998,1.7730767632267987
3/14/2012 13:00,2.1,1.8,98,4,4.8,101.67,"Rain,Fog",2.243999999999998,1.7720304913691292
3/14/2012 14:00,2.2,1.8,97,7,8.0,101.7,"Drizzle,Fog",2.2399999999999975,1.7709745267585884
3/14/2012 15:00,1.7,1.3,97,13,4.8,101.77,"Drizzle,Fog",1.6949999999999992,1.7709745267585884
3/14/2012 16:00,1.5,1.2,98,13,8.0,101.82,"Drizzle,Fog",1.7549999999999997,1.7720304913691292
3/14/2012 17:00,1.0,0.6,97,15,9.7,101.89,Fog,1.0579999999999998,1.7713505123360798
3/14/2012 18:00,0.5,0.1,97,17,9.7,101.99,"Drizzle,Fog",0.5159999999999999,1.7727743344151823
3/14/2012 19:00,0.3,-0.2,96,15,8.0,102.07,"Snow,Fog",0.3770000000000001,1.7731366319506456
3/14/2012 20:00,0.2,-0.5,95,15,12.9,102.13,Cloudy,0.17099999999999985,1.7736714422614135
3/14/2012 21:00,-0.1,-0.9,94,17,12.9,102.17,Cloudy,-0.047000000000000014,1.7738707002485439
3/14/2012 22:00,-0.3,-1.3,93,20,12.9,102.18,Cloudy,-0.2900000000000004,1.7726071318185512
3/14/2012 23:00,-0.6,-1.6,93,15,12.9,102.23,Cloudy,-0.376,1.7721565531280603
3/15/2012 0:00,-0.6,-1.7,92,19,12.9,102.24,Cloudy,-0.5160000000000003,1.7714192210957456
3/15/2012 1:00,-0.6,-1.7,92,19,12.9,102.27,Cloudy,-0.5040000000000001,1.7714826079251411
3/15/2012 2:00,-0.4,-1.5,92,13,12.9,102.29,Cloudy,-0.35899999999999976,1.772245762554051
3/15/2012 3:00,-0.3,-1.5,92,11,12.9,102.25,Cloudy,-0.3190000000000003,1.772455391775763
3/15/2012 4:00,-0.2,-1.3,92,17,12.9,102.26,Cloudy,-0.2310000000000003,1.7729152204642957
3/15/2012 5:00,-0.3,-1.5,92,15,12.9,102.34,Cloudy,-0.31900000000000023,1.772455391775763
3/15/2012 6:00,-0.3,-1.6,91,20,16.1,102.36,Cloudy,-0.2900000000000003,1.7726071318185512
3/15/2012 7:00,-0.5,-1.9,90,13,16.1,102.4,Cloudy,-0.46600000000000014,1.7716831011623673
3/15/2012 8:00,-0.5,-2.1,89,17,19.3,102.42,Cloudy,-0.46699999999999986,1.7716778295319313
3/15/2012 9:00,-0.3,-2.0,88,20,16.1,102.39,Cloudy,-0.21200000000000022,1.7730142578166064
3/15/2012 10:00,0.4,-1.6,86,22,19.3,102.31,Cloudy,0.39599999999999946,1.773087177448499
3/15/2012 11:00,1.1,-1.3,84,19,24.1,102.23,Cloudy,1.1139999999999988,1.7712023838532578
3/15/2012 12:00,2.2,-0.7,81,19,24.1,102.18,Cloudy,2.1399999999999983,1.768454079603452
3/15/2012 13:00,3.4,0.0,78,22,24.1,102.12,Cloudy,3.409999999999998,1.7636260416773408
3/15/2012 14:00,3.4,-0.1,78,22,24.1,102.05,Cloudy,3.4469999999999974,1.7634603725589828
3/15/2012 15:00,4.0,0.6,78,24,24.1,102.0,Mostly Cloudy,4.006000000000001,1.7609210990316653
3/15/2012 16:00,3.5,0.1,78,20,24.1,101.99,Mostly Cloudy,3.4839999999999987,1.763294408649701
3/15/2012 17:00,3.0,-0.3,79,26,24.1,101.98,Mostly Cloudy,3.028999999999999,1.7653150246581517
3/15/2012 18:00,2.6,-0.3,81,22,24.1,101.98,Rain Showers,2.443000000000003,1.7676297724566832
3/15/2012 19:00,2.4,-0.4,82,28,25.0,101.88,Mostly Cloudy,2.3380000000000027,1.7679160871526707
3/15/2012 20:00,2.3,-0.2,84,24,25.0,101.86,Mostly Cloudy,2.2540000000000004,1.768144631403196
3/15/2012 21:00,2.0,0.4,89,28,25.0,101.8,Rain Showers,1.9829999999999999,1.768878899845422
3/15/2012 22:00,2.1,0.5,89,20,25.0,101.77,Mostly Cloudy,2.0769999999999977,1.768624736337308
3/15/2012 23:00,1.8,0.2,89,19,25.0,101.7,Mostly Cloudy,1.790000000000002,1.769398999914475
3/16/2012 0:00,1.8,0.4,90,19,25.0,101.67,Cloudy,1.8350000000000015,1.7692779424325227
3/16/2012 1:00,1.9,0.6,91,15,25.0,101.54,Rain Showers,1.8440000000000019,1.7692537156823012
3/16/2012 2:00,1.1,0.2,94,17,12.9,101.56,Rain,1.1299999999999983,1.7711600261711022
3/16/2012 3:00,1.1,0.5,96,19,6.4,101.46,Rain,1.0709999999999997,1.77131614246412
3/16/2012 4:00,1.0,0.5,96,17,4.8,101.39,Rain,1.0569999999999995,1.77135315574447
3/16/2012 5:00,0.7,0.3,97,20,4.8,101.36,Rain,0.6950000000000007,1.7723060705051397
3/16/2012 6:00,0.6,0.2,97,24,6.4,101.39,"Rain,Fog",0.6470000000000007,1.7724318277548294
3/16/2012 7:00,1.1,0.6,96,19,4.8,101.37,"Rain,Fog",1.1569999999999998,1.7710885120077986
3/16/2012 8:00,1.1,0.7,97,15,4.0,101.38,"Rain,Fog",1.0829999999999986,1.7712844072561187
3/16/2012 9:00,1.1,0.7,97,17,4.0,101.41,"Rain,Fog",1.0829999999999986,1.7712844072561187
3/16/2012 10:00,1.5,1.1,97,13,4.8,101.41,"Rain,Fog",1.5830000000000002,1.7709745267585884
3/16/2012 11:00,1.8,1.3,96,13,8.0,101.4,"Rain,Fog",1.8690000000000009,1.7699087340766253
3/16/2012 12:00,2.5,2.0,96,6,8.0,101.42,Fog,2.6340000000000003,1.7699087340766253
3/16/2012 13:00,3.3,2.8,97,6,9.7,101.38,Fog,3.475000000000003,1.7709745267585884
3/16/2012 14:00,4.0,3.2,95,11,9.7,101.4,Fog,3.936000000000001,1.768832975474038
3/16/2012 15:00,3.7,3.2,97,7,6.4,101.48,Fog,3.7149999999999976,1.7709745267585884
3/16/2012 16:00,4.3,3.5,95,4,8.0,101.53,Fog,4.304000000000006,1.768832975474038
3/16/2012 17:00,4.1,3.2,94,7,8.0,101.61,Fog,3.9370000000000016,1.7677471105115399
3/16/2012 18:00,3.8,3.2,96,7,4.8,101.71,"Drizzle,Fog",3.772000000000004,1.7699087340766253
3/16/2012 19:00,3.8,3.2,96,0,3.2,101.77,"Drizzle,Fog",3.7760000000000042,1.7699087340766253
3/16/2012 20:00,3.7,3.3,97,0,2.0,101.93,"Drizzle,Fog",3.7089999999999965,1.7709745267585884
3/16/2012 21:00,4.0,3.7,98,7,3.2,101.93,"Drizzle,Fog",4.2150000000000025,1.7720304913691292
3/16/2012 22:00,3.8,3.4,97,0,6.4,102.04,"Drizzle,Fog",3.7770000000000037,1.7709745267585884
3/16/2012 23:00,3.7,3.3,97,0,3.2,102.07,"Drizzle,Fog",3.672999999999996,1.7709745267585884
3/17/2012 0:00,3.8,3.5,98,4,1.6,102.05,"Drizzle,Fog",3.8380000000000036,1.7720304913691292
3/17/2012 1:00,3.0,2.7,98,6,0.6,102.05,Fog,3.151,1.7720304913691292
3/17/2012 2:00,2.7,2.5,99,4,0.2,102.09,Fog,2.814999999999996,1.7730767632267987
3/17/2012 3:00,1.8,1.6,99,4,0.2,102.1,Fog,1.8130000000000004,1.7730767632267987
3/17/2012 4:00,0.3,0.1,99,0,0.2,102.15,Fog,0.344,1.7732224753971306
3/17/2012 5:00,-0.1,-0.3,99,0,0.8,102.2,Freezing Fog,0.007999999999999976,1.7740928337778386
3/17/2012 6:00,-0.1,-0.4,98,4,0.2,102.26,Freezing Fog,-0.03800000000000005,1.7739172294532497
3/17/2012 7:00,0.5,0.4,99,0,0.2,102.34,Fog,0.5530000000000002,1.7730767632267987
3/17/2012 8:00,1.0,0.9,99,0,0.2,102.39,Fog,1.4539999999999988,1.7730767632267987
3/17/2012 9:00,1.6,1.5,99,4,0.2,102.38,Fog,1.6929999999999987,1.7730767632267987
3/17/2012 10:00,2.6,2.6,100,0,0.2,102.37,Fog,2.732999999999998,1.774113475177305
3/17/2012 11:00,4.1,3.8,98,4,0.6,102.34,Fog,4.372000000000004,1.7720304913691292
3/17/2012 12:00,5.7,5.3,97,4,9.7,102.32,Fog,5.882999999999999,1.7709745267585884
3/17/2012 13:00,8.1,6.2,88,7,16.1,102.18,Cloudy,8.09400000000001,1.7571931537828946
3/17/2012 14:00,9.2,4.3,71,7,24.1,102.13,Cloudy,9.266000000000012,1.7297558934897457
3/17/2012 15:00,10.2,4.4,67,6,24.1,102.07,Cloudy,10.623999999999992,1.7195164811026757
3/17/2012 16:00,10.5,4.1,65,7,48.3,102.02,Cloudy,10.648999999999996,1.71934931751617
3/17/2012 17:00,10.1,4.7,69,9,48.3,101.97,Cloudy,10.004000000000012,1.724127219143691
3/17/2012 18:00,10.1,5.4,73,7,48.3,101.95,Cloudy,10.04300000000001,1.7238150729458284
3/17/2012 19:00,9.8,5.9,77,6,25.0,101.93,Cloudy,9.801999999999987,1.7302348458823897
3/17/2012 20:00,9.3,5.2,76,0,25.0,101.92,Cloudy,9.253000000000004,1.729850535319126
3/17/2012 21:00,8.8,5.5,80,4,25.0,101.8,Mostly Cloudy,8.75099999999999,1.7383226557949913
3/17/2012 22:00,7.7,4.9,82,0,25.0,101.77,Mainly Clear,7.724000000000009,1.7434626346010758
3/17/2012 23:00,6.7,4.7,87,7,25.0,101.78,Mainly Clear,6.696000000000002,1.755244623603565
3/18/2012 0:00,3.8,2.8,93,4,25.0,101.75,Mainly Clear,3.810000000000005,1.7663155381997573
3/18/2012 1:00,5.2,3.5,89,0,25.0,101.74,Mostly Cloudy,5.163,1.7590894054480448
3/18/2012 2:00,4.3,3.0,91,6,25.0,101.71,Mainly Clear,4.286000000000005,1.762772169746578
3/18/2012 3:00,3.9,2.4,90,7,25.0,101.66,Clear,3.9089999999999963,1.7613666698482697
3/18/2012 4:00,3.2,2.3,94,6,25.0,101.69,Clear,3.2739999999999956,1.7677471105115399
3/18/2012 5:00,3.5,2.4,92,6,25.0,101.7,Clear,3.5520000000000014,1.764560779079539
3/18/2012 6:00,3.6,2.6,93,7,24.1,101.72,Clear,3.6140000000000025,1.7663155381997573
3/18/2012 7:00,5.1,3.7,91,4,48.3,101.78,Mainly Clear,5.162000000000006,1.762772169746578
3/18/2012 8:00,8.8,5.8,81,11,48.3,101.79,Mainly Clear,8.913999999999989,1.7408722768108806
3/18/2012 9:00,10.4,6.6,77,11,48.3,101.81,Mainly Clear,10.37999999999999,1.7302348458823897
3/18/2012 10:00,11.9,6.7,70,13,48.3,101.78,Mainly Clear,11.917999999999996,1.7098443830431507
3/18/2012 11:00,14.1,7.6,65,13,48.3,101.71,Clear,14.116999999999996,1.6929583486014415
3/18/2012 12:00,17.3,8.7,57,11,48.3,101.63,Clear,17.296999999999983,1.024329796410017
3/18/2012 13:00,20.0,9.9,52,15,48.3,101.55,Mainly Clear,19.932,0.9618936986165831
3/18/2012 14:00,21.7,10.5,49,13,48.3,101.45,Mainly Clear,21.648000000000014,0.9454115361255299
3/18/2012 15:00,22.2,10.4,47,15,48.3,101.39,Mainly Clear,22.26100000000001,0.9416770834881779
3/18/2012 16:00,22.7,10.7,47,11,48.3,101.35,Mainly Clear,22.534000000000027,0.9401886221639515
3/18/2012 17:00,21.8,11.0,50,6,48.3,101.32,Mostly Cloudy,21.804999999999996,0.9444770833219928
3/18/2012 18:00,18.4,10.1,58,9,48.3,101.32,Mostly Cloudy,18.54700000000002,1.00652836112293
3/18/2012 19:00,17.1,9.8,62,0,25.0,101.3,Mainly Clear,17.111999999999988,1.0979775988119158
3/18/2012 20:00,12.8,8.6,76,7,25.0,101.34,Clear,12.851999999999983,1.7272721454173066
3/18/2012 21:00,13.4,9.2,76,4,25.0,101.37,Mainly Clear,13.343000000000004,1.7272721454173066
3/18/2012 22:00,12.6,8.9,78,7,25.0,101.39,Mainly Clear,12.698999999999996,1.733057876440812
3/18/2012 23:00,10.6,7.9,83,6,25.0,101.37,Mainly Clear,10.623000000000008,1.7459700090483987
3/19/2012 0:00,9.8,7.6,86,6,25.0,101.37,Mainly Clear,9.836999999999994,1.7530322801745157
3/19/2012 1:00,10.8,8.5,86,6,25.0,101.39,Clear,10.771999999999991,1.7530322801745157
3/19/2012 2:00,10.6,8.6,87,4,25.0,101.42,Clear,10.60800000000001,1.755244623603565
3/19/2012 3:00,10.2,8.3,88,11,25.0,101.42,Clear,10.217000000000015,1.7571931537828946
3/19/2012 4:00,11.2,9.0,86,6,25.0,101.49,Clear,11.22700000000001,1.7530322801745157
3/19/2012 5:00,9.7,8.1,90,7,25.0,101.5,Clear,9.824000000000005,1.7609487211792867
3/19/2012 6:00,11.3,9.4,88,4,24.1,101.56,Mainly Clear,11.292999999999985,1.7571931537828946
3/19/2012 7:00,9.9,8.5,91,0,12.9,101.59,Mostly Cloudy,9.83399999999999,1.762772169746578
3/19/2012 8:00,11.9,9.9,88,7,12.9,101.67,Mostly Cloudy,11.851999999999997,1.7571931537828946
3/19/2012 9:00,13.9,10.5,80,6,12.9,101.71,Mainly Clear,13.863000000000007,1.7383226557949913
3/19/2012 10:00,15.6,11.0,74,6,16.1,101.75,Mainly Clear,15.595999999999993,1.7209839103698092
3/19/2012 11:00,17.8,11.6,67,4,16.1,101.75,Mainly Clear,17.870999999999984,1.2523873978786297
3/19/2012 12:00,19.8,12.0,61,4,19.3,101.75,Mainly Clear,19.786999999999974,1.0147471754365818
3/19/2012 13:00,18.5,11.0,62,19,19.3,101.72,Mainly Clear,18.436999999999998,1.043015533434348
3/19/2012 14:00,17.0,9.9,63,15,24.1,101.72,Mainly Clear,17.03,1.1238677749013137
3/19/2012 15:00,16.3,10.0,66,17,24.1,101.71,Mainly Clear,16.325999999999983,1.264093813394595
3/19/2012 16:00,16.6,9.7,64,11,24.1,101.66,Mainly Clear,16.55699999999998,1.1976013463190016
3/19/2012 17:00,15.9,9.1,64,13,24.1,101.66,Mainly Clear,15.90600000000002,1.3232382810626293
3/19/2012 18:00,13.9,7.9,67,19,24.1,101.67,Mainly Clear,13.955000000000009,1.698763522260988
3/19/2012 19:00,12.5,6.7,68,15,25.0,101.71,Mainly Clear,12.445000000000002,1.705204828439562
3/19/2012 20:00,10.6,5.4,70,13,25.0,101.8,Mainly Clear,10.57800000000001,1.7198222584266234
3/19/2012 21:00,9.5,4.1,69,15,25.0,101.8,Clear,9.522,1.7278613214831748
3/19/2012 22:00,8.8,2.7,66,17,25.0,101.83,Clear,8.692999999999993,1.7337906167513781
3/19/2012 23:00,7.2,1.8,69,9,25.0,101.86,Clear,7.1040000000000045,1.7440718203796874
3/20/2012 0:00,7.1,1.0,65,11,25.0,101.85,Clear,7.105000000000006,1.7440654991333138
3/20/2012 1:00,6.1,0.7,68,11,25.0,101.85,Clear,6.258999999999998,1.749236155488838
3/20/2012 2:00,5.7,0.4,69,11,25.0,101.85,Clear,5.627999999999997,1.752874880906175
3/20/2012 3:00,5.2,0.2,70,7,25.0,101.86,Clear,5.245999999999994,1.75499359939797
3/20/2012 4:00,5.2,-0.2,68,4,25.0,101.88,Clear,5.264999999999994,1.7548896612381248
3/20/2012 5:00,5.0,-0.3,69,7,25.0,101.92,Clear,4.931000000000001,1.7565639160745226
3/20/2012 6:00,3.2,-0.6,76,4,24.1,101.97,Clear,3.2009999999999956,1.764556350167417
3/20/2012 7:00,5.5,-0.1,67,4,24.1,102.0,Clear,5.522999999999999,1.7534633967253639
3/20/2012 8:00,8.0,0.6,60,6,24.1,102.08,Clear,7.897999999999999,1.7389600361813657
3/20/2012 9:00,10.6,1.3,53,0,19.3,102.09,Mainly Clear,10.588000000000006,1.7197559829058002
3/20/2012 10:00,12.6,2.6,50,4,24.1,102.07,Mainly Clear,12.602999999999994,1.703719340852138
3/20/2012 11:00,14.9,4.0,48,6,24.1,102.02,Clear,14.964000000000008,1.68393916914996
3/20/2012 12:00,16.5,6.7,52,9,24.1,101.98,Clear,16.588,1.0766535635093004
3/20/2012 13:00,20.0,10.8,55,13,24.1,101.93,Clear,19.980999999999998,0.9717044070452128
3/20/2012 14:00,21.5,11.8,54,11,24.1,101.83,Clear,21.467,0.9556352875833549
3/20/2012 15:00,22.5,12.3,52,9,24.1,101.78,Clear,22.567999999999998,0.9445484685826803
3/20/2012 16:00,23.3,12.1,49,7,24.1,101.73,Clear,23.319999999999997,0.9372662538407109
3/20/2012 17:00,22.0,12.1,53,7,24.1,101.72,Clear,22.130999999999993,0.9493449821346368
3/20/2012 18:00,19.7,11.7,60,4,24.1,101.74,Clear,19.686000000000018,1.0045409704855566
3/20/2012 19:00,17.5,10.9,65,6,25.0,101.79,Clear,17.488999999999997,1.114426009297426
3/20/2012 20:00,18.1,11.6,66,4,25.0,101.85,Clear,18.056999999999984,1.1750318113220146
3/20/2012 21:00,16.0,10.9,72,6,25.0,101.89,Clear,15.98,1.7154802667147235
3/20/2012 22:00,14.2,10.3,77,4,25.0,101.9,Clear,14.373,1.7302348458823897
3/20/2012 23:00,14.3,10.7,79,6,25.0,101.91,Clear,14.285000000000004,1.7357508862871274
3/21/2012 0:00,14.0,11.0,82,9,25.0,101.9,Clear,13.979000000000003,1.7434626346010758
3/21/2012 1:00,12.4,10.5,88,4,25.0,101.92,Clear,12.465,1.7571931537828946
3/21/2012 2:00,11.8,10.3,91,6,25.0,101.93,Clear,11.969000000000008,1.762772169746578
3/21/2012 3:00,11.4,9.8,90,4,25.0,101.93,Clear,11.283999999999994,1.7609487211792867
3/21/2012 4:00,10.6,9.1,90,0,25.0,101.95,Clear,10.637000000000008,1.7609487211792867
3/21/2012 5:00,10.0,8.8,92,0,25.0,102.02,Clear,10.007000000000003,1.764560779079539
3/21/2012 6:00,9.5,8.6,94,4,9.7,102.07,Fog,9.479999999999995,1.7677471105115399
3/21/2012 7:00,11.3,9.9,91,4,9.7,102.1,Fog,11.336999999999987,1.762772169746578
3/21/2012 8:00,13.8,11.5,86,9,12.9,102.15,Clear,13.76399999999998,1.7530322801745157
3/21/2012 9:00,15.9,11.8,77,7,19.3,102.17,Clear,15.875,1.7302348458823897
3/21/2012 10:00,18.2,12.5,69,13,24.1,102.09,Clear,18.207000000000015,1.505906587803386
3/21/2012 11:00,20.2,12.3,60,15,24.1,102.01,Clear,20.298000000000023,0.9999888186332162
3/21/2012 12:00,22.3,12.6,54,15,24.1,101.94,Clear,22.22699999999998,0.9509906860263119
3/21/2012 13:00,23.8,12.1,48,17,24.1,101.85,Clear,23.745999999999995,0.9355116642203928
3/21/2012 14:00,24.7,12.1,45,13,24.1,101.77,Clear,24.760000000000012,0.9403088027499734
3/21/2012 15:00,25.4,12.0,43,17,48.3,101.72,Clear,25.42000000000003,0.945948721343493
3/21/2012 16:00,25.5,11.0,40,17,48.3,101.69,Clear,25.47000000000001,0.9557861893691004
3/21/2012 17:00,25.2,10.7,40,13,48.3,101.68,Clear,25.253,0.9557861893691004
3/21/2012 18:00,20.7,9.7,49,9,48.3,101.67,Clear,20.769000000000016,0.9510957129416028
3/21/2012 19:00,17.2,9.1,59,6,25.0,101.67,Clear,17.188000000000013,1.0476758100445203
3/21/2012 20:00,18.4,8.9,54,7,25.0,101.7,Clear,18.415000000000028,0.9838968150294836
3/21/2012 21:00,16.4,9.7,65,13,25.0,101.68,Clear,16.334999999999976,1.2470671643062916
3/21/2012 22:00,18.0,10.5,62,7,25.0,101.66,Clear,17.941999999999997,1.0558421963006202
3/21/2012 23:00,16.5,9.5,63,7,25.0,101.66,Clear,16.556999999999995,1.1800511720622433
3/22/2012 0:00,17.0,9.1,60,13,25.0,101.63,Clear,17.022000000000002,1.0671407825585615
3/22/2012 1:00,15.5,8.7,64,11,25.0,101.62,Clear,15.649999999999995,1.3976806451913333
3/22/2012 2:00,15.0,8.7,66,7,25.0,101.59,Clear,15.033000000000005,1.67783167462795
3/22/2012 3:00,11.0,7.4,78,9,25.0,101.56,Clear,10.988,1.733057876440812
3/22/2012 4:00,13.2,8.4,73,6,25.0,101.54,Clear,13.126000000000007,1.718324698506683
3/22/2012 5:00,12.8,8.5,75,13,25.0,101.59,Clear,12.811999999999985,1.7241591468416737
3/22/2012 6:00,13.7,9.0,73,15,48.3,101.57,Mostly Cloudy,13.714000000000015,1.718324698506683
3/22/2012 7:00,14.2,9.5,73,22,24.1,101.55,Mainly Clear,14.228000000000016,1.718324698506683
3/22/2012 8:00,15.4,9.9,70,15,24.1,101.55,Mainly Clear,15.407000000000009,1.7091525423728813
3/22/2012 9:00,17.3,10.4,64,22,24.1,101.53,Mainly Clear,17.27699999999998,1.116605873194633
3/22/2012 10:00,19.6,11.4,59,17,24.1,101.57,Mainly Clear,19.407999999999983,1.0014929477348335
3/22/2012 11:00,20.4,11.9,58,15,24.1,101.52,Mainly Clear,20.416000000000025,0.9827495729225938
3/22/2012 12:00,23.0,12.0,50,20,24.1,101.5,Mostly Cloudy,22.998999999999995,0.9384365546374416
3/22/2012 13:00,23.3,12.1,49,19,24.1,101.43,Mostly Cloudy,23.371999999999993,0.9370590513799653
3/22/2012 14:00,22.8,12.6,53,17,24.1,101.4,Cloudy,22.770999999999994,0.9459559235212144
3/22/2012 15:00,21.4,12.8,58,6,24.1,101.38,Cloudy,21.357000000000017,0.9771086735653381
3/22/2012 16:00,22.2,12.3,53,13,24.1,101.33,Mostly Cloudy,22.400000000000006,0.947634688341285
3/22/2012 17:00,20.0,12.2,61,11,24.1,101.39,Mostly Cloudy,19.984999999999996,1.0147471754365818
3/22/2012 18:00,18.2,11.5,65,19,24.1,101.48,Rain Showers,18.165999999999983,1.1136122370198804
3/22/2012 19:00,16.7,9.4,62,13,25.0,101.52,Rain Showers,16.69400000000002,1.1436528494353666
3/22/2012 20:00,15.1,8.5,65,11,25.0,101.58,Mainly Clear,14.99599999999999,1.6929583486014415
3/22/2012 21:00,12.1,7.4,73,7,25.0,101.59,Mainly Clear,12.239999999999991,1.718324698506683
3/22/2012 22:00,11.0,6.8,75,7,25.0,101.61,Mainly Clear,11.006999999999998,1.7241591468416737
3/22/2012 23:00,11.3,7.2,76,6,25.0,101.62,Clear,11.253999999999987,1.7272721454173066
3/23/2012 0:00,10.4,7.1,80,7,25.0,101.67,Mainly Clear,10.314999999999989,1.7383226557949913
3/23/2012 1:00,10.3,7.5,83,0,25.0,101.7,Mainly Clear,10.26199999999999,1.7459700090483987
3/23/2012 2:00,8.9,6.5,85,9,25.0,101.71,Mainly Clear,8.86899999999999,1.7507512632600475
3/23/2012 3:00,8.8,6.4,85,9,25.0,101.72,Mainly Clear,8.692999999999989,1.7507512632600475
3/23/2012 4:00,9.2,6.3,82,7,25.0,101.76,Clear,9.17700000000001,1.7434626346010758
3/23/2012 5:00,8.0,5.2,82,9,25.0,101.85,Clear,7.988000000000004,1.7434626346010758
3/23/2012 6:00,6.6,2.9,77,7,25.0,101.9,Clear,6.637000000000006,1.7469688780847545
3/23/2012 7:00,8.4,3.0,69,0,48.3,101.93,Clear,8.263999999999992,1.7366384745765717
3/23/2012 8:00,11.3,1.8,52,0,48.3,101.93,Clear,11.230999999999984,1.7152515286968557
3/23/2012 9:00,12.8,2.3,49,4,48.3,101.94,Clear,12.754999999999995,1.7022456533902353
3/23/2012 10:00,14.5,0.1,37,17,48.3,101.93,Clear,13.937999999999988,1.6934548642075224
3/23/2012 11:00,14.9,-3.0,29,15,48.3,101.87,Clear,14.862000000000018,1.6850261863947062
3/23/2012 12:00,16.2,-2.5,28,11,48.3,101.81,Mainly Clear,16.159000000000013,1.673745317259293
3/23/2012 13:00,16.8,-2.3,27,7,48.3,101.71,Mostly Cloudy,16.900999999999982,1.6679625890814203
3/23/2012 14:00,16.6,-6.8,19,15,48.3,101.66,Mostly Cloudy,16.263999999999992,1.6730571332715987
3/23/2012 15:00,16.4,-6.8,20,15,48.3,101.63,Mostly Cloudy,16.130000000000017,1.673929234836435
3/23/2012 16:00,15.5,-9.0,18,22,48.3,101.6,Cloudy,14.085000000000003,1.6922632972911658
3/23/2012 17:00,14.7,-5.1,25,13,48.3,101.62,Cloudy,14.522000000000016,1.6884046487475632
3/23/2012 18:00,13.4,-5.8,26,13,48.3,101.64,Cloudy,13.247000000000007,1.6984553349749258
3/23/2012 19:00,11.8,-5.5,29,11,25.0,101.68,Mostly Cloudy,11.43099999999999,1.7137455104043906
3/23/2012 20:00,10.9,-5.9,30,6,25.0,101.72,Cloudy,10.70299999999999,1.718985863659384
3/23/2012 21:00,10.8,-8.0,26,15,25.0,101.7,Mostly Cloudy,10.557999999999987,1.7199544815783305
3/23/2012 22:00,10.6,-8.9,24,19,25.0,101.73,Cloudy,10.804000000000006,1.7182972022017946
3/23/2012 23:00,9.9,-8.7,26,19,25.0,101.78,Mostly Cloudy,10.075999999999992,1.7235497374879365
3/24/2012 0:00,8.4,-9.1,28,22,25.0,101.8,Mostly Cloudy,8.297999999999995,1.7364178729399542
3/24/2012 1:00,7.3,-9.4,29,20,25.0,101.85,Mainly Clear,7.261999999999998,1.7430666659488554
3/24/2012 2:00,6.2,-10.6,29,19,25.0,101.86,Mostly Cloudy,5.886999999999997,1.7514027950967654
3/24/2012 3:00,5.3,-9.4,34,22,25.0,101.86,Mostly Cloudy,5.476000000000003,1.7537253049122257
3/24/2012 4:00,4.4,-8.9,37,13,25.0,101.88,Cloudy,4.524999999999995,1.7585008459049187
3/24/2012 5:00,3.6,-8.5,41,19,25.0,101.89,Cloudy,3.4030000000000014,1.7636573513866924
3/24/2012 6:00,3.2,-8.8,41,19,24.1,101.93,Cloudy,3.149999999999997,1.7647819552816613
3/24/2012 7:00,3.1,-9.3,40,15,24.1,101.97,Cloudy,3.0459999999999976,1.7652403159544512
3/24/2012 8:00,2.7,-9.4,40,19,24.1,101.98,Cloudy,2.7309999999999963,1.7666148811982496
3/24/2012 9:00,3.0,-11.2,34,22,48.3,101.94,Cloudy,3.2510000000000003,1.764334634506654
3/24/2012 10:00,3.7,-9.5,37,22,48.3,101.89,Cloudy,4.261999999999998,1.7597349876562327
3/24/2012 11:00,3.7,-11.1,33,22,48.3,101.86,Cloudy,3.7289999999999965,1.7621879623623677
3/24/2012 12:00,4.8,-10.3,33,19,48.3,101.8,Cloudy,4.687000000000006,1.7577326519000946
3/24/2012 13:00,4.7,-10.9,31,19,48.3,101.74,Cloudy,4.877999999999997,1.7568189872023534
3/24/2012 14:00,6.1,-8.7,34,9,48.3,101.68,Cloudy,6.052000000000001,1.7504495199060746
3/24/2012 15:00,5.8,-9.8,32,4,48.3,101.61,Cloudy,5.808000000000003,1.7518549225221174
3/24/2012 16:00,6.1,-9.5,32,7,48.3,101.53,Cloudy,6.057000000000009,1.7504204418107265
3/24/2012 17:00,6.1,-10.3,30,13,48.3,101.47,Cloudy,6.023000000000009,1.75061795016578
3/24/2012 18:00,6.1,-9.9,31,13,48.3,101.46,Cloudy,6.021000000000011,1.7506295520623076
3/24/2012 19:00,6.2,-8.4,34,13,25.0,101.38,Cloudy,6.237000000000003,1.7493660463671912
3/24/2012 20:00,6.3,-7.4,37,9,25.0,101.35,Cloudy,6.27,1.7491711260102532
3/24/2012 21:00,6.6,-8.1,34,9,25.0,101.28,Cloudy,6.548000000000009,1.7475088241446461
3/24/2012 22:00,6.6,-7.8,35,11,25.0,101.22,Cloudy,6.510000000000004,1.7477382039355578
3/24/2012 23:00,6.5,-7.2,37,7,25.0,101.15,Rain Showers,6.541999999999999,1.7475450879420438
3/25/2012 0:00,5.8,-5.7,43,20,25.0,101.05,Rain,5.885999999999999,1.7514085354735303
3/25/2012 1:00,5.9,-6.2,41,13,25.0,101.03,Cloudy,5.936999999999992,1.7511152096712623
3/25/2012 2:00,5.9,-5.0,45,9,25.0,100.91,Rain Showers,6.018999999999998,1.7506411521568315
3/25/2012 3:00,5.8,-4.2,49,7,25.0,100.84,Cloudy,5.7810000000000015,1.7520088168899617
3/25/2012 4:00,5.3,-4.3,50,19,25.0,100.79,Cloudy,5.3130000000000015,1.7546264157199174
3/25/2012 5:00,4.5,-2.9,59,11,25.0,100.73,Cloudy,4.460000000000001,1.7588073490352132
3/25/2012 6:00,3.8,-0.9,71,15,24.1,100.76,Rain Showers,3.7249999999999988,1.762206132086172
3/25/2012 7:00,2.5,0.9,89,17,24.1,100.76,Rain,2.525,1.7674056825706785
3/25/2012 8:00,3.0,1.5,90,6,24.1,100.74,Rain,3.01,1.7653984511554819
3/25/2012 9:00,3.1,2.0,92,0,6.4,100.71,"Rain,Fog",3.0059999999999985,1.7654160050254084
3/25/2012 10:00,3.9,2.7,92,0,12.9,100.66,Cloudy,3.8799999999999972,1.764560779079539
3/25/2012 11:00,5.2,3.6,89,6,16.1,100.58,Cloudy,5.295999999999998,1.7590894054480448
3/25/2012 12:00,5.9,3.7,86,6,24.1,100.54,Cloudy,5.907999999999994,1.7530322801745157
3/25/2012 13:00,6.6,4.0,83,6,24.1,100.47,Cloudy,6.579,1.7473211860220357
3/25/2012 14:00,7.5,4.1,79,11,24.1,100.39,Cloudy,7.510999999999999,1.74145601957101
3/25/2012 15:00,7.6,4.6,81,9,24.1,100.29,Mostly Cloudy,7.488000000000012,1.7416061786943693
3/25/2012 16:00,8.4,4.8,78,9,24.1,100.27,Cloudy,8.41799999999999,1.7356323687534514
3/25/2012 17:00,9.2,5.3,77,7,24.1,100.26,Cloudy,9.206000000000007,1.7302348458823897
3/25/2012 18:00,8.9,5.7,80,7,24.1,100.28,Mostly Cloudy,8.932000000000002,1.7383226557949913
3/25/2012 19:00,8.7,5.2,79,4,25.0,100.25,Mainly Clear,8.64000000000001,1.7357508862871274
3/25/2012 20:00,7.3,4.9,85,7,25.0,100.22,Mostly Cloudy,7.260000000000006,1.7507512632600475
3/25/2012 21:00,8.2,5.7,84,13,25.0,100.21,Mainly Clear,8.251000000000003,1.7483983249034645
3/25/2012 22:00,7.5,5.5,87,11,25.0,100.17,Mainly Clear,7.471000000000001,1.755244623603565
3/25/2012 23:00,6.4,4.8,89,11,25.0,100.12,Mostly Cloudy,6.463999999999994,1.7590894054480448
3/26/2012 0:00,7.3,3.7,78,24,25.0,100.19,Rain Showers,7.344999999999998,1.7425334322971877
3/26/2012 1:00,4.6,-1.9,63,33,25.0,100.29,Rain Showers,4.590000000000006,1.7581933584793268
3/26/2012 2:00,2.6,-3.7,63,26,25.0,100.4,Cloudy,2.5839999999999987,1.7672441796124663
3/26/2012 3:00,0.8,-8.9,48,26,25.0,100.6,Mostly Cloudy,0.9019999999999985,1.771762146417569
3/26/2012 4:00,-1.1,-10.4,49,22,25.0,100.74,Clear,-1.026999999999999,1.7686869769224711
3/26/2012 5:00,-1.9,-10.9,50,20,25.0,100.86,Clear,-1.8860000000000015,1.7619924155447502
3/26/2012 6:00,-3.8,-13.4,47,32,24.1,101.03,Clear,-3.7820000000000054,1.7411089144240401
3/26/2012 7:00,-3.8,-13.6,46,26,48.3,101.19,Mainly Clear,-3.8690000000000055,1.7399585987966253
3/26/2012 8:00,-4.0,-12.6,51,26,48.3,101.27,Mostly Cloudy,-3.9,1.7395656055174005
3/26/2012 9:00,-3.0,-13.1,46,22,48.3,101.33,Mainly Clear,-3.1870000000000003,1.7485535180117915
3/26/2012 10:00,-2.1,-13.0,43,26,48.3,101.32,Mainly Clear,-2.0129999999999977,1.76082896688221
3/26/2012 11:00,-0.6,-11.4,44,28,48.3,101.3,Mainly Clear,-0.698,1.7704535248566942
3/26/2012 12:00,0.2,-11.4,41,30,48.3,101.28,Mainly Clear,0.19799999999999987,1.7736014893965444
3/26/2012 13:00,0.6,-12.6,36,28,48.3,101.26,Mainly Clear,0.6610000000000008,1.7723951629088919
3/26/2012 14:00,1.3,-13.3,33,28,48.3,101.24,Mainly Clear,1.3009999999999982,1.7707063469871995
3/26/2012 15:00,1.4,-14.8,29,30,48.3,101.26,Mainly Clear,1.4030000000000014,1.7704348738017226
3/26/2012 16:00,1.3,-15.7,27,30,48.3,101.29,Clear,1.2479999999999989,1.7708471532525318
3/26/2012 17:00,1.2,-16.3,26,32,48.3,101.34,Clear,1.1649999999999987,1.771067314041422
3/26/2012 18:00,0.1,-17.3,26,24,48.3,101.43,Clear,-0.20399999999999965,1.773055931915355
3/26/2012 19:00,-0.7,-18.0,26,28,25.0,101.56,Clear,-1.0940000000000014,1.7683238863589263
3/26/2012 20:00,-1.4,-18.7,25,28,25.0,101.68,Clear,-1.2660000000000018,1.7673865329218352
3/26/2012 21:00,-2.3,-18.4,28,24,25.0,101.79,Clear,-1.8370000000000022,1.7624374882773433
3/26/2012 22:00,-2.9,-17.8,31,28,25.0,101.84,Clear,-2.3670000000000027,1.757508626031723
3/26/2012 23:00,-3.6,-17.4,33,26,25.0,101.9,Clear,-2.9700000000000024,1.7510979191434997
3/27/2012 0:00,-4.3,-17.6,35,22,25.0,101.94,Clear,-4.071000000000003,1.7374230399976982
3/27/2012 1:00,-5.0,-17.7,36,19,25.0,101.96,Clear,-4.671000000000001,1.7291996052488798
3/27/2012 2:00,-5.4,-16.8,40,17,25.0,102.02,Clear,-5.282999999999992,1.719901644684806
3/27/2012 3:00,-6.0,-17.0,41,17,25.0,102.06,Clear,-5.508999999999994,1.716798664520995
3/27/2012 4:00,-6.5,-17.3,42,13,25.0,102.14,Clear,-6.421999999999996,1.7013616405094492
3/27/2012 5:00,-7.4,-16.4,49,11,25.0,102.24,Clear,-7.447999999999991,1.6846678440444496
3/27/2012 6:00,-7.5,-16.4,49,9,48.3,102.31,Clear,-7.418000000000001,1.6852975715945533
3/27/2012 7:00,-6.1,-17.7,39,9,48.3,102.39,Clear,-5.914000000000005,1.7105916914136092
3/27/2012 8:00,-5.1,-18.7,34,13,48.3,102.41,Clear,-4.144000000000003,1.7364828448494292
3/27/2012 9:00,-4.3,-20.3,27,9,48.3,102.44,Clear,-3.2590000000000043,1.7476899708182865
3/27/2012 10:00,-2.5,-21.7,21,0,48.3,102.48,Clear,-3.2010000000000014,1.7483863737967331
3/27/2012 11:00,-1.6,-20.6,22,6,48.3,102.43,Clear,-2.0379999999999985,1.760598243215081
3/27/2012 12:00,0.2,-16.7,27,9,48.3,102.31,Clear,0.2149999999999997,1.7735574228115276
3/27/2012 13:00,1.0,-16.1,27,6,48.3,102.2,Mainly Clear,0.7790000000000004,1.7720856605489925
3/27/2012 14:00,1.7,-18.4,21,13,48.3,102.06,Mainly Clear,0.32400000000000007,1.7732744701180558
3/27/2012 15:00,2.1,-16.5,24,15,48.3,101.98,Mainly Clear,1.6569999999999974,1.7697560506018006
3/27/2012 16:00,2.7,-13.0,30,17,48.3,101.93,Mostly Cloudy,2.4359999999999964,1.7676488820792544
3/27/2012 17:00,2.7,-12.3,32,19,48.3,101.88,Mostly Cloudy,2.7619999999999965,1.7664805145541471
3/27/2012 18:00,2.6,-11.9,33,15,48.3,101.79,Mostly Cloudy,2.9019999999999992,1.7658712367495242
3/27/2012 19:00,2.8,-11.7,33,11,25.0,101.74,Mostly Cloudy,3.106,1.7649761543659928
3/27/2012 20:00,2.6,-11.4,35,13,25.0,101.68,Cloudy,2.496999999999997,1.7674822496469533
3/27/2012 21:00,2.1,-10.7,38,9,25.0,101.67,Cloudy,2.2889999999999975,1.7680494593563347
3/27/2012 22:00,1.0,-10.1,43,20,25.0,101.47,Cloudy,1.0270000000000006,1.7714324295849142
3/27/2012 23:00,1.0,-10.8,41,13,25.0,101.44,Cloudy,1.4660000000000004,1.7702668778183748
3/28/2012 0:00,1.0,-10.8,41,6,16.1,101.58,Snow,1.4780000000000004,1.7702348507020988
3/28/2012 1:00,-1.1,-4.5,78,11,16.1,101.39,Snow,-1.111999999999999,1.7682261453036505
3/28/2012 2:00,-1.0,-4.8,75,13,9.7,101.28,Snow,-1.0850000000000002,1.7683727259793898
3/28/2012 3:00,-1.6,-4.1,83,20,25.0,101.08,Snow,-1.5589999999999984,1.7649232313774748
3/28/2012 4:00,-1.5,-3.8,84,20,25.0,100.88,Snow,-1.5020000000000004,1.7654247807085253
3/28/2012 5:00,-1.0,-3.9,81,19,25.0,100.68,Cloudy,-1.0599999999999996,1.7685082836118764
3/28/2012 6:00,-0.3,-3.5,79,20,24.1,100.51,Snow,-0.21799999999999994,1.7729829921970182
3/28/2012 7:00,0.5,-2.7,79,22,24.1,100.4,Snow,0.5759999999999998,1.7726175891895906
3/28/2012 8:00,0.8,-2.9,76,19,8.0,100.25,"Snow,Ice Pellets",0.8149999999999991,1.7719910684570421
3/28/2012 9:00,2.1,-3.3,67,15,48.3,100.08,Cloudy,2.067999999999999,1.7686490953374565
3/28/2012 10:00,2.3,-3.3,66,11,48.3,99.94,Cloudy,2.265000000000002,1.7681147286052734
3/28/2012 11:00,2.8,-2.1,70,13,48.3,99.74,Cloudy,2.852000000000004,1.766089299829106
3/28/2012 12:00,3.8,-3.2,60,7,48.3,99.64,Cloudy,3.8240000000000025,1.7617553956762326
3/28/2012 13:00,4.3,-2.9,59,9,48.3,99.51,Cloudy,4.354000000000004,1.7593050857463084
3/28/2012 14:00,4.4,-1.2,67,13,24.1,99.45,Rain,4.377999999999996,1.7591926177316837
3/28/2012 15:00,2.5,0.6,87,19,19.3,99.42,Rain,2.511999999999999,1.76744123784056
3/28/2012 16:00,2.2,0.7,90,20,12.9,99.48,Rain,2.129999999999998,1.7684811847802733
3/28/2012 17:00,1.5,0.2,91,19,16.1,99.53,Drizzle,1.5120000000000002,1.770144058693011
3/28/2012 18:00,1.3,-0.2,90,13,16.1,99.63,Drizzle,1.2769999999999984,1.7707701297465355
3/28/2012 19:00,1.3,-0.2,90,11,12.9,99.74,Cloudy,1.283999999999999,1.770751530107576
3/28/2012 20:00,1.2,-0.3,90,13,9.7,99.86,Fog,1.2270000000000005,1.7709028965903058
3/28/2012 21:00,1.0,-0.5,90,15,9.7,99.92,Fog,0.9689999999999996,1.7715855365774433
3/28/2012 22:00,1.0,-0.7,88,13,9.7,99.95,Fog,1.046,1.7713822292033126
3/28/2012 23:00,0.8,-1.0,88,17,11.3,99.99,Cloudy,0.6870000000000007,1.7723270396979707
3/29/2012 0:00,0.6,-1.2,88,15,12.9,100.05,Cloudy,0.5690000000000007,1.7726358872746935
3/29/2012 1:00,0.5,-1.5,86,11,12.9,100.12,Cloudy,0.4849999999999999,1.7728552348080042
3/29/2012 2:00,0.4,-1.8,85,17,25.0,100.15,Cloudy,0.6579999999999993,1.772403020656153
3/29/2012 3:00,0.5,-1.9,84,11,25.0,100.19,Cloudy,0.5700000000000003,1.7726332734428438
3/29/2012 4:00,0.6,-2.1,82,11,25.0,100.27,Cloudy,0.6120000000000008,1.7725234382100277
3/29/2012 5:00,0.6,-2.1,82,9,25.0,100.35,Snow,0.6150000000000008,1.7725155887755015
3/29/2012 6:00,0.7,-1.9,83,6,24.1,100.44,Snow,0.6810000000000006,1.7723427640581584
3/29/2012 7:00,0.8,-1.6,84,7,24.1,100.52,Snow,0.8169999999999993,1.7719858110385507
3/29/2012 8:00,1.5,-1.1,83,6,16.1,100.59,Snow,1.5450000000000004,1.77005586839218
3/29/2012 9:00,2.5,-1.2,77,9,24.1,100.64,Snow,2.4579999999999997,1.7675888126789243
3/29/2012 10:00,3.2,-2.4,67,13,24.1,100.7,Cloudy,3.1969999999999965,1.7645740645467
3/29/2012 11:00,3.6,-2.2,66,9,24.1,100.71,Cloudy,3.564999999999999,1.762930049334167
3/29/2012 12:00,3.9,-2.2,64,6,24.1,100.71,Cloudy,3.844,1.7616640749819228
3/29/2012 13:00,4.2,-2.5,62,13,24.1,100.72,Cloudy,4.115999999999994,1.7604132586644174
3/29/2012 14:00,4.0,-2.8,61,15,24.1,100.76,Cloudy,4.06,1.760672135998097
3/29/2012 15:00,4.1,-3.5,58,19,24.1,100.81,Cloudy,3.8630000000000013,1.761577238216443
3/29/2012 16:00,3.9,-2.8,62,13,24.1,100.87,Cloudy,3.917999999999996,1.7613254166291277
3/29/2012 17:00,3.5,-4.1,57,24,24.1,100.92,Cloudy,3.488,1.763276448915025
3/29/2012 18:00,3.4,-5.6,52,20,24.1,100.97,Mostly Cloudy,3.356999999999999,1.7638628394898206
3/29/2012 19:00,2.9,-5.6,54,19,25.0,101.01,Cloudy,2.772000000000001,1.7664371284625702
3/29/2012 20:00,2.2,-4.7,60,19,25.0,101.07,Cloudy,2.1299999999999977,1.768481184780273
3/29/2012 21:00,1.9,-6.3,55,24,25.0,101.11,Mostly Cloudy,1.9230000000000012,1.769040840114851
3/29/2012 22:00,1.4,-7.4,52,17,25.0,101.14,Mostly Cloudy,1.435000000000002,1.7703495732246952
3/29/2012 23:00,0.8,-8.2,51,24,25.0,101.17,Mostly Cloudy,0.7619999999999991,1.7721303017601147
3/30/2012 0:00,0.1,-9.1,50,19,25.0,101.18,Mostly Cloudy,0.11999999999999986,1.7738034575757202
3/30/2012 1:00,-1.0,-9.8,51,20,25.0,101.21,Mainly Clear,-1.043,1.7686003722070884
3/30/2012 2:00,-2.2,-9.7,56,15,25.0,101.22,Clear,-1.8089999999999986,1.762690870717816
3/30/2012 3:00,-3.5,-11.4,54,19,25.0,101.25,Mainly Clear,-3.5229999999999997,1.7444375778400707
3/30/2012 4:00,-4.3,-10.8,60,4,25.0,101.33,Mainly Clear,-4.315000000000005,1.7342177641952115
3/30/2012 5:00,-5.1,-10.4,66,11,24.1,101.32,Clear,-5.025000000000004,1.723758882757883
3/30/2012 6:00,-4.8,-10.8,63,13,48.3,101.39,Clear,-4.774,1.7276655590109764
3/30/2012 7:00,-4.3,-10.9,60,15,48.3,101.52,Clear,-4.265000000000006,1.734889365473263
3/30/2012 8:00,-3.0,-10.4,57,11,48.3,101.56,Clear,-3.022,1.7504960213505092
3/30/2012 9:00,-2.0,-10.1,54,13,48.3,101.63,Clear,-1.8469999999999984,1.7623468283331152
3/30/2012 10:00,-0.8,-9.5,52,9,48.3,101.62,Clear,-0.8549999999999989,1.7696138998408182
3/30/2012 11:00,0.9,-9.6,45,4,48.3,101.57,Mostly Cloudy,1.0240000000000011,1.7714403539457217
3/30/2012 12:00,1.6,-8.0,49,17,48.3,101.52,Mainly Clear,1.6589999999999978,1.7697506896070765
3/30/2012 13:00,3.1,-9.1,40,6,48.3,101.38,Mainly Clear,2.838,1.7661502649647771
3/30/2012 14:00,4.4,-8.8,38,17,48.3,101.3,Mainly Clear,4.383999999999994,1.7591644799964186
3/30/2012 15:00,4.8,-8.9,36,17,48.3,101.26,Mostly Cloudy,4.864000000000004,1.7568862522059112
3/30/2012 16:00,4.8,-9.3,35,15,48.3,101.26,Mostly Cloudy,5.242000000000002,1.7550154621458538
3/30/2012 17:00,4.4,-8.6,38,15,48.3,101.24,Mostly Cloudy,4.560999999999995,1.7583306670900722
3/30/2012 18:00,3.9,-7.9,42,11,24.1,101.26,Mostly Cloudy,3.871999999999997,1.7615360770565613
3/30/2012 19:00,3.1,-6.7,49,7,25.0,101.29,Mostly Cloudy,3.0949999999999993,1.7650246405238728
3/30/2012 20:00,3.0,-8.4,43,7,25.0,101.3,Mostly Cloudy,3.072000000000001,1.7651259386008662
3/30/2012 21:00,1.7,-9.0,45,4,25.0,101.32,Cloudy,1.631000000000001,1.769825720822418
3/30/2012 22:00,0.4,-8.1,53,0,25.0,101.3,Mostly Cloudy,0.3469999999999997,1.7732146741320496
3/30/2012 23:00,1.4,-7.7,51,6,25.0,101.34,Mainly Clear,1.435000000000002,1.7703495732246952
3/31/2012 0:00,1.5,-8.6,47,13,25.0,101.33,Mostly Cloudy,1.4220000000000004,1.770384234228267
3/31/2012 1:00,1.3,-9.6,44,13,25.0,101.31,Mostly Cloudy,1.2309999999999985,1.7708922809026684
3/31/2012 2:00,1.3,-9.7,44,11,25.0,101.29,Cloudy,1.2239999999999986,1.7709108577104682
3/31/2012 3:00,0.7,-8.8,49,13,25.0,101.3,Cloudy,0.7800000000000008,1.7720830340506877
3/31/2012 4:00,-0.9,-8.5,56,13,25.0,101.32,Cloudy,-0.828000000000001,1.7697587310055474
3/31/2012 5:00,-0.6,-9.2,52,13,25.0,101.3,Cloudy,-0.5330000000000006,1.7713293628683822
3/31/2012 6:00,-0.5,-9.2,52,15,48.3,101.32,Cloudy,-0.4540000000000001,1.7717463417454145
3/31/2012 7:00,-0.3,-9.2,51,19,48.3,101.32,Cloudy,-0.2850000000000003,1.7726332734428438
3/31/2012 8:00,0.7,-8.5,50,17,48.3,101.33,Cloudy,0.7410000000000011,1.7721854226476752
3/31/2012 9:00,1.5,-7.8,50,17,48.3,101.34,Mostly Cloudy,1.5400000000000003,1.7700692349086884
3/31/2012 10:00,2.9,-8.1,44,15,48.3,101.3,Mainly Clear,2.786,1.7663763534595498
3/31/2012 11:00,4.6,-9.7,35,7,48.3,101.24,Clear,4.423000000000005,1.7589813822408888
3/31/2012 12:00,6.4,-7.1,37,11,48.3,101.16,Clear,6.429999999999995,1.7482188602359447
3/31/2012 13:00,6.5,-9.7,30,9,48.3,101.08,Clear,6.408000000000003,1.7483505091682656
3/31/2012 14:00,7.7,-8.5,31,4,48.3,101.01,Mainly Clear,7.646000000000007,1.7405688788378175
3/31/2012 15:00,7.7,-8.6,30,6,48.3,100.94,Mainly Clear,7.899000000000006,1.7389538226705474
3/31/2012 16:00,8.4,-7.7,31,4,48.3,100.89,Mainly Clear,8.170999999999994,1.7372375304666332
3/31/2012 17:00,7.9,-8.1,31,6,48.3,100.88,Mainly Clear,7.561,1.7411286024601453
3/31/2012 18:00,7.0,-8.2,33,7,48.3,100.87,Mainly Clear,6.992000000000002,1.7447765715362828
3/31/2012 19:00,5.9,-8.0,36,4,25.0,100.88,Clear,5.924999999999995,1.7511843316453937
3/31/2012 20:00,4.4,-7.2,43,9,25.0,100.85,Clear,4.357999999999995,1.7592863502853682
3/31/2012 21:00,2.6,-6.3,52,7,25.0,100.86,Clear,2.625999999999998,1.767068535782059
3/31/2012 22:00,2.7,-6.7,50,0,25.0,100.82,Clear,2.7199999999999975,1.7666625124017032
3/31/2012 23:00,1.5,-6.9,54,0,25.0,100.79,Clear,1.4399999999999997,1.770336239282959
4/1/2012 0:00,0.4,-6.6,59,0,25.0,100.75,Clear,0.41299999999999953,1.7730429104034189
4/1/2012 1:00,-1.5,-7.3,65,4,25.0,100.77,Clear,-1.4980000000000004,1.7654598750981274
4/1/2012 2:00,0.1,-6.9,59,0,25.0,100.7,Clear,0.1089999999999999,1.7738319112787917
4/1/2012 3:00,-1.0,-6.2,68,0,25.0,100.67,Clear,-1.088,1.768356448394035
4/1/2012 4:00,-1.0,-5.3,73,0,25.0,100.66,Mainly Clear,-1.041,1.7686112013428543
4/1/2012 5:00,-0.4,-4.5,74,4,25.0,100.65,Mostly Cloudy,-0.6130000000000004,1.7709055503585054
4/1/2012 6:00,0.5,-3.2,76,6,48.3,100.62,Cloudy,0.5280000000000001,1.7727430026607265
4/1/2012 7:00,1.2,-3.6,70,6,48.3,100.6,Cloudy,1.165000000000001,1.7710673140414217
4/1/2012 8:00,3.2,-4.5,57,11,48.3,100.53,Cloudy,3.2959999999999945,1.7641346366329047
4/1/2012 9:00,3.7,-3.9,58,9,48.3,100.49,Cloudy,3.6249999999999947,1.7626592353581505
4/1/2012 10:00,4.1,-2.8,61,7,48.3,100.46,Cloudy,4.134000000000006,1.7603298976773722
4/1/2012 11:00,4.8,-0.3,70,4,24.1,100.43,Rain Showers,4.771000000000004,1.7573318976424546
4/1/2012 12:00,5.8,0.2,67,0,24.1,100.35,Rain,5.8629999999999995,1.7515404418399445
4/1/2012 13:00,5.9,0.0,66,7,24.1,100.24,Rain,5.888999999999992,1.7513913130125616
4/1/2012 14:00,4.7,1.1,77,9,24.1,100.2,Rain,4.790999999999996,1.7572362336015508
4/1/2012 15:00,3.8,1.5,85,19,24.1,100.14,Rain,3.8979999999999997,1.7614170659574626
4/1/2012 16:00,3.0,0.7,85,17,24.1,100.1,Rain,2.9419999999999997,1.7656964136094289
4/1/2012 17:00,2.8,0.5,85,22,24.1,100.12,Rain,2.769000000000003,1.766450146443853
4/1/2012 18:00,2.5,0.3,85,11,24.1,100.11,Rain,2.5679999999999996,1.767287999184595
4/1/2012 19:00,2.6,0.2,84,0,25.0,100.14,Rain,2.5449999999999973,1.767350960921338
4/1/2012 20:00,2.6,0.2,84,11,19.3,100.18,Rain,2.558999999999997,1.767312640444013
4/1/2012 21:00,2.6,0.7,87,13,16.1,100.21,Rain,2.5539999999999976,1.7673263277778486
4/1/2012 22:00,2.5,0.7,88,13,25.0,100.22,Cloudy,2.418,1.7676980066793206
4/1/2012 23:00,2.0,0.3,88,7,25.0,100.21,Cloudy,2.0480000000000005,1.7687032080901353
4/2/2012 0:00,0.4,-1.2,89,11,16.1,100.22,Mainly Clear,0.27900000000000014,1.7733913711116065
4/2/2012 1:00,-0.1,-1.4,91,7,9.7,100.27,Fog,-0.12599999999999986,1.7734614538617977
4/2/2012 2:00,-0.4,-1.8,90,0,12.9,100.31,Clear,-0.326,1.7724187345231195
4/2/2012 3:00,-1.4,-2.8,90,0,8.0,100.33,Fog,-1.3950000000000018,1.7663589817806202
4/2/2012 4:00,-1.2,-2.2,93,4,9.7,100.38,Fog,-1.1250000000000018,1.7681555032358593
4/2/2012 5:00,-1.7,-2.5,94,6,25.0,100.47,Clear,-1.463000000000001,1.7677471105115399
4/2/2012 6:00,-1.8,-3.5,88,6,24.1,100.56,Clear,-1.6960000000000008,1.763706531110078
4/2/2012 7:00,0.2,-2.1,84,6,48.3,100.65,Clear,0.3660000000000001,1.7731652536529698
4/2/2012 8:00,2.1,-4.5,62,13,48.3,100.69,Clear,2.0449999999999986,1.7687113228197946
4/2/2012 9:00,3.4,-7.3,45,22,48.3,100.72,Clear,3.4389999999999983,1.7634962178605305
4/2/2012 10:00,4.5,-8.5,38,28,48.3,100.73,Clear,4.657,1.757875374690234
4/2/2012 11:00,4.6,-7.8,40,24,48.3,100.72,Clear,4.510000000000006,1.7585716645877039
4/2/2012 12:00,6.2,-7.8,36,17,48.3,100.65,Clear,6.0939999999999985,1.750204911955586
4/2/2012 13:00,6.7,-7.2,36,24,48.3,100.64,Clear,6.410000000000004,1.7483385505212
4/2/2012 14:00,7.3,-8.5,32,26,48.3,100.62,Clear,7.185999999999994,1.7435517704905876
4/2/2012 15:00,7.9,-10.0,27,19,48.3,100.6,Clear,7.077000000000002,1.7442423005188707
4/2/2012 16:00,7.9,-12.0,23,28,48.3,100.59,Clear,7.871999999999991,1.7391213437510118
4/2/2012 17:00,8.0,-12.2,22,30,48.3,100.61,Mainly Clear,7.537999999999996,1.7412793821312398
4/2/2012 18:00,6.9,-13.6,22,19,48.3,100.65,Clear,5.536999999999995,1.7533852001268186
4/2/2012 19:00,4.9,-12.6,27,13,25.0,100.69,Clear,4.645000000000001,1.7579324044946123
4/2/2012 20:00,3.5,-13.1,28,13,25.0,100.75,Clear,3.624000000000001,1.7626637553494766
4/2/2012 21:00,3.1,-13.0,30,11,25.0,100.78,Clear,2.989,1.7654905717434417
4/2/2012 22:00,0.6,-12.8,36,9,25.0,100.84,Clear,0.772,1.77210404434228
4/2/2012 23:00,1.0,-12.8,35,13,25.0,100.83,Clear,1.2089999999999996,1.7709506550132568
4/3/2012 0:00,-0.3,-11.9,41,6,25.0,100.84,Clear,-0.3050000000000004,1.772528670865443
4/3/2012 1:00,-1.1,-11.4,45,9,25.0,100.86,Clear,-1.1759999999999986,1.7678779526325266
4/3/2012 2:00,-0.9,-13.2,39,6,25.0,100.84,Clear,-1.0150000000000006,1.7687518879287674
4/3/2012 3:00,-3.0,-12.0,50,9,25.0,100.87,Clear,-2.998,1.7507744238604603
4/3/2012 4:00,-2.1,-11.8,47,13,25.0,100.92,Clear,-2.1299999999999972,1.7597443118240645
4/3/2012 5:00,-2.6,-12.4,47,6,25.0,100.99,Clear,-2.4999999999999973,1.756230831315577
4/3/2012 6:00,-2.0,-12.4,45,6,48.3,101.03,Clear,-1.9899999999999993,1.761040736745934
4/3/2012 7:00,0.3,-11.3,41,11,48.3,101.09,Clear,0.1790000000000001,1.7736507199936964
4/3/2012 8:00,1.7,-11.7,36,19,48.3,101.08,Clear,1.8269999999999973,1.7692994730512044
4/3/2012 9:00,2.5,-11.0,36,15,48.3,101.07,Clear,2.492999999999999,1.7674931836858145
4/3/2012 10:00,4.3,-10.3,34,17,48.3,100.98,Clear,4.033000000000006,1.7607966994143052
4/3/2012 11:00,6.4,-9.1,32,11,48.3,100.91,Mainly Clear,6.552999999999993,1.747478591132389
4/3/2012 12:00,7.1,-8.6,32,11,48.3,100.82,Mostly Cloudy,7.046000000000006,1.7444375778400703
4/3/2012 13:00,8.7,-9.1,27,11,48.3,100.76,Mostly Cloudy,8.776000000000003,1.7332230321330022
4/3/2012 14:00,10.0,-8.9,25,13,48.3,100.65,Mostly Cloudy,10.401999999999997,1.7209710451136955
4/3/2012 15:00,10.9,-9.0,24,24,48.3,100.54,Mainly Clear,11.12399999999999,1.7160358539435625
4/3/2012 16:00,10.8,-9.1,24,30,48.3,100.51,Mainly Clear,10.937999999999986,1.7173652554816552
4/3/2012 17:00,9.7,-9.0,26,28,48.3,100.52,Mostly Cloudy,10.54299999999999,1.720053363101665
4/3/2012 18:00,8.9,-9.6,26,20,48.3,100.49,Mostly Cloudy,8.844999999999988,1.7327469470446542
4/3/2012 19:00,8.4,-9.7,27,13,25.0,100.5,Cloudy,7.53,1.741331760169754
4/3/2012 20:00,7.8,-9.2,29,9,25.0,100.42,Mostly Cloudy,7.927999999999995,1.7387733278730273
4/3/2012 21:00,7.1,-8.2,33,7,25.0,100.36,Mostly Cloudy,7.037000000000007,1.7444941795757851
4/3/2012 22:00,6.9,-8.5,32,11,25.0,100.34,Cloudy,6.951999999999994,1.7450267269825428
4/3/2012 23:00,6.9,-9.2,31,11,25.0,100.29,Cloudy,7.034999999999994,1.7445067521461162
4/4/2012 0:00,6.0,-8.2,35,9,25.0,100.22,Mostly Cloudy,6.0680000000000005,1.7503564301808399
4/4/2012 1:00,5.6,-8.6,35,4,25.0,100.2,Cloudy,5.664000000000007,1.7526720143422139
4/4/2012 2:00,6.0,-7.8,36,9,25.0,100.15,Mostly Cloudy,6.0440000000000005,1.7504960213505092
4/4/2012 3:00,5.4,-4.1,50,11,25.0,100.05,Mostly Cloudy,5.368999999999995,1.7543180862348413
4/4/2012 4:00,5.2,-3.6,53,7,25.0,100.01,Mostly Cloudy,4.818000000000001,1.7571069363535805
4/4/2012 5:00,4.6,-2.8,59,9,24.1,99.94,Mostly Cloudy,4.5460000000000065,1.7584016116738006
4/4/2012 6:00,4.2,-3.0,59,11,48.3,99.89,Mostly Cloudy,4.251999999999997,1.759781599358341
4/4/2012 7:00,4.8,-4.1,52,17,48.3,99.85,Mostly Cloudy,5.026000000000002,1.7561050233659277
4/4/2012 8:00,5.5,-5.9,44,20,48.3,99.83,Mostly Cloudy,5.5230000000000015,1.7534633967253637
4/4/2012 9:00,6.5,-6.5,39,28,48.3,99.83,Mostly Cloudy,6.4990000000000006,1.747804474613283
4/4/2012 10:00,8.7,-3.7,41,30,48.3,99.78,Mainly Clear,9.112999999999994,1.7308603930007112
4/4/2012 11:00,9.3,-2.6,43,28,48.3,99.75,Mainly Clear,9.353999999999989,1.729111299405376
4/4/2012 12:00,8.9,-2.9,43,24,48.3,99.71,Mostly Cloudy,8.89799999999999,1.7323786141931137
4/4/2012 13:00,8.7,-3.5,42,33,24.1,99.71,Cloudy,8.67200000000001,1.7339333489904778
4/4/2012 14:00,8.5,-3.4,43,26,24.1,99.72,Cloudy,8.424000000000001,1.7355928082475804
4/4/2012 15:00,8.0,-3.2,45,26,24.1,99.75,Cloudy,8.014,1.7382346006733032
4/4/2012 16:00,8.3,-3.0,45,20,24.1,99.75,Cloudy,8.234999999999992,1.7368259587608255
4/4/2012 17:00,8.1,-4.6,40,26,24.1,99.81,Mostly Cloudy,8.286,1.7364958303125984
4/4/2012 18:00,7.6,-4.6,42,22,24.1,99.87,Mostly Cloudy,7.593000000000004,1.740918344866664
4/4/2012 19:00,6.5,-3.8,48,19,24.1,99.98,Mainly Clear,6.554000000000001,1.7474725430913152
4/4/2012 20:00,6.0,-3.8,49,19,25.0,100.07,Mostly Cloudy,6.42,1.7482787289839676
4/4/2012 21:00,4.9,-4.4,51,19,25.0,100.13,Mostly Cloudy,4.780999999999995,1.7572840774938916
4/4/2012 22:00,3.7,-4.5,55,19,25.0,100.2,Mostly Cloudy,3.686999999999997,1.7623785692812448
4/4/2012 23:00,3.6,-4.6,55,19,25.0,100.24,Mostly Cloudy,3.538000000000001,1.7630516603485689
4/5/2012 0:00,3.2,-4.9,55,15,25.0,100.34,Mostly Cloudy,3.137999999999997,1.7648349590856833
4/5/2012 1:00,2.3,-5.8,55,17,25.0,100.37,Mainly Clear,2.271000000000002,1.7680984147369636
4/5/2012 2:00,2.3,-5.9,55,11,25.0,100.4,Mostly Cloudy,2.2740000000000022,1.768090256941979
4/5/2012 3:00,1.9,-4.6,62,13,25.0,100.41,Mostly Cloudy,1.8830000000000018,1.7691486742787306
4/5/2012 4:00,1.5,-5.2,61,17,25.0,100.47,Mostly Cloudy,1.5309999999999997,1.7700932907227935
4/5/2012 5:00,1.5,-6.7,54,17,25.0,100.51,Mostly Cloudy,1.5070000000000006,1.7701574149588823
4/5/2012 6:00,1.5,-7.2,52,19,24.1,100.6,Cloudy,1.5520000000000003,1.7700371526580263
4/5/2012 7:00,2.3,-6.9,51,19,24.1,100.68,Mostly Cloudy,2.1250000000000027,1.768494734989088
4/5/2012 8:00,2.7,-6.5,51,20,24.1,100.72,Mostly Cloudy,2.5509999999999984,1.7673345394052544
4/5/2012 9:00,3.9,-6.1,48,22,24.1,100.76,Mostly Cloudy,4.195999999999995,1.7600422034192913
4/5/2012 10:00,4.5,-7.6,41,17,24.1,100.76,Mostly Cloudy,4.399999999999999,1.759089405448045
4/5/2012 11:00,4.8,-7.1,42,26,24.1,100.77,Mostly Cloudy,4.683000000000003,1.7577516938558793
4/5/2012 12:00,5.2,-6.6,42,22,24.1,100.74,Mostly Cloudy,5.290999999999997,1.7547471883769876
4/5/2012 13:00,6.6,-5.3,42,22,24.1,100.73,Mostly Cloudy,6.501000000000007,1.7477924296902982
4/5/2012 14:00,6.7,-6.2,39,20,24.1,100.7,Mainly Clear,6.678000000000006,1.7467188503061448
4/5/2012 15:00,7.6,-5.9,38,19,24.1,100.67,Mainly Clear,7.380000000000009,1.7423074869647337
4/5/2012 16:00,8.9,-5.7,35,24,48.3,100.65,Mainly Clear,8.842999999999993,1.73276080123439
4/5/2012 17:00,7.7,-6.9,35,24,48.3,100.7,Mainly Clear,7.364000000000007,1.7424108566623568
4/5/2012 18:00,6.6,-7.0,37,20,48.3,100.75,Mostly Cloudy,6.449000000000007,1.748104979348663
4/5/2012 19:00,5.6,-7.7,38,26,25.0,100.82,Mostly Cloudy,5.5550000000000095,1.7532845389289822
4/5/2012 20:00,5.3,-7.9,38,19,25.0,100.87,Mostly Cloudy,5.244000000000004,1.7550045315960403
4/5/2012 21:00,4.9,-7.7,40,19,25.0,100.88,Mostly Cloudy,4.619000000000003,1.7580558529964954
4/5/2012 22:00,4.4,-7.4,42,22,25.0,100.89,Mostly Cloudy,4.292999999999999,1.7595903460973048
4/5/2012 23:00,3.5,-7.8,43,19,25.0,100.93,Mostly Cloudy,3.7409999999999997,1.7621334320890059
4/6/2012 0:00,3.0,-8.2,44,22,25.0,100.97,Mostly Cloudy,2.863,1.7660413702790834
4/6/2012 1:00,2.8,-8.4,43,17,25.0,100.98,Mostly Cloudy,3.0010000000000043,1.7654379426687274
4/6/2012 2:00,2.3,-8.2,46,22,25.0,101.04,Cloudy,2.256000000000003,1.7681391951044976
4/6/2012 3:00,1.5,-8.2,48,19,25.0,101.09,Cloudy,1.638,1.7698069676034027
4/6/2012 4:00,1.1,-8.3,49,17,25.0,101.13,Mostly Cloudy,1.2279999999999982,1.7709002427606249
4/6/2012 5:00,-0.1,-8.7,52,15,24.1,101.17,Mostly Cloudy,-0.08999999999999986,1.7736481294434217
4/6/2012 6:00,-0.5,-9.4,51,15,48.3,101.23,Mainly Clear,-0.524,1.7713769436698392
4/6/2012 7:00,0.4,-8.9,50,15,48.3,101.3,Clear,0.4189999999999995,1.7730272826165012
4/6/2012 8:00,1.1,-8.8,48,19,48.3,101.34,Clear,0.9899999999999998,1.7715301249814506
4/6/2012 9:00,2.1,-8.4,46,17,48.3,101.37,Clear,2.1309999999999993,1.7684784745481623
4/6/2012 10:00,3.9,-7.9,42,6,48.3,101.35,Mainly Clear,3.881999999999999,1.7614903213377067
4/6/2012 11:00,5.7,-7.7,37,19,48.3,101.32,Clear,5.793999999999998,1.7519347595335844
4/6/2012 12:00,6.6,-8.3,34,20,48.3,101.24,Mainly Clear,6.361000000000003,1.7486309954746948
4/6/2012 13:00,7.6,-7.7,33,15,48.3,101.18,Clear,7.430999999999996,1.741977089122672
4/6/2012 14:00,8.6,-8.5,29,9,48.3,101.13,Mainly Clear,8.238000000000001,1.7368065926083673
4/6/2012 15:00,9.3,-8.3,28,19,48.3,101.1,Mainly Clear,8.672999999999996,1.7339265601681504
4/6/2012 16:00,8.5,-9.3,27,28,48.3,101.08,Mostly Cloudy,8.660999999999998,1.734007973657863
4/6/2012 17:00,7.7,-11.0,25,32,48.3,101.11,Mostly Cloudy,7.769999999999997,1.7397496656195046
4/6/2012 18:00,7.3,-11.6,25,19,25.0,101.16,Mostly Cloudy,7.165999999999992,1.7436789315265706
4/6/2012 19:00,7.3,-11.7,24,13,25.0,101.21,Mostly Cloudy,7.293999999999992,1.742861510219974
4/6/2012 20:00,6.7,-10.6,28,11,25.0,101.24,Mostly Cloudy,6.6460000000000035,1.7469140638367668
4/6/2012 21:00,6.7,-10.3,28,9,25.0,101.24,Cloudy,6.636000000000004,1.7469749661337761
4/6/2012 22:00,6.8,-10.8,27,11,25.0,101.26,Cloudy,6.732,1.746388296083184
4/6/2012 23:00,6.1,-9.9,31,11,25.0,101.27,Cloudy,5.982000000000008,1.750855429385714
4/7/2012 0:00,5.6,-9.7,32,11,25.0,101.28,Cloudy,5.674000000000009,1.7526155631950924
4/7/2012 1:00,5.5,-10.6,30,17,25.0,101.29,Mostly Cloudy,5.631,1.7528579967002254
4/7/2012 2:00,3.1,-10.3,37,7,25.0,101.3,Mostly Cloudy,3.027000000000001,1.7653238099454929
4/7/2012 3:00,2.4,-10.0,39,11,25.0,101.32,Mainly Clear,2.421000000000003,1.7676898206885439
4/7/2012 4:00,2.5,-10.2,39,11,25.0,101.35,Mostly Cloudy,2.390000000000001,1.7677743814494142
4/7/2012 5:00,0.2,-10.4,45,7,25.0,101.39,Mainly Clear,0.22899999999999993,1.7735211197999947
4/7/2012 6:00,1.5,-9.3,44,9,48.3,101.46,Mostly Cloudy,1.7180000000000006,1.7695924278739752
4/7/2012 7:00,2.4,-10.1,39,11,48.3,101.5,Mainly Clear,2.4190000000000027,1.7676952780798294
4/7/2012 8:00,4.5,-9.3,36,11,48.3,101.51,Mostly Cloudy,4.5680000000000005,1.7582975416347588
4/7/2012 9:00,4.5,-9.5,35,11,48.3,101.52,Mostly Cloudy,4.745000000000003,1.7574561190345923
4/7/2012 10:00,5.7,-8.5,35,17,48.3,101.54,Mostly Cloudy,5.714999999999999,1.7523836604930105
4/7/2012 11:00,6.0,-9.2,33,13,48.3,101.51,Mostly Cloudy,6.114000000000001,1.7500881505203707
4/7/2012 12:00,6.6,-8.1,34,11,48.3,101.47,Mostly Cloudy,6.547000000000005,1.7475148693088751
4/7/2012 13:00,6.8,-7.8,34,9,48.3,101.44,Mostly Cloudy,6.766999999999999,1.7461732854145873
4/7/2012 14:00,7.8,-7.8,32,9,48.3,101.39,Cloudy,7.4509999999999925,1.74184714310073
4/7/2012 15:00,8.0,-6.7,35,7,48.3,101.36,Mostly Cloudy,7.880000000000003,1.739071760591695
4/7/2012 16:00,8.4,-6.4,34,4,24.1,101.34,Mostly Cloudy,8.398999999999987,1.7357574633926776
4/7/2012 17:00,8.4,-6.3,35,9,24.1,101.35,Mostly Cloudy,8.18099999999999,1.7371734198229245
4/7/2012 18:00,8.0,-6.1,36,7,25.0,101.35,Mostly Cloudy,8.007,1.738278645584687
4/7/2012 19:00,8.0,-5.2,39,13,25.0,101.37,Mostly Cloudy,7.803000000000002,1.7395471657003485
4/7/2012 20:00,7.7,-5.4,39,15,25.0,101.43,Cloudy,7.490000000000001,1.7415931326716116
4/7/2012 21:00,7.5,-5.2,40,17,25.0,101.41,Mostly Cloudy,7.47,1.7417234962711865
4/7/2012 22:00,6.2,-5.1,44,15,25.0,101.36,Mostly Cloudy,6.173999999999999,1.7497367715042436
4/7/2012 23:00,5.9,-5.0,45,11,25.0,101.31,Mostly Cloudy,6.058999999999994,1.7504088074061863
4/8/2012 0:00,5.8,-5.2,45,9,25.0,101.24,Cloudy,5.852999999999998,1.751597719416307
4/8/2012 1:00,4.8,-4.8,50,7,25.0,101.18,Cloudy,4.828000000000005,1.7570590044553231
4/8/2012 2:00,4.2,-4.5,53,4,25.0,101.11,Cloudy,4.106999999999998,1.7604549116857897
4/8/2012 3:00,3.7,-3.9,58,4,25.0,101.06,Cloudy,3.6579999999999955,1.7625099531849662
4/8/2012 4:00,3.7,-4.4,55,4,25.0,101.0,Cloudy,3.7629999999999955,1.7620333776358743
4/8/2012 5:00,4.0,-4.5,54,7,25.0,100.95,Cloudy,4.0680000000000005,1.760635196815087
4/8/2012 6:00,4.8,-4.1,52,7,48.3,100.91,Mostly Cloudy,4.956000000000006,1.7564433655609535
4/8/2012 7:00,5.7,-4.1,49,11,48.3,100.87,Mostly Cloudy,5.774000000000001,1.7520486632513794
4/8/2012 8:00,6.6,-3.9,47,13,48.3,100.81,Mostly Cloudy,6.8070000000000075,1.7459268207325915
4/8/2012 9:00,7.4,-3.7,45,19,48.3,100.73,Mostly Cloudy,7.463999999999991,1.741762563520268
4/8/2012 10:00,7.3,-4.8,42,22,48.3,100.61,Mostly Cloudy,7.341999999999996,1.742552768916076
4/8/2012 11:00,9.4,-3.6,40,15,48.3,100.46,Mostly Cloudy,9.323999999999986,1.729331822385253
4/8/2012 12:00,10.4,-3.8,37,17,48.3,100.25,Mostly Cloudy,10.343999999999994,1.7213528447626354
4/8/2012 13:00,11.7,-3.9,33,20,48.3,100.11,Mostly Cloudy,11.846000000000014,1.7104432225068211
4/8/2012 14:00,12.1,-3.5,33,20,48.3,99.97,Mostly Cloudy,12.054999999999996,1.7086825226939877
4/8/2012 15:00,12.3,-3.8,32,22,48.3,99.86,Mostly Cloudy,12.338999999999988,1.7061759927821536
4/8/2012 16:00,12.4,-4.2,31,22,48.3,99.8,Cloudy,12.226999999999999,1.7071807399045758
4/8/2012 17:00,12.3,-4.5,31,7,48.3,99.75,Mostly Cloudy,12.074999999999989,1.7085103983467502
4/8/2012 18:00,11.9,-4.7,31,19,25.0,99.69,Mostly Cloudy,11.849999999999998,1.7104101624293366
4/8/2012 19:00,11.5,-4.9,31,17,48.3,99.64,Mostly Cloudy,11.631000000000002,1.7121849984968236
4/8/2012 20:00,10.9,-3.9,35,15,25.0,99.59,Mostly Cloudy,11.308999999999996,1.7146704801138666
4/8/2012 21:00,10.4,-3.9,36,17,25.0,99.5,Mostly Cloudy,10.165999999999999,1.7228203910532547
4/8/2012 22:00,10.2,-3.7,37,19,25.0,99.42,Mostly Cloudy,10.237000000000005,1.722239053889384
4/8/2012 23:00,8.5,-3.2,44,7,25.0,99.38,Cloudy,8.242999999999995,1.736774300954942
4/9/2012 0:00,7.5,-3.5,46,4,25.0,99.31,Mostly Cloudy,7.586999999999997,1.740957810546769
4/9/2012 1:00,4.8,-2.4,60,9,25.0,99.24,Cloudy,4.687000000000003,1.7577326519000944
4/9/2012 2:00,5.4,-1.3,62,9,25.0,99.19,Cloudy,5.369999999999996,1.7543125684645182
4/9/2012 3:00,5.5,-1.1,62,0,25.0,99.14,Cloudy,5.487999999999999,1.7536585237806868
4/9/2012 4:00,5.7,-0.9,62,11,25.0,99.12,Cloudy,5.712999999999997,1.7523949897498083
4/9/2012 5:00,5.9,-1.4,59,7,25.0,99.09,Cloudy,5.9589999999999925,1.75098831913805
4/9/2012 6:00,6.1,0.1,65,13,24.1,99.1,Rain,6.140000000000003,1.7499360882510389
4/9/2012 7:00,6.3,1.5,71,13,24.1,99.11,Rain,6.234000000000001,1.7493837414206566
4/9/2012 8:00,6.6,3.6,81,20,24.1,99.05,Rain,6.67100000000001,1.7467615957965674
4/9/2012 9:00,7.4,1.6,67,19,24.1,99.05,Rain,7.42199999999999,1.7420354951909196
4/9/2012 10:00,7.0,2.3,72,28,24.1,99.07,Rain,6.963999999999999,1.7449517650503343
4/9/2012 11:00,7.4,2.8,73,24,24.1,99.1,Rain,7.3459999999999885,1.7425269857020507
4/9/2012 12:00,7.9,4.1,77,17,24.1,99.07,Rain,7.92999999999999,1.7387608583252778
4/9/2012 13:00,8.8,2.6,65,17,24.1,99.08,Rain,9.122000000000003,1.7307959844254592
4/9/2012 14:00,9.0,1.3,58,19,24.1,99.11,Rain,9.046000000000001,1.7313377000647148
4/9/2012 15:00,8.6,0.7,58,22,24.1,99.14,Cloudy,8.565000000000003,1.734655193091643
4/9/2012 16:00,8.7,0.2,55,17,24.1,99.19,Cloudy,8.59500000000001,1.7344537142594585
4/9/2012 17:00,8.3,1.0,60,22,24.1,99.24,Cloudy,8.252999999999991,1.7367096623438354
4/9/2012 18:00,6.2,2.2,76,30,24.1,99.31,Rain Showers,6.1800000000000015,1.7497015429855274
4/9/2012 19:00,6.4,1.7,72,28,25.0,99.34,Cloudy,6.419999999999995,1.7482787289839679
4/9/2012 20:00,5.7,1.4,74,19,25.0,99.4,Mostly Cloudy,5.641999999999999,1.7527960547758428
4/9/2012 21:00,5.8,1.4,73,22,25.0,99.43,Cloudy,5.874000000000002,1.7514773854172168
4/9/2012 22:00,5.4,1.3,75,19,25.0,99.42,Cloudy,5.351999999999995,1.7544118244235332
4/9/2012 23:00,5.3,0.9,73,20,25.0,99.42,Mostly Cloudy,5.646000000000002,1.7527735175077213
4/10/2012 0:00,5.1,1.7,79,19,25.0,99.43,Cloudy,5.139000000000006,1.755556339370341
4/10/2012 1:00,4.9,2.2,83,20,25.0,99.41,Cloudy,4.929999999999994,1.7565687349717733
4/10/2012 2:00,4.6,1.8,82,19,25.0,99.4,Mostly Cloudy,4.556000000000005,1.758354321121525
4/10/2012 3:00,4.3,1.6,83,17,25.0,99.37,Mostly Cloudy,4.2320000000000055,1.7598747542816513
4/10/2012 4:00,4.0,1.5,84,13,25.0,99.39,Mostly Cloudy,3.984000000000001,1.761022340799074
4/10/2012 5:00,4.0,1.6,84,9,24.1,99.39,Cloudy,4.038,1.760773644482583
4/10/2012 6:00,4.3,1.7,83,9,24.1,99.45,Mostly Cloudy,4.282000000000006,1.7596416956871632
4/10/2012 7:00,5.0,1.5,78,9,24.1,99.48,Cloudy,5.112000000000002,1.7556877230123493
4/10/2012 8:00,5.3,1.5,76,17,24.1,99.51,Rain Showers,5.320000000000006,1.7545879459275824
4/10/2012 9:00,5.7,1.8,76,15,24.1,99.53,Mostly Cloudy,5.747999999999999,1.7521964763507403
4/10/2012 10:00,6.9,0.9,66,20,24.1,99.56,Mostly Cloudy,6.9689999999999905,1.7449205095042781
4/10/2012 11:00,6.9,2.5,74,15,24.1,99.58,Rain Showers,6.8199999999999905,1.7458465495722588
4/10/2012 12:00,8.0,0.5,59,19,24.1,99.58,Cloudy,7.9920000000000035,1.7383729107396613
4/10/2012 13:00,8.8,1.0,58,22,24.1,99.6,Mostly Cloudy,8.763999999999992,1.7333054351672692
4/10/2012 14:00,7.6,2.4,70,33,16.1,99.63,Rain Showers,7.513000000000006,1.741442948799955
4/10/2012 15:00,6.2,3.2,81,19,24.1,99.71,Rain Showers,6.217,1.7494839349158415
4/10/2012 16:00,6.7,2.9,77,20,24.1,99.77,Mostly Cloudy,6.709000000000006,1.746529261837235
4/10/2012 17:00,6.8,2.4,73,19,24.1,99.83,Mostly Cloudy,6.932999999999996,1.7451452685812092
4/10/2012 18:00,6.0,2.5,78,24,24.1,99.91,Mostly Cloudy,6.035999999999999,1.7505424938854786
4/10/2012 19:00,5.8,2.3,78,19,25.0,100.01,Mostly Cloudy,5.864,1.751534711650451
4/10/2012 20:00,5.2,1.8,79,20,25.0,100.12,Mostly Cloudy,5.239000000000002,1.7550318548809063
4/10/2012 21:00,5.1,2.3,82,22,25.0,100.15,Mostly Cloudy,5.170000000000007,1.7554052722137727
4/10/2012 22:00,4.4,1.9,84,11,25.0,100.16,Mostly Cloudy,4.379999999999996,1.759183239408589
4/10/2012 23:00,4.7,2.4,85,15,25.0,100.21,Mostly Cloudy,4.732999999999994,1.7575133979750934
4/11/2012 0:00,4.3,1.9,84,17,25.0,100.24,Mostly Cloudy,4.342000000000002,1.7593612700490673
4/11/2012 1:00,4.0,1.7,85,9,25.0,100.26,Mostly Cloudy,4.014000000000001,1.7608842569430716
4/11/2012 2:00,3.2,1.4,88,11,25.0,100.26,Mostly Cloudy,3.1759999999999957,1.7646670095419625
4/11/2012 3:00,3.0,1.3,89,0,25.0,100.3,Mostly Cloudy,3.0109999999999992,1.7653940621663111
4/11/2012 4:00,1.6,0.1,90,0,25.0,100.34,Mainly Clear,1.5859999999999983,1.7699462043095
4/11/2012 5:00,0.7,-0.8,90,6,24.1,100.4,Mostly Cloudy,0.6890000000000011,1.7723217977618584
4/11/2012 6:00,2.4,0.8,89,6,24.1,100.5,Mostly Cloudy,2.345000000000002,1.7678970214589738
4/11/2012 7:00,3.2,1.2,87,4,24.1,100.58,Cloudy,3.209999999999996,1.7645164804363096
4/11/2012 8:00,4.6,1.7,81,4,24.1,100.65,Cloudy,4.510000000000006,1.7585716645877039
4/11/2012 9:00,6.1,1.4,72,0,24.1,100.72,Cloudy,6.081000000000006,1.7502807094028967
4/11/2012 10:00,6.7,2.2,73,4,24.1,100.76,Mostly Cloudy,6.717000000000002,1.7464802596245994
4/11/2012 11:00,6.7,2.0,72,11,24.1,100.78,Cloudy,6.730000000000005,1.7464005642540708
4/11/2012 12:00,8.8,2.5,65,9,24.1,100.76,Mainly Clear,9.126000000000007,1.7307673360329348
4/11/2012 13:00,11.0,1.9,53,4,24.1,100.74,Mostly Cloudy,10.988999999999997,1.7170049492877462
4/11/2012 14:00,8.4,0.3,57,32,24.1,100.79,Rain Showers,8.386999999999993,1.7358363296335326
4/11/2012 15:00,7.5,3.1,74,7,24.1,100.79,Mostly Cloudy,7.2799999999999985,1.7429513318149614
4/11/2012 16:00,9.5,1.4,57,20,24.1,100.82,Mostly Cloudy,9.54,1.7277258604225556
4/11/2012 17:00,9.3,1.3,57,33,24.1,100.91,Rain Showers,9.501,1.7280189805328947
4/11/2012 18:00,8.4,-0.2,55,17,24.1,100.92,Mainly Clear,8.304999999999994,1.7363723483331956
4/11/2012 19:00,6.4,-0.4,62,11,24.1,101.0,Mainly Clear,6.316999999999994,1.7488926396943079
4/11/2012 20:00,7.4,0.8,63,13,25.0,101.07,Mostly Cloudy,7.499999999999988,1.7415278703086836
4/11/2012 21:00,6.9,0.9,66,7,25.0,101.08,Mostly Cloudy,6.914999999999989,1.7452574039865134
4/11/2012 22:00,3.3,-0.9,74,11,25.0,101.09,Mostly Cloudy,3.154000000000001,1.764764280603043
4/11/2012 23:00,6.6,-0.3,61,13,25.0,101.11,Mostly Cloudy,6.66200000000001,1.746816519265347
4/12/2012 0:00,5.5,-1.5,61,13,25.0,101.14,Mainly Clear,5.513000000000001,1.75351920038956
4/12/2012 1:00,5.8,-2.2,56,15,25.0,101.15,Mostly Cloudy,5.742000000000002,1.7522305451324527
4/12/2012 2:00,4.8,-2.6,59,17,25.0,101.18,Mainly Clear,4.753000000000005,1.7574179141319408
4/12/2012 3:00,4.3,-2.8,60,13,25.0,101.21,Mostly Cloudy,4.322000000000005,1.759454837018487
4/12/2012 4:00,3.1,-3.0,64,13,25.0,101.24,Mainly Clear,3.1710000000000007,1.764689125570718
4/12/2012 5:00,3.8,-2.9,62,15,24.1,101.3,Mostly Cloudy,3.807999999999998,1.7618283884935537
4/12/2012 6:00,3.5,-2.9,63,13,48.3,101.36,Mainly Clear,3.444,1.7634738161616328
4/12/2012 7:00,4.0,-2.3,63,6,48.3,101.43,Mainly Clear,3.8510000000000026,1.7616320918030242
4/12/2012 8:00,6.5,-2.1,54,13,48.3,101.46,Mostly Cloudy,6.652999999999996,1.7468714033770656
4/12/2012 9:00,7.7,-1.8,51,13,48.3,101.5,Mostly Cloudy,7.672000000000006,1.740396880710911
4/12/2012 10:00,8.7,-1.4,49,9,48.3,101.51,Mostly Cloudy,8.798000000000007,1.7330716572557392
4/12/2012 11:00,9.8,-1.2,46,9,48.3,101.46,Mostly Cloudy,9.873999999999988,1.7251566442301292
4/12/2012 12:00,10.4,-1.5,43,4,48.3,101.42,Mostly Cloudy,10.320999999999987,1.7215443740915894
4/12/2012 13:00,10.0,-1.0,46,15,48.3,101.4,Mostly Cloudy,10.03,1.723919293553528
4/12/2012 14:00,10.3,-1.1,45,13,48.3,101.38,Mostly Cloudy,10.255999999999993,1.722082582284088
4/12/2012 15:00,11.3,-1.4,41,15,48.3,101.33,Mostly Cloudy,11.291999999999984,1.7147977969144632
4/12/2012 16:00,12.4,-1.8,37,15,48.3,101.32,Mostly Cloudy,12.344000000000003,1.7061306305359663
4/12/2012 17:00,11.4,-1.5,41,11,48.3,101.32,Mainly Clear,11.255999999999995,1.715066158753845
4/12/2012 18:00,11.3,-2.2,39,17,48.3,101.33,Mainly Clear,11.301999999999985,1.7147229507313668
4/12/2012 19:00,9.9,-1.8,44,11,48.3,101.34,Mainly Clear,9.882999999999987,1.7250859191457375
4/12/2012 20:00,9.1,-1.1,49,7,25.0,101.38,Mainly Clear,9.055000000000014,1.7312738066721178
4/12/2012 21:00,6.6,-0.8,59,0,25.0,101.39,Mainly Clear,6.600000000000009,1.7471938137477605
4/12/2012 22:00,6.7,-0.6,60,4,25.0,101.44,Clear,6.650000000000003,1.7468896893422694
4/12/2012 23:00,5.9,-2.2,56,11,25.0,101.47,Clear,5.772000000000002,1.752060043985269
4/13/2012 0:00,4.6,-4.0,54,11,25.0,101.49,Clear,4.641000000000006,1.7579514069063322
4/13/2012 1:00,4.0,-5.1,51,11,25.0,101.48,Clear,3.8110000000000026,1.761814706652457
4/13/2012 2:00,2.0,-5.4,58,6,25.0,101.5,Clear,1.9390000000000007,1.76899767823628
4/13/2012 3:00,1.5,-5.1,61,9,25.0,101.52,Clear,1.5739999999999998,1.7699783119399222
4/13/2012 4:00,1.2,-4.5,66,6,25.0,101.56,Clear,1.0990000000000013,1.771242079941586
4/13/2012 5:00,1.3,-4.1,67,6,48.3,101.6,Clear,1.3459999999999988,1.7705866585937822
4/13/2012 6:00,1.8,-3.4,68,6,48.3,101.67,Clear,1.8580000000000003,1.7692160195119344
4/13/2012 7:00,4.1,-2.1,64,7,48.3,101.75,Mainly Clear,4.069000000000004,1.760630578403689
4/13/2012 8:00,6.1,-1.5,58,7,48.3,101.77,Mainly Clear,6.083000000000006,1.7502690532503846
4/13/2012 9:00,8.0,-0.8,54,13,48.3,101.73,Mainly Clear,7.879999999999998,1.7390717605916945
4/13/2012 10:00,9.8,-1.8,44,17,48.3,101.69,Mainly Clear,9.73799999999999,1.726215712599675
4/13/2012 11:00,12.2,-1.0,40,19,48.3,101.6,Mainly Clear,12.249000000000013,1.7069850807986542
4/13/2012 12:00,13.5,-3.0,32,24,48.3,101.52,Mainly Clear,13.555000000000005,1.696340203683165
4/13/2012 13:00,14.7,-6.1,23,24,48.3,101.48,Mainly Clear,14.763000000000018,1.6860475598001534
4/13/2012 14:00,15.0,-5.6,24,22,48.3,101.36,Mainly Clear,14.311,1.6903301302623923
4/13/2012 15:00,15.9,-4.9,24,32,48.3,101.27,Mainly Clear,15.617000000000012,1.6768036852588972
4/13/2012 16:00,16.1,-5.2,23,30,48.3,101.22,Mostly Cloudy,15.518999999999988,1.6773233137549814
4/13/2012 17:00,15.0,-4.3,26,28,48.3,101.22,Cloudy,15.043000000000001,1.6830719412856048
4/13/2012 18:00,14.3,-5.1,26,22,48.3,101.24,Cloudy,14.203999999999985,1.69126127513093
4/13/2012 19:00,13.6,-6.8,24,19,48.3,101.25,Mostly Cloudy,13.713999999999997,1.695178894649214
4/13/2012 20:00,12.2,-5.9,28,15,25.0,101.31,Mostly Cloudy,11.397999999999994,1.713997679862781
4/13/2012 21:00,11.7,-5.1,30,19,25.0,101.32,Mainly Clear,11.75500000000001,1.7111888024986435
4/13/2012 22:00,10.3,-1.3,44,20,25.0,101.36,Mainly Clear,10.403999999999987,1.7209581756675052
4/13/2012 23:00,9.1,-1.3,48,20,25.0,101.37,Mainly Clear,9.13800000000001,1.7306813081746686
4/14/2012 0:00,7.9,-1.6,51,22,25.0,101.35,Clear,7.788999999999992,1.7396331655359345
4/14/2012 1:00,7.5,-1.8,52,11,25.0,101.35,Clear,7.485999999999998,1.7416192225684233
4/14/2012 2:00,6.8,-1.8,54,17,25.0,101.34,Clear,7.003999999999996,1.7447013673452665
4/14/2012 3:00,5.4,-1.0,63,19,25.0,101.36,Mainly Clear,5.434999999999993,1.7539530146218085
4/14/2012 4:00,5.7,-0.5,64,11,25.0,101.35,Mainly Clear,5.788999999999998,1.7519632519020025
4/14/2012 5:00,6.2,0.0,64,17,25.0,101.36,Mostly Cloudy,6.282999999999999,1.7490942006275345
4/14/2012 6:00,6.7,-0.9,58,19,24.1,101.42,Mostly Cloudy,6.665000000000004,1.7467982158175175
4/14/2012 7:00,7.5,-1.2,54,20,48.3,101.49,Mostly Cloudy,7.508999999999998,1.7414690881872454
4/14/2012 8:00,9.2,-0.5,51,19,48.3,101.46,Mostly Cloudy,9.064000000000014,1.7312098444360056
4/14/2012 9:00,10.8,-0.3,46,20,48.3,101.45,Mostly Cloudy,10.76099999999999,1.7185918207562
4/14/2012 10:00,12.8,-0.2,41,26,48.3,101.38,Cloudy,12.705999999999984,1.702725626897298
4/14/2012 11:00,13.8,-0.8,37,24,48.3,101.28,Cloudy,13.513999999999985,1.6966317247312364
4/14/2012 12:00,15.3,-0.3,34,24,48.3,101.21,Cloudy,15.397999999999978,1.4530987490048481
4/14/2012 13:00,14.8,-1.1,34,26,48.3,101.2,Cloudy,14.988999999999981,1.6836671706967419
4/14/2012 14:00,14.7,-0.7,35,17,48.3,101.08,Cloudy,14.841999999999986,1.6852351456536614
4/14/2012 15:00,15.6,-3.0,28,20,48.3,101.02,Cloudy,15.634999999999986,1.6767135989990036
4/14/2012 16:00,15.9,-3.5,26,19,48.3,100.98,Cloudy,15.725000000000001,1.6762524639593526
4/14/2012 17:00,15.4,-3.1,28,24,48.3,101.0,Mostly Cloudy,15.536999999999987,1.6771957781107043
4/14/2012 18:00,14.5,-2.7,30,13,48.3,100.95,Mostly Cloudy,14.667000000000003,1.6870077763023392
4/14/2012 19:00,11.9,-0.6,42,7,48.3,100.91,Mostly Cloudy,11.839999999999998,1.7104927668995
4/14/2012 20:00,12.8,-0.9,39,7,25.0,100.9,Mostly Cloudy,12.717999999999982,1.702608518691663
4/14/2012 21:00,12.0,0.0,44,7,25.0,100.86,Mostly Cloudy,11.796000000000003,1.7108544242293493
4/14/2012 22:00,11.0,0.1,47,9,25.0,100.82,Mostly Cloudy,11.043999999999999,1.7166128457999945
4/14/2012 23:00,11.6,0.3,46,9,25.0,100.76,Mostly Cloudy,11.504000000000001,1.7131823928709597
4/15/2012 0:00,12.9,0.1,41,9,25.0,100.77,Mostly Cloudy,12.784000000000002,1.701959349712463
4/15/2012 1:00,13.1,0.6,42,13,25.0,100.74,Mostly Cloudy,13.981999999999996,1.6931033942906755
4/15/2012 2:00,12.4,1.8,48,15,25.0,100.7,Mostly Cloudy,12.475999999999994,1.7049169975058451
4/15/2012 3:00,11.3,2.3,54,15,25.0,100.7,Clear,11.134999999999998,1.7159558925234457
4/15/2012 4:00,10.9,4.3,64,15,25.0,100.72,Clear,11.033999999999997,1.716684412679513
4/15/2012 5:00,9.9,4.5,69,6,25.0,100.72,Clear,9.908999999999994,1.7248811513674618
4/15/2012 6:00,10.6,5.4,70,13,24.1,100.74,Mainly Clear,10.610000000000008,1.7196097903791001
4/15/2012 7:00,11.7,6.2,69,9,24.1,100.81,Cloudy,11.666000000000018,1.711906085124736
4/15/2012 8:00,13.5,8.0,69,11,24.1,100.84,Cloudy,13.44,1.7056195602958193
4/15/2012 9:00,14.1,8.9,71,26,24.1,100.79,Cloudy,14.13099999999999,1.712430565280306
4/15/2012 10:00,15.5,9.4,67,32,24.1,100.72,Cloudy,15.546999999999999,1.470408483445945
4/15/2012 11:00,17.3,9.7,61,28,24.1,100.68,Mainly Clear,17.333999999999982,1.0652588028048404
4/15/2012 12:00,18.4,10.1,58,28,48.3,100.65,Mainly Clear,18.479000000000017,1.0081063323378505
4/15/2012 13:00,19.8,10.1,54,32,48.3,100.68,Mostly Cloudy,19.817999999999973,0.9685720655886099
4/15/2012 14:00,19.4,10.1,55,26,24.1,100.68,Mostly Cloudy,19.340999999999994,0.9790290360063908
4/15/2012 15:00,18.1,10.6,62,24,48.3,100.65,Mostly Cloudy,18.082999999999966,1.0521514226329247
4/15/2012 16:00,17.5,10.9,65,22,48.3,100.69,Cloudy,17.477999999999998,1.1152997129113522
4/15/2012 17:00,17.0,11.0,68,20,24.1,100.73,Cloudy,16.984,1.3579319565140906
4/15/2012 18:00,16.6,11.2,70,20,24.1,100.77,Cloudy,16.632999999999985,1.7091525423728813
4/15/2012 19:00,16.3,11.5,73,17,24.1,100.78,Cloudy,16.35399999999999,1.718324698506683
4/15/2012 20:00,15.5,11.0,75,11,25.0,100.8,Cloudy,15.509000000000007,1.7241591468416737
4/15/2012 21:00,14.6,10.5,76,6,25.0,100.83,Mostly Cloudy,14.59099999999999,1.7272721454173066
4/15/2012 22:00,14.8,10.6,76,6,25.0,100.82,Cloudy,14.750999999999978,1.7272721454173066
4/15/2012 23:00,14.9,11.1,78,13,25.0,100.74,Cloudy,14.893000000000002,1.733057876440812
4/16/2012 0:00,15.7,11.6,77,17,25.0,100.77,Cloudy,15.693000000000017,1.7302348458823897
4/16/2012 1:00,14.6,12.8,89,9,8.0,100.7,Rain Showers,14.515999999999993,1.7590894054480448
4/16/2012 2:00,14.9,13.3,90,4,9.7,100.66,Rain Showers,14.92300000000001,1.7609487211792867
4/16/2012 3:00,14.4,12.8,90,9,25.0,100.66,Cloudy,14.417000000000009,1.7609487211792867
4/16/2012 4:00,15.2,12.6,84,11,25.0,100.66,Cloudy,15.237000000000013,1.7483983249034645
4/16/2012 5:00,15.3,12.3,82,13,25.0,100.64,Cloudy,15.321999999999989,1.7434626346010758
4/16/2012 6:00,15.7,12.0,79,15,24.1,100.61,Cloudy,15.679000000000013,1.7357508862871274
4/16/2012 7:00,17.0,12.8,76,17,24.1,100.55,Cloudy,16.98999999999999,1.7272721454173066
4/16/2012 8:00,19.3,13.5,69,17,24.1,100.52,Mostly Cloudy,19.324999999999978,1.505906587803386
4/16/2012 9:00,22.2,13.6,58,15,24.1,100.52,Mostly Cloudy,22.24900000000001,0.9771086735653381
4/16/2012 10:00,24.9,12.8,47,22,24.1,100.44,Cloudy,24.878999999999998,0.9365197406993433
4/16/2012 11:00,24.1,12.1,47,22,24.1,100.44,Cloudy,24.08999999999997,0.9365197406993433
4/16/2012 12:00,24.8,11.7,44,30,24.1,100.39,Cloudy,24.877000000000006,0.9432590533134183
4/16/2012 13:00,25.4,12.3,44,22,24.1,100.36,Cloudy,25.304000000000038,0.9432590533134183
4/16/2012 14:00,26.6,12.4,41,24,24.1,100.26,Cloudy,26.602999999999984,0.9526517417795389
4/16/2012 15:00,27.4,11.5,37,28,24.1,100.12,Mostly Cloudy,27.45600000000004,0.9681708609999456
4/16/2012 16:00,27.8,11.6,37,26,48.3,100.06,Mostly Cloudy,27.760000000000026,0.9681708609999456
4/16/2012 17:00,27.3,11.5,37,26,48.3,100.03,Mainly Clear,27.43700000000003,0.9681708609999456
4/16/2012 18:00,26.7,11.3,38,11,48.3,99.99,Mostly Cloudy,26.74199999999999,0.9638948809679477
4/16/2012 19:00,26.4,11.9,40,20,16.1,100.1,Rain Showers,26.530000000000037,0.9557861893691004
4/16/2012 20:00,20.5,15.6,73,4,25.0,100.22,Mostly Cloudy,20.435999999999993,1.718324698506683
4/16/2012 21:00,19.3,15.8,80,13,25.0,100.26,Mostly Cloudy,19.35799999999997,1.7383226557949913
4/16/2012 22:00,19.4,14.7,74,24,25.0,100.25,Rain Showers,19.410000000000032,1.7209839103698092
4/16/2012 23:00,19.5,14.2,71,30,25.0,100.31,Mostly Cloudy,19.55899999999999,1.712430565280306
4/17/2012 0:00,19.0,11.6,62,28,25.0,100.34,Mainly Clear,19.025,1.0305025778855286
4/17/2012 1:00,18.9,9.6,55,35,25.0,100.42,Mainly Clear,18.73700000000001,0.983962730449879
4/17/2012 2:00,17.4,4.7,43,30,25.0,100.51,Mainly Clear,17.446000000000012,1.0152522597384437
4/17/2012 3:00,15.4,6.3,55,37,25.0,100.61,Mainly Clear,15.463000000000015,1.4224799145825222
4/17/2012 4:00,14.5,6.1,57,37,25.0,100.8,Mainly Clear,14.869000000000002,1.6849527317380317
4/17/2012 5:00,13.5,5.9,60,33,48.3,100.99,Mostly Cloudy,13.463000000000001,1.6969899575482637
4/17/2012 6:00,11.9,2.3,52,37,48.3,101.19,Mainly Clear,11.82899999999999,1.7105834560566662
4/17/2012 7:00,10.9,1.9,54,48,48.3,101.32,Mainly Clear,10.836999999999996,1.7180696493142975
4/17/2012 8:00,10.2,0.6,51,43,48.3,101.42,Mainly Clear,9.862999999999994,1.7252429773141473
4/17/2012 9:00,10.2,-1.1,45,44,48.3,101.5,Mainly Clear,10.296000000000008,1.7217519123512106
4/17/2012 10:00,10.9,-1.3,43,41,48.3,101.51,Mainly Clear,10.822999999999993,1.7181663415240058
4/17/2012 11:00,11.5,-1.0,42,30,48.3,101.57,Mostly Cloudy,11.528999999999996,1.712987850418416
4/17/2012 12:00,12.0,-0.8,41,37,48.3,101.58,Mostly Cloudy,12.131999999999998,1.7080162648425516
4/17/2012 13:00,12.2,-0.2,42,32,48.3,101.61,Mainly Clear,12.168000000000006,1.70770142098484
4/17/2012 14:00,12.6,-0.3,41,35,48.3,101.64,Mostly Cloudy,12.555000000000001,1.704175528365844
4/17/2012 15:00,12.7,-0.5,40,30,48.3,101.63,Mainly Clear,12.619000000000012,1.703566311590047
4/17/2012 16:00,11.6,-1.2,41,32,48.3,101.69,Mainly Clear,11.562999999999997,1.712721869231447
4/17/2012 17:00,11.1,-1.7,41,24,48.3,101.72,Mostly Cloudy,11.134000000000004,1.7159631680362593
4/17/2012 18:00,9.5,-2.8,42,24,48.3,101.79,Mostly Cloudy,9.431999999999999,1.7285341494824957
4/17/2012 19:00,8.5,-4.1,41,28,24.1,101.89,Mostly Cloudy,8.53,1.7348893654732633
4/17/2012 20:00,7.4,-5.1,41,19,25.0,102.04,Mostly Cloudy,7.164,1.7436916362618864
4/17/2012 21:00,6.1,-5.6,43,17,25.0,102.12,Mostly Cloudy,5.9389999999999965,1.7511036830989615
4/17/2012 22:00,5.4,-5.4,46,11,25.0,102.17,Mostly Cloudy,5.377999999999994,1.7542684112502305
4/17/2012 23:00,3.9,-4.8,53,17,25.0,102.17,Mostly Cloudy,3.799999999999996,1.7618648636788228
4/18/2012 0:00,2.9,-5.1,56,13,25.0,102.2,Clear,2.5589999999999993,1.767312640444013
4/18/2012 1:00,2.4,-5.7,55,15,25.0,102.18,Clear,2.5010000000000026,1.7674713145796597
4/18/2012 2:00,0.9,-6.5,58,15,25.0,102.22,Clear,0.8830000000000006,1.771812180109984
4/18/2012 3:00,1.1,-7.0,55,11,25.0,102.25,Clear,1.0559999999999985,1.7713557990917403
4/18/2012 4:00,0.4,-7.0,58,9,25.0,102.29,Clear,0.3809999999999994,1.7731262222680089
4/18/2012 5:00,-1.0,-7.0,64,11,48.3,102.34,Clear,-1.0070000000000001,1.768795141697515
4/18/2012 6:00,0.9,-6.3,59,9,48.3,102.41,Clear,1.0090000000000003,1.7714799675091388
4/18/2012 7:00,2.5,-6.2,53,13,48.3,102.44,Clear,2.467,1.7675642298803755
4/18/2012 8:00,3.3,-5.9,51,11,48.3,102.43,Clear,3.2180000000000035,1.7644810262803297
4/18/2012 9:00,4.5,-5.7,47,9,48.3,102.41,Clear,4.614999999999998,1.7580748309902547
4/18/2012 10:00,5.3,-5.1,47,9,48.3,102.36,Clear,5.345000000000003,1.7544503874483366
4/18/2012 11:00,6.9,-3.4,48,6,48.3,102.24,Clear,6.793000000000001,1.746013173158722
4/18/2012 12:00,7.3,-4.6,43,11,48.3,102.13,Mainly Clear,7.369999999999993,1.7423721089109774
4/18/2012 13:00,8.6,-3.3,43,15,48.3,102.05,Mainly Clear,8.474999999999996,1.7352554356871301
4/18/2012 14:00,9.3,-3.2,41,7,48.3,101.97,Mainly Clear,9.400999999999986,1.7287641882057159
4/18/2012 15:00,10.4,-3.2,38,11,48.3,101.86,Mainly Clear,10.377999999999988,1.7211251522261444
4/18/2012 16:00,10.3,-3.6,37,9,48.3,101.8,Mainly Clear,10.383999999999984,1.721086681821165
4/18/2012 17:00,10.2,-4.1,36,13,48.3,101.75,Mainly Clear,10.072999999999993,1.723573904994663
4/18/2012 18:00,10.0,-5.5,33,7,48.3,101.7,Mainly Clear,9.602999999999996,1.7272493712631176
4/18/2012 19:00,8.4,-3.9,42,9,48.3,101.66,Mainly Clear,8.008999999999993,1.7382660648670125
4/18/2012 20:00,7.6,-4.0,44,7,25.0,101.62,Mainly Clear,7.496000000000007,1.7415539817058086
4/18/2012 21:00,7.9,-4.2,42,4,25.0,101.56,Mostly Cloudy,7.907999999999991,1.7388978697651274
4/18/2012 22:00,8.4,-4.1,41,0,25.0,101.53,Mostly Cloudy,8.511999999999992,1.7350094271280605
4/18/2012 23:00,6.8,-2.6,51,6,25.0,101.5,Mainly Clear,6.805999999999998,1.7459329919747324
4/19/2012 0:00,6.5,-2.7,52,4,25.0,101.44,Mainly Clear,6.591,1.7472484278789366
4/19/2012 1:00,5.5,-2.7,55,6,25.0,101.42,Clear,5.535,1.7533963761786535
4/19/2012 2:00,3.3,-2.8,64,7,25.0,101.33,Clear,3.3490000000000024,1.763898530297595
4/19/2012 3:00,4.4,-3.3,57,4,25.0,101.28,Mainly Clear,4.246999999999996,1.7598048966461368
4/19/2012 4:00,3.4,-3.2,62,0,25.0,101.27,Mainly Clear,3.443999999999998,1.763473816161633
4/19/2012 5:00,3.4,-2.9,63,4,24.1,101.25,Mainly Clear,3.4289999999999985,1.7635410051196077
4/19/2012 6:00,4.7,-0.8,67,4,48.3,101.28,Mostly Cloudy,4.8049999999999935,1.757169212229044
4/19/2012 7:00,7.1,-0.4,59,4,48.3,101.24,Mostly Cloudy,6.977999999999998,1.7448642177544276
4/19/2012 8:00,8.6,-1.1,50,7,48.3,101.18,Mostly Cloudy,8.634000000000013,1.7341907371010452
4/19/2012 9:00,11.8,-0.5,43,7,48.3,101.14,Mainly Clear,11.622999999999989,1.7122485023249356
4/19/2012 10:00,14.0,-0.4,37,13,48.3,101.05,Mainly Clear,13.861999999999993,1.6940518288522686
4/19/2012 11:00,15.8,0.5,35,19,48.3,101.02,Mostly Cloudy,15.926999999999975,1.2419386340030005
4/19/2012 12:00,16.6,0.9,35,15,48.3,100.95,Mostly Cloudy,16.995999999999977,1.038774055029866
4/19/2012 13:00,18.4,1.7,33,20,48.3,100.88,Mostly Cloudy,18.539000000000016,1.012627783073773
4/19/2012 14:00,19.3,2.6,33,17,48.3,100.78,Mostly Cloudy,19.186999999999976,1.0011979725683415
4/19/2012 15:00,20.2,3.9,34,28,48.3,100.69,Mostly Cloudy,20.237000000000023,0.982139433707547
4/19/2012 16:00,20.7,4.0,33,26,48.3,100.65,Mostly Cloudy,21.161000000000012,0.986478005269463
4/19/2012 17:00,20.0,4.3,36,24,48.3,100.62,Mainly Clear,19.943000000000005,0.9732941728314826
4/19/2012 18:00,18.7,4.5,39,22,48.3,100.63,Mainly Clear,18.75300000000002,0.9750705399705367
4/19/2012 19:00,18.0,4.1,40,15,48.3,100.69,Mainly Clear,18.179000000000002,0.9902190331225673
4/19/2012 20:00,16.6,4.5,45,17,25.0,100.73,Mainly Clear,16.510999999999978,1.0915250707825508
4/19/2012 21:00,16.1,4.5,46,11,25.0,100.72,Clear,16.11099999999998,1.185180630558383
4/19/2012 22:00,13.9,4.8,54,13,25.0,100.73,Mainly Clear,13.946999999999996,1.6933833263411135
4/19/2012 23:00,12.6,4.6,58,9,25.0,100.78,Mainly Clear,12.591999999999995,1.7038242670445345
4/20/2012 0:00,12.5,2.5,50,19,25.0,100.88,Mainly Clear,12.64,1.703364720911545
4/20/2012 1:00,10.9,1.8,53,19,25.0,100.91,Clear,10.814999999999996,1.7182214918147927
4/20/2012 2:00,9.9,1.3,55,20,25.0,100.94,Mainly Clear,10.031999999999993,1.7239032708209212
4/20/2012 3:00,9.1,1.5,59,15,25.0,101.0,Mainly Clear,9.06600000000001,1.7311956212454445
4/20/2012 4:00,8.8,1.1,58,19,25.0,101.02,Mainly Clear,8.854000000000008,1.732684562649732
4/20/2012 5:00,8.7,-0.6,52,22,25.0,101.04,Mostly Cloudy,8.641000000000007,1.7341434093120454
4/20/2012 6:00,7.8,-0.4,56,28,24.1,101.11,Mostly Cloudy,8.029000000000002,1.7381401016787512
4/20/2012 7:00,6.9,0.3,63,22,24.1,101.17,Rain Showers,6.922999999999989,1.7452075860846687
4/20/2012 8:00,6.1,1.4,72,26,24.1,101.12,Cloudy,6.1650000000000045,1.7497895833285975
4/20/2012 9:00,6.3,1.4,71,19,48.3,101.13,Cloudy,6.276999999999999,1.7491297143983209
4/20/2012 10:00,6.6,1.6,70,24,24.1,101.07,Rain,6.577000000000006,1.747333305641101
4/20/2012 11:00,6.9,1.0,66,20,24.1,101.06,Cloudy,6.974999999999992,1.7448829862111932
4/20/2012 12:00,7.2,1.7,68,26,24.1,100.98,Rain Showers,7.255000000000006,1.7431114723768464
4/20/2012 13:00,7.5,2.0,68,24,24.1,100.91,Rain Showers,7.560000000000001,1.7411351640546582
4/20/2012 14:00,9.6,3.2,64,24,24.1,100.8,Cloudy,9.539000000000012,1.727733393919333
4/20/2012 15:00,9.5,3.0,64,24,24.1,100.7,Cloudy,9.445000000000004,1.7284374216212601
4/20/2012 16:00,8.4,2.9,68,33,24.1,100.67,Cloudy,8.425999999999993,1.7355796153297058
4/20/2012 17:00,7.8,2.6,70,26,24.1,100.59,Cloudy,7.695999999999991,1.740237783491964
4/20/2012 18:00,7.4,2.9,73,28,24.1,100.54,Cloudy,7.384999999999988,1.7422751561179781
4/20/2012 19:00,7.0,3.2,77,26,24.1,100.5,Cloudy,6.918000000000003,1.7452387260315645
4/20/2012 20:00,6.9,3.5,79,24,25.0,100.46,Cloudy,6.875999999999992,1.7454998077754333
4/20/2012 21:00,6.6,3.5,81,17,25.0,100.35,Cloudy,6.615000000000009,1.747102703359618
4/20/2012 22:00,6.5,3.4,81,17,25.0,100.32,Cloudy,6.462000000000001,1.7480269623339597
4/20/2012 23:00,6.6,3.5,81,20,25.0,100.27,Cloudy,6.612000000000006,1.7471209341281126
4/21/2012 0:00,6.3,3.7,83,19,25.0,100.18,Cloudy,6.462000000000009,1.7480269623339597
4/21/2012 1:00,6.4,4.0,85,15,25.0,100.13,Cloudy,6.347999999999993,1.7507512632600475
4/21/2012 2:00,5.7,3.5,86,19,25.0,100.21,Cloudy,5.680000000000002,1.7530322801745157
4/21/2012 3:00,5.5,3.3,86,20,25.0,100.21,Cloudy,5.512000000000001,1.753524778418459
4/21/2012 4:00,5.7,3.4,85,13,25.0,100.2,Cloudy,5.693,1.7525081867463956
4/21/2012 5:00,6.0,3.5,84,7,25.0,100.32,Cloudy,6.023000000000001,1.7506179501657793
4/21/2012 6:00,6.2,3.4,82,15,25.0,100.36,Cloudy,6.259000000000002,1.7492361554888372
4/21/2012 7:00,6.4,3.3,81,17,25.0,100.38,Rain Showers,6.356999999999992,1.7486548187482818
4/21/2012 8:00,6.2,3.3,82,17,24.1,100.42,Cloudy,6.223000000000001,1.7494485877307047
4/21/2012 9:00,5.5,3.4,86,19,24.1,100.49,Rain Showers,5.5360000000000005,1.7533907883657245
4/21/2012 10:00,5.5,3.3,86,17,9.7,100.53,"Rain,Fog",5.505999999999999,1.7535582376725507
4/21/2012 11:00,5.6,3.5,86,11,12.9,100.59,Rain,5.636000000000006,1.7530322801745157
4/21/2012 12:00,5.5,3.3,86,15,9.7,100.61,"Rain,Fog",5.505,1.7535638127288014
4/21/2012 13:00,6.1,3.7,85,19,24.1,100.65,Rain,6.093000000000006,1.7507512632600475
4/21/2012 14:00,6.1,3.9,86,19,16.1,100.69,Rain,6.13400000000001,1.7530322801745157
4/21/2012 15:00,5.7,3.3,85,17,16.1,100.73,Rain,5.657999999999999,1.7527058642782294
4/21/2012 16:00,5.3,2.5,82,19,16.1,100.8,Rain,5.3580000000000005,1.7543787541344922
4/21/2012 17:00,4.8,2.6,86,17,16.1,100.84,Rain,4.825000000000006,1.7570733865258346
4/21/2012 18:00,3.8,1.6,86,24,16.1,100.96,Rain,3.816000000000005,1.7617918991621007
4/21/2012 19:00,3.4,1.0,84,20,19.3,100.96,Rain,3.514999999999998,1.7631551302723085
4/21/2012 20:00,2.6,0.5,86,24,16.1,101.06,Rain,2.529000000000002,1.76739474030029
4/21/2012 21:00,2.6,0.3,85,26,25.0,101.06,Rain,2.6259999999999986,1.767068535782059
4/21/2012 22:00,1.9,-0.2,86,19,19.3,101.04,Rain,1.888000000000003,1.7691352005153202
4/21/2012 23:00,1.6,-0.3,87,13,25.0,101.08,Rain,1.6309999999999982,1.7698257208224182
4/22/2012 0:00,1.5,-0.6,86,24,25.0,101.04,Rain,1.4960000000000009,1.7701867932807962
4/22/2012 1:00,1.4,-0.5,87,17,25.0,101.06,"Rain,Snow",1.445000000000002,1.7703229037927444
4/22/2012 2:00,0.6,-1.0,89,13,9.7,101.07,"Rain,Snow",0.5930000000000009,1.7725731387187376
4/22/2012 3:00,0.8,-0.8,89,15,25.0,101.05,"Rain,Snow",0.6950000000000006,1.7723060705051397
4/22/2012 4:00,1.2,-0.3,90,11,25.0,101.05,Rain,1.209999999999999,1.770948002289921
4/22/2012 5:00,1.8,-0.3,86,19,25.0,101.06,Rain,1.7390000000000014,1.769536044913819
4/22/2012 6:00,1.9,-0.3,85,19,24.1,101.1,Cloudy,1.909000000000002,1.7690785935297328
4/22/2012 7:00,2.4,-0.5,81,20,24.1,101.17,Cloudy,2.3880000000000026,1.7677798348684959
4/22/2012 8:00,2.8,-1.1,75,20,24.1,101.24,Cloudy,2.8280000000000047,1.7661937867497584
4/22/2012 9:00,3.3,-1.0,73,28,24.1,101.27,Cloudy,3.1690000000000005,1.764697970504375
4/22/2012 10:00,4.0,-0.3,74,22,48.3,101.3,Cloudy,3.9600000000000004,1.7611326627840092
4/22/2012 11:00,4.6,-0.2,71,22,48.3,101.24,Cloudy,4.543000000000005,1.758415794288741
4/22/2012 12:00,5.0,-0.5,68,24,48.3,101.22,Cloudy,5.034,1.7560662803544884
4/22/2012 13:00,5.2,-0.4,67,20,48.3,101.3,Cloudy,5.200999999999994,1.7552391757974317
4/22/2012 14:00,5.9,-0.1,65,22,48.3,101.27,Cloudy,5.97999999999999,1.7508669944249007
4/22/2012 15:00,6.0,-0.6,63,28,48.3,101.2,Cloudy,5.915999999999998,1.751236131021343
4/22/2012 16:00,6.4,0.0,64,22,48.3,101.2,Cloudy,6.3679999999999914,1.748589286693945
4/22/2012 17:00,6.3,-0.3,63,26,48.3,101.17,Cloudy,6.309999999999998,1.7489341815374198
4/22/2012 18:00,6.5,0.0,63,24,48.3,101.13,Cloudy,6.491999999999994,1.7478466168354105
4/22/2012 19:00,6.1,0.4,67,32,24.1,101.16,Cloudy,6.127000000000007,1.7500121579270418
4/22/2012 20:00,5.3,-0.6,66,32,25.0,101.19,Cloudy,5.271000000000003,1.7548568076981734
4/22/2012 21:00,4.3,-1.0,68,35,25.0,101.07,Rain,4.4120000000000035,1.759033060761595
4/22/2012 22:00,2.8,-1.1,75,32,25.0,101.05,Rain,2.8120000000000043,1.7662633787627897
4/22/2012 23:00,2.0,-0.7,82,41,19.3,100.89,Rain,1.993,1.7688518877194115
4/23/2012 0:00,1.9,-0.8,82,46,19.3,100.73,Rain,1.8840000000000017,1.7691459796518672
4/23/2012 1:00,1.1,-1.1,85,44,11.3,100.59,"Rain,Snow",1.1369999999999987,1.7711414897530353
4/23/2012 2:00,1.1,-1.1,85,44,25.0,100.32,"Rain,Snow",1.1179999999999983,1.7711917959028427
4/23/2012 3:00,1.7,-0.7,84,52,25.0,100.11,"Rain,Snow",1.7269999999999985,1.76956826712669
4/23/2012 4:00,2.0,-0.7,82,44,25.0,99.82,Rain,1.9660000000000002,1.7689248059734692
4/23/2012 5:00,1.9,-0.2,86,46,8.0,99.74,Rain,1.8940000000000032,1.7691190299229773
4/23/2012 6:00,2.1,-0.3,84,52,16.1,99.66,Rain,2.127,1.7684893150959002
4/23/2012 7:00,2.3,-0.4,82,48,24.1,99.52,Rain,2.2900000000000027,1.768046739006913
4/23/2012 8:00,2.8,0.3,84,48,19.3,99.4,Rain,2.7750000000000044,1.7664241086345973
4/23/2012 9:00,3.1,0.6,84,44,12.9,99.29,Rain,3.0209999999999995,1.7653501607933384
4/23/2012 10:00,3.7,1.1,83,46,24.1,99.23,Cloudy,3.737999999999995,1.762147067625741
4/23/2012 11:00,4.1,1.7,84,48,19.3,99.15,Cloudy,4.121000000000004,1.7603901101857125
4/23/2012 12:00,4.6,1.9,83,46,24.1,99.09,Cloudy,4.535000000000002,1.7584536043322292
4/23/2012 13:00,5.0,2.4,83,41,24.1,99.06,Cloudy,5.0299999999999985,1.7560856537953677
4/23/2012 14:00,5.3,2.2,80,44,24.1,98.97,Cloudy,5.305000000000003,1.7546703562800203
4/23/2012 15:00,5.7,2.4,79,43,24.1,98.9,Cloudy,5.740999999999998,1.7522362217358498
4/23/2012 16:00,5.6,2.4,80,39,24.1,98.81,Cloudy,5.482000000000003,1.7536919219668823
4/23/2012 17:00,5.9,2.9,81,35,24.1,98.8,Cloudy,5.912999999999995,1.7512533894675029
4/23/2012 18:00,5.9,2.8,80,43,24.1,98.66,Cloudy,5.861999999999995,1.7515461715871292
4/23/2012 19:00,5.4,3.2,86,39,9.7,98.61,"Rain,Fog",5.446999999999995,1.7538864412956756
4/23/2012 20:00,5.7,3.6,86,41,25.0,98.54,Cloudy,5.750000000000001,1.7530322801745157
4/23/2012 21:00,5.6,3.5,86,37,25.0,98.51,Rain,5.630000000000008,1.7530322801745157
4/23/2012 22:00,5.5,3.7,88,19,25.0,98.58,Cloudy,5.515,1.7571931537828946
4/23/2012 23:00,5.6,3.9,89,9,25.0,98.64,Cloudy,5.608000000000007,1.7590894054480448
4/24/2012 0:00,5.7,4.2,90,13,25.0,98.6,Cloudy,5.730999999999997,1.7609487211792867
4/24/2012 1:00,6.7,5.1,90,7,16.1,98.56,Cloudy,6.7260000000000035,1.7609487211792867
4/24/2012 2:00,6.1,4.5,89,6,9.7,98.5,Fog,6.082000000000005,1.7590894054480448
4/24/2012 3:00,7.0,5.5,90,15,12.9,98.53,Cloudy,7.009999999999999,1.7609487211792867
4/24/2012 4:00,7.5,4.2,80,19,25.0,98.51,Rain Showers,7.457000000000001,1.7418081176093512
4/24/2012 5:00,7.1,3.1,76,19,24.1,98.47,Cloudy,7.033000000000011,1.744519322683639
4/24/2012 6:00,6.8,3.4,79,19,19.3,98.51,Rain Showers,6.700999999999994,1.7465782327776627
4/24/2012 7:00,5.5,3.0,84,13,11.3,98.6,Rain Showers,5.501,1.7535861087095896
4/24/2012 8:00,6.6,3.7,82,13,24.1,98.63,Rain Showers,6.61700000000001,1.7470905470981941
4/24/2012 9:00,7.7,1.4,64,17,48.3,98.64,Mostly Cloudy,7.810000000000005,1.7395041155034947
4/24/2012 10:00,7.2,1.2,66,19,24.1,98.72,Rain Showers,7.224000000000005,1.743309593682805
4/24/2012 11:00,8.8,1.2,59,26,24.1,98.78,Mostly Cloudy,8.746999999999991,1.7334219739243684
4/24/2012 12:00,8.9,3.6,69,17,24.1,98.82,Mostly Cloudy,9.142999999999999,1.730645426584061
4/24/2012 13:00,8.0,1.2,62,24,24.1,98.9,Rain Showers,8.064999999999996,1.7379126507817804
4/24/2012 14:00,8.0,0.5,59,28,24.1,99.01,Cloudy,7.980000000000001,1.7384482084084163
4/24/2012 15:00,8.4,1.9,64,19,48.3,99.08,Cloudy,8.267999999999994,1.736612565929545
4/24/2012 16:00,8.1,-0.3,55,32,48.3,99.19,Cloudy,8.21600000000001,1.7369484573402143
4/24/2012 17:00,8.0,0.4,59,28,48.3,99.26,Cloudy,7.8510000000000035,1.7392512888976872
4/24/2012 18:00,7.7,0.4,60,20,48.3,99.3,Mostly Cloudy,7.610000000000005,1.74080641899929
4/24/2012 19:00,7.1,0.1,61,19,24.1,99.37,Cloudy,7.100000000000005,1.7440971002410206
4/24/2012 20:00,6.9,0.0,61,28,25.0,99.45,Cloudy,7.008000000000003,1.7446762830853448
4/24/2012 21:00,6.6,-0.2,62,20,25.0,99.54,Cloudy,6.532000000000008,1.7476054892912793
4/24/2012 22:00,6.0,-0.9,61,24,25.0,99.56,Mostly Cloudy,5.991999999999999,1.7507975772738082
4/24/2012 23:00,5.4,-0.9,64,19,25.0,99.61,Mostly Cloudy,5.428999999999993,1.7539862785405878
4/25/2012 0:00,4.9,-0.6,68,19,25.0,99.67,Mostly Cloudy,4.968999999999999,1.7563806198936398
4/25/2012 1:00,5.5,-0.7,64,19,25.0,99.71,Mostly Cloudy,5.563999999999998,1.75323415647911
4/25/2012 2:00,4.5,-0.2,71,13,25.0,99.74,Mostly Cloudy,4.504000000000001,1.7585999773968117
4/25/2012 3:00,4.4,-0.3,71,15,25.0,99.77,Mostly Cloudy,4.394999999999994,1.7591128725888852
4/25/2012 4:00,4.8,-0.3,70,15,25.0,99.8,Mostly Cloudy,4.744000000000003,1.7574608935816276
4/25/2012 5:00,4.5,0.0,73,13,24.1,99.84,Mostly Cloudy,4.478,1.7587225695194029
4/25/2012 6:00,5.2,0.1,70,20,24.1,99.93,Rain Showers,5.062999999999996,1.7559257070543288
4/25/2012 7:00,5.5,0.6,71,19,19.3,100.01,Rain Showers,5.5100000000000025,1.7535359332018772
4/25/2012 8:00,4.9,1.5,79,19,24.1,100.08,Rain,4.917999999999995,1.7566265430167665
4/25/2012 9:00,5.1,2.9,86,15,24.1,100.15,Rain,5.168000000000006,1.755415025565133
4/25/2012 10:00,6.1,2.9,80,9,24.1,100.22,Rain,6.016999999999997,1.7506527504497706
4/25/2012 11:00,7.8,2.7,70,17,48.3,100.23,Mostly Cloudy,7.744999999999992,1.739911973121723
4/25/2012 12:00,8.0,1.9,65,20,48.3,100.26,Mostly Cloudy,7.998999999999999,1.7383289401375424
4/25/2012 13:00,8.7,0.1,55,20,48.3,100.29,Mostly Cloudy,8.61400000000001,1.7343257465400654
4/25/2012 14:00,9.8,1.7,57,19,24.1,100.31,Mostly Cloudy,9.771999999999991,1.7259526336371822
4/25/2012 15:00,7.7,0.5,60,15,24.1,100.38,Rain Showers,7.719000000000006,1.7400850174021385
4/25/2012 16:00,8.8,-1.5,48,17,24.1,100.41,Mostly Cloudy,8.81699999999999,1.732940608231137
4/25/2012 17:00,8.8,-1.5,48,22,48.3,100.45,Mostly Cloudy,8.82899999999999,1.7328576889685314
4/25/2012 18:00,8.0,-1.9,50,22,48.3,100.5,Mostly Cloudy,7.9769999999999985,1.7384670169558496
4/25/2012 19:00,7.3,0.1,60,17,24.1,100.56,Mostly Cloudy,7.290999999999996,1.7428807663529373
4/25/2012 20:00,7.3,-0.2,59,17,25.0,100.61,Mostly Cloudy,7.2699999999999925,1.7430154272541056
4/25/2012 21:00,7.0,0.0,61,13,25.0,100.67,Mostly Cloudy,6.964000000000003,1.7449517650503341
4/25/2012 22:00,6.2,0.2,65,9,25.0,100.69,Mostly Cloudy,6.206,1.7495486949985362
4/25/2012 23:00,6.0,0.2,66,9,25.0,100.69,Cloudy,5.996999999999999,1.7507686343842752
4/26/2012 0:00,5.8,0.9,71,7,25.0,100.68,Mostly Cloudy,5.781000000000002,1.7520088168899617
4/26/2012 1:00,4.9,0.2,72,9,25.0,100.67,Mainly Clear,4.901999999999994,1.756703566683115
4/26/2012 2:00,3.7,-0.5,74,7,25.0,100.67,Mainly Clear,3.7249999999999956,1.762206132086172
4/26/2012 3:00,3.5,-0.6,74,11,25.0,100.66,Clear,3.4949999999999988,1.7632450110638795
4/26/2012 4:00,2.7,-1.5,74,7,25.0,100.66,Clear,2.6749999999999967,1.7668571099459982
4/26/2012 5:00,2.6,-1.3,75,9,24.1,100.69,Clear,2.6529999999999982,1.7669520962537977
4/26/2012 6:00,3.2,-0.6,76,4,48.3,100.71,Clear,3.203999999999995,1.7645430621616307
4/26/2012 7:00,5.5,0.9,72,7,48.3,100.72,Mostly Cloudy,5.654,1.752728422262087
4/26/2012 8:00,6.2,0.8,68,7,48.3,100.72,Cloudy,6.263,1.7492125148947013
4/26/2012 9:00,6.9,-0.3,60,7,48.3,100.65,Cloudy,6.9159999999999915,1.745251178502488
4/26/2012 10:00,8.8,0.3,55,11,48.3,100.6,Mostly Cloudy,8.775000000000004,1.7332299034972036
4/26/2012 11:00,9.6,0.3,52,7,48.3,100.49,Cloudy,9.58,1.7274237574173015
4/26/2012 12:00,9.8,0.5,52,13,48.3,100.39,Cloudy,9.766999999999989,1.7259913918300962
4/26/2012 13:00,10.3,0.8,52,13,48.3,100.24,Cloudy,10.071999999999987,1.7235819587774996
4/26/2012 14:00,11.0,-0.4,45,17,24.1,100.08,Cloudy,10.968,1.7171536905027922
4/26/2012 15:00,11.2,-0.6,44,19,48.3,99.98,Cloudy,11.077000000000009,1.7163758002888287
4/26/2012 16:00,11.4,-0.6,43,19,24.1,99.84,Cloudy,11.408999999999994,1.7139137873654486
4/26/2012 17:00,11.0,1.3,51,15,19.3,99.8,Rain,10.903999999999995,1.7176037266305986
4/26/2012 18:00,8.6,5.4,80,19,19.3,99.72,Rain,8.582000000000006,1.7383226557949913
4/26/2012 19:00,8.3,5.6,83,15,19.3,99.7,Rain,8.239999999999991,1.7459700090483987
4/26/2012 20:00,8.1,5.8,85,7,25.0,99.69,Rain,8.070000000000011,1.7507512632600475
4/26/2012 21:00,8.0,6.2,88,9,9.7,99.67,"Rain,Fog",7.9810000000000025,1.7571931537828946
4/26/2012 22:00,7.6,5.8,88,6,9.7,99.61,"Drizzle,Fog",7.72000000000001,1.7571931537828946
4/26/2012 23:00,6.9,5.3,90,13,9.7,99.59,"Rain,Fog",6.802000000000003,1.7609487211792867
4/27/2012 0:00,5.8,4.1,89,22,9.7,99.67,"Rain,Fog",5.723,1.7590894054480448
4/27/2012 1:00,4.8,2.6,86,15,25.0,99.74,Rain,4.830000000000005,1.7570494152169922
4/27/2012 2:00,4.7,2.8,87,15,25.0,99.79,Rain,4.685999999999998,1.7577374127426726
4/27/2012 3:00,4.4,1.8,83,22,25.0,99.87,Mostly Cloudy,4.421999999999997,1.7589860814439813
4/27/2012 4:00,4.2,1.0,80,24,25.0,99.94,Mostly Cloudy,4.225000000000004,1.7599073369528642
4/27/2012 5:00,3.3,-0.6,76,26,24.1,100.03,Rain Showers,3.2780000000000036,1.764214687464964
4/27/2012 6:00,2.5,-1.7,74,28,24.1,100.16,Mostly Cloudy,2.4519999999999995,1.767605198322696
4/27/2012 7:00,1.8,-2.9,71,32,12.9,100.25,Snow,1.7840000000000023,1.7694151313145232
4/27/2012 8:00,2.3,-2.7,69,26,24.1,100.33,Snow,2.325,1.7679514865607893
4/27/2012 9:00,2.7,-3.2,65,32,24.1,100.4,Snow,2.721999999999997,1.7666538540233543
4/27/2012 10:00,3.7,-3.1,61,30,24.1,100.48,Snow,3.7329999999999957,1.7621697891222525
4/27/2012 11:00,3.0,-3.7,61,30,24.1,100.58,Cloudy,2.969,1.7655782201995438
4/27/2012 12:00,2.7,-4.1,61,35,24.1,100.65,Snow,2.737999999999998,1.7665845575443186
4/27/2012 13:00,2.7,-5.0,57,37,24.1,100.76,Cloudy,2.6489999999999974,1.7669693559068689
4/27/2012 14:00,1.9,-5.3,59,37,24.1,100.86,Cloudy,1.9690000000000023,1.7689167062172093
4/27/2012 15:00,2.5,-5.1,57,30,24.1,100.92,Cloudy,2.5019999999999993,1.7674685806521266
4/27/2012 16:00,2.1,-5.9,55,30,24.1,100.97,Cloudy,2.1639999999999975,1.7683890012772538
4/27/2012 17:00,1.7,-6.3,55,33,24.1,101.09,Cloudy,1.851000000000001,1.7692348691365631
4/27/2012 18:00,1.0,-7.2,54,28,24.1,101.18,Cloudy,1.2289999999999999,1.7708975888694591
4/27/2012 19:00,0.7,-7.7,53,22,24.1,101.25,Cloudy,0.7800000000000007,1.7720830340506877
4/27/2012 20:00,0.5,-7.2,56,24,25.0,101.36,Cloudy,0.46800000000000014,1.7728995750869052
4/27/2012 21:00,0.2,-7.1,58,19,25.0,101.42,Cloudy,0.25299999999999967,1.773458858977414
4/27/2012 22:00,0.2,-7.8,55,20,25.0,101.47,Cloudy,0.23899999999999977,1.7734951819500555
4/27/2012 23:00,0.3,-7.7,55,17,25.0,101.5,Cloudy,0.3500000000000002,1.7732068723302152
4/28/2012 0:00,0.2,-7.4,57,17,25.0,101.52,Cloudy,0.10399999999999998,1.7738448424138793
4/28/2012 1:00,-0.2,-8.2,55,19,25.0,101.51,Cloudy,-0.16599999999999981,1.7732536750910262
4/28/2012 2:00,-0.4,-8.1,56,22,25.0,101.5,Cloudy,-0.4289999999999995,1.7718779805041622
4/28/2012 3:00,-0.8,-9.1,53,17,25.0,101.54,Cloudy,-0.7059999999999991,1.7704108894199246
4/28/2012 4:00,-1.3,-9.8,52,24,25.0,101.6,Cloudy,-1.2529999999999986,1.7674576442990877
4/28/2012 5:00,-1.5,-9.6,54,26,24.1,101.67,Cloudy,-1.4469999999999994,1.7659061615858054
4/28/2012 6:00,-2.1,-10.7,52,22,48.3,101.74,Mainly Clear,-2.086999999999998,1.7601443883242531
4/28/2012 7:00,-1.3,-10.0,52,30,48.3,101.75,Mainly Clear,-1.3899999999999995,1.7664024048164848
4/28/2012 8:00,-0.4,-10.0,48,24,48.3,101.78,Mainly Clear,-0.4679999999999999,1.771672557658056
4/28/2012 9:00,0.6,-9.7,46,32,48.3,101.79,Mainly Clear,0.5200000000000006,1.7727638914570045
4/28/2012 10:00,2.0,-7.4,50,28,48.3,101.73,Mainly Clear,1.974,1.7689032053615186
4/28/2012 11:00,3.9,-9.9,36,24,48.3,101.71,Mainly Clear,3.878999999999996,1.7615040503860164
4/28/2012 12:00,5.0,-9.7,34,30,48.3,101.68,Mainly Clear,4.910000000000001,1.7566650625214006
4/28/2012 13:00,5.4,-11.1,29,32,48.3,101.62,Mainly Clear,5.392999999999993,1.7541855442850685
4/28/2012 14:00,6.4,-10.7,28,24,48.3,101.57,Mainly Clear,6.420999999999991,1.7482727442345731
4/28/2012 15:00,7.2,-10.5,27,35,48.3,101.5,Mainly Clear,7.128000000000003,1.7439199688791813
4/28/2012 16:00,7.4,-11.0,26,30,48.3,101.46,Mainly Clear,7.599999999999991,1.740872276810881
4/28/2012 17:00,7.7,-11.2,25,28,48.3,101.45,Mainly Clear,7.6440000000000055,1.7405820941093226
4/28/2012 18:00,7.2,-11.3,25,24,48.3,101.43,Clear,7.277000000000006,1.7429705659416506
4/28/2012 19:00,6.1,-11.4,27,19,48.3,101.46,Clear,6.255000000000007,1.7492597886713492
4/28/2012 20:00,4.1,-10.2,34,11,25.0,101.51,Mainly Clear,3.995000000000005,1.7609717334714041
4/28/2012 21:00,2.3,-9.7,41,11,25.0,101.55,Clear,2.120000000000003,1.7685082836118764
4/28/2012 22:00,1.9,-9.9,41,9,25.0,101.56,Mostly Cloudy,1.9390000000000032,1.76899767823628
4/28/2012 23:00,0.8,-9.1,47,6,25.0,101.55,Mostly Cloudy,1.0049999999999997,1.7714905288070586
4/29/2012 0:00,0.8,-8.8,49,7,25.0,101.52,Cloudy,0.8539999999999992,1.7718885050457733
4/29/2012 1:00,1.3,-8.7,47,11,25.0,101.49,Mainly Clear,1.3489999999999989,1.770578674924674
4/29/2012 2:00,1.3,-7.5,52,11,25.0,101.49,Mainly Clear,1.385,1.7704828275350646
4/29/2012 3:00,0.8,-7.8,53,13,25.0,101.47,Mostly Cloudy,0.761999999999999,1.7721303017601147
4/29/2012 4:00,-0.1,-7.7,57,9,25.0,101.48,Mainly Clear,-0.06899999999999994,1.7737568815245237
4/29/2012 5:00,0.9,-10.5,42,19,48.3,101.52,Mostly Cloudy,0.9200000000000006,1.7717147258336863
4/29/2012 6:00,1.2,-11.4,38,20,48.3,101.58,Mostly Cloudy,1.4250000000000003,1.7703762364638125
4/29/2012 7:00,1.8,-11.9,35,26,48.3,101.64,Mostly Cloudy,2.1780000000000017,1.768351022023836
4/29/2012 8:00,2.6,-11.7,34,19,48.3,101.65,Mostly Cloudy,2.8069999999999995,1.7662851154610708
4/29/2012 9:00,4.3,-11.7,30,19,48.3,101.64,Mainly Clear,4.348999999999995,1.7593284998965792
4/29/2012 10:00,5.5,-11.4,28,26,48.3,101.67,Clear,5.622999999999999,1.752903012640298
4/29/2012 11:00,6.2,-11.6,27,24,48.3,101.62,Clear,6.395000000000001,1.7484281944289037
4/29/2012 12:00,7.4,-10.5,27,24,48.3,101.62,Clear,7.008999999999998,1.744670010754164
4/29/2012 13:00,8.4,-11.1,24,32,48.3,101.64,Clear,8.285999999999989,1.7364958303125986
4/29/2012 14:00,8.7,-11.7,22,22,48.3,101.65,Clear,8.399000000000008,1.7357574633926771
4/29/2012 15:00,9.0,-12.0,21,32,48.3,101.63,Clear,8.604000000000001,1.7343931332837141
4/29/2012 16:00,9.2,-11.8,21,28,48.3,101.66,Mainly Clear,8.89200000000001,1.73242042836982
4/29/2012 17:00,9.0,-11.5,22,30,48.3,101.72,Clear,8.801000000000002,1.7330509848151538
4/29/2012 18:00,8.1,-11.9,23,28,48.3,101.77,Clear,8.399000000000001,1.7357574633926776
4/29/2012 19:00,6.9,-11.7,25,20,48.3,101.82,Clear,7.202999999999991,1.743443520837273
4/29/2012 20:00,6.3,-11.4,27,15,25.0,101.93,Mainly Clear,6.131,1.7499887600883193
4/29/2012 21:00,5.4,-11.0,29,19,25.0,102.01,Mainly Clear,5.378999999999991,1.7542628897162684
4/29/2012 22:00,5.1,-10.7,31,15,25.0,102.05,Clear,5.132000000000006,1.755590418853208
4/29/2012 23:00,4.1,-10.3,34,13,25.0,102.09,Clear,4.063000000000003,1.7606582854934245
4/30/2012 0:00,3.3,-10.3,36,9,25.0,102.06,Clear,3.3020000000000005,1.76410793769017
4/30/2012 1:00,2.2,-9.7,41,6,25.0,102.12,Clear,2.2530000000000014,1.7681473494569504
4/30/2012 2:00,3.2,-10.4,36,0,25.0,102.09,Clear,3.2029999999999963,1.7645474917084778
4/30/2012 3:00,2.4,-9.2,42,0,25.0,102.09,Clear,2.452000000000002,1.7676051983226961
4/30/2012 4:00,0.7,-9.0,48,4,25.0,102.14,Clear,1.0349999999999997,1.7714112952694567
4/30/2012 5:00,-0.7,-6.9,63,4,48.3,102.23,Mainly Clear,-0.6950000000000008,1.7704695090632863
4/30/2012 6:00,3.0,-4.3,59,0,48.3,102.33,Mainly Clear,2.95,1.765661409136769
4/30/2012 7:00,6.0,-7.3,38,0,48.3,102.37,Mainly Clear,5.881,1.7514372307060389
4/30/2012 8:00,6.6,-6.3,39,11,48.3,102.41,Mostly Cloudy,6.691000000000008,1.7466394025222418
4/30/2012 9:00,7.2,-6.4,37,7,48.3,102.31,Mostly Cloudy,7.209000000000007,1.743405279303099
4/30/2012 10:00,7.6,-6.7,35,7,48.3,102.31,Mostly Cloudy,7.724000000000009,1.7400517687154313
4/30/2012 11:00,9.3,-5.2,35,0,48.3,102.2,Mostly Cloudy,9.534999999999991,1.7277635186257243
4/30/2012 12:00,10.1,-3.2,39,6,48.3,102.15,Mostly Cloudy,10.073000000000002,1.7235739049946632
4/30/2012 13:00,12.4,-4.3,31,11,48.3,102.01,Mostly Cloudy,12.545000000000002,1.7042700238495723
4/30/2012 14:00,12.4,-3.2,34,7,48.3,101.93,Mostly Cloudy,12.552999999999999,1.7041944423839495
4/30/2012 15:00,12.5,-4.2,31,15,48.3,101.83,Mostly Cloudy,12.458999999999998,1.705075056358523
4/30/2012 16:00,12.9,-3.8,31,9,48.3,101.79,Mostly Cloudy,12.820000000000007,1.7016015966137525
4/30/2012 17:00,12.7,-4.5,30,9,24.1,101.73,Cloudy,12.926000000000004,1.7005328860494457
4/30/2012 18:00,12.5,-4.0,31,13,25.0,101.68,Cloudy,12.457,1.7050936169766073
4/30/2012 19:00,12.2,-3.6,33,11,25.0,101.6,Cloudy,12.24600000000002,1.707011810144486
4/30/2012 20:00,12.1,-2.9,35,11,25.0,101.53,Cloudy,12.596999999999998,1.703776601685525
4/30/2012 21:00,12.2,-3.7,33,13,25.0,101.49,Cloudy,12.134000000000016,1.707998829878508
4/30/2012 22:00,12.0,-3.2,34,11,25.0,101.47,Cloudy,12.138,1.7079639401147457
4/30/2012 23:00,11.1,-2.0,40,6,25.0,101.45,Cloudy,11.190000000000007,1.7155537900075735
5/1/2012 0:00,11.4,-1.9,39,11,25.0,101.32,Cloudy,11.443999999999994,1.7136457644306167
5/1/2012 1:00,10.8,-1.0,44,19,25.0,101.22,Rain Showers,10.738999999999985,1.7187417357020809
5/1/2012 2:00,9.7,1.7,57,7,25.0,101.24,Rain Showers,9.773000000000009,1.7259448790911405
5/1/2012 3:00,8.8,3.2,68,15,25.0,101.2,Rain Showers,8.669999999999993,1.7339469242530503
5/1/2012 4:00,8.4,3.7,72,17,25.0,101.15,Rain,8.59099999999999,1.7344806187621702
5/1/2012 5:00,7.8,5.1,83,24,11.3,101.13,Rain,7.787999999999995,1.7459700090483987
5/1/2012 6:00,7.8,5.8,87,24,9.7,101.15,"Rain,Fog",7.827999999999992,1.755244623603565
5/1/2012 7:00,7.9,5.9,87,13,9.7,101.15,Rain,7.89099999999999,1.755244623603565
5/1/2012 8:00,8.0,5.9,87,17,9.7,101.13,"Rain,Fog",7.942999999999996,1.755244623603565
5/1/2012 9:00,8.4,6.8,90,13,9.7,101.09,Fog,8.177999999999995,1.7609487211792867
5/1/2012 10:00,9.2,7.0,86,6,16.1,101.12,Cloudy,9.228000000000009,1.7530322801745157
5/1/2012 11:00,9.5,7.0,84,6,16.1,101.13,Cloudy,9.518000000000002,1.7483983249034645
5/1/2012 12:00,10.9,7.9,82,7,16.1,101.08,Cloudy,10.84699999999999,1.7434626346010758
5/1/2012 13:00,10.6,7.5,81,0,16.1,101.12,Cloudy,10.633000000000004,1.7408722768108806
5/1/2012 14:00,11.0,7.8,81,0,16.1,101.15,Cloudy,10.975,1.7408722768108806
5/1/2012 15:00,10.4,7.9,84,9,9.7,101.16,Drizzle,10.42599999999999,1.7483983249034645
5/1/2012 16:00,9.9,7.9,87,9,4.8,101.17,"Drizzle,Fog",9.923999999999992,1.755244623603565
5/1/2012 17:00,10.0,8.4,90,7,4.0,101.21,"Rain,Fog",9.948000000000002,1.7609487211792867
5/1/2012 18:00,9.7,8.2,90,7,2.4,101.3,"Rain,Fog",9.790000000000003,1.7609487211792867
5/1/2012 19:00,9.6,8.2,91,9,2.0,101.35,"Drizzle,Fog",9.635000000000009,1.762772169746578
5/1/2012 20:00,9.3,8.0,92,6,4.0,101.39,"Drizzle,Fog",9.289999999999996,1.764560779079539
5/1/2012 21:00,9.2,7.9,92,9,2.4,101.38,"Drizzle,Fog",9.213000000000015,1.764560779079539
5/1/2012 22:00,9.1,7.9,92,6,2.0,101.38,"Drizzle,Fog",9.19800000000001,1.764560779079539
5/1/2012 23:00,9.1,7.9,92,6,2.4,101.41,"Drizzle,Fog",9.175000000000011,1.764560779079539
5/2/2012 0:00,9.0,7.9,93,6,1.6,101.43,"Drizzle,Fog",8.928000000000003,1.7663155381997573
5/2/2012 1:00,8.6,7.8,95,6,0.6,101.44,Fog,8.649000000000004,1.768832975474038
5/2/2012 2:00,8.8,7.7,93,4,0.4,101.44,Fog,8.784999999999988,1.7663155381997573
5/2/2012 3:00,8.8,7.7,93,4,0.4,101.49,Fog,8.779999999999987,1.7663155381997573
5/2/2012 4:00,8.6,7.5,93,9,1.2,101.52,Fog,8.611000000000008,1.7663155381997573
5/2/2012 5:00,8.4,7.3,93,13,1.0,101.57,Fog,8.44399999999999,1.7663155381997573
5/2/2012 6:00,8.6,7.5,93,11,1.6,101.58,Fog,8.60200000000001,1.7663155381997573
5/2/2012 7:00,8.4,7.3,93,17,1.0,101.7,"Drizzle,Fog",8.372999999999989,1.7663155381997573
5/2/2012 8:00,8.4,7.2,92,15,2.4,101.71,Fog,8.480999999999987,1.764560779079539
5/2/2012 9:00,8.9,7.4,90,13,6.4,101.68,Fog,8.93699999999999,1.7609487211792867
5/2/2012 10:00,9.5,7.8,89,13,6.4,101.73,Fog,9.566,1.7590894054480448
5/2/2012 11:00,10.3,8.0,86,13,12.9,101.72,Cloudy,10.29499999999999,1.7530322801745157
5/2/2012 12:00,11.2,8.0,81,13,12.9,101.64,Cloudy,11.180000000000012,1.7408722768108806
5/2/2012 13:00,11.8,8.3,79,17,12.9,101.57,Cloudy,11.806999999999986,1.7357508862871274
5/2/2012 14:00,13.0,8.5,74,11,16.1,101.51,Mostly Cloudy,13.068000000000001,1.7209839103698092
5/2/2012 15:00,14.0,9.1,72,19,16.1,101.42,Mostly Cloudy,14.004999999999997,1.7154802667147235
5/2/2012 16:00,14.9,9.0,68,19,19.3,101.37,Mostly Cloudy,14.860000000000014,1.7018006700167505
5/2/2012 17:00,15.4,8.9,65,17,24.1,101.31,Mostly Cloudy,15.367000000000013,1.5134415954623328
5/2/2012 18:00,15.4,9.0,66,15,24.1,101.28,Cloudy,15.340000000000021,1.534740685118473
5/2/2012 19:00,15.2,9.0,66,15,24.1,101.29,Mostly Cloudy,15.256000000000022,1.569776607907511
5/2/2012 20:00,14.2,9.0,71,11,25.0,101.34,Mostly Cloudy,14.22900000000002,1.712430565280306
5/2/2012 21:00,14.2,8.0,66,17,25.0,101.27,Mostly Cloudy,14.192000000000025,1.6960165533823464
5/2/2012 22:00,13.5,7.7,68,19,25.0,101.22,Rain Showers,13.447000000000001,1.7018006700167505
5/2/2012 23:00,11.9,8.7,81,19,25.0,101.18,Rain Showers,11.865000000000002,1.7408722768108806
5/3/2012 0:00,11.6,8.9,83,17,25.0,101.16,Cloudy,11.728,1.7459700090483987
5/3/2012 1:00,11.4,8.9,85,15,25.0,101.17,Cloudy,11.374999999999995,1.7507512632600475
5/3/2012 2:00,11.4,8.7,83,17,25.0,101.18,Cloudy,11.630000000000006,1.7459700090483987
5/3/2012 3:00,11.2,8.5,83,15,25.0,101.21,Cloudy,11.247000000000016,1.7459700090483987
5/3/2012 4:00,11.1,8.4,83,17,25.0,101.24,Cloudy,11.09400000000001,1.7459700090483987
5/3/2012 5:00,11.0,8.4,84,13,24.1,101.29,Cloudy,10.993999999999998,1.7483983249034645
5/3/2012 6:00,11.4,8.5,82,13,24.1,101.31,Cloudy,11.402000000000003,1.7434626346010758
5/3/2012 7:00,11.7,8.6,81,15,24.1,101.36,Cloudy,11.72200000000001,1.7408722768108806
5/3/2012 8:00,12.4,8.8,79,15,24.1,101.42,Cloudy,12.515999999999998,1.7357508862871274
5/3/2012 9:00,13.6,9.6,77,17,24.1,101.42,Cloudy,13.594,1.7302348458823897
5/3/2012 10:00,14.2,9.9,75,13,24.1,101.44,Cloudy,14.237000000000021,1.7241591468416737
5/3/2012 11:00,15.4,10.3,72,11,24.1,101.41,Cloudy,15.403000000000015,1.7154802667147235
5/3/2012 12:00,15.7,10.3,70,15,24.1,101.4,Cloudy,15.761000000000017,1.7091525423728813
5/3/2012 13:00,15.9,10.7,71,13,24.1,101.38,Cloudy,15.923000000000025,1.712430565280306
5/3/2012 14:00,16.2,10.8,70,11,24.1,101.37,Cloudy,16.286000000000005,1.7091525423728813
5/3/2012 15:00,16.2,11.0,71,7,24.1,101.27,Cloudy,16.208000000000016,1.712430565280306
5/3/2012 16:00,16.5,11.4,72,13,24.1,101.17,Cloudy,16.39100000000001,1.7154802667147235
5/3/2012 17:00,16.4,11.4,72,6,24.1,101.22,Rain Showers,16.38300000000001,1.7154802667147235
5/3/2012 18:00,15.8,11.9,78,7,24.1,101.21,Cloudy,15.767999999999981,1.733057876440812
5/3/2012 19:00,15.7,11.4,76,6,24.1,101.18,Cloudy,15.62100000000002,1.7272721454173066
5/3/2012 20:00,15.1,11.1,77,11,25.0,101.13,Cloudy,15.046999999999986,1.7302348458823897
5/3/2012 21:00,14.2,10.8,80,13,25.0,101.04,Mostly Cloudy,14.23600000000002,1.7383226557949913
5/3/2012 22:00,13.8,10.2,79,11,25.0,101.01,Cloudy,13.806999999999983,1.7357508862871274
5/3/2012 23:00,13.8,10.4,80,11,25.0,100.99,Rain,13.775999999999978,1.7383226557949913
5/4/2012 0:00,13.5,10.7,83,13,25.0,100.85,Cloudy,13.515999999999998,1.7459700090483987
5/4/2012 1:00,13.3,10.8,85,17,25.0,100.7,Cloudy,13.30099999999998,1.7507512632600475
5/4/2012 2:00,13.1,11.0,87,13,9.7,100.75,"Drizzle,Fog",13.097999999999995,1.755244623603565
5/4/2012 3:00,13.2,11.2,88,11,8.0,100.66,"Drizzle,Fog",13.196000000000025,1.7571931537828946
5/4/2012 4:00,13.1,11.2,88,6,8.0,100.7,"Drizzle,Fog",13.132,1.7571931537828946
5/4/2012 5:00,13.2,11.2,88,6,8.0,100.67,Fog,13.175000000000022,1.7571931537828946
5/4/2012 6:00,13.3,11.3,88,11,3.6,100.69,"Drizzle,Fog",13.28599999999998,1.7571931537828946
5/4/2012 7:00,13.6,11.7,88,7,4.8,100.7,"Drizzle,Fog",13.608999999999991,1.7571931537828946
5/4/2012 8:00,13.7,12.1,90,6,3.6,100.72,"Drizzle,Fog",13.809999999999986,1.7609487211792867
5/4/2012 9:00,13.5,11.9,90,11,4.0,100.71,"Drizzle,Fog",13.549999999999995,1.7609487211792867
5/4/2012 10:00,13.8,12.0,89,11,9.7,100.71,"Drizzle,Fog",13.77099999999998,1.7590894054480448
5/4/2012 11:00,14.6,12.3,86,7,16.1,100.72,Cloudy,14.608999999999996,1.7530322801745157
5/4/2012 12:00,15.3,12.2,82,0,24.1,100.7,Cloudy,15.211000000000002,1.7434626346010758
5/4/2012 13:00,16.0,12.6,80,9,24.1,100.71,Cloudy,16.017999999999994,1.7383226557949913
5/4/2012 14:00,16.0,12.5,80,9,24.1,100.73,Cloudy,15.974999999999998,1.7383226557949913
5/4/2012 15:00,16.9,13.0,78,9,24.1,100.72,Cloudy,16.904,1.733057876440812
5/4/2012 16:00,16.6,12.9,79,7,24.1,100.77,Cloudy,16.535999999999984,1.7357508862871274
5/4/2012 17:00,17.1,12.9,76,7,24.1,100.79,Cloudy,17.04899999999998,1.7272721454173066
5/4/2012 18:00,17.4,13.0,75,4,24.1,100.79,Mostly Cloudy,17.411000000000016,1.7241591468416737
5/4/2012 19:00,15.9,13.0,83,9,9.7,100.82,Rain Showers,15.971000000000005,1.7459700090483987
5/4/2012 20:00,15.4,13.5,88,9,25.0,100.89,Mostly Cloudy,15.65600000000002,1.7571931537828946
5/4/2012 21:00,14.0,9.8,76,32,25.0,100.99,Cloudy,13.875000000000018,1.7272721454173066
5/4/2012 22:00,11.0,5.4,68,30,25.0,101.08,Mostly Cloudy,11.107000000000006,1.716159131844793
5/4/2012 23:00,10.2,4.6,68,17,25.0,101.17,Mostly Cloudy,10.684999999999997,1.719107378379442
5/5/2012 0:00,8.4,4.1,74,4,25.0,101.25,Mainly Clear,8.62399999999999,1.7342582811917144
5/5/2012 1:00,7.9,3.4,73,11,25.0,101.32,Mainly Clear,7.783999999999988,1.7396638473166306
5/5/2012 2:00,7.7,2.9,72,11,25.0,101.36,Mainly Clear,7.497999999999993,1.741540927082926
5/5/2012 3:00,6.5,1.6,71,15,25.0,101.42,Mainly Clear,6.400000000000001,1.7483983249034645
5/5/2012 4:00,5.7,0.2,68,11,25.0,101.44,Mainly Clear,5.723999999999998,1.7523326573082656
5/5/2012 5:00,5.2,-0.6,66,17,24.1,101.49,Mainly Clear,5.229999999999997,1.7550810108521901
5/5/2012 6:00,5.9,-0.7,63,15,48.3,101.55,Mainly Clear,5.842999999999993,1.7516549528128875
5/5/2012 7:00,6.5,-0.7,60,19,48.3,101.62,Mainly Clear,6.5089999999999995,1.7477442309273497
5/5/2012 8:00,7.6,0.3,60,17,48.3,101.66,Mainly Clear,7.566000000000008,1.7410957863554934
5/5/2012 9:00,8.3,0.7,59,9,48.3,101.74,Mainly Clear,8.286999999999992,1.7364893379523934
5/5/2012 10:00,9.4,1.2,57,11,48.3,101.78,Mainly Clear,9.365999999999993,1.7290228643631804
5/5/2012 11:00,10.8,0.8,50,13,48.3,101.73,Mainly Clear,10.782999999999985,1.718441351625918
5/5/2012 12:00,11.8,0.4,45,11,48.3,101.69,Mainly Clear,12.000999999999985,1.7091440397509359
5/5/2012 13:00,12.8,-0.7,39,13,48.3,101.63,Mostly Cloudy,12.703999999999981,1.7027451175560622
5/5/2012 14:00,14.4,-1.0,35,7,48.3,101.59,Mainly Clear,14.461000000000006,1.6889739561883967
5/5/2012 15:00,15.4,-1.0,32,6,48.3,101.55,Mainly Clear,15.20400000000001,1.5551253736212183
5/5/2012 16:00,16.0,-2.4,28,17,48.3,101.51,Clear,16.394999999999992,1.6721462484120622
5/5/2012 17:00,15.9,-1.8,30,9,48.3,101.53,Clear,15.694999999999999,1.6764081916091127
5/5/2012 18:00,15.7,-2.8,28,11,48.3,101.52,Mainly Clear,15.992999999999993,1.6747643633228197
5/5/2012 19:00,14.7,-3.0,29,0,48.3,101.54,Mainly Clear,14.860000000000014,1.685047142978346
5/5/2012 20:00,12.8,-2.0,36,4,25.0,101.62,Mainly Clear,12.706999999999987,1.7027158786380592
5/5/2012 21:00,12.6,-2.7,34,6,25.0,101.65,Mostly Cloudy,13.053999999999995,1.6996977936073543
5/5/2012 22:00,13.1,-4.2,30,9,25.0,101.65,Cloudy,13.048,1.6997354599861974
5/5/2012 23:00,12.7,-5.0,29,13,25.0,101.64,Cloudy,12.543000000000012,1.704288900586345
5/6/2012 0:00,12.1,-4.7,31,9,25.0,101.67,Mostly Cloudy,12.454000000000006,1.7051214442984233
5/6/2012 1:00,10.9,-4.1,35,15,25.0,101.61,Mainly Clear,11.191999999999998,1.715539095583991
5/6/2012 2:00,7.8,-3.2,46,13,25.0,101.63,Mainly Clear,7.840999999999993,1.7393130605465503
5/6/2012 3:00,7.0,-2.0,53,17,25.0,101.67,Mainly Clear,6.83,1.7457847455871875
5/6/2012 4:00,6.6,-3.6,48,17,25.0,101.67,Mainly Clear,6.615000000000005,1.7471027033596185
5/6/2012 5:00,6.2,-3.4,50,20,48.3,101.71,Mostly Cloudy,6.2120000000000015,1.7495133782269348
5/6/2012 6:00,7.3,-3.1,48,22,48.3,101.72,Cloudy,7.326999999999994,1.7426493808191397
5/6/2012 7:00,8.2,-2.3,47,22,48.3,101.78,Cloudy,8.529000000000009,1.7348960421421553
5/6/2012 8:00,9.8,-1.1,47,17,48.3,101.81,Mostly Cloudy,9.78399999999999,1.7258595150525602
5/6/2012 9:00,11.0,-0.9,44,20,48.3,101.86,Mainly Clear,10.881999999999998,1.7177572994232717
5/6/2012 10:00,12.3,-1.1,39,15,48.3,101.84,Mainly Clear,12.103999999999985,1.7082596623212265
5/6/2012 11:00,13.8,-4.0,29,15,48.3,101.77,Mainly Clear,13.665000000000006,1.6955421053107234
5/6/2012 12:00,14.7,-2.9,30,6,48.3,101.74,Mainly Clear,14.65100000000002,1.6871650160373848
5/6/2012 13:00,15.0,-1.2,33,7,48.3,101.66,Mainly Clear,14.994999999999997,1.683601557448693
5/6/2012 14:00,15.7,-2.3,29,9,48.3,101.61,Mainly Clear,15.77999999999999,1.6759615582508252
5/6/2012 15:00,16.6,-3.0,26,6,48.3,101.61,Mainly Clear,15.955999999999996,1.674980811481957
5/6/2012 16:00,16.6,-2.7,27,7,48.3,101.6,Mainly Clear,16.42699999999998,1.6719143041939593
5/6/2012 17:00,16.6,-1.7,29,11,48.3,101.57,Mainly Clear,16.34799999999999,1.6724800541652853
5/6/2012 18:00,16.1,-2.7,27,11,48.3,101.56,Mainly Clear,16.214999999999982,1.6733827211473145
5/6/2012 19:00,14.4,-1.8,33,9,48.3,101.56,Mostly Cloudy,14.864000000000008,1.6850052162837124
5/6/2012 20:00,13.1,-1.4,37,9,25.0,101.58,Mainly Clear,12.634999999999991,1.703412795101649
5/6/2012 21:00,12.3,-1.0,40,6,25.0,101.57,Mainly Clear,12.269999999999984,1.7067975442444636
5/6/2012 22:00,11.7,-1.6,40,0,25.0,101.58,Mainly Clear,11.629000000000012,1.7122008830691033
5/6/2012 23:00,11.1,-2.1,40,0,25.0,101.57,Clear,11.251000000000007,1.7151032975874925
5/7/2012 0:00,9.9,-1.6,45,0,25.0,101.57,Clear,9.819999999999988,1.7255793185899424
5/7/2012 1:00,6.9,0.3,63,0,25.0,101.55,Clear,6.908999999999992,1.7452947463743518
5/7/2012 2:00,5.2,-0.8,65,4,25.0,101.56,Clear,5.214999999999998,1.7551628634334377
5/7/2012 3:00,4.6,-0.4,70,4,25.0,101.55,Clear,4.642000000000006,1.7579466566559159
5/7/2012 4:00,5.1,0.6,73,0,25.0,101.61,Clear,5.117000000000005,1.755663406105297
5/7/2012 5:00,5.7,0.4,69,4,48.3,101.6,Clear,5.608999999999997,1.7529817242932981
5/7/2012 6:00,8.2,3.3,71,6,48.3,101.63,Clear,8.086000000000002,1.737779543425147
5/7/2012 7:00,12.3,0.6,45,4,48.3,101.64,Clear,12.143999999999991,1.7079115558234654
5/7/2012 8:00,14.0,1.0,41,7,48.3,101.67,Clear,13.947999999999995,1.6933753665141562
5/7/2012 9:00,16.0,-3.0,27,7,48.3,101.68,Clear,15.978999999999994,1.6748467016294641
5/7/2012 10:00,17.1,-5.9,20,13,48.3,101.67,Clear,16.126000000000012,1.6739544007563216
5/7/2012 11:00,17.8,-3.1,24,7,48.3,101.59,Mainly Clear,17.15500000000001,1.665350078422147
5/7/2012 12:00,18.9,-4.2,21,13,48.3,101.48,Mainly Clear,18.83100000000002,1.65
5/7/2012 13:00,19.7,-2.3,22,13,48.3,101.43,Mainly Clear,19.882000000000026,1.6500000000000001
5/7/2012 14:00,20.1,-3.6,20,19,48.3,101.36,Mainly Clear,19.78999999999998,1.65
5/7/2012 15:00,20.6,-2.3,21,7,48.3,101.25,Mostly Cloudy,20.18900000000003,1.5
5/7/2012 16:00,20.9,-2.0,21,11,48.3,101.14,Mostly Cloudy,20.449000000000026,1.5
5/7/2012 17:00,21.0,-2.9,20,13,48.3,101.07,Mostly Cloudy,20.471000000000007,1.5
5/7/2012 18:00,20.7,-4.4,18,13,48.3,101.0,Mostly Cloudy,18.743000000000027,1.65
5/7/2012 19:00,19.9,-4.0,20,11,48.3,100.93,Mostly Cloudy,19.579000000000025,1.65
5/7/2012 20:00,19.2,-3.8,21,13,25.0,100.9,Mostly Cloudy,19.32500000000003,1.65
5/7/2012 21:00,18.7,-4.1,21,15,25.0,100.87,Clear,18.89900000000003,1.6500000000000006
5/7/2012 22:00,18.1,-3.5,23,17,25.0,100.84,Mainly Clear,17.946000000000005,1.6535556712422286
5/7/2012 23:00,17.6,-2.2,26,15,25.0,100.77,Mostly Cloudy,17.541999999999973,1.6604342423204834
5/8/2012 0:00,16.1,0.2,34,11,25.0,100.77,Mostly Cloudy,15.79199999999998,1.2886242547788156
5/8/2012 1:00,16.0,4.8,47,15,25.0,100.74,Rain Showers,16.021999999999995,1.2117056856187307
5/8/2012 2:00,14.8,5.4,53,4,25.0,100.71,Cloudy,14.689999999999976,1.6867803604873197
5/8/2012 3:00,15.2,6.6,56,6,25.0,100.64,Rain,15.301000000000018,1.501980341638515
5/8/2012 4:00,14.2,10.4,78,17,25.0,100.6,Rain,14.182000000000016,1.733057876440812
5/8/2012 5:00,13.7,10.3,80,19,24.1,100.53,Cloudy,13.745999999999988,1.7383226557949913
5/8/2012 6:00,12.6,10.4,86,22,9.7,100.51,Rain,12.640999999999996,1.7530322801745157
5/8/2012 7:00,12.2,10.1,87,24,6.4,100.48,Rain,12.181000000000022,1.755244623603565
5/8/2012 8:00,11.6,9.5,87,26,6.4,100.45,Rain,11.598000000000004,1.755244623603565
5/8/2012 9:00,11.1,9.1,87,32,6.4,100.41,Rain,11.116000000000003,1.755244623603565
5/8/2012 10:00,10.9,8.9,87,26,8.0,100.39,"Rain,Fog",11.011000000000003,1.755244623603565
5/8/2012 11:00,11.0,9.2,89,20,6.4,100.37,"Rain,Fog",10.98,1.7590894054480448
5/8/2012 12:00,11.1,9.3,89,19,6.4,100.37,"Rain,Fog",11.084000000000005,1.7590894054480448
5/8/2012 13:00,11.5,9.6,88,17,6.4,100.35,"Rain,Fog",11.52,1.7571931537828946
5/8/2012 14:00,11.7,9.9,89,19,8.0,100.32,"Rain,Fog",11.732000000000017,1.7590894054480448
5/8/2012 15:00,12.0,10.0,88,17,12.9,100.3,Rain,11.939000000000007,1.7571931537828946
5/8/2012 16:00,12.2,10.3,88,15,12.9,100.28,Rain,12.21800000000002,1.7571931537828946
5/8/2012 17:00,12.2,10.3,88,9,12.9,100.29,Rain,12.22100000000002,1.7571931537828946
5/8/2012 18:00,12.1,10.3,89,11,9.7,100.29,"Rain,Fog",12.096000000000004,1.7590894054480448
5/8/2012 19:00,12.3,10.5,89,6,8.0,100.3,Fog,12.299999999999988,1.7590894054480448
5/8/2012 20:00,12.1,10.5,90,9,8.0,100.33,"Drizzle,Fog",12.182000000000011,1.7609487211792867
5/8/2012 21:00,12.2,10.6,90,6,8.0,100.31,Fog,12.242000000000019,1.7609487211792867
5/8/2012 22:00,12.3,10.7,90,6,8.0,100.3,Fog,12.323000000000011,1.7609487211792867
5/8/2012 23:00,12.4,10.9,91,4,6.4,100.26,"Drizzle,Fog",12.514000000000001,1.762772169746578
5/9/2012 0:00,12.5,11.0,91,0,3.2,100.27,"Rain,Fog",12.485000000000007,1.762772169746578
5/9/2012 1:00,12.6,11.2,91,0,3.2,100.2,"Rain,Fog",12.607999999999997,1.762772169746578
5/9/2012 2:00,12.8,11.3,91,6,6.4,100.14,"Drizzle,Fog",12.797999999999991,1.762772169746578
5/9/2012 3:00,12.9,11.4,91,6,4.8,100.13,"Drizzle,Fog",12.859000000000002,1.762772169746578
5/9/2012 4:00,13.0,11.6,91,6,3.2,100.08,"Drizzle,Fog",12.999999999999998,1.762772169746578
5/9/2012 5:00,13.5,12.0,91,9,2.4,100.07,"Drizzle,Fog",13.402999999999988,1.762772169746578
5/9/2012 6:00,13.7,12.2,91,13,2.4,100.08,"Drizzle,Fog",13.673999999999996,1.762772169746578
5/9/2012 7:00,14.3,12.5,89,15,4.8,100.12,Fog,14.34899999999998,1.7590894054480448
5/9/2012 8:00,14.3,12.3,88,17,6.4,100.12,Fog,14.22199999999998,1.7571931537828946
5/9/2012 9:00,14.0,12.3,89,9,4.0,100.1,"Drizzle,Fog",14.175999999999982,1.7590894054480448
5/9/2012 10:00,14.9,12.2,84,17,16.1,100.07,Cloudy,14.919000000000004,1.7483983249034645
5/9/2012 11:00,16.1,13.3,83,9,24.1,100.03,Cloudy,16.124999999999986,1.7459700090483987
5/9/2012 12:00,16.1,11.7,75,19,24.1,100.02,Cloudy,16.133999999999993,1.7241591468416737
5/9/2012 13:00,17.4,12.0,71,15,24.1,99.96,Mostly Cloudy,17.38700000000002,1.712430565280306
5/9/2012 14:00,17.9,11.2,65,15,24.1,99.88,Mostly Cloudy,17.86700000000002,1.1136122370198804
5/9/2012 15:00,19.0,11.4,61,13,24.1,99.78,Mostly Cloudy,18.975999999999992,1.0231325667178295
5/9/2012 16:00,19.2,10.4,57,13,24.1,99.72,Cloudy,19.142000000000024,0.9928823385582882
5/9/2012 17:00,18.9,10.2,57,7,24.1,99.67,Cloudy,18.919000000000022,0.9946525403216673
5/9/2012 18:00,16.8,10.6,67,20,24.1,99.68,Cloudy,16.812999999999985,1.2523873978786297
5/9/2012 19:00,16.3,10.9,70,11,24.1,99.68,Mostly Cloudy,16.31399999999998,1.7091525423728813
5/9/2012 20:00,15.9,11.0,73,7,25.0,99.68,Mostly Cloudy,15.90100000000001,1.718324698506683
5/9/2012 21:00,15.4,9.5,68,11,25.0,99.67,Mostly Cloudy,15.397000000000006,1.5318175897629511
5/9/2012 22:00,14.3,9.4,72,13,25.0,99.67,Mainly Clear,14.28899999999998,1.7154802667147235
5/9/2012 23:00,11.9,8.3,79,4,25.0,99.65,Mainly Clear,11.901000000000002,1.7357508862871274
5/10/2012 0:00,12.2,8.4,78,15,25.0,99.66,Mostly Cloudy,12.160000000000018,1.733057876440812
5/10/2012 1:00,11.6,8.6,82,6,25.0,99.62,Mostly Cloudy,11.53,1.7434626346010758
5/10/2012 2:00,11.0,8.5,85,7,25.0,99.59,Cloudy,10.958000000000002,1.7507512632600475
5/10/2012 3:00,11.4,8.9,85,6,16.1,99.55,Cloudy,11.389,1.7507512632600475
5/10/2012 4:00,11.4,9.0,85,11,16.1,99.5,Cloudy,11.430999999999992,1.7507512632600475
5/10/2012 5:00,10.9,8.1,83,17,24.1,99.47,Cloudy,10.89899999999999,1.7459700090483987
5/10/2012 6:00,10.2,7.3,82,22,24.1,99.5,Cloudy,10.286000000000003,1.7434626346010758
5/10/2012 7:00,8.9,6.1,83,20,24.1,99.51,Cloudy,8.867000000000008,1.7459700090483987
5/10/2012 8:00,9.0,5.6,79,20,24.1,99.51,Cloudy,8.78,1.7357508862871274
5/10/2012 9:00,9.0,5.0,76,26,24.1,99.51,Cloudy,9.012999999999996,1.731571388635686
5/10/2012 10:00,9.3,5.2,76,28,24.1,99.52,Cloudy,9.275999999999993,1.7296829905631939
5/10/2012 11:00,10.5,5.6,72,28,24.1,99.48,Cloudy,10.449000000000003,1.7206675009406462
5/10/2012 12:00,10.0,5.4,73,30,24.1,99.48,Cloudy,10.063000000000006,1.7236543966746236
5/10/2012 13:00,10.4,6.0,74,26,24.1,99.46,Cloudy,10.315,1.7215942445091683
5/10/2012 14:00,10.1,5.9,75,30,24.1,99.48,Cloudy,10.14700000000001,1.7241591468416737
5/10/2012 15:00,10.5,5.3,70,28,24.1,99.51,Cloudy,10.510000000000005,1.7202700448480999
5/10/2012 16:00,10.2,6.0,75,19,24.1,99.55,Rain Showers,10.253000000000007,1.7241591468416737
5/10/2012 17:00,10.2,5.1,71,26,24.1,99.6,Cloudy,10.182000000000011,1.72268984773739
5/10/2012 18:00,9.8,6.0,77,19,24.1,99.68,Rain Showers,9.829999999999991,1.7302348458823897
5/10/2012 19:00,9.5,6.2,80,15,24.1,99.73,Rain Showers,9.476,1.7383226557949913
5/10/2012 20:00,9.4,5.6,77,20,25.0,99.79,Rain Showers,9.356999999999987,1.7302348458823897
5/10/2012 21:00,9.2,5.0,75,20,25.0,99.88,Rain,9.201,1.7302276174969806
5/10/2012 22:00,9.2,4.1,70,24,25.0,99.92,Mostly Cloudy,9.219000000000012,1.7300973571941156
5/10/2012 23:00,9.0,3.1,66,17,25.0,100.0,Mostly Cloudy,8.796000000000005,1.7330854348231026
5/11/2012 0:00,8.7,2.7,66,15,25.0,100.07,Rain Showers,8.649000000000012,1.73408927302137
5/11/2012 1:00,8.4,3.1,69,22,25.0,100.14,Rain Showers,8.180999999999997,1.7371734198229238
5/11/2012 2:00,7.3,3.5,77,17,25.0,100.22,Rain,7.325999999999996,1.7426558173972078
5/11/2012 3:00,7.3,2.4,71,19,25.0,100.3,Cloudy,7.260999999999993,1.7430730684339881
5/11/2012 4:00,7.3,2.1,70,7,25.0,100.39,Rain,7.083000000000001,1.7442044482669083
5/11/2012 5:00,7.5,2.5,71,7,24.1,100.42,Cloudy,7.410999999999996,1.7421068217800755
5/11/2012 6:00,8.7,2.9,67,17,48.3,100.49,Cloudy,8.614000000000006,1.7343257465400654
5/11/2012 7:00,9.5,2.3,61,19,48.3,100.54,Mostly Cloudy,9.466999999999999,1.7282733768877647
5/11/2012 8:00,11.3,3.0,57,19,48.3,100.6,Mostly Cloudy,11.223999999999988,1.7153032873701672
5/11/2012 9:00,11.7,1.6,50,19,48.3,100.63,Mainly Clear,11.382999999999992,1.714111815565654
5/11/2012 10:00,13.1,1.4,45,22,48.3,100.64,Mainly Clear,13.63599999999999,1.6957548084819503
5/11/2012 11:00,14.6,-0.9,34,24,48.3,100.65,Mainly Clear,14.88899999999998,1.684741943162748
5/11/2012 12:00,15.3,-1.4,32,22,48.3,100.67,Mainly Clear,15.397999999999978,1.4530987490048481
5/11/2012 13:00,16.4,-1.3,30,20,48.3,100.7,Mainly Clear,16.23100000000001,1.6732772754022491
5/11/2012 14:00,17.6,-1.0,28,32,48.3,100.72,Mainly Clear,17.22899999999998,1.6645068540364434
5/11/2012 15:00,17.1,-1.8,27,26,48.3,100.76,Mainly Clear,17.24799999999998,1.6642836873325495
5/11/2012 16:00,17.8,-2.1,26,26,48.3,100.78,Mainly Clear,17.665999999999972,1.6585500289085164
5/11/2012 17:00,17.6,-2.2,26,22,48.3,100.82,Mainly Clear,17.515999999999973,1.660807799570014
5/11/2012 18:00,16.8,-2.7,26,22,48.3,100.87,Clear,16.653999999999975,1.6701510937324147
5/11/2012 19:00,15.1,-2.9,29,13,48.3,100.95,Clear,15.023999999999994,1.6832825880984137
5/11/2012 20:00,12.1,-2.1,37,11,25.0,101.04,Clear,12.077999999999998,1.7084845237134112
5/11/2012 21:00,10.2,-2.1,42,9,25.0,101.1,Clear,10.225000000000009,1.7223376809815185
5/11/2012 22:00,7.7,-1.2,53,9,25.0,101.15,Clear,7.726000000000003,1.7400384653692065
5/11/2012 23:00,7.8,-0.9,54,9,25.0,101.19,Clear,7.896999999999992,1.738966248996878
5/12/2012 0:00,7.1,-0.6,58,9,25.0,101.19,Clear,7.104000000000008,1.7440718203796872
5/12/2012 1:00,9.8,-1.1,47,7,25.0,101.22,Clear,9.776999999999989,1.7259138512093832
5/12/2012 2:00,8.5,-1.0,51,0,25.0,101.23,Clear,8.415000000000003,1.7356521387485322
5/12/2012 3:00,7.0,-0.5,59,4,25.0,101.28,Clear,6.957999999999998,1.7449892550791823
5/12/2012 4:00,7.9,-1.0,53,11,25.0,101.35,Clear,8.010999999999994,1.7382534813156398
5/12/2012 5:00,7.3,-1.4,54,6,48.3,101.37,Clear,7.307999999999993,1.742771585822002
5/12/2012 6:00,9.4,-0.5,50,7,48.3,101.42,Clear,9.378999999999987,1.728926913607881
5/12/2012 7:00,11.1,2.3,55,11,48.3,101.45,Clear,11.026000000000003,1.7167415777959198
5/12/2012 8:00,12.9,2.4,49,11,48.3,101.46,Clear,12.916000000000007,1.700634698511586
5/12/2012 9:00,14.6,4.5,51,13,48.3,101.43,Clear,14.620999999999988,1.6874577345865625
5/12/2012 10:00,16.7,4.6,45,15,48.3,101.41,Clear,16.67100000000001,1.061749771913308
5/12/2012 11:00,18.6,4.0,38,20,48.3,101.36,Mostly Cloudy,18.698999999999973,0.976306697908588
5/12/2012 12:00,20.4,5.0,36,22,48.3,101.3,Cloudy,20.421000000000024,0.9727175933044229
5/12/2012 13:00,22.0,5.6,34,24,48.3,101.25,Mostly Cloudy,22.133000000000006,0.982139433707547
5/12/2012 14:00,22.4,6.8,36,28,48.3,101.23,Cloudy,22.795000000000005,0.9727175933044229
5/12/2012 15:00,23.9,6.9,34,26,48.3,101.22,Mostly Cloudy,23.75300000000001,0.982139433707547
5/12/2012 16:00,23.6,7.7,36,22,48.3,101.19,Mostly Cloudy,23.639999999999972,0.9727175933044229
5/12/2012 17:00,22.8,7.3,37,20,48.3,101.21,Cloudy,23.013000000000005,0.9681708609999456
5/12/2012 18:00,22.8,5.5,33,17,48.3,101.26,Cloudy,22.84700000000001,0.986478005269463
5/12/2012 19:00,22.0,6.2,36,20,48.3,101.27,Cloudy,22.027000000000008,0.9727175933044229
5/12/2012 20:00,20.7,7.3,42,0,25.0,101.34,Cloudy,20.55800000000001,0.9523082792804138
5/12/2012 21:00,19.3,7.8,47,11,25.0,101.37,Rain Showers,19.311999999999983,0.9672639678586024
5/12/2012 22:00,18.4,8.8,54,6,25.0,101.34,Rain,18.331000000000028,0.9861016523034084
5/12/2012 23:00,16.6,9.5,63,6,25.0,101.32,Cloudy,16.578999999999986,1.177066156096121
5/13/2012 0:00,16.5,10.0,65,7,25.0,101.34,Cloudy,16.504999999999992,1.2214260151453282
5/13/2012 1:00,16.0,10.0,68,7,25.0,101.31,Cloudy,16.041,1.3579319565140906
5/13/2012 2:00,15.9,10.4,70,6,25.0,101.32,Rain Showers,15.881000000000002,1.7091525423728813
5/13/2012 3:00,15.4,10.9,75,6,25.0,101.39,Cloudy,15.395000000000017,1.7241591468416737
5/13/2012 4:00,15.1,10.9,76,11,25.0,101.5,Rain Showers,15.073999999999995,1.7272721454173066
5/13/2012 5:00,14.1,11.5,84,6,24.1,101.51,Rain,14.09899999999999,1.7483983249034645
5/13/2012 6:00,14.1,11.8,86,11,24.1,101.58,Rain,14.112999999999989,1.7530322801745157
5/13/2012 7:00,14.2,12.0,87,13,24.1,101.63,Rain,14.169000000000016,1.755244623603565
5/13/2012 8:00,14.5,12.3,87,11,24.1,101.6,Cloudy,14.531000000000004,1.755244623603565
5/13/2012 9:00,15.7,12.5,81,13,24.1,101.63,Cloudy,15.764000000000017,1.7408722768108806
5/13/2012 10:00,17.0,12.3,74,9,24.1,101.63,Cloudy,17.035999999999998,1.7209839103698092
5/13/2012 11:00,17.2,11.2,68,17,24.1,101.63,Cloudy,17.219000000000023,1.3579319565140906
5/13/2012 12:00,18.1,10.7,62,13,24.1,101.61,Cloudy,18.09599999999997,1.0518240569085608
5/13/2012 13:00,19.5,9.0,51,11,24.1,101.59,Cloudy,19.451000000000008,0.9647418645666754
5/13/2012 14:00,19.6,6.8,43,20,48.3,101.56,Mostly Cloudy,19.782999999999983,0.9591275114921715
5/13/2012 15:00,20.0,5.8,39,11,48.3,101.53,Mostly Cloudy,20.067000000000004,0.9601509387055865
5/13/2012 16:00,20.9,4.0,33,11,48.3,101.5,Mostly Cloudy,21.317000000000007,0.986478005269463
5/13/2012 17:00,20.4,4.1,34,15,48.3,101.48,Mainly Clear,20.452000000000037,0.982139433707547
5/13/2012 18:00,19.7,5.1,38,17,48.3,101.47,Clear,19.917999999999985,0.9645599668100244
5/13/2012 19:00,18.8,5.7,42,13,48.3,101.49,Mainly Clear,18.788999999999984,0.9745975656107368
5/13/2012 20:00,16.8,5.8,48,11,25.0,101.5,Mainly Clear,16.76999999999998,1.0540626426494057
5/13/2012 21:00,13.4,6.5,63,7,25.0,101.54,Clear,13.385000000000005,1.6975286352360948
5/13/2012 22:00,12.7,6.4,65,7,25.0,101.54,Clear,12.694000000000015,1.7028424538080866
5/13/2012 23:00,13.3,6.6,64,0,25.0,101.54,Clear,13.228999999999985,1.6985738011928126
5/14/2012 0:00,11.8,6.8,71,6,25.0,101.53,Clear,11.838999999999988,1.712430565280306
5/14/2012 1:00,12.8,7.1,68,6,25.0,101.51,Clear,12.98899999999999,1.7018006700167505
5/14/2012 2:00,12.0,6.9,71,4,25.0,101.5,Clear,12.046,1.712430565280306
5/14/2012 3:00,12.0,6.9,71,0,25.0,101.5,Clear,12.025,1.712430565280306
5/14/2012 4:00,8.2,5.4,82,4,25.0,101.51,Mainly Clear,8.198000000000006,1.7434626346010758
5/14/2012 5:00,8.3,5.7,84,0,24.1,101.54,Mainly Clear,8.28799999999999,1.7483983249034645
5/14/2012 6:00,12.0,8.4,79,0,48.3,101.56,Mostly Cloudy,11.978999999999996,1.7357508862871274
5/14/2012 7:00,15.6,9.5,67,0,48.3,101.58,Mostly Cloudy,15.587999999999987,1.4572341371338586
5/14/2012 8:00,17.1,9.6,61,6,48.3,101.59,Mainly Clear,17.182999999999982,1.0725276029800477
5/14/2012 9:00,19.2,8.6,50,6,48.3,101.54,Mostly Cloudy,19.268000000000022,0.9680851206802771
5/14/2012 10:00,20.1,7.7,45,11,48.3,101.5,Mostly Cloudy,19.99199999999998,0.9558611617816314
5/14/2012 11:00,21.2,7.7,42,13,48.3,101.44,Mostly Cloudy,21.193000000000016,0.949155270668292
5/14/2012 12:00,21.9,8.0,41,17,48.3,101.36,Mainly Clear,21.922000000000022,0.9526517417795389
5/14/2012 13:00,22.0,7.4,39,17,48.3,101.32,Mainly Clear,22.031000000000002,0.9601509387055865
5/14/2012 14:00,23.2,8.5,39,0,48.3,101.24,Mainly Clear,23.17600000000001,0.9601509387055865
5/14/2012 15:00,23.2,9.2,41,9,48.3,101.17,Mainly Clear,22.88600000000001,0.9526517417795389
5/14/2012 16:00,23.4,10.0,43,9,48.3,101.13,Mainly Clear,23.390000000000033,0.945948721343493
5/14/2012 17:00,23.5,11.3,46,6,48.3,101.11,Mostly Cloudy,23.475000000000005,0.9384328601022601
5/14/2012 18:00,22.9,12.1,51,9,48.3,101.1,Mostly Cloudy,22.844000000000023,0.9412390171760198
5/14/2012 19:00,21.5,12.4,56,15,48.3,101.11,Cloudy,21.443999999999996,0.9643370865274734
5/14/2012 20:00,19.8,12.6,63,17,25.0,101.15,Mostly Cloudy,19.843999999999983,1.0503413361747098
5/14/2012 21:00,18.3,12.6,69,15,25.0,101.18,Mainly Clear,18.324999999999978,1.505906587803386
5/14/2012 22:00,17.5,12.7,73,6,25.0,101.2,Mostly Cloudy,17.504000000000005,1.718324698506683
5/14/2012 23:00,17.5,13.1,75,7,25.0,101.22,Mostly Cloudy,17.514000000000003,1.7241591468416737
5/15/2012 0:00,16.0,12.2,78,11,25.0,101.23,Mainly Clear,16.10499999999999,1.733057876440812
5/15/2012 1:00,16.6,12.1,75,6,25.0,101.23,Mainly Clear,16.604999999999983,1.7241591468416737
5/15/2012 2:00,15.8,12.7,82,9,25.0,101.21,Mostly Cloudy,15.798999999999978,1.7434626346010758
5/15/2012 3:00,15.9,13.1,83,11,25.0,101.19,Mostly Cloudy,15.979000000000019,1.7459700090483987
5/15/2012 4:00,16.0,13.1,83,11,25.0,101.19,Mostly Cloudy,15.979000000000019,1.7459700090483987
5/15/2012 5:00,15.9,12.9,82,11,24.1,101.21,Cloudy,15.88800000000001,1.7434626346010758
5/15/2012 6:00,16.3,12.9,80,9,24.1,101.23,Cloudy,16.27399999999999,1.7383226557949913
5/15/2012 7:00,16.4,13.8,85,7,24.1,101.24,Cloudy,16.47400000000001,1.7507512632600475
5/15/2012 8:00,17.3,13.9,80,11,24.1,101.23,Cloudy,17.320999999999987,1.7383226557949913
5/15/2012 9:00,18.7,14.5,77,9,24.1,101.2,Cloudy,18.671000000000014,1.7302348458823897
5/15/2012 10:00,20.7,15.0,70,7,24.1,101.17,Mostly Cloudy,20.71100000000003,1.7091525423728813
5/15/2012 11:00,20.3,14.3,68,11,24.1,101.12,Cloudy,20.36499999999998,1.3579319565140906
5/15/2012 12:00,20.7,15.0,70,13,24.1,101.06,Mostly Cloudy,20.69900000000002,1.7091525423728813
5/15/2012 13:00,20.1,14.6,71,20,24.1,101.02,Cloudy,20.11599999999998,1.712430565280306
5/15/2012 14:00,19.2,14.4,74,19,24.1,100.98,Cloudy,19.089999999999993,1.7209839103698092
5/15/2012 15:00,17.8,15.2,85,9,16.1,100.95,Rain Showers,17.805999999999994,1.7507512632600475
5/15/2012 16:00,18.2,15.4,84,15,24.1,100.9,Cloudy,18.14000000000003,1.7483983249034645
5/15/2012 17:00,18.2,15.3,83,17,24.1,100.85,Mostly Cloudy,18.18400000000003,1.7459700090483987
5/15/2012 18:00,17.9,15.1,84,19,24.1,100.83,Mostly Cloudy,18.008000000000035,1.7483983249034645
5/15/2012 19:00,17.4,15.0,86,17,24.1,100.81,Mostly Cloudy,17.411000000000023,1.7530322801745157
5/15/2012 20:00,17.0,14.4,85,17,24.1,100.79,Mostly Cloudy,16.95799999999998,1.7507512632600475
5/15/2012 21:00,16.6,14.0,85,15,25.0,100.77,Mostly Cloudy,16.60399999999998,1.7507512632600475
5/15/2012 22:00,15.9,13.6,86,11,25.0,100.75,Clear,15.992000000000013,1.7530322801745157
5/15/2012 23:00,15.4,13.2,87,11,25.0,100.74,Clear,15.378999999999987,1.755244623603565
5/16/2012 0:00,14.6,12.6,88,4,25.0,100.71,Clear,14.539999999999996,1.7571931537828946
5/16/2012 1:00,13.9,12.0,88,6,25.0,100.66,Clear,13.89700000000001,1.7571931537828946
5/16/2012 2:00,13.9,12.0,88,6,25.0,100.6,Clear,13.895000000000007,1.7571931537828946
5/16/2012 3:00,13.3,11.4,88,0,25.0,100.58,Clear,13.344999999999985,1.7571931537828946
5/16/2012 4:00,12.9,11.0,88,6,19.3,100.59,Mainly Clear,12.934000000000003,1.7571931537828946
5/16/2012 5:00,13.0,11.1,88,0,16.1,100.56,Mostly Cloudy,13.055000000000005,1.7571931537828946
5/16/2012 6:00,13.8,12.0,89,11,19.3,100.56,Mostly Cloudy,13.805999999999978,1.7590894054480448
5/16/2012 7:00,15.0,12.8,87,9,24.1,100.57,Mostly Cloudy,14.939999999999996,1.755244623603565
5/16/2012 8:00,17.5,13.9,79,9,24.1,100.54,Mostly Cloudy,17.491,1.7357508862871274
5/16/2012 9:00,20.1,14.2,69,13,24.1,100.45,Mainly Clear,20.007999999999978,1.505906587803386
5/16/2012 10:00,21.9,14.1,61,15,24.1,100.35,Mainly Clear,21.92700000000002,1.0147471754365818
5/16/2012 11:00,22.0,13.1,57,20,19.3,100.35,Mostly Cloudy,22.006,0.9684584060262452
5/16/2012 12:00,22.9,12.5,52,11,24.1,100.23,Mostly Cloudy,22.814000000000018,0.9435732977189372
5/16/2012 13:00,23.4,12.3,50,15,24.1,100.21,Mostly Cloudy,23.289000000000023,0.9373779206360676
5/16/2012 14:00,17.9,13.2,74,19,19.3,100.22,Cloudy,17.895000000000017,1.7209839103698092
5/16/2012 15:00,19.3,10.4,56,32,24.1,100.29,Mostly Cloudy,19.325999999999972,0.9848339610407807
5/16/2012 16:00,18.7,10.2,58,33,24.1,100.27,Mostly Cloudy,18.656000000000017,1.0040928702179541
5/16/2012 17:00,17.6,10.7,64,22,24.1,100.32,Mostly Cloudy,17.601999999999972,1.0926282502055134
5/16/2012 18:00,18.2,11.1,63,26,24.1,100.35,Mainly Clear,18.201000000000025,1.0589932426374775
5/16/2012 19:00,17.6,10.7,64,22,24.1,100.34,Mainly Clear,17.603999999999974,1.092515821070053
5/16/2012 20:00,17.1,9.9,63,17,25.0,100.37,Mainly Clear,17.009,1.1260489493096189
5/16/2012 21:00,14.2,6.9,61,17,25.0,100.53,Mostly Cloudy,14.374000000000017,1.6897679479584755
5/16/2012 22:00,13.3,5.7,60,20,25.0,100.66,Mostly Cloudy,13.29199999999999,1.6981567677176743
5/16/2012 23:00,11.5,3.2,57,22,25.0,100.82,Mostly Cloudy,11.373,1.7141877378805903
5/17/2012 0:00,10.0,2.9,61,24,25.0,100.93,Mostly Cloudy,9.937999999999999,1.724651963085902
5/17/2012 1:00,9.8,2.1,59,24,25.0,101.05,Mostly Cloudy,9.849999999999989,1.7253448535058247
5/17/2012 2:00,8.3,1.6,63,15,25.0,101.07,Clear,8.318999999999994,1.736281189552133
5/17/2012 3:00,7.3,1.6,67,15,25.0,101.16,Clear,7.310999999999991,1.7427523029163228
5/17/2012 4:00,6.6,1.4,69,9,48.3,101.24,Clear,6.5540000000000065,1.747472543091315
5/17/2012 5:00,6.0,1.0,70,11,48.3,101.32,Clear,5.997000000000001,1.7507686343842754
5/17/2012 6:00,8.5,1.9,63,9,48.3,101.4,Clear,8.529000000000002,1.734896042142155
5/17/2012 7:00,10.2,1.8,56,15,48.3,101.45,Mostly Cloudy,10.451,1.7206545324353677
5/17/2012 8:00,10.7,2.2,56,15,48.3,101.5,Mostly Cloudy,10.849000000000013,1.7179865882278622
5/17/2012 9:00,11.3,2.1,53,22,48.3,101.48,Mainly Clear,11.043,1.7166200080202128
5/17/2012 10:00,12.2,2.2,50,26,48.3,101.46,Mostly Cloudy,12.57799999999999,1.7039574791705225
5/17/2012 11:00,13.9,2.5,46,22,48.3,101.49,Mainly Clear,14.213999999999993,1.6911754851164533
5/17/2012 12:00,14.3,1.8,43,17,48.3,101.49,Mostly Cloudy,14.05999999999998,1.6924694761765735
5/17/2012 13:00,15.4,0.5,36,26,48.3,101.46,Mainly Clear,15.06199999999998,1.6418550959821987
5/17/2012 14:00,15.3,0.9,38,20,48.3,101.48,Mainly Clear,15.110999999999976,1.6106213016095474
5/17/2012 15:00,15.8,0.4,35,24,48.3,101.46,Mainly Clear,15.726999999999975,1.3126543864722708
5/17/2012 16:00,15.8,0.0,34,30,48.3,101.46,Mainly Clear,15.697999999999974,1.3237269212764955
5/17/2012 17:00,15.7,0.8,36,24,48.3,101.48,Mainly Clear,15.338999999999977,1.482351965827006
5/17/2012 18:00,15.1,0.4,37,20,48.3,101.5,Clear,14.787999999999984,1.6857926799255474
5/17/2012 19:00,14.1,0.4,39,13,48.3,101.54,Clear,13.93899999999999,1.6934469244845085
5/17/2012 20:00,13.8,0.6,40,7,48.3,101.58,Mainly Clear,13.77099999999998,1.6947502406233501
5/17/2012 21:00,12.4,1.4,47,6,25.0,101.64,Clear,12.29099999999999,1.7066092499406047
5/17/2012 22:00,10.1,2.1,58,0,25.0,101.64,Clear,10.06600000000001,1.7236302599344824
5/17/2012 23:00,9.9,3.8,66,7,25.0,101.7,Clear,10.114999999999986,1.7232347169948532
5/18/2012 0:00,10.4,2.6,58,13,25.0,101.72,Mainly Clear,10.32099999999999,1.7215443740915894
5/18/2012 1:00,9.9,2.4,60,7,25.0,101.73,Clear,9.904999999999989,1.724912697788181
5/18/2012 2:00,9.2,2.3,62,9,25.0,101.75,Clear,9.645999999999997,1.7269220104364358
5/18/2012 3:00,8.6,2.0,63,11,25.0,101.77,Clear,8.69400000000001,1.733783811221272
5/18/2012 4:00,8.6,1.5,61,9,48.3,101.77,Clear,8.59200000000001,1.7344738938111746
5/18/2012 5:00,7.7,1.5,65,9,48.3,101.79,Mainly Clear,7.7710000000000035,1.7397435401681753
5/18/2012 6:00,10.1,3.3,63,11,48.3,101.84,Mainly Clear,9.98900000000001,1.72424686455379
5/18/2012 7:00,11.2,2.9,57,20,48.3,101.9,Mainly Clear,11.19900000000001,1.7154876248046977
5/18/2012 8:00,13.0,4.6,57,15,48.3,101.91,Mostly Cloudy,12.933999999999985,1.700451285735853
5/18/2012 9:00,14.4,4.6,52,17,48.3,101.94,Mainly Clear,14.313000000000006,1.690312444542177
5/18/2012 10:00,16.4,4.7,46,22,48.3,101.91,Mainly Clear,16.39200000000001,1.115760419338986
5/18/2012 11:00,18.1,5.9,45,17,48.3,101.89,Mainly Clear,17.976999999999972,0.9961786665450094
5/18/2012 12:00,18.3,4.2,39,20,48.3,101.82,Mainly Clear,18.506999999999984,0.9812488537593264
5/18/2012 13:00,19.7,-0.7,25,22,48.3,101.75,Mainly Clear,18.84700000000001,1.65
5/18/2012 14:00,20.1,2.6,31,22,48.3,101.73,Mostly Cloudy,19.855999999999977,1.0075219389887184
5/18/2012 15:00,20.8,1.7,28,20,48.3,101.66,Mainly Clear,20.35199999999998,1.5
5/18/2012 16:00,20.5,0.9,27,19,48.3,101.64,Mostly Cloudy,19.069999999999983,1.6500000000000001
5/18/2012 17:00,20.9,2.5,30,17,48.3,101.59,Mostly Cloudy,20.36400000000002,1.5
5/18/2012 18:00,20.4,4.0,34,13,48.3,101.57,Mostly Cloudy,20.38900000000003,0.982139433707547
5/18/2012 19:00,17.7,4.2,41,9,48.3,101.58,Mostly Cloudy,17.869000000000018,0.9996207374445021
5/18/2012 20:00,16.6,4.2,44,4,25.0,101.59,Mostly Cloudy,16.692999999999987,1.0599822912681764
5/18/2012 21:00,14.4,5.3,54,6,25.0,101.62,Clear,14.412000000000008,1.689423702791672
5/18/2012 22:00,14.4,5.0,53,6,25.0,101.63,Mainly Clear,14.344999999999994,1.690028040422642
5/18/2012 23:00,14.0,5.9,58,6,25.0,101.64,Mainly Clear,13.995999999999999,1.6929906448502732
5/19/2012 0:00,13.8,6.9,63,6,25.0,101.65,Mainly Clear,13.82699999999999,1.6943225282674939
5/19/2012 1:00,14.2,6.6,60,9,25.0,101.68,Mainly Clear,14.223000000000008,1.6910980595594474
5/19/2012 2:00,13.1,8.3,73,7,25.0,101.68,Mostly Cloudy,13.099999999999996,1.718324698506683
5/19/2012 3:00,13.3,7.2,67,9,25.0,101.68,Mostly Cloudy,13.249999999999982,1.698763522260988
5/19/2012 4:00,13.1,7.2,67,9,48.3,101.69,Mostly Cloudy,13.14799999999999,1.6991002293868465
5/19/2012 5:00,11.8,6.4,69,7,48.3,101.7,Mostly Cloudy,11.931999999999992,1.7097270108236164
5/19/2012 6:00,13.8,7.1,64,6,48.3,101.75,Mostly Cloudy,13.783999999999976,1.6946515369805957
5/19/2012 7:00,14.7,6.8,59,9,48.3,101.72,Mainly Clear,14.621000000000016,1.6874577345865625
5/19/2012 8:00,17.3,7.2,51,9,48.3,101.72,Mainly Clear,17.28499999999997,1.0228031701405174
5/19/2012 9:00,19.1,6.6,44,7,48.3,101.73,Mostly Cloudy,19.104999999999972,0.9707023305354474
5/19/2012 10:00,21.0,7.8,43,4,48.3,101.74,Mainly Clear,20.956999999999997,0.9495637999593863
5/19/2012 11:00,22.3,8.5,41,11,48.3,101.72,Mainly Clear,22.31699999999999,0.9526517417795389
5/19/2012 12:00,23.4,7.7,37,19,48.3,101.64,Mainly Clear,23.404000000000018,0.9681708609999456
5/19/2012 13:00,24.1,7.0,33,15,48.3,101.61,Mostly Cloudy,24.61999999999999,0.986478005269463
5/19/2012 14:00,25.4,7.3,32,15,48.3,101.56,Mostly Cloudy,25.315000000000023,0.9920689044371626
5/19/2012 15:00,25.6,7.8,32,15,48.3,101.52,Mostly Cloudy,25.590999999999987,0.9920689044371626
5/19/2012 16:00,25.8,6.9,30,15,48.3,101.46,Mostly Cloudy,25.78,1.5
5/19/2012 17:00,26.0,6.9,30,15,48.3,101.46,Mostly Cloudy,25.78,1.5
5/19/2012 18:00,25.2,6.6,30,11,48.3,101.43,Mostly Cloudy,25.25299999999999,1.5
5/19/2012 19:00,24.3,7.6,34,11,48.3,101.47,Mostly Cloudy,23.896999999999988,0.982139433707547
5/19/2012 20:00,23.5,8.0,37,6,25.0,101.53,Mainly Clear,23.53000000000001,0.9681708609999456
5/19/2012 21:00,21.6,8.2,42,9,25.0,101.57,Mainly Clear,21.541999999999977,0.949155270668292
5/19/2012 22:00,21.9,6.4,37,7,25.0,101.61,Clear,21.81000000000003,0.9681708609999456
5/19/2012 23:00,18.2,8.8,54,4,25.0,101.62,Clear,18.281000000000027,0.9874237345388394
5/20/2012 0:00,18.3,7.8,50,0,25.0,101.64,Clear,18.39699999999998,0.984267660137064
5/20/2012 1:00,16.9,8.4,57,6,25.0,101.64,Clear,16.949000000000016,1.0417237534299093
5/20/2012 2:00,16.1,8.6,61,6,25.0,101.67,Clear,16.25099999999998,1.1864599669747824
5/20/2012 3:00,16.8,8.6,58,9,25.0,101.7,Clear,16.841999999999977,1.0499388863554109
5/20/2012 4:00,14.8,8.9,68,6,48.3,101.72,Mainly Clear,14.777999999999981,1.7018006700167505
5/20/2012 5:00,14.7,9.3,70,6,48.3,101.76,Cloudy,14.629000000000005,1.7091525423728813
5/20/2012 6:00,17.1,9.2,60,4,48.3,101.81,Mostly Cloudy,17.118999999999982,1.062723000843611
5/20/2012 7:00,18.7,9.6,55,7,48.3,101.87,Mostly Cloudy,18.732000000000017,0.9840510871257893
5/20/2012 8:00,20.4,9.4,49,7,48.3,101.91,Mostly Cloudy,20.44600000000003,0.9529755967115423
5/20/2012 9:00,22.2,9.6,45,11,48.3,101.93,Mostly Cloudy,22.136000000000003,0.9424279801278912
5/20/2012 10:00,24.8,9.1,37,11,48.3,101.91,Mostly Cloudy,24.88300000000002,0.9681708609999456
5/20/2012 11:00,26.8,11.4,38,11,48.3,101.9,Mainly Clear,26.802999999999997,0.9638948809679477
5/20/2012 12:00,28.6,10.7,33,13,48.3,101.86,Mainly Clear,28.45399999999998,0.986478005269463
5/20/2012 13:00,29.5,11.0,32,9,48.3,101.78,Mainly Clear,29.081,0.9920689044371626
5/20/2012 14:00,30.9,11.5,30,11,48.3,101.72,Mainly Clear,30.732000000000042,0.37555555555555564
5/20/2012 15:00,30.9,10.7,29,4,48.3,101.67,Mainly Clear,30.621000000000034,0.3755555555555556
5/20/2012 16:00,31.2,10.7,28,4,48.3,101.61,Mainly Clear,30.919999999999973,0.37555555555555564
5/20/2012 17:00,30.8,10.6,29,13,48.3,101.58,Mostly Cloudy,30.61,0.3755555555555556
5/20/2012 18:00,29.2,11.7,34,15,48.3,101.56,Mostly Cloudy,29.121000000000016,0.982139433707547
5/20/2012 19:00,26.9,12.3,40,11,24.1,101.56,Mostly Cloudy,26.83300000000003,0.9557861893691004
5/20/2012 20:00,25.9,11.6,41,11,24.1,101.57,Mainly Clear,25.995000000000037,0.9526517417795389
5/20/2012 21:00,24.0,11.8,46,11,25.0,101.6,Mainly Clear,23.991999999999994,0.9384328601022601
5/20/2012 22:00,23.9,11.8,47,17,25.0,101.59,Mainly Clear,23.905999999999995,0.9365197406993433
5/20/2012 23:00,23.6,11.3,46,15,25.0,101.59,Mainly Clear,23.50100000000001,0.9384328601022601
5/21/2012 0:00,22.2,11.0,49,11,25.0,101.61,Mainly Clear,22.291000000000004,0.9414986802347094
5/21/2012 1:00,19.3,11.2,59,9,25.0,101.63,Mainly Clear,19.268999999999977,1.003714350698076
5/21/2012 2:00,18.7,11.7,64,7,25.0,101.65,Mainly Clear,18.702000000000012,1.0754917436180753
5/21/2012 3:00,18.5,11.7,65,0,25.0,101.65,Mainly Clear,18.474999999999998,1.1136122370198804
5/21/2012 4:00,18.2,11.9,67,9,24.1,101.65,Mainly Clear,18.184000000000015,1.2523873978786297
5/21/2012 5:00,18.8,12.2,65,13,24.1,101.63,Mostly Cloudy,18.837999999999987,1.1136122370198804
5/21/2012 6:00,20.4,12.7,61,6,48.3,101.68,Mostly Cloudy,20.395000000000028,1.0147471754365818
5/21/2012 7:00,21.8,12.7,56,11,48.3,101.7,Mostly Cloudy,21.775999999999975,0.9624247196350485
5/21/2012 8:00,24.0,11.1,44,19,48.3,101.69,Mostly Cloudy,23.969,0.9432590533134183
5/21/2012 9:00,24.8,11.2,42,24,48.3,101.63,Mainly Clear,24.883000000000003,0.949155270668292
5/21/2012 10:00,25.5,10.7,39,20,48.3,101.6,Mainly Clear,25.501999999999995,0.9601509387055865
5/21/2012 11:00,26.7,10.8,37,22,48.3,101.54,Mainly Clear,26.685,0.9681708609999456
5/21/2012 12:00,28.0,9.3,31,24,48.3,101.45,Mainly Clear,28.018000000000008,1.0000000000000002
5/21/2012 13:00,28.4,8.4,28,26,48.3,101.36,Mainly Clear,27.278,1.5
5/21/2012 14:00,28.8,9.0,29,26,48.3,101.29,Mainly Clear,28.737000000000013,1.5
5/21/2012 15:00,28.9,9.0,29,33,48.3,101.21,Mainly Clear,28.696000000000023,1.5
5/21/2012 16:00,28.2,8.7,29,30,48.3,101.14,Mainly Clear,28.191999999999986,1.5
5/21/2012 17:00,27.7,9.9,33,26,48.3,101.1,Mainly Clear,27.50199999999999,0.986478005269463
5/21/2012 18:00,26.5,11.7,40,28,48.3,101.07,Mainly Clear,26.45400000000001,0.9557861893691004
5/21/2012 19:00,25.4,12.8,46,26,25.0,101.05,Mostly Cloudy,25.151000000000025,0.9384328601022601
5/21/2012 20:00,23.8,13.4,52,22,25.0,101.05,Mainly Clear,23.800000000000008,0.9397266705622558
5/21/2012 21:00,22.5,13.8,58,24,25.0,101.05,Mainly Clear,22.438000000000002,0.9771086735653381
5/21/2012 22:00,22.2,14.0,60,15,25.0,101.06,Mostly Cloudy,22.11800000000001,0.9999888186332162
5/21/2012 23:00,21.8,14.0,61,15,25.0,101.05,Mostly Cloudy,21.850999999999996,1.0147471754365818
5/22/2012 0:00,21.2,14.4,65,13,25.0,101.03,Rain Showers,21.265000000000008,1.1136122370198804
5/22/2012 1:00,19.2,16.0,82,15,12.9,101.02,Rain Showers,19.205000000000005,1.7434626346010758
5/22/2012 2:00,18.5,16.0,85,9,25.0,100.97,Rain Showers,18.521999999999995,1.7507512632600475
5/22/2012 3:00,18.2,15.8,86,0,16.1,100.95,Rain Showers,18.293000000000013,1.7530322801745157
5/22/2012 4:00,18.6,16.2,86,7,12.9,100.89,Rain Showers,18.520000000000003,1.7530322801745157
5/22/2012 5:00,18.8,16.4,86,4,12.9,100.9,Drizzle,18.74599999999997,1.7530322801745157
5/22/2012 6:00,18.2,16.1,88,9,2.0,100.92,"Rain,Fog",18.217000000000024,1.7571931537828946
5/22/2012 7:00,18.3,16.4,89,11,12.9,100.92,Rain,18.316999999999982,1.7590894054480448
5/22/2012 8:00,18.5,16.5,88,9,9.7,100.9,"Rain,Fog",18.530999999999995,1.7571931537828946
5/22/2012 9:00,18.6,16.4,87,9,12.9,100.89,Rain,18.63499999999997,1.755244623603565
5/22/2012 10:00,19.2,16.9,87,9,12.9,100.87,Rain,19.248000000000015,1.755244623603565
5/22/2012 11:00,18.8,16.5,86,13,16.1,100.85,Rain,18.783999999999978,1.7530322801745157
5/22/2012 12:00,18.4,16.3,88,15,19.3,100.78,Rain,18.402000000000022,1.7571931537828946
5/22/2012 13:00,20.4,17.3,82,9,24.1,100.7,Cloudy,20.420000000000027,1.7434626346010758
5/22/2012 14:00,21.1,17.3,79,11,24.1,100.66,Mostly Cloudy,21.041999999999984,1.7357508862871274
5/22/2012 15:00,21.5,16.2,72,9,24.1,100.63,Cloudy,21.436999999999994,1.7154802667147235
5/22/2012 16:00,19.7,13.9,69,20,16.1,100.64,Cloudy,19.664000000000016,1.505906587803386
5/22/2012 17:00,17.7,15.3,86,11,12.9,100.67,Rain Showers,17.645000000000017,1.7530322801745157
5/22/2012 18:00,18.2,15.1,82,28,19.3,100.66,Cloudy,18.17900000000003,1.7434626346010758
5/22/2012 19:00,16.1,13.3,83,24,24.1,100.73,Rain Showers,16.09899999999998,1.7459700090483987
5/22/2012 20:00,15.4,12.3,82,20,24.1,100.77,Mostly Cloudy,15.337000000000012,1.7434626346010758
5/22/2012 21:00,15.2,11.8,80,15,25.0,100.78,Mostly Cloudy,15.218000000000023,1.7383226557949913
5/22/2012 22:00,14.9,10.8,76,17,25.0,100.81,Mostly Cloudy,14.882000000000016,1.7272721454173066
5/22/2012 23:00,14.0,10.7,80,9,25.0,100.84,Mainly Clear,14.042,1.7383226557949913
5/23/2012 0:00,13.1,10.4,84,0,25.0,100.82,Clear,13.071999999999994,1.7483983249034645
5/23/2012 1:00,12.2,10.2,88,4,25.0,100.82,Mainly Clear,12.154000000000005,1.7571931537828946
5/23/2012 2:00,11.8,9.9,88,6,25.0,100.85,Mostly Cloudy,11.838999999999988,1.7571931537828946
5/23/2012 3:00,12.0,9.4,84,7,25.0,100.84,Mainly Clear,12.052999999999999,1.7483983249034645
5/23/2012 4:00,12.6,9.4,81,4,24.1,100.87,Mostly Cloudy,12.577,1.7408722768108806
5/23/2012 5:00,13.2,9.7,79,9,24.1,100.95,Cloudy,13.135999999999997,1.7357508862871274
5/23/2012 6:00,13.5,10.5,82,7,24.1,101.03,Cloudy,13.507,1.7434626346010758
5/23/2012 7:00,14.8,10.9,77,11,24.1,101.05,Cloudy,14.825999999999983,1.7302348458823897
5/23/2012 8:00,15.7,11.2,75,15,24.1,101.1,Cloudy,15.727000000000023,1.7241591468416737
5/23/2012 9:00,16.1,11.7,75,15,24.1,101.15,Cloudy,16.222,1.7241591468416737
5/23/2012 10:00,17.1,11.8,71,11,24.1,101.21,Mostly Cloudy,17.119999999999983,1.712430565280306
5/23/2012 11:00,18.7,12.7,68,13,24.1,101.21,Mostly Cloudy,18.61999999999999,1.3579319565140906
5/23/2012 12:00,19.5,12.7,65,11,24.1,101.18,Mostly Cloudy,19.480999999999998,1.1136122370198804
5/23/2012 13:00,20.1,12.2,60,13,24.1,101.15,Mostly Cloudy,20.12999999999998,0.9999888186332162
5/23/2012 14:00,20.9,12.0,57,9,24.1,101.16,Mostly Cloudy,20.929000000000023,0.9733900344092674
5/23/2012 15:00,21.6,13.5,60,0,24.1,101.16,Mostly Cloudy,21.609999999999967,0.9999888186332162
5/23/2012 16:00,21.5,12.2,55,6,24.1,101.13,Mainly Clear,21.55,0.9593760728843468
5/23/2012 17:00,22.3,12.7,55,4,24.1,101.1,Mainly Clear,22.146999999999988,0.9554711589780622
5/23/2012 18:00,22.2,11.8,52,4,24.1,101.12,Mainly Clear,22.222,0.946486385283208
5/23/2012 19:00,21.5,11.6,53,7,24.1,101.11,Mainly Clear,21.569000000000003,0.952831431859193
5/23/2012 20:00,20.4,10.9,54,9,24.1,101.16,Clear,20.50700000000003,0.9630367701593975
5/23/2012 21:00,20.4,10.6,53,9,25.0,101.19,Clear,20.422000000000022,0.9610320402975987
5/23/2012 22:00,19.6,10.3,55,7,25.0,101.21,Clear,19.575,0.9761836736891087
5/23/2012 23:00,18.9,10.3,57,4,25.0,101.25,Clear,18.951000000000025,0.9943895918957784
5/24/2012 0:00,16.4,10.4,68,0,25.0,101.28,Clear,16.38300000000002,1.3579319565140906
5/24/2012 1:00,15.0,10.6,75,4,25.0,101.29,Clear,15.017000000000001,1.7241591468416737
5/24/2012 2:00,12.6,9.7,82,6,25.0,101.31,Clear,12.628,1.7434626346010758
5/24/2012 3:00,14.5,11.2,81,6,25.0,101.3,Clear,14.445000000000007,1.7408722768108806
5/24/2012 4:00,14.0,10.7,80,9,24.1,101.32,Clear,14.068000000000001,1.7383226557949913
5/24/2012 5:00,15.0,11.0,77,7,24.1,101.36,Mainly Clear,14.984000000000002,1.7302348458823897
5/24/2012 6:00,16.6,12.1,75,9,24.1,101.43,Mainly Clear,16.596999999999976,1.7241591468416737
5/24/2012 7:00,18.8,13.9,73,4,24.1,101.5,Mainly Clear,18.915000000000017,1.718324698506683
5/24/2012 8:00,21.1,14.6,66,0,24.1,101.54,Mainly Clear,21.257999999999985,1.1750318113220146
5/24/2012 9:00,22.9,15.6,63,7,48.3,101.51,Mainly Clear,22.778999999999982,1.0503413361747098
5/24/2012 10:00,24.6,15.2,56,0,48.3,101.46,Clear,24.63699999999996,0.9607879911134949
5/24/2012 11:00,26.1,16.7,56,9,24.1,101.44,Clear,26.387999999999973,0.9607879911134949
5/24/2012 12:00,26.7,16.4,53,6,24.1,101.4,Mainly Clear,26.712999999999994,0.943924537605309
5/24/2012 13:00,27.1,15.9,50,13,24.1,101.37,Mainly Clear,27.185999999999964,0.9391253961903443
5/24/2012 14:00,27.6,17.0,52,13,48.3,101.33,Mainly Clear,27.515000000000015,0.9448677067197587
5/24/2012 15:00,28.1,17.7,53,17,48.3,101.27,Mainly Clear,28.101999999999986,0.950875562671933
5/24/2012 16:00,28.1,17.5,53,17,24.1,101.23,Mainly Clear,27.992999999999967,0.9501537111540566
5/24/2012 17:00,27.6,17.3,53,22,24.1,101.21,Mainly Clear,27.594999999999963,0.9476034557726749
5/24/2012 18:00,25.5,16.5,58,24,24.1,101.23,Mostly Cloudy,25.553,0.9771086735653381
5/24/2012 19:00,24.4,16.4,61,15,24.1,101.25,Mainly Clear,24.41300000000003,1.0147471754365818
5/24/2012 20:00,23.1,16.1,65,19,24.1,101.3,Clear,23.140999999999977,1.1136122370198804
5/24/2012 21:00,22.4,15.9,67,19,25.0,101.31,Clear,22.391000000000034,1.2523873978786297
5/24/2012 22:00,21.9,15.5,67,22,25.0,101.35,Clear,21.952000000000034,1.2523873978786297
5/24/2012 23:00,21.1,15.2,69,19,25.0,101.39,Clear,21.102999999999973,1.505906587803386
5/25/2012 0:00,20.7,15.3,71,13,25.0,101.43,Clear,20.753000000000025,1.712430565280306
5/25/2012 1:00,19.7,15.6,77,15,25.0,101.4,Clear,19.651,1.7302348458823897
5/25/2012 2:00,19.4,15.6,79,15,25.0,101.41,Clear,19.245000000000008,1.7357508862871274
5/25/2012 3:00,19.2,15.3,78,17,25.0,101.42,Mainly Clear,19.195000000000014,1.733057876440812
5/25/2012 4:00,19.1,15.3,79,19,24.1,101.44,Mainly Clear,19.014999999999976,1.7357508862871274
5/25/2012 5:00,19.0,15.5,80,17,24.1,101.45,Mostly Cloudy,18.971,1.7383226557949913
5/25/2012 6:00,20.6,15.7,73,17,24.1,101.44,Mainly Clear,20.660999999999973,1.718324698506683
5/25/2012 7:00,21.6,15.9,70,20,24.1,101.42,Mainly Clear,21.64799999999997,1.7091525423728813
5/25/2012 8:00,22.8,16.1,66,20,24.1,101.36,Mainly Clear,22.834,1.1750318113220146
5/25/2012 9:00,23.3,16.1,64,20,24.1,101.29,Clear,23.273999999999997,1.0754917436180753
5/25/2012 10:00,24.9,16.5,60,20,24.1,101.21,Mainly Clear,24.954000000000022,0.9999888186332162
5/25/2012 11:00,25.5,16.9,59,22,24.1,101.12,Mostly Cloudy,25.505,0.987994578192502
5/25/2012 12:00,25.9,16.8,57,20,24.1,101.07,Mostly Cloudy,25.907000000000043,0.9684584060262452
5/25/2012 13:00,27.2,17.5,55,28,24.1,100.97,Mostly Cloudy,27.235999999999976,0.9531525027978544
5/25/2012 14:00,26.0,17.2,58,19,24.1,100.94,Mostly Cloudy,25.981000000000005,0.9771086735653381
5/25/2012 15:00,27.1,17.1,54,26,24.1,100.86,Mostly Cloudy,27.096999999999966,0.9476213067101121
5/25/2012 16:00,27.3,16.7,52,24,24.1,100.79,Mostly Cloudy,27.34200000000002,0.9441893499130835
5/25/2012 17:00,27.2,16.7,53,19,24.1,100.72,Mostly Cloudy,27.10599999999998,0.9454637623721436
5/25/2012 18:00,26.2,16.1,54,20,24.1,100.65,Mostly Cloudy,26.159999999999997,0.9472289954341503
5/25/2012 19:00,26.4,16.1,53,22,25.0,100.59,Cloudy,26.42300000000003,0.943018325394646
5/25/2012 20:00,21.3,18.3,83,13,16.1,100.83,"Thunderstorms,Rain",21.234999999999992,1.7459700090483987
5/25/2012 21:00,22.1,18.5,80,15,25.0,100.79,Mainly Clear,22.142999999999983,1.7383226557949913
5/25/2012 22:00,21.5,18.1,81,11,25.0,100.88,Mainly Clear,21.46399999999999,1.7408722768108806
5/25/2012 23:00,21.3,15.4,69,17,25.0,100.96,Clear,21.292999999999985,1.505906587803386
5/26/2012 0:00,19.8,14.8,73,9,25.0,101.0,Clear,19.829999999999984,1.718324698506683
5/26/2012 1:00,19.3,14.0,71,13,25.0,101.09,Clear,19.29199999999998,1.712430565280306
5/26/2012 2:00,18.6,12.3,67,11,25.0,101.16,Clear,18.62499999999998,1.2523873978786297
5/26/2012 3:00,17.1,10.5,65,13,25.0,101.21,Clear,17.06599999999999,1.1528489916970968
5/26/2012 4:00,16.4,10.1,66,9,25.0,101.28,Clear,16.41300000000001,1.2505549521832502
5/26/2012 5:00,16.3,9.8,65,9,24.1,101.36,Mainly Clear,16.365999999999975,1.2421855265300614
5/26/2012 6:00,17.1,10.0,63,9,48.3,101.37,Clear,17.11099999999998,1.1156865058941277
5/26/2012 7:00,18.1,10.8,62,9,48.3,101.51,Clear,18.128999999999976,1.051002398954985
5/26/2012 8:00,19.4,12.2,63,6,48.3,101.56,Clear,19.396000000000015,1.0503413361747098
5/26/2012 9:00,21.1,12.7,59,9,24.1,101.56,Clear,21.052999999999976,0.987994578192502
5/26/2012 10:00,21.6,12.5,56,7,19.3,101.6,Mostly Cloudy,21.619999999999973,0.963456239988731
5/26/2012 11:00,22.6,12.5,53,0,16.1,101.6,Clear,22.56199999999998,0.9468039374353032
5/26/2012 12:00,23.3,12.8,52,13,16.1,101.56,Mainly Clear,23.208000000000016,0.9420526671765094
5/26/2012 13:00,24.4,9.9,40,30,19.3,101.53,Mainly Clear,24.335000000000026,0.9557861893691004
5/26/2012 14:00,24.2,10.6,42,22,19.3,101.54,Mainly Clear,24.472,0.949155270668292
5/26/2012 15:00,23.2,10.2,44,20,24.1,101.54,Mainly Clear,23.109000000000023,0.9432590533134183
5/26/2012 16:00,23.8,10.2,42,22,24.1,101.52,Mostly Cloudy,23.852000000000007,0.949155270668292
5/26/2012 17:00,23.1,9.4,42,19,24.1,101.49,Mostly Cloudy,22.892999999999965,0.949155270668292
5/26/2012 18:00,22.2,8.6,42,20,24.1,101.51,Mostly Cloudy,22.085000000000015,0.949155270668292
5/26/2012 19:00,21.0,7.7,42,13,24.1,101.56,Mainly Clear,21.150999999999996,0.949155270668292
5/26/2012 20:00,18.5,7.4,48,9,24.1,101.64,Mainly Clear,18.693999999999996,0.976430448634905
5/26/2012 21:00,16.6,7.5,55,7,25.0,101.71,Mainly Clear,16.57699999999999,1.0787409965507215
5/26/2012 22:00,17.3,7.3,52,6,25.0,101.71,Mainly Clear,17.149999999999977,1.0298345631297656
5/26/2012 23:00,15.6,7.7,59,6,25.0,101.75,Mainly Clear,15.661999999999985,1.3377876249968423
5/27/2012 0:00,15.7,7.1,57,6,25.0,101.76,Clear,15.687999999999983,1.3275971397173063
5/27/2012 1:00,14.6,7.4,62,9,25.0,101.77,Clear,14.651999999999992,1.6871552115554744
5/27/2012 2:00,13.9,6.9,63,11,25.0,101.76,Mainly Clear,13.92300000000001,1.6935736930891003
5/27/2012 3:00,14.8,3.1,45,13,25.0,101.76,Mostly Cloudy,14.648999999999976,1.6871846158264237
5/27/2012 4:00,14.4,3.5,48,13,25.0,101.84,Mostly Cloudy,14.145999999999994,1.6917539640044486
5/27/2012 5:00,13.7,3.9,52,13,24.1,101.9,Mostly Cloudy,13.671000000000017,1.6954978893269872
5/27/2012 6:00,14.2,2.4,45,17,24.1,101.92,Mostly Cloudy,14.034000000000008,1.692682345929348
5/27/2012 7:00,14.6,4.0,49,9,48.3,101.95,Mostly Cloudy,14.797000000000017,1.6857004251138166
5/27/2012 8:00,15.6,3.1,43,11,48.3,101.94,Mostly Cloudy,15.110999999999981,1.6106213016095443
5/27/2012 9:00,17.1,4.6,44,9,48.3,101.95,Mostly Cloudy,17.013999999999978,1.03767327213398
5/27/2012 10:00,18.6,4.0,38,0,48.3,101.89,Mostly Cloudy,18.62499999999997,0.9781645814139941
5/27/2012 11:00,19.5,3.9,36,4,48.3,101.83,Cloudy,19.678000000000008,0.975966284730709
5/27/2012 12:00,19.7,4.4,36,0,48.3,101.76,Cloudy,20.02900000000001,0.9727175933044229
5/27/2012 13:00,20.2,5.4,38,13,48.3,101.68,Cloudy,20.318000000000023,0.9638948809679477
5/27/2012 14:00,21.2,5.4,36,0,48.3,101.63,Cloudy,21.21800000000002,0.9727175933044229
5/27/2012 15:00,20.3,5.1,37,11,48.3,101.57,Cloudy,20.414000000000005,0.9681708609999456
5/27/2012 16:00,20.4,5.5,38,13,48.3,101.55,Cloudy,20.318000000000012,0.9638948809679477
5/27/2012 17:00,20.3,5.3,37,6,48.3,101.49,Cloudy,20.531999999999986,0.9681708609999456
5/27/2012 18:00,19.2,6.9,45,7,48.3,101.41,Rain Showers,19.154000000000018,0.9701366773274633
5/27/2012 19:00,18.1,9.5,57,0,48.3,101.42,Rain,18.092999999999982,1.008510327825222
5/27/2012 20:00,18.2,8.5,53,4,25.0,101.31,Cloudy,18.221000000000025,0.9890516414505776
5/27/2012 21:00,18.4,8.4,52,0,25.0,101.34,Cloudy,18.346000000000018,0.985717221576788
5/27/2012 22:00,17.5,9.1,58,0,25.0,101.33,Cloudy,17.452999999999996,1.0284021641252052
5/27/2012 23:00,17.6,8.9,57,6,25.0,101.29,Mostly Cloudy,17.58299999999998,1.0174221532409384
5/28/2012 0:00,17.5,10.5,63,4,25.0,101.31,Mostly Cloudy,17.517999999999997,1.0816463626842814
5/28/2012 1:00,17.4,8.8,57,13,25.0,101.23,Mostly Cloudy,17.436,1.020630977113663
5/28/2012 2:00,16.6,8.3,58,11,25.0,101.19,Mostly Cloudy,16.627999999999982,1.0691638771333962
5/28/2012 3:00,16.6,8.3,58,9,25.0,101.21,Cloudy,16.640999999999977,1.0667632668701141
5/28/2012 4:00,16.6,8.3,58,17,25.0,101.21,Cloudy,16.580999999999978,1.0779805267980709
5/28/2012 5:00,16.4,7.4,55,19,25.0,101.17,Mostly Cloudy,16.457000000000015,1.102327456083228
5/28/2012 6:00,16.4,7.3,55,24,24.1,101.31,Mostly Cloudy,16.373000000000022,1.1197791428688233
5/28/2012 7:00,16.6,6.2,50,22,48.3,101.26,Mostly Cloudy,16.69399999999998,1.059902782928748
5/28/2012 8:00,16.7,7.1,53,28,48.3,101.24,Mostly Cloudy,16.680000000000014,1.0610224540506759
5/28/2012 9:00,17.0,7.4,53,20,48.3,101.24,Cloudy,17.045,1.035813585967986
5/28/2012 10:00,18.0,7.6,51,22,48.3,101.21,Cloudy,18.133000000000003,0.9915248712581088
5/28/2012 11:00,17.8,7.8,52,24,48.3,101.2,Cloudy,17.776999999999983,1.002708402313835
5/28/2012 12:00,16.1,8.9,62,20,24.1,101.12,Cloudy,16.102999999999994,1.2386772581631766
5/28/2012 13:00,17.0,7.2,52,26,24.1,101.05,Cloudy,17.036999999999995,1.0362892012192846
5/28/2012 14:00,19.1,7.8,48,28,48.3,100.98,Cloudy,19.10799999999997,0.9706674193191421
5/28/2012 15:00,17.5,6.6,49,24,48.3,100.94,Cloudy,17.451,1.0150308275947237
5/28/2012 16:00,17.3,6.4,49,22,24.1,100.88,Cloudy,17.248999999999977,1.024611357572206
5/28/2012 17:00,17.4,6.9,50,26,24.1,100.82,Mostly Cloudy,17.346000000000014,1.0198427137816588
5/28/2012 18:00,16.8,7.1,53,26,48.3,100.81,Mostly Cloudy,16.707999999999984,1.0587971341980922
5/28/2012 19:00,15.9,6.9,55,22,48.3,100.77,Mostly Cloudy,15.963000000000013,1.2302174606450602
5/28/2012 20:00,15.3,7.0,58,20,48.3,100.71,Cloudy,15.271999999999984,1.5173977244053374
5/28/2012 21:00,14.6,6.7,59,19,25.0,100.69,Mainly Clear,14.618999999999982,1.6874771522168266
5/28/2012 22:00,14.0,7.1,63,15,25.0,100.66,Mostly Cloudy,13.989999999999995,1.6930390207102557
5/28/2012 23:00,13.2,7.1,66,13,25.0,100.54,Mostly Cloudy,13.238000000000016,1.6985146362305483
5/29/2012 0:00,12.7,7.2,69,15,25.0,100.44,Mostly Cloudy,12.693000000000014,1.7056195602958193
5/29/2012 1:00,11.9,6.8,71,9,25.0,100.31,Mostly Cloudy,11.905999999999997,1.712430565280306
5/29/2012 2:00,12.2,6.8,70,11,25.0,100.26,Mostly Cloudy,11.929999999999998,1.7097437969908988
5/29/2012 3:00,11.8,5.9,67,15,25.0,100.18,Mostly Cloudy,11.768999999999991,1.7110749069480196
5/29/2012 4:00,11.4,7.0,74,30,24.1,100.34,"Thunderstorms,Rain Showers",11.491999999999994,1.7209839103698092
5/29/2012 5:00,11.0,8.9,87,15,12.9,100.14,"Thunderstorms,Rain Showers",10.975,1.755244623603565
5/29/2012 6:00,10.9,9.0,88,9,2.4,100.26,"Thunderstorms,Heavy Rain Showers",10.971999999999996,1.7571931537828946
5/29/2012 7:00,12.4,10.3,87,6,19.3,100.23,Cloudy,12.387,1.755244623603565
5/29/2012 8:00,15.4,12.7,84,0,19.3,100.17,Mainly Clear,15.377000000000008,1.7483983249034645
5/29/2012 9:00,18.6,15.1,80,4,19.3,100.12,Mainly Clear,18.554999999999982,1.7383226557949913
5/29/2012 10:00,20.4,15.8,75,4,19.3,100.08,Mostly Cloudy,20.396000000000026,1.7241591468416737
5/29/2012 11:00,22.2,16.9,72,7,19.3,100.08,Mostly Cloudy,22.22500000000001,1.7154802667147235
5/29/2012 12:00,24.2,17.7,67,7,19.3,100.0,Mostly Cloudy,24.185,1.2523873978786297
5/29/2012 13:00,26.1,18.7,64,6,16.1,99.87,Mainly Clear,26.023999999999965,1.0754917436180753
5/29/2012 14:00,25.6,18.4,64,11,19.3,99.75,Rain Showers,25.692999999999987,1.0754917436180753
5/29/2012 15:00,26.8,19.0,62,13,19.3,99.65,Mostly Cloudy,26.88300000000001,1.0305025778855286
5/29/2012 16:00,21.0,17.5,80,15,9.7,99.75,"Thunderstorms,Rain Showers",21.020999999999994,1.7383226557949913
5/29/2012 17:00,20.7,17.4,81,13,12.9,99.84,"Thunderstorms,Rain Showers",20.75500000000001,1.7408722768108806
5/29/2012 18:00,20.4,17.6,84,28,19.3,99.78,Rain Showers,20.34100000000003,1.7483983249034645
5/29/2012 19:00,20.1,17.8,87,24,16.1,99.76,Rain Showers,20.091999999999974,1.755244623603565
5/29/2012 20:00,20.2,17.9,87,11,16.1,99.8,Cloudy,20.166000000000004,1.755244623603565
5/29/2012 21:00,20.1,17.8,87,17,16.1,99.75,Cloudy,20.101999999999972,1.755244623603565
5/29/2012 22:00,20.8,17.7,82,9,19.3,99.75,Cloudy,20.835999999999984,1.7434626346010758
5/29/2012 23:00,20.5,17.5,83,6,25.0,99.74,Cloudy,20.462000000000003,1.7459700090483987
5/30/2012 0:00,20.6,17.1,80,17,25.0,99.77,Cloudy,20.638999999999967,1.7383226557949913
5/30/2012 1:00,19.7,14.4,71,24,25.0,99.77,Mainly Clear,19.850999999999996,1.712430565280306
5/30/2012 2:00,18.6,10.5,59,22,25.0,99.88,Mainly Clear,18.674999999999976,1.0113853707110483
5/30/2012 3:00,17.6,9.8,60,19,25.0,99.91,Mostly Cloudy,17.604999999999976,1.0452992312367042
5/30/2012 4:00,16.6,10.3,66,13,24.1,99.98,Mostly Cloudy,16.63299999999999,1.2193016933901846
5/30/2012 5:00,15.9,10.0,68,11,24.1,100.02,Mostly Cloudy,16.067999999999998,1.3579319565140906
5/30/2012 6:00,17.2,10.2,63,15,24.1,100.07,Mostly Cloudy,17.253000000000014,1.1022727864953448
5/30/2012 7:00,17.8,10.4,62,17,48.3,100.12,Mostly Cloudy,17.827999999999978,1.0590270764914618
5/30/2012 8:00,19.1,10.7,58,19,48.3,100.11,Mainly Clear,19.044999999999984,0.999366939417407
5/30/2012 9:00,20.5,10.0,51,20,48.3,100.08,Clear,20.442999999999994,0.9556381285781089
5/30/2012 10:00,21.5,10.2,49,15,48.3,100.1,Mainly Clear,21.418000000000003,0.9462518585093387
5/30/2012 11:00,22.1,9.6,45,17,24.1,100.08,Clear,22.12299999999998,0.9425067801385614
5/30/2012 12:00,23.1,8.2,38,35,48.3,100.06,Mainly Clear,23.16999999999997,0.9638948809679477
5/30/2012 13:00,23.5,8.1,37,30,48.3,100.05,Clear,23.625,0.9681708609999456
5/30/2012 14:00,23.5,8.5,38,32,48.3,100.04,Clear,23.57599999999999,0.9638948809679477
5/30/2012 15:00,23.5,8.6,39,22,48.3,100.03,Mainly Clear,23.448,0.9601509387055865
5/30/2012 16:00,23.7,8.3,37,15,48.3,100.0,Clear,23.763999999999996,0.9681708609999456
5/30/2012 17:00,23.1,8.4,39,24,48.3,100.04,Clear,23.276999999999997,0.9601509387055865
5/30/2012 18:00,22.4,8.4,41,20,48.3,100.06,Mainly Clear,22.36400000000003,0.9526517417795389
5/30/2012 19:00,20.5,8.0,44,0,48.3,100.08,Mainly Clear,20.590999999999998,0.9521148536363498
5/30/2012 20:00,18.3,8.1,51,6,48.3,100.13,Mainly Clear,18.339999999999982,0.9858899150652117
5/30/2012 21:00,17.3,8.9,58,7,25.0,100.18,Mainly Clear,17.30399999999998,1.0327508984571367
5/30/2012 22:00,17.4,9.5,60,9,25.0,100.17,Mostly Cloudy,17.39900000000003,1.051656333142771
5/30/2012 23:00,16.8,9.9,64,15,16.1,100.26,Rain Showers,16.804999999999986,1.1658451220491246
5/31/2012 0:00,16.7,10.5,67,6,25.0,100.28,Mostly Cloudy,16.68300000000003,1.2523873978786297
5/31/2012 1:00,16.3,10.8,70,7,25.0,100.31,Mostly Cloudy,16.31799999999998,1.7091525423728813
5/31/2012 2:00,15.6,11.2,75,4,25.0,100.32,Mostly Cloudy,15.676000000000014,1.7241591468416737
5/31/2012 3:00,15.5,9.5,67,9,25.0,100.3,Mostly Cloudy,15.526999999999994,1.476992291431675
5/31/2012 4:00,13.6,8.5,71,11,24.1,100.34,Mainly Clear,13.621999999999996,1.712430565280306
5/31/2012 5:00,13.9,8.2,68,9,48.3,100.44,Mainly Clear,13.97700000000001,1.7018006700167505
5/31/2012 6:00,14.4,8.3,67,15,48.3,100.5,Mainly Clear,14.329000000000013,1.698763522260988
5/31/2012 7:00,13.1,8.9,76,15,24.1,100.61,Rain Showers,13.086000000000002,1.7272721454173066
5/31/2012 8:00,14.9,8.6,66,13,24.1,100.64,Mainly Clear,14.92900000000002,1.6960165533823464
5/31/2012 9:00,16.2,9.3,64,11,24.1,100.68,Mostly Cloudy,16.14500000000002,1.2661823689231781
5/31/2012 10:00,15.9,8.7,62,9,24.1,100.71,Mostly Cloudy,15.983000000000022,1.2672435824620745
5/31/2012 11:00,16.9,9.4,61,4,24.1,100.71,Mostly Cloudy,16.964000000000016,1.0936036244331842
5/31/2012 12:00,16.8,8.6,58,0,48.3,100.72,Mostly Cloudy,16.877999999999975,1.0483471374125055
5/31/2012 13:00,18.4,7.5,49,20,48.3,100.77,Mostly Cloudy,18.378000000000014,0.9848038904928785
5/31/2012 14:00,18.8,7.5,48,19,48.3,100.78,Mostly Cloudy,18.89399999999997,0.973253500018896
5/31/2012 15:00,18.1,5.8,44,19,48.3,100.83,Mostly Cloudy,18.37999999999998,0.984747234151547
5/31/2012 16:00,18.8,6.0,43,19,48.3,100.85,Mainly Clear,18.892999999999983,0.9732660580216288
5/31/2012 17:00,18.9,6.1,43,15,48.3,100.86,Mainly Clear,18.977000000000004,0.9722269019120093
5/31/2012 18:00,18.4,4.6,40,22,48.3,100.91,Mainly Clear,18.50000000000002,0.9814367197338404
5/31/2012 19:00,17.1,4.9,44,15,48.3,100.96,Mainly Clear,17.201999999999977,1.0270438247285647
5/31/2012 20:00,14.8,3.7,47,13,24.1,101.01,Mainly Clear,14.970999999999979,1.6838632346925433
5/31/2012 21:00,12.8,4.2,56,9,25.0,101.05,Clear,12.79699999999998,1.7018304615734423
5/31/2012 22:00,12.5,4.4,58,7,25.0,101.13,Clear,12.470999999999995,1.7049635400169478
5/31/2012 23:00,12.8,4.4,57,7,25.0,101.18,Clear,12.84599999999998,1.7013415913296301
6/1/2012 0:00,11.6,3.8,59,6,25.0,101.21,Clear,11.618000000000002,1.7122881455979384
6/1/2012 1:00,11.3,3.6,59,7,25.0,101.24,Clear,11.399999999999991,1.7139824388454576
6/1/2012 2:00,10.8,3.1,59,9,25.0,101.27,Mainly Clear,10.612999999999984,1.7195898137524783
6/1/2012 3:00,9.5,2.6,62,9,25.0,101.29,Mainly Clear,9.876999999999997,1.7251330781023064
6/1/2012 4:00,10.1,2.8,60,11,48.3,101.34,Mostly Cloudy,10.14200000000001,1.7230157048282344
6/1/2012 5:00,10.7,3.3,60,11,48.3,101.38,Cloudy,10.340000000000005,1.7213861952280423
6/1/2012 6:00,11.6,4.5,62,7,48.3,101.42,Cloudy,11.615000000000009,1.7123119143732388
6/1/2012 7:00,14.6,5.3,54,9,48.3,101.44,Cloudy,14.559999999999992,1.6880445972766158
6/1/2012 8:00,15.2,3.5,45,11,48.3,101.48,Cloudy,15.213000000000012,1.5500000901084015
6/1/2012 9:00,17.1,4.6,44,11,48.3,101.47,Cloudy,17.068999999999978,1.0344043232604268
6/1/2012 10:00,18.5,1.2,31,20,48.3,101.44,Mostly Cloudy,18.375000000000004,1.1699999999999995
6/1/2012 11:00,18.4,1.0,31,17,48.3,101.4,Cloudy,18.007000000000016,1.2202722586669215
6/1/2012 12:00,19.3,3.3,35,20,48.3,101.32,Cloudy,18.83999999999997,0.9897122840705324
6/1/2012 13:00,19.5,4.0,36,17,48.3,101.29,Cloudy,19.774000000000008,0.9749998825787797
6/1/2012 14:00,19.6,4.6,37,15,48.3,101.21,Cloudy,19.643,0.9713593724661356
6/1/2012 15:00,19.8,4.9,38,17,48.3,101.16,Cloudy,19.74099999999998,0.9659926722635704
6/1/2012 16:00,20.2,4.3,35,22,48.3,101.04,Cloudy,20.305000000000028,0.9763179605360829
6/1/2012 17:00,20.2,4.1,35,19,48.3,101.03,Cloudy,20.241000000000028,0.9763179605360829
6/1/2012 18:00,20.1,4.6,36,19,24.1,100.98,Cloudy,20.200000000000003,0.9727175933044229
6/1/2012 19:00,20.0,5.3,38,19,25.0,100.88,Cloudy,19.973,0.9641139669749466
6/1/2012 20:00,19.9,4.9,37,20,25.0,100.86,Cloudy,19.97600000000002,0.9683858343539548
6/1/2012 21:00,19.6,5.7,40,26,25.0,100.8,Rain,19.60099999999997,0.962136803594572
6/1/2012 22:00,19.6,6.5,42,20,25.0,100.77,Cloudy,19.732999999999976,0.9599383691148414
6/1/2012 23:00,18.2,8.3,52,19,25.0,100.77,Rain,18.166000000000018,0.9905851464903374
6/2/2012 0:00,17.5,8.2,54,15,19.3,100.78,Rain,17.597000000000005,1.0092071312346826
6/2/2012 1:00,15.9,9.5,66,19,16.1,100.67,Rain,15.822000000000012,1.376045787787374
6/2/2012 2:00,14.6,8.7,68,19,16.1,100.58,Rain,14.644999999999989,1.7018006700167505
6/2/2012 3:00,14.2,8.8,70,19,16.1,100.5,Rain,14.184000000000015,1.7091525423728813
6/2/2012 4:00,13.6,9.5,76,24,12.9,100.43,Rain,13.588999999999992,1.7272721454173066
6/2/2012 5:00,13.4,9.2,76,24,16.1,100.36,Rain,13.366999999999997,1.7272721454173066
6/2/2012 6:00,13.6,9.5,76,19,16.1,100.44,Rain,13.595999999999993,1.7272721454173066
6/2/2012 7:00,13.4,8.7,73,17,19.3,100.45,Rain,13.454,1.718324698506683
6/2/2012 8:00,12.3,9.7,84,11,19.3,100.48,Rain,12.279999999999989,1.7483983249034645
6/2/2012 9:00,13.1,9.6,79,13,24.1,100.52,Cloudy,13.076999999999993,1.7357508862871274
6/2/2012 10:00,12.5,9.8,84,7,8.0,100.48,"Rain,Fog",12.312999999999999,1.7483983249034645
6/2/2012 11:00,12.5,10.3,86,7,16.1,100.48,Rain,12.546,1.7530322801745157
6/2/2012 12:00,12.8,10.5,86,9,24.1,100.43,Rain,12.783999999999985,1.7530322801745157
6/2/2012 13:00,13.1,10.9,86,11,24.1,100.43,Rain,13.124999999999991,1.7530322801745157
6/2/2012 14:00,13.6,10.9,84,20,24.1,100.39,Cloudy,13.594999999999992,1.7483983249034645
6/2/2012 15:00,13.9,10.9,82,17,24.1,100.38,Cloudy,13.916000000000018,1.7434626346010758
6/2/2012 16:00,13.5,11.0,85,22,24.1,100.35,Rain,13.501000000000003,1.7507512632600475
6/2/2012 17:00,13.5,11.0,85,17,24.1,100.36,Drizzle,13.496000000000002,1.7507512632600475
6/2/2012 18:00,13.1,11.1,88,19,6.4,100.38,"Drizzle,Fog",13.153999999999991,1.7571931537828946
6/2/2012 19:00,13.2,11.2,88,9,4.8,100.4,"Drizzle,Fog",13.205000000000018,1.7571931537828946
6/2/2012 20:00,12.9,10.5,85,4,19.3,100.4,Drizzle,13.048999999999994,1.7507512632600475
6/2/2012 21:00,13.0,10.7,86,7,25.0,100.41,Cloudy,12.992999999999995,1.7530322801745157
6/2/2012 22:00,13.3,10.4,83,15,25.0,100.34,Cloudy,13.29099999999998,1.7459700090483987
6/2/2012 23:00,13.1,10.2,83,6,25.0,100.33,Cloudy,13.108999999999995,1.7459700090483987
6/3/2012 0:00,13.1,10.4,84,9,19.3,100.33,Cloudy,13.088000000000001,1.7483983249034645
6/3/2012 1:00,13.0,10.9,87,6,19.3,100.29,Cloudy,13.018999999999997,1.755244623603565
6/3/2012 2:00,13.1,11.0,87,6,19.3,100.26,Cloudy,13.07499999999999,1.755244623603565
6/3/2012 3:00,12.9,10.6,86,4,19.3,100.23,Cloudy,12.857000000000003,1.7530322801745157
6/3/2012 4:00,13.0,10.4,84,7,19.3,100.2,Mostly Cloudy,13.051000000000004,1.7483983249034645
6/3/2012 5:00,12.0,9.9,87,0,19.3,100.24,Mostly Cloudy,11.992999999999997,1.755244623603565
6/3/2012 6:00,13.6,10.9,84,9,24.1,100.25,Mostly Cloudy,13.561999999999994,1.7483983249034645
6/3/2012 7:00,14.6,10.5,76,15,24.1,100.25,Mostly Cloudy,14.612999999999985,1.7272721454173066
6/3/2012 8:00,14.9,10.3,74,13,24.1,100.24,Mostly Cloudy,14.867000000000004,1.7209839103698092
6/3/2012 9:00,16.1,10.9,71,11,24.1,100.2,Mostly Cloudy,16.12599999999999,1.712430565280306
6/3/2012 10:00,17.7,11.0,65,13,48.3,100.19,Mostly Cloudy,17.637000000000015,1.1136122370198804
6/3/2012 11:00,18.2,10.4,60,11,48.3,100.14,Mostly Cloudy,18.244000000000014,1.0305143439072082
6/3/2012 12:00,18.4,9.8,57,9,48.3,100.12,Mostly Cloudy,18.57900000000002,0.9995670804429331
6/3/2012 13:00,18.9,10.8,59,24,48.3,100.07,Mostly Cloudy,18.906000000000017,1.0080289546855798
6/3/2012 14:00,19.6,10.5,56,24,48.3,100.04,Mostly Cloudy,19.333999999999975,0.984726143635804
6/3/2012 15:00,18.5,10.4,59,24,48.3,100.02,Mostly Cloudy,18.576999999999995,1.0136933495251323
6/3/2012 16:00,18.3,10.3,60,33,48.3,100.01,Mostly Cloudy,18.195999999999973,1.0314637088264076
6/3/2012 17:00,17.8,9.3,57,30,48.3,100.03,Mostly Cloudy,17.74699999999998,1.0142740879347694
6/3/2012 18:00,16.6,9.6,63,30,48.3,100.13,Mostly Cloudy,16.582999999999984,1.1765278723705244
6/3/2012 19:00,15.3,8.8,65,28,25.0,100.2,Mostly Cloudy,15.272999999999984,1.5532627559801677
6/3/2012 20:00,14.1,7.4,64,32,25.0,100.27,Mostly Cloudy,14.082999999999986,1.6922798459699995
6/3/2012 21:00,13.8,7.1,64,28,25.0,100.29,Mostly Cloudy,13.824999999999982,1.694337917707724
6/3/2012 22:00,13.6,6.9,64,30,25.0,100.32,Cloudy,13.607999999999988,1.6959586063754495
6/3/2012 23:00,13.3,6.9,65,30,25.0,100.31,Mostly Cloudy,13.379999999999987,1.6975627927135863
6/4/2012 0:00,12.8,7.3,69,33,25.0,100.34,Cloudy,12.79299999999999,1.7056195602958193
6/4/2012 1:00,11.9,7.7,75,19,25.0,100.33,Rain,11.860999999999997,1.7241591468416737
6/4/2012 2:00,11.8,7.6,75,22,25.0,100.32,Cloudy,11.77199999999999,1.7241591468416737
6/4/2012 3:00,11.5,7.5,76,24,25.0,100.32,Rain Showers,11.48,1.7272721454173066
6/4/2012 4:00,11.0,7.6,80,22,19.3,100.38,Rain,11.000999999999998,1.7383226557949913
6/4/2012 5:00,11.0,8.0,82,20,19.3,100.41,Rain,11.007999999999997,1.7434626346010758
6/4/2012 6:00,11.3,8.2,81,22,24.1,100.46,Cloudy,11.273999999999983,1.7408722768108806
6/4/2012 7:00,11.7,7.9,77,33,24.1,100.5,Rain,11.712000000000016,1.7302348458823897
6/4/2012 8:00,11.6,8.3,80,24,19.3,100.55,Rain,11.591,1.7383226557949913
6/4/2012 9:00,11.6,7.7,77,28,24.1,100.6,Rain,11.576000000000004,1.7302348458823897
6/4/2012 10:00,12.4,7.5,72,28,24.1,100.65,Cloudy,12.496999999999998,1.7154802667147235
6/4/2012 11:00,13.1,7.4,68,28,24.1,100.67,Cloudy,13.139,1.7018006700167505
6/4/2012 12:00,13.0,7.3,68,22,24.1,100.7,Rain Showers,13.022999999999994,1.7018006700167505
6/4/2012 13:00,13.0,7.4,69,24,24.1,100.75,Rain,12.936000000000002,1.7056195602958193
6/4/2012 14:00,14.3,7.3,63,20,24.1,100.73,Cloudy,14.263999999999987,1.6907427484096977
6/4/2012 15:00,15.8,7.2,57,22,24.1,100.73,Mostly Cloudy,15.867999999999993,1.2618315475403834
6/4/2012 16:00,16.0,6.6,54,22,24.1,100.71,Mostly Cloudy,15.904000000000003,1.2496026782283818
6/4/2012 17:00,15.9,7.1,56,22,24.1,100.71,Mostly Cloudy,15.921000000000008,1.2439269537113222
6/4/2012 18:00,16.5,7.1,54,15,48.3,100.74,Mostly Cloudy,16.430999999999994,1.1076430192835458
6/4/2012 19:00,16.3,6.9,54,20,48.3,100.77,Mostly Cloudy,16.280000000000005,1.1400817785658235
6/4/2012 20:00,15.6,7.3,58,13,24.1,100.8,Mainly Clear,15.618999999999987,1.3550580872273146
6/4/2012 21:00,14.5,7.5,63,15,25.0,100.84,Mainly Clear,14.439999999999998,1.6891675198845355
6/4/2012 22:00,14.6,6.4,58,17,25.0,100.83,Mostly Cloudy,14.658999999999985,1.687086494417033
6/4/2012 23:00,14.6,5.9,56,11,25.0,100.83,Cloudy,14.569999999999991,1.6879491462028402
6/5/2012 0:00,13.8,4.9,55,13,25.0,100.83,Cloudy,13.867999999999984,1.6940051587195961
6/5/2012 1:00,13.7,7.1,64,15,25.0,100.82,Cloudy,13.827999999999982,1.6943148303557867
6/5/2012 2:00,12.7,6.3,65,13,25.0,100.82,Mostly Cloudy,12.649000000000019,1.7032780666646645
6/5/2012 3:00,11.4,6.7,73,15,25.0,100.85,Mainly Clear,11.427999999999999,1.718324698506683
6/5/2012 4:00,10.7,6.5,75,13,24.1,100.87,Mainly Clear,10.664000000000012,1.7241591468416737
6/5/2012 5:00,10.7,6.7,76,13,24.1,100.94,Mainly Clear,10.72800000000001,1.7272721454173066
6/5/2012 6:00,12.6,7.1,69,15,48.3,100.98,Mainly Clear,12.624000000000002,1.7056195602958193
6/5/2012 7:00,14.3,6.5,59,20,48.3,100.99,Mainly Clear,14.413999999999987,1.689405475591111
6/5/2012 8:00,15.9,6.4,53,26,48.3,101.02,Mainly Clear,16.00900000000001,1.2157187425005964
6/5/2012 9:00,17.4,6.9,50,19,48.3,101.01,Clear,17.351000000000013,1.0196056167738432
6/5/2012 10:00,18.8,6.7,45,19,48.3,100.99,Mainly Clear,18.86399999999998,0.9736322418370839
6/5/2012 11:00,19.8,5.3,39,26,48.3,101.0,Mainly Clear,19.83499999999998,0.9613838095880025
6/5/2012 12:00,20.3,4.9,36,20,48.3,100.97,Mainly Clear,20.33099999999999,0.9727175933044229
6/5/2012 13:00,21.3,3.8,32,15,48.3,100.93,Mainly Clear,21.521999999999995,0.9920689044371626
6/5/2012 14:00,21.6,4.4,32,7,48.3,100.88,Mainly Clear,21.762999999999973,0.9920689044371626
6/5/2012 15:00,21.9,4.4,32,11,48.3,100.83,Mainly Clear,21.90000000000002,0.9920689044371626
6/5/2012 16:00,22.6,6.2,35,4,48.3,100.75,Mainly Clear,22.315999999999978,0.9763179605360829
6/5/2012 17:00,22.2,5.4,34,15,48.3,100.74,Mostly Cloudy,22.05000000000002,0.982139433707547
6/5/2012 18:00,20.9,6.8,40,11,48.3,100.76,Rain Showers,20.950000000000024,0.9557861893691004
6/5/2012 19:00,17.0,10.3,65,22,24.1,100.89,Rain Showers,16.927,1.1679116456361662
6/5/2012 20:00,15.6,11.6,77,9,24.1,100.88,Rain Showers,15.650999999999994,1.7302348458823897
6/5/2012 21:00,16.3,9.9,66,6,25.0,100.9,Mostly Cloudy,16.305999999999983,1.2673103782181863
6/5/2012 22:00,14.7,11.0,78,7,25.0,100.95,Mostly Cloudy,14.776000000000016,1.733057876440812
6/5/2012 23:00,16.4,9.3,63,15,25.0,100.97,Mostly Cloudy,16.419999999999995,1.1996214225317468
6/6/2012 0:00,14.7,7.9,64,9,25.0,100.97,Mostly Cloudy,14.659000000000024,1.6895328361301014
6/6/2012 1:00,13.8,7.2,64,9,25.0,100.97,Mostly Cloudy,13.81699999999998,1.6943993904887358
6/6/2012 2:00,12.6,6.6,67,11,25.0,100.99,Mostly Cloudy,12.575000000000003,1.7039859766298493
6/6/2012 3:00,11.0,6.8,75,9,25.0,100.99,Mostly Cloudy,10.982000000000001,1.7241591468416737
6/6/2012 4:00,11.2,6.9,75,6,24.1,101.03,Mostly Cloudy,11.140999999999993,1.7241591468416737
6/6/2012 5:00,12.0,7.2,72,9,48.3,101.05,Mostly Cloudy,12.134,1.7154802667147235
6/6/2012 6:00,12.4,7.7,73,15,24.1,101.07,Mostly Cloudy,12.530999999999992,1.718324698506683
6/6/2012 7:00,14.1,8.3,68,13,24.1,101.1,Mainly Clear,14.05699999999999,1.7018006700167505
6/6/2012 8:00,15.3,9.6,69,7,24.1,101.14,Mainly Clear,15.272999999999984,1.586330231473051
6/6/2012 9:00,16.1,9.6,65,9,24.1,101.13,Mainly Clear,16.11299999999998,1.289696709887689
6/6/2012 10:00,17.6,9.7,60,11,24.1,101.12,Mainly Clear,17.53599999999998,1.047227112948562
6/6/2012 11:00,19.4,9.4,52,7,24.1,101.08,Mainly Clear,19.330000000000013,0.9679183006121549
6/6/2012 12:00,19.8,9.7,52,9,24.1,101.05,Mainly Clear,19.743999999999982,0.9636570940743949
6/6/2012 13:00,19.6,9.6,52,0,24.1,101.01,Mainly Clear,19.581000000000007,0.9652693817568884
6/6/2012 14:00,20.6,9.8,50,4,48.3,100.94,Mostly Cloudy,20.701000000000008,0.9514803070795108
6/6/2012 15:00,20.3,9.3,49,7,48.3,100.89,Mostly Cloudy,20.378000000000018,0.9533891254844081
6/6/2012 16:00,21.3,8.2,43,13,48.3,100.9,Mostly Cloudy,21.35599999999998,0.9464837285021538
6/6/2012 17:00,20.6,7.4,42,11,24.1,100.91,Mostly Cloudy,20.598999999999975,0.9520681778069131
6/6/2012 18:00,20.0,7.6,45,15,24.1,100.95,Mostly Cloudy,19.901000000000003,0.9572595278680641
6/6/2012 19:00,18.9,7.8,48,15,24.1,101.0,Mostly Cloudy,19.043000000000013,0.9714321485832431
6/6/2012 20:00,17.4,9.6,60,9,24.1,101.04,Rain Showers,17.44200000000002,1.050146426111844
6/6/2012 21:00,16.3,9.7,65,11,25.0,101.04,Mostly Cloudy,16.323999999999977,1.2488227172350963
6/6/2012 22:00,17.4,9.3,59,9,25.0,101.04,Cloudy,17.389000000000017,1.0406754015766817
6/6/2012 23:00,17.1,9.1,59,11,25.0,101.05,Rain Showers,17.144999999999992,1.0493161204447141
6/7/2012 0:00,14.9,9.0,68,9,25.0,101.06,Mainly Clear,14.862000000000016,1.7018006700167505
6/7/2012 1:00,13.3,9.2,76,7,25.0,101.06,Mainly Clear,13.313999999999988,1.7272721454173066
6/7/2012 2:00,12.8,9.4,80,11,25.0,101.04,Clear,12.84199999999998,1.7383226557949913
6/7/2012 3:00,12.3,8.9,80,17,25.0,101.02,Clear,12.427,1.7383226557949913
6/7/2012 4:00,12.0,8.3,78,9,24.1,101.05,Mainly Clear,12.016000000000002,1.733057876440812
6/7/2012 5:00,11.3,8.1,81,11,48.3,101.11,Mainly Clear,11.272999999999984,1.7408722768108806
6/7/2012 6:00,12.3,8.4,77,13,48.3,101.12,Mainly Clear,12.286999999999988,1.7302348458823897
6/7/2012 7:00,13.9,8.4,69,4,24.1,101.13,Mainly Clear,13.779000000000007,1.7056195602958193
6/7/2012 8:00,15.9,9.2,64,11,24.1,101.12,Mainly Clear,15.966000000000019,1.3078808424624953
6/7/2012 9:00,17.5,9.5,59,6,48.3,101.09,Mainly Clear,17.543,1.0361964553837584
6/7/2012 10:00,19.4,9.6,53,6,48.3,101.05,Mainly Clear,19.440000000000023,0.9697073745757996
6/7/2012 11:00,20.1,10.5,54,7,48.3,101.02,Mainly Clear,20.084999999999983,0.9661637447731248
6/7/2012 12:00,20.8,10.1,50,13,48.3,100.98,Mainly Clear,20.847999999999985,0.9506146155569212
6/7/2012 13:00,21.6,10.9,51,11,48.3,100.92,Mainly Clear,21.630999999999972,0.9478504366932559
6/7/2012 14:00,22.7,9.4,43,11,48.3,100.86,Mainly Clear,22.63400000000001,0.945948721343493
6/7/2012 15:00,22.3,9.3,43,13,48.3,100.8,Mainly Clear,22.411999999999992,0.945948721343493
6/7/2012 16:00,22.8,9.2,42,15,48.3,100.74,Mainly Clear,22.69099999999999,0.949155270668292
6/7/2012 17:00,22.6,8.9,42,11,48.3,100.69,Mostly Cloudy,22.559999999999967,0.949155270668292
6/7/2012 18:00,22.0,7.9,40,9,48.3,100.67,Mostly Cloudy,22.048,0.9557861893691004
6/7/2012 19:00,22.2,9.0,43,11,48.3,100.67,Mostly Cloudy,22.267000000000007,0.945948721343493
6/7/2012 20:00,21.7,9.4,45,11,24.1,100.66,Mostly Cloudy,21.74600000000001,0.9448519099761785
6/7/2012 21:00,18.6,10.4,59,30,25.0,100.74,Mostly Cloudy,18.673000000000005,1.0114315352806182
6/7/2012 22:00,16.4,11.6,73,17,25.0,100.74,Rain Showers,16.43400000000001,1.718324698506683
6/7/2012 23:00,16.3,12.2,77,17,25.0,100.78,Rain,16.320999999999973,1.7302348458823897
6/8/2012 0:00,15.9,13.1,83,13,25.0,100.68,Mostly Cloudy,15.95300000000001,1.7459700090483987
6/8/2012 1:00,15.7,12.9,83,7,25.0,100.65,Clear,15.704000000000008,1.7459700090483987
6/8/2012 2:00,15.3,12.9,86,11,25.0,100.6,Clear,15.245999999999983,1.7530322801745157
6/8/2012 3:00,14.1,11.7,85,7,25.0,100.56,Mainly Clear,14.141999999999987,1.7507512632600475
6/8/2012 4:00,13.9,11.0,83,7,24.1,100.58,Mainly Clear,13.723000000000003,1.7459700090483987
6/8/2012 5:00,14.4,11.2,81,7,48.3,100.58,Mainly Clear,14.370000000000012,1.7408722768108806
6/8/2012 6:00,16.2,11.7,75,17,48.3,100.58,Mostly Cloudy,16.210000000000022,1.7241591468416737
6/8/2012 7:00,16.7,11.3,70,22,48.3,100.56,Mostly Cloudy,16.740000000000013,1.7091525423728813
6/8/2012 8:00,17.3,11.5,69,22,48.3,100.54,Mostly Cloudy,17.229999999999983,1.505906587803386
6/8/2012 9:00,17.7,12.6,72,17,24.1,100.53,Cloudy,17.712000000000018,1.7154802667147235
6/8/2012 10:00,18.3,12.7,70,13,24.1,100.53,Cloudy,18.122,1.7091525423728813
6/8/2012 11:00,18.6,12.9,69,17,24.1,100.53,Cloudy,18.56999999999998,1.505906587803386
6/8/2012 12:00,19.5,13.7,69,17,24.1,100.46,Cloudy,19.502999999999997,1.505906587803386
6/8/2012 13:00,20.5,14.4,68,20,24.1,100.33,Mostly Cloudy,20.483,1.3579319565140906
6/8/2012 14:00,20.2,12.8,62,17,24.1,100.25,Cloudy,20.240000000000023,1.0305025778855286
6/8/2012 15:00,19.4,12.8,66,20,12.9,100.33,Rain Showers,19.384000000000018,1.1750318113220146
6/8/2012 16:00,18.4,13.4,73,4,24.1,100.22,Mostly Cloudy,18.399000000000015,1.718324698506683
6/8/2012 17:00,20.0,14.3,70,7,24.1,100.22,Mostly Cloudy,19.99300000000001,1.7091525423728813
6/8/2012 18:00,19.0,14.4,75,0,24.1,100.17,Mostly Cloudy,18.994,1.7241591468416737
6/8/2012 19:00,19.0,12.0,64,15,24.1,100.28,Mainly Clear,18.965,1.0754917436180753
6/8/2012 20:00,16.0,9.9,67,9,24.1,100.34,Mainly Clear,16.068999999999996,1.3291666178320551
6/8/2012 21:00,14.1,8.3,68,9,25.0,100.41,Clear,14.071999999999994,1.7018006700167505
6/8/2012 22:00,13.5,7.8,68,6,25.0,100.48,Clear,13.54,1.7018006700167505
6/8/2012 23:00,12.0,7.6,74,9,25.0,100.5,Clear,12.117999999999995,1.7209839103698092
6/9/2012 0:00,12.8,8.0,73,6,25.0,100.51,Clear,12.820999999999987,1.718324698506683
6/9/2012 1:00,12.9,8.0,72,0,25.0,100.53,Clear,12.952000000000004,1.7154802667147235
6/9/2012 2:00,12.2,7.8,74,0,25.0,100.54,Clear,12.347999999999997,1.7209839103698092
6/9/2012 3:00,11.5,7.3,75,0,25.0,100.56,Clear,11.505,1.7241591468416737
6/9/2012 4:00,10.0,6.9,81,0,25.0,100.6,Mainly Clear,9.927999999999992,1.7408722768108806
6/9/2012 5:00,11.1,8.0,81,6,48.3,100.68,Mainly Clear,11.130000000000003,1.7408722768108806
6/9/2012 6:00,14.2,9.4,73,0,48.3,100.71,Mainly Clear,14.190000000000014,1.718324698506683
6/9/2012 7:00,16.0,9.7,66,6,48.3,100.76,Mainly Clear,16.019999999999996,1.3261629628083065
6/9/2012 8:00,18.4,8.9,54,4,48.3,100.79,Mainly Clear,18.336000000000016,0.9860040624011334
6/9/2012 9:00,19.3,7.8,47,0,48.3,100.81,Mainly Clear,19.311999999999973,0.9672639678586027
6/9/2012 10:00,21.0,10.1,50,4,48.3,100.78,Mainly Clear,20.942999999999998,0.9496975369064822
6/9/2012 11:00,21.2,9.5,47,15,48.3,100.76,Mostly Cloudy,21.213000000000015,0.9471800750440799
6/9/2012 12:00,22.2,9.2,43,17,48.3,100.73,Cloudy,22.245000000000008,0.945948721343493
6/9/2012 13:00,23.0,7.6,37,19,48.3,100.71,Cloudy,23.25,0.9681708609999456
6/9/2012 14:00,23.2,7.2,36,7,48.3,100.68,Mostly Cloudy,23.2,0.9727175933044229
6/9/2012 15:00,23.8,5.6,31,20,48.3,100.67,Mainly Clear,23.934,1.0000000000000002
6/9/2012 16:00,23.9,6.5,33,17,48.3,100.68,Cloudy,23.964000000000024,0.986478005269463
6/9/2012 17:00,23.8,7.2,34,17,48.3,100.69,Cloudy,23.729999999999997,0.982139433707547
6/9/2012 18:00,23.6,7.1,35,11,48.3,100.73,Mainly Clear,23.541999999999966,0.9763179605360829
6/9/2012 19:00,21.8,7.6,40,9,48.3,100.75,Mostly Cloudy,21.779999999999987,0.9557861893691004
6/9/2012 20:00,18.5,8.2,51,6,48.3,100.8,Mainly Clear,18.455999999999996,0.9826306191406015
6/9/2012 21:00,19.4,6.8,44,6,25.0,100.87,Mainly Clear,19.416000000000015,0.9653668568918448
6/9/2012 22:00,17.0,6.6,50,4,25.0,100.93,Clear,17.075,1.0340560684436506
6/9/2012 23:00,16.9,7.8,55,4,25.0,100.97,Mainly Clear,16.828000000000014,1.049859212337212
6/10/2012 0:00,15.8,9.2,65,6,25.0,101.03,Mainly Clear,15.750999999999985,1.3816708679880263
6/10/2012 1:00,15.6,9.3,66,4,25.0,101.07,Clear,15.647999999999982,1.4263131525269301
6/10/2012 2:00,13.7,9.9,78,0,25.0,101.08,Clear,13.716000000000017,1.733057876440812
6/10/2012 3:00,14.3,11.6,84,4,25.0,101.11,Mainly Clear,14.286999999999978,1.7483983249034645
6/10/2012 4:00,12.4,10.3,87,4,25.0,101.15,Clear,12.397000000000002,1.755244623603565
6/10/2012 5:00,13.9,9.1,73,6,48.3,101.24,Mainly Clear,13.860000000000007,1.718324698506683
6/10/2012 6:00,16.6,9.6,63,0,48.3,101.36,Mainly Clear,16.613999999999983,1.1724017368188162
6/10/2012 7:00,18.0,8.8,55,4,48.3,101.42,Mainly Clear,17.959,0.9967392821304595
6/10/2012 8:00,20.2,9.5,50,6,48.3,101.45,Mainly Clear,20.224000000000025,0.9543499426956862
6/10/2012 9:00,21.2,10.3,50,6,48.3,101.45,Mainly Clear,21.166000000000018,0.9476091201605098
6/10/2012 10:00,23.5,11.8,48,7,48.3,101.42,Mainly Clear,23.510999999999996,0.9364735916630381
6/10/2012 11:00,24.6,7.4,33,7,48.3,101.45,Mostly Cloudy,24.68999999999997,0.986478005269463
6/10/2012 12:00,25.4,7.8,33,7,48.3,101.41,Mainly Clear,25.14000000000003,0.986478005269463
6/10/2012 13:00,25.5,5.8,28,11,48.3,101.38,Mostly Cloudy,25.504999999999995,1.5
6/10/2012 14:00,26.5,5.9,27,6,48.3,101.4,Mostly Cloudy,26.185,1.5
6/10/2012 15:00,26.5,9.2,34,6,48.3,101.42,Mainly Clear,26.12300000000001,0.982139433707547
6/10/2012 16:00,26.8,10.7,37,6,48.3,101.41,Mainly Clear,26.578999999999997,0.9681708609999456
6/10/2012 17:00,26.6,10.0,35,6,48.3,101.37,Cloudy,26.287000000000006,0.9763179605360829
6/10/2012 18:00,26.5,9.3,34,15,48.3,101.39,Cloudy,26.41400000000001,0.982139433707547
6/10/2012 19:00,26.0,9.0,34,9,48.3,101.47,Mostly Cloudy,26.12100000000001,0.982139433707547
6/10/2012 20:00,25.3,7.5,32,9,48.3,101.47,Mostly Cloudy,25.21399999999999,0.9920689044371626
6/10/2012 21:00,22.8,8.4,40,7,25.0,101.51,Clear,22.69099999999998,0.9557861893691004
6/10/2012 22:00,22.7,8.9,41,9,25.0,101.5,Mainly Clear,22.802999999999997,0.9526517417795389
6/10/2012 23:00,23.0,8.9,41,11,25.0,101.5,Clear,22.914999999999996,0.9526517417795389
6/11/2012 0:00,21.7,9.0,44,6,25.0,101.49,Clear,21.710000000000015,0.945082082331828
6/11/2012 1:00,20.4,9.2,49,0,25.0,101.45,Mainly Clear,20.20200000000003,0.9544900326504385
6/11/2012 2:00,18.9,10.5,58,7,25.0,101.47,Mainly Clear,18.859000000000023,1.0010751355790521
6/11/2012 3:00,18.5,10.9,61,9,25.0,101.45,Mostly Cloudy,18.59899999999999,1.030066911855079
6/11/2012 4:00,18.1,10.7,62,11,24.1,101.47,Mostly Cloudy,18.11099999999997,1.0514489248825625
6/11/2012 5:00,17.5,11.8,69,11,24.1,101.54,Mainly Clear,17.558999999999997,1.505906587803386
6/11/2012 6:00,19.5,12.7,65,7,48.3,101.58,Mainly Clear,19.466999999999995,1.1136122370198804
6/11/2012 7:00,19.4,13.8,70,11,48.3,101.63,Mostly Cloudy,19.345000000000024,1.7091525423728813
6/11/2012 8:00,20.2,14.5,70,9,48.3,101.64,Mostly Cloudy,20.22000000000003,1.7091525423728813
6/11/2012 9:00,22.4,15.6,65,7,24.1,101.63,Mostly Cloudy,22.475000000000023,1.1136122370198804
6/11/2012 10:00,24.8,16.3,59,4,24.1,101.58,Mostly Cloudy,24.70200000000001,0.987994578192502
6/11/2012 11:00,26.6,17.2,56,4,24.1,101.54,Mostly Cloudy,26.67799999999998,0.9607879911134949
6/11/2012 12:00,27.3,17.5,55,7,24.1,101.47,Mostly Cloudy,27.30900000000001,0.9531525027978544
6/11/2012 13:00,28.7,18.3,53,15,24.1,101.4,Cloudy,28.71999999999998,0.9540650277084644
6/11/2012 14:00,29.4,18.3,51,17,48.3,101.32,Mainly Clear,29.32900000000002,0.9542327585063248
6/11/2012 15:00,30.1,18.4,50,17,48.3,101.27,Mainly Clear,30.167000000000016,0.9571394480600544
6/11/2012 16:00,29.6,17.4,48,22,48.3,101.2,Mainly Clear,29.423999999999968,0.9522025967504519
6/11/2012 17:00,29.1,18.0,51,22,48.3,101.16,Mainly Clear,29.243999999999975,0.9537268250000491
6/11/2012 18:00,28.2,18.1,54,19,48.3,101.16,Mainly Clear,28.197999999999997,0.9538405748468891
6/11/2012 19:00,27.1,17.6,56,19,48.3,101.11,Mostly Cloudy,27.164999999999974,0.9607879911134949
6/11/2012 20:00,25.9,16.7,57,20,24.1,101.09,Cloudy,25.85800000000004,0.9684584060262452
6/11/2012 21:00,25.3,16.6,59,20,25.0,101.09,Mostly Cloudy,25.291000000000007,0.987994578192502
6/11/2012 22:00,24.7,16.6,61,22,25.0,101.08,Mostly Cloudy,24.785999999999998,1.0147471754365818
6/11/2012 23:00,23.8,16.5,64,17,25.0,101.09,Mostly Cloudy,23.761999999999993,1.0754917436180753
6/12/2012 0:00,22.7,16.3,67,19,25.0,101.08,Mostly Cloudy,22.715000000000018,1.2523873978786297
6/12/2012 1:00,21.7,15.5,68,17,25.0,101.07,Mostly Cloudy,21.674000000000014,1.3579319565140906
6/12/2012 2:00,20.9,15.0,69,19,25.0,101.04,Mainly Clear,20.932000000000027,1.505906587803386
6/12/2012 3:00,20.2,14.3,69,17,25.0,101.0,Mostly Cloudy,20.213000000000026,1.505906587803386
6/12/2012 4:00,19.5,13.4,68,19,24.1,101.0,Mostly Cloudy,19.485999999999994,1.3579319565140906
6/12/2012 5:00,19.3,13.1,67,17,24.1,101.01,Mostly Cloudy,19.376999999999978,1.2523873978786297
6/12/2012 6:00,19.5,13.2,67,15,24.1,100.98,Mostly Cloudy,19.490999999999993,1.2523873978786297
6/12/2012 7:00,21.1,14.1,64,22,24.1,100.95,Mostly Cloudy,21.245999999999977,1.0754917436180753
6/12/2012 8:00,21.8,14.4,63,19,24.1,100.92,Cloudy,21.779999999999987,1.0503413361747098
6/12/2012 9:00,22.8,14.9,61,19,24.1,100.86,Cloudy,22.800999999999995,1.0147471754365818
6/12/2012 10:00,23.9,15.5,59,15,24.1,100.8,Mostly Cloudy,23.955000000000023,0.987994578192502
6/12/2012 11:00,24.7,15.5,57,24,24.1,100.74,Cloudy,24.533,0.9684584060262452
6/12/2012 12:00,24.4,15.8,59,17,16.1,100.71,Rain Showers,24.322000000000035,0.987994578192502
6/12/2012 13:00,19.8,16.7,82,19,6.4,100.73,Rain Showers,19.837999999999976,1.7434626346010758
6/12/2012 14:00,19.0,17.3,90,19,6.4,100.71,"Rain,Fog",18.999000000000002,1.7609487211792867
6/12/2012 15:00,19.1,17.3,89,15,6.4,100.67,"Rain,Fog",19.165999999999983,1.7590894054480448
6/12/2012 16:00,18.4,16.7,90,22,8.0,100.6,"Rain,Fog",18.412000000000013,1.7609487211792867
6/12/2012 17:00,18.2,16.3,89,20,12.9,100.57,Rain,18.212000000000025,1.7590894054480448
6/12/2012 18:00,18.2,16.3,89,20,9.7,100.55,"Rain,Fog",18.189000000000032,1.7590894054480448
6/12/2012 19:00,17.9,16.1,89,20,11.3,100.52,Rain,18.118000000000023,1.7590894054480448
6/12/2012 20:00,18.5,16.2,86,19,19.3,100.47,Cloudy,18.543000000000003,1.7530322801745157
6/12/2012 21:00,18.4,16.1,86,19,25.0,100.46,Cloudy,18.522000000000002,1.7530322801745157
6/12/2012 22:00,18.6,16.1,85,17,25.0,100.45,Cloudy,18.609999999999978,1.7507512632600475
6/12/2012 23:00,18.6,16.1,85,13,25.0,100.44,Mostly Cloudy,18.620999999999977,1.7507512632600475
6/13/2012 0:00,18.5,16.1,86,11,25.0,100.46,Mostly Cloudy,18.52,1.7530322801745157
6/13/2012 1:00,19.6,16.6,83,15,25.0,100.44,Cloudy,19.620999999999977,1.7459700090483987
6/13/2012 2:00,19.6,16.5,82,19,25.0,100.4,Cloudy,19.53799999999997,1.7434626346010758
6/13/2012 3:00,19.3,16.4,83,22,25.0,100.46,Cloudy,19.321999999999974,1.7459700090483987
6/13/2012 4:00,18.7,15.6,82,22,24.1,100.54,Mostly Cloudy,18.67100000000002,1.7434626346010758
6/13/2012 5:00,17.2,13.9,81,22,24.1,100.62,Mainly Clear,17.14300000000002,1.7408722768108806
6/13/2012 6:00,17.7,14.1,79,22,24.1,100.75,Mainly Clear,17.730000000000015,1.7357508862871274
6/13/2012 7:00,18.1,14.1,77,20,24.1,100.86,Mostly Cloudy,18.184999999999977,1.7302348458823897
6/13/2012 8:00,17.9,12.6,71,32,24.1,100.96,Mostly Cloudy,17.894000000000027,1.712430565280306
6/13/2012 9:00,17.0,11.7,71,24,24.1,101.09,Mostly Cloudy,16.960999999999984,1.712430565280306
6/13/2012 10:00,17.9,11.0,64,19,24.1,101.18,Mostly Cloudy,17.874000000000013,1.0795033809321737
6/13/2012 11:00,19.5,11.6,60,13,24.1,101.28,Mainly Clear,19.587000000000003,1.00608033378648
6/13/2012 12:00,19.6,10.6,56,13,48.3,101.3,Mainly Clear,19.54099999999998,0.9820286221985732
6/13/2012 13:00,20.4,10.6,53,15,48.3,101.32,Mainly Clear,20.34400000000001,0.9615764776536136
6/13/2012 14:00,20.7,9.8,50,9,48.3,101.36,Mainly Clear,20.649000000000022,0.9517783375927786
6/13/2012 15:00,21.9,10.7,49,17,48.3,101.39,Mainly Clear,21.871000000000013,0.9440612807249926
6/13/2012 16:00,21.8,9.3,45,17,48.3,101.42,Mainly Clear,21.73599999999999,0.9449157348833611
6/13/2012 17:00,22.2,9.8,45,19,48.3,101.44,Mainly Clear,22.263000000000012,0.9416651682968247
6/13/2012 18:00,21.6,9.8,47,20,48.3,101.48,Mainly Clear,21.56999999999998,0.9456930720816616
6/13/2012 19:00,20.0,8.5,47,17,48.3,101.57,Clear,20.348999999999993,0.9535674536586362
6/13/2012 20:00,17.6,8.0,53,11,48.3,101.62,Clear,17.801000000000016,1.0018884898047125
6/13/2012 21:00,15.1,8.1,63,7,25.0,101.7,Clear,15.07499999999999,1.6383124650826568
6/13/2012 22:00,14.6,7.9,64,11,25.0,101.74,Clear,14.621999999999998,1.6895328361301014
6/13/2012 23:00,15.2,6.2,55,11,25.0,101.79,Clear,15.27100000000001,1.5179363190776158
6/14/2012 0:00,14.5,5.4,54,11,25.0,101.85,Clear,14.538999999999996,1.6882440917481214
6/14/2012 1:00,13.4,5.2,58,9,25.0,101.88,Clear,13.208000000000009,1.6987113253740342
6/14/2012 2:00,13.0,5.4,60,9,25.0,101.93,Clear,12.972000000000005,1.7002077307882337
6/14/2012 3:00,12.3,5.3,62,13,25.0,101.96,Clear,12.279999999999982,1.706707975075713
6/14/2012 4:00,12.4,4.9,60,15,48.3,102.04,Clear,12.484000000000002,1.7048424345931226
6/14/2012 5:00,12.4,5.7,64,9,48.3,102.14,Clear,12.291000000000007,1.7066092499406036
6/14/2012 6:00,14.7,6.3,57,9,48.3,102.2,Clear,14.81800000000001,1.6854841294412166
6/14/2012 7:00,16.5,7.5,55,13,48.3,102.28,Clear,16.505,1.0927098097047447
6/14/2012 8:00,18.5,7.9,50,11,48.3,102.33,Clear,18.531000000000002,0.9806089921904003
6/14/2012 9:00,20.0,5.5,39,19,48.3,102.32,Clear,20.039,0.9601509387055865
6/14/2012 10:00,20.0,3.8,34,17,48.3,102.31,Clear,20.21100000000001,0.982139433707547
6/14/2012 11:00,21.2,6.5,38,9,48.3,102.27,Clear,21.298000000000023,0.9638948809679477
6/14/2012 12:00,21.3,4.7,34,24,48.3,102.26,Clear,21.06699999999999,0.982139433707547
6/14/2012 13:00,22.2,5.5,34,19,48.3,102.22,Clear,22.16700000000002,0.982139433707547
6/14/2012 14:00,22.4,5.5,33,15,48.3,102.17,Clear,22.597000000000026,0.986478005269463
6/14/2012 15:00,22.9,6.7,35,11,48.3,102.12,Clear,22.964000000000024,0.9763179605360829
6/14/2012 16:00,22.5,6.9,36,7,48.3,102.15,Clear,22.64900000000001,0.9727175933044229
6/14/2012 17:00,22.9,6.9,36,15,48.3,102.17,Clear,22.836000000000027,0.9727175933044229
6/14/2012 18:00,22.7,7.5,38,17,48.3,102.16,Clear,22.24400000000001,0.9638948809679477
6/14/2012 19:00,22.5,6.5,36,13,48.3,102.17,Clear,22.32700000000001,0.9727175933044229
6/14/2012 20:00,21.7,5.7,35,15,48.3,102.16,Clear,21.865000000000023,0.9763179605360829
6/14/2012 21:00,21.0,6.0,38,11,25.0,102.16,Clear,20.741000000000007,0.9638948809679477
6/14/2012 22:00,20.2,6.0,39,9,25.0,102.2,Clear,20.213000000000022,0.9601509387055865
6/14/2012 23:00,19.6,5.8,40,6,25.0,102.21,Clear,19.698999999999984,0.9604965217325967
6/15/2012 0:00,18.9,5.5,41,6,25.0,102.18,Clear,19.499999999999986,0.9638779395232269
6/15/2012 1:00,17.1,6.1,48,6,25.0,102.17,Clear,17.11799999999998,1.0316064653407997
6/15/2012 2:00,14.2,7.9,66,13,25.0,102.19,Clear,14.192000000000021,1.6960165533823464
6/15/2012 3:00,13.8,9.1,73,13,25.0,102.17,Clear,13.85399999999998,1.718324698506683
6/15/2012 4:00,13.0,9.0,77,15,24.1,102.19,Clear,13.003,1.7302348458823897
6/15/2012 5:00,13.3,8.9,75,15,48.3,102.27,Clear,13.237000000000007,1.7241591468416737
6/15/2012 6:00,15.6,8.5,63,17,48.3,102.32,Clear,15.541999999999982,1.4192816147348386
6/15/2012 7:00,16.8,8.8,59,19,48.3,102.38,Clear,16.838999999999977,1.062795988540746
6/15/2012 8:00,18.6,9.5,55,17,48.3,102.4,Mainly Clear,18.634999999999994,0.98580277152339
6/15/2012 9:00,20.3,7.9,45,17,48.3,102.39,Mainly Clear,20.24399999999997,0.9542232118070002
6/15/2012 10:00,21.4,6.3,37,13,48.3,102.37,Mostly Cloudy,21.521000000000036,0.9681708609999456
6/15/2012 11:00,22.2,7.9,40,15,48.3,102.35,Mostly Cloudy,22.158000000000005,0.9557861893691004
6/15/2012 12:00,23.5,7.0,35,11,48.3,102.3,Mainly Clear,23.345000000000006,0.9763179605360829
6/15/2012 13:00,24.4,6.7,32,15,48.3,102.22,Mostly Cloudy,24.665000000000017,0.9920689044371626
6/15/2012 14:00,24.3,5.6,30,11,48.3,102.17,Cloudy,24.377000000000002,1.5
6/15/2012 15:00,24.9,5.7,29,17,48.3,102.13,Cloudy,24.845000000000038,1.5
6/15/2012 16:00,25.0,5.1,28,15,48.3,102.08,Cloudy,24.878000000000007,1.5
6/15/2012 17:00,24.8,5.3,28,11,48.3,102.06,Cloudy,24.772000000000002,1.5
6/15/2012 18:00,24.5,6.0,30,9,48.3,102.08,Cloudy,24.837999999999997,1.5
6/15/2012 19:00,23.2,8.8,40,15,48.3,102.07,Cloudy,23.40400000000001,0.9557861893691004
6/15/2012 20:00,22.0,8.7,43,15,48.3,102.06,Mostly Cloudy,22.112999999999996,0.945948721343493
6/15/2012 21:00,22.1,7.8,40,11,25.0,102.06,Mainly Clear,22.10299999999998,0.9557861893691004
6/15/2012 22:00,21.3,8.6,44,13,25.0,102.06,Mainly Clear,21.361999999999984,0.9464611879146906
6/15/2012 23:00,20.1,9.5,50,11,25.0,102.06,Clear,20.15599999999999,0.9547852943086063
6/16/2012 0:00,17.5,9.9,61,9,25.0,102.05,Clear,17.49,1.0592261882946004
6/16/2012 1:00,16.1,10.4,69,11,25.0,102.02,Mainly Clear,16.172999999999988,1.505906587803386
6/16/2012 2:00,15.3,10.3,72,13,25.0,102.03,Clear,15.388000000000012,1.7154802667147235
6/16/2012 3:00,14.7,9.6,71,17,25.0,102.03,Mainly Clear,14.782000000000014,1.712430565280306
6/16/2012 4:00,13.8,8.8,72,19,25.0,102.11,Mainly Clear,13.759999999999993,1.7154802667147235
6/16/2012 5:00,13.9,8.5,70,13,24.1,102.16,Mostly Cloudy,13.814000000000004,1.7091525423728813
6/16/2012 6:00,15.2,8.8,66,17,24.1,102.18,Mostly Cloudy,15.18500000000002,1.6016291699399303
6/16/2012 7:00,16.2,9.3,64,15,48.3,102.25,Mostly Cloudy,16.131000000000018,1.269236371128866
6/16/2012 8:00,17.4,9.5,60,9,48.3,102.23,Mostly Cloudy,17.37600000000002,1.0524827993721229
6/16/2012 9:00,18.9,10.7,59,11,48.3,102.2,Cloudy,18.986000000000015,1.0071920091104778
6/16/2012 10:00,21.6,12.0,54,4,48.3,102.15,Cloudy,21.618999999999968,0.9549717480368278
6/16/2012 11:00,21.9,11.6,52,6,48.3,102.1,Cloudy,21.99199999999999,0.9479479213065857
6/16/2012 12:00,23.8,13.1,51,6,48.3,102.04,Mostly Cloudy,23.820000000000004,0.9375411187177495
6/16/2012 13:00,24.6,12.5,47,9,48.3,101.96,Cloudy,24.69199999999997,0.9365197406993433
6/16/2012 14:00,24.9,13.5,49,6,48.3,101.91,Mostly Cloudy,24.805,0.9343319325939168
6/16/2012 15:00,26.0,13.6,46,6,48.3,101.84,Mostly Cloudy,26.055,0.9384328601022601
6/16/2012 16:00,26.5,11.0,38,7,48.3,101.77,Mostly Cloudy,26.165000000000006,0.9638948809679477
6/16/2012 17:00,26.5,11.3,39,4,48.3,101.73,Mostly Cloudy,26.361000000000004,0.9601509387055865
6/16/2012 18:00,26.2,12.1,41,6,48.3,101.71,Mainly Clear,26.282999999999994,0.9526517417795389
6/16/2012 19:00,25.0,13.0,47,7,48.3,101.66,Mainly Clear,25.064000000000007,0.9365197406993433
6/16/2012 20:00,23.1,11.8,49,4,48.3,101.62,Mainly Clear,23.075999999999986,0.9381529757868722
6/16/2012 21:00,20.8,12.3,58,0,25.0,101.6,Clear,20.81599999999998,0.9792328439162143
6/16/2012 22:00,21.5,11.9,54,9,25.0,101.6,Mainly Clear,21.484,0.9555602814056396
6/16/2012 23:00,20.9,12.9,60,0,25.0,101.58,Mainly Clear,20.857000000000024,0.9999888186332162
6/17/2012 0:00,19.3,12.6,65,0,25.0,101.55,Mainly Clear,19.268999999999995,1.1136122370198804
6/17/2012 1:00,19.8,13.7,68,7,25.0,101.52,Mainly Clear,19.75299999999999,1.3579319565140906
6/17/2012 2:00,18.6,13.5,72,11,25.0,101.48,Mainly Clear,18.595999999999982,1.7154802667147235
6/17/2012 3:00,18.4,13.7,74,13,25.0,101.45,Clear,18.431000000000022,1.7209839103698092
6/17/2012 4:00,17.4,13.4,77,9,24.1,101.46,Mainly Clear,17.47000000000002,1.7302348458823897
6/17/2012 5:00,17.3,13.7,79,6,48.3,101.47,Mainly Clear,17.31799999999998,1.7357508862871274
6/17/2012 6:00,18.9,14.1,74,9,48.3,101.51,Mainly Clear,18.843999999999998,1.7209839103698092
6/17/2012 7:00,20.2,14.4,69,11,48.3,101.52,Mainly Clear,20.291000000000018,1.505906587803386
6/17/2012 8:00,22.2,15.1,64,9,48.3,101.5,Mainly Clear,22.245000000000005,1.0754917436180753
6/17/2012 9:00,23.4,15.3,60,9,48.3,101.47,Mainly Clear,23.462999999999987,0.9999888186332162
6/17/2012 10:00,25.0,16.1,58,9,48.3,101.43,Mainly Clear,24.999000000000002,0.9771086735653381
6/17/2012 11:00,25.7,16.3,56,9,48.3,101.39,Cloudy,25.760999999999996,0.9607879911134949
6/17/2012 12:00,26.0,16.3,55,6,48.3,101.33,Cloudy,25.993,0.9531525027978544
6/17/2012 13:00,26.6,16.7,55,11,48.3,101.23,Mostly Cloudy,26.618999999999968,0.9531525027978544
6/17/2012 14:00,26.1,16.5,55,17,48.3,101.17,Cloudy,26.177999999999976,0.9531525027978544
6/17/2012 15:00,27.0,16.8,54,17,48.3,101.1,Cloudy,26.945999999999994,0.9472289954341503
6/17/2012 16:00,27.4,16.3,51,20,48.3,101.02,Cloudy,27.32000000000004,0.9418712527391151
6/17/2012 17:00,26.2,14.7,49,19,48.3,100.97,Cloudy,26.212,0.9354386693248253
6/17/2012 18:00,26.0,15.9,54,17,48.3,100.92,Cloudy,25.930999999999994,0.9472289954341503
6/17/2012 19:00,25.5,16.4,57,17,48.3,100.91,Cloudy,25.52,0.9684584060262452
6/17/2012 20:00,24.5,15.1,56,15,48.3,100.95,Cloudy,24.511999999999993,0.9607879911134949
6/17/2012 21:00,24.1,14.1,54,19,25.0,100.99,Mostly Cloudy,23.71800000000001,0.9472289954341503
6/17/2012 22:00,23.4,13.8,55,22,25.0,101.0,Mostly Cloudy,23.427000000000035,0.9531525027978544
6/17/2012 23:00,23.2,13.7,55,13,25.0,101.03,Mostly Cloudy,23.26900000000001,0.9531525027978544
6/18/2012 0:00,21.7,13.4,59,15,25.0,101.04,Mainly Clear,21.741000000000007,0.987994578192502
6/18/2012 1:00,20.5,13.4,64,13,25.0,101.07,Mainly Clear,20.585,1.0754917436180753
6/18/2012 2:00,19.7,13.5,67,19,25.0,101.08,Mainly Clear,19.743000000000013,1.2523873978786297
6/18/2012 3:00,19.3,13.4,69,17,25.0,101.06,Mainly Clear,19.31699999999997,1.505906587803386
6/18/2012 4:00,18.4,13.3,72,17,25.0,101.1,Mainly Clear,18.400000000000023,1.7154802667147235
6/18/2012 5:00,17.9,13.2,74,19,24.1,101.12,Mostly Cloudy,17.93400000000002,1.7209839103698092
6/18/2012 6:00,18.2,13.3,73,20,24.1,101.14,Mostly Cloudy,18.24200000000003,1.718324698506683
6/18/2012 7:00,19.3,13.4,69,17,48.3,101.16,Mostly Cloudy,19.317999999999977,1.505906587803386
6/18/2012 8:00,20.6,14.0,66,17,48.3,101.17,Mostly Cloudy,20.56999999999999,1.1750318113220146
6/18/2012 9:00,22.0,14.4,62,17,48.3,101.15,Mostly Cloudy,21.973999999999986,1.0305025778855286
6/18/2012 10:00,22.6,14.2,59,19,48.3,101.15,Mostly Cloudy,22.538999999999973,0.987994578192502
6/18/2012 11:00,24.0,14.9,57,19,24.1,101.14,Mostly Cloudy,23.85400000000001,0.9684584060262452
6/18/2012 12:00,25.3,14.8,52,19,24.1,101.13,Mostly Cloudy,25.382000000000012,0.9393649710689194
6/18/2012 13:00,25.3,14.2,50,20,24.1,101.06,Mostly Cloudy,25.347,0.9341256935757851
6/18/2012 14:00,26.1,14.0,47,22,24.1,101.06,Mostly Cloudy,26.067999999999962,0.9365197406993433
6/18/2012 15:00,25.8,13.4,46,24,24.1,101.02,Mostly Cloudy,25.814000000000007,0.9384328601022601
6/18/2012 16:00,25.6,13.6,47,24,24.1,100.98,Mainly Clear,25.682999999999964,0.9365197406993433
6/18/2012 17:00,25.2,13.5,48,20,24.1,100.95,Mainly Clear,25.220999999999993,0.9350721128271431
6/18/2012 18:00,24.1,13.1,50,22,24.1,100.96,Mostly Cloudy,24.236,0.9346892913400194
6/18/2012 19:00,23.2,13.1,53,20,24.1,100.97,Mostly Cloudy,23.22600000000001,0.9441601879598882
6/18/2012 20:00,22.3,13.2,56,7,24.1,100.99,Cloudy,22.412,0.9607879911134949
6/18/2012 21:00,21.8,13.4,59,9,25.0,101.02,Mainly Clear,21.745999999999995,0.987994578192502
6/18/2012 22:00,21.5,14.0,62,13,25.0,101.02,Mainly Clear,21.572999999999993,1.0305025778855286
6/18/2012 23:00,21.5,14.7,65,13,25.0,101.13,Mostly Cloudy,21.489000000000004,1.1136122370198804
6/19/2012 0:00,20.8,14.7,68,13,25.0,101.14,Mostly Cloudy,20.767999999999997,1.3579319565140906
6/19/2012 1:00,20.0,14.6,71,9,25.0,101.17,Mostly Cloudy,20.181000000000004,1.712430565280306
6/19/2012 2:00,19.1,14.3,74,9,25.0,101.11,Clear,19.08199999999998,1.7209839103698092
6/19/2012 3:00,18.3,14.1,76,9,25.0,101.12,Clear,18.319999999999972,1.7272721454173066
6/19/2012 4:00,18.1,13.6,75,9,24.1,101.13,Mostly Cloudy,18.14600000000002,1.7241591468416737
6/19/2012 5:00,18.0,13.7,76,6,25.0,101.19,Mostly Cloudy,17.987,1.7272721454173066
6/19/2012 6:00,18.8,14.1,74,9,24.1,101.19,Cloudy,18.80199999999999,1.7209839103698092
6/19/2012 7:00,19.6,14.3,71,22,24.1,101.01,Mostly Cloudy,19.731999999999974,1.712430565280306
6/19/2012 8:00,20.7,14.8,69,6,24.1,101.12,Cloudy,20.700000000000014,1.505906587803386
6/19/2012 9:00,22.0,15.5,67,15,24.1,101.03,Cloudy,21.995000000000015,1.2523873978786297
6/19/2012 10:00,23.2,16.0,64,13,24.1,100.98,Cloudy,23.226000000000003,1.0754917436180753
6/19/2012 11:00,24.3,16.3,61,11,24.1,101.0,Cloudy,24.28500000000001,1.0147471754365818
6/19/2012 12:00,25.3,17.0,60,9,24.1,100.99,Cloudy,25.222999999999985,0.9999888186332162
6/19/2012 13:00,25.8,17.9,62,15,24.1,100.99,Cloudy,25.817000000000007,1.0305025778855286
6/19/2012 14:00,26.5,18.9,63,11,24.1,101.01,Cloudy,26.485000000000003,1.0503413361747098
6/19/2012 15:00,28.1,19.2,58,20,24.1,100.92,Mostly Cloudy,28.102999999999952,0.9771086735653381
6/19/2012 16:00,27.7,19.0,59,17,24.1,100.87,Mostly Cloudy,27.814999999999962,0.987994578192502
6/19/2012 17:00,28.0,19.4,60,19,24.1,100.91,Mostly Cloudy,28.01699999999999,0.9999888186332162
6/19/2012 18:00,27.9,19.1,59,19,24.1,100.93,Cloudy,27.90299999999996,0.987994578192502
6/19/2012 19:00,27.0,19.0,62,20,24.1,100.94,Mostly Cloudy,27.024000000000015,1.0305025778855286
6/19/2012 20:00,26.1,19.2,66,19,24.1,100.85,Cloudy,26.231000000000012,1.1750318113220146
6/19/2012 21:00,25.9,19.3,67,11,25.0,100.81,Cloudy,25.782000000000004,1.2523873978786297
6/19/2012 22:00,25.5,19.3,69,9,25.0,100.86,Mostly Cloudy,25.23799999999998,1.505906587803386
6/19/2012 23:00,25.3,19.3,69,13,25.0,100.89,Cloudy,25.208999999999982,1.505906587803386
6/20/2012 0:00,25.0,18.8,68,17,25.0,100.82,Mostly Cloudy,24.904000000000007,1.3579319565140906
6/20/2012 1:00,25.0,18.5,67,19,25.0,100.87,Mainly Clear,24.977999999999998,1.2523873978786297
6/20/2012 2:00,24.1,18.3,70,24,25.0,100.88,Clear,24.14199999999997,1.7091525423728813
6/20/2012 3:00,23.7,18.4,72,20,25.0,100.9,Mainly Clear,23.71,1.7154802667147235
6/20/2012 4:00,23.1,18.2,74,13,24.1,100.97,Mainly Clear,23.099999999999962,1.7209839103698092
6/20/2012 5:00,23.0,18.1,74,19,24.1,101.01,Mainly Clear,23.016999999999992,1.7209839103698092
6/20/2012 6:00,24.2,18.2,69,22,48.3,101.04,Mainly Clear,24.195999999999998,1.505906587803386
6/20/2012 7:00,25.4,18.1,64,24,48.3,101.07,Mostly Cloudy,25.377000000000024,1.0754917436180753
6/20/2012 8:00,25.3,18.0,64,19,48.3,101.1,Mostly Cloudy,25.22500000000001,1.0754917436180753
6/20/2012 9:00,26.3,18.5,62,17,24.1,101.09,Mostly Cloudy,26.329000000000015,1.0305025778855286
6/20/2012 10:00,27.4,19.3,61,9,24.1,101.06,Mostly Cloudy,27.56400000000003,1.0147471754365818
6/20/2012 11:00,28.5,19.8,59,17,24.1,101.06,Mainly Clear,28.48399999999999,0.987994578192502
6/20/2012 12:00,29.1,20.0,58,20,24.1,101.0,Mainly Clear,28.820999999999962,0.9771086735653381
6/20/2012 13:00,29.7,20.0,56,19,24.1,100.91,Clear,29.619999999999962,0.9734104488590022
6/20/2012 14:00,31.7,20.4,51,17,24.1,100.83,Clear,31.177999999999976,0.9677223435207087
6/20/2012 15:00,32.2,19.6,47,22,24.1,100.75,Mainly Clear,32.20399999999997,0.9682162833081233
6/20/2012 16:00,32.2,20.0,49,26,24.1,100.74,Mainly Clear,32.075999999999965,0.9713162430549452
6/20/2012 17:00,32.3,20.3,49,15,24.1,100.69,Mainly Clear,32.16099999999996,0.9718382324416475
6/20/2012 18:00,32.4,19.9,48,17,24.1,100.61,Mostly Cloudy,32.14399999999998,0.9698140973905689
6/20/2012 19:00,30.6,21.1,57,11,24.1,100.63,Mostly Cloudy,30.20199999999995,0.9841062670730812
6/20/2012 20:00,29.7,21.1,60,17,24.1,100.61,Mostly Cloudy,29.511999999999972,0.9999888186332162
6/20/2012 21:00,28.0,21.0,66,15,25.0,100.61,Mainly Clear,28.059,1.1750318113220146
6/20/2012 22:00,28.1,20.2,62,24,25.0,100.57,Clear,28.05999999999996,1.0305025778855286
6/20/2012 23:00,27.3,20.1,65,19,25.0,100.6,Mainly Clear,27.33900000000002,1.1136122370198804
6/21/2012 0:00,26.5,19.9,67,20,25.0,100.61,Mainly Clear,26.592999999999996,1.2523873978786297
6/21/2012 1:00,25.9,19.6,68,22,25.0,100.6,Clear,25.86900000000003,1.3579319565140906
6/21/2012 2:00,25.1,19.3,70,11,25.0,100.6,Mainly Clear,25.096999999999962,1.7091525423728813
6/21/2012 3:00,24.6,18.9,71,11,25.0,100.58,Mainly Clear,24.50299999999997,1.712430565280306
6/21/2012 4:00,24.0,18.5,71,11,25.0,100.57,Mainly Clear,24.052,1.712430565280306
6/21/2012 5:00,24.1,18.2,70,17,24.1,100.6,Mainly Clear,24.063999999999975,1.7091525423728813
6/21/2012 6:00,24.5,18.2,68,17,24.1,100.6,Mainly Clear,24.453999999999983,1.3579319565140906
6/21/2012 7:00,25.6,18.6,65,17,24.1,100.6,Mainly Clear,25.62399999999997,1.1136122370198804
6/21/2012 8:00,26.0,18.5,63,11,24.1,100.59,Mainly Clear,26.028000000000006,1.0503413361747098
6/21/2012 9:00,28.1,19.0,58,19,24.1,100.52,Mainly Clear,28.041999999999963,0.9771086735653381
6/21/2012 10:00,29.4,19.3,55,17,24.1,100.47,Clear,29.411000000000026,0.9669203655889287
6/21/2012 11:00,30.8,20.0,53,13,24.1,100.42,Mainly Clear,30.581000000000003,0.96994003443837
6/21/2012 12:00,31.8,20.8,52,15,24.1,100.36,Mainly Clear,30.86699999999998,0.9698539295753654
6/21/2012 13:00,31.6,20.6,52,24,24.1,100.32,Mostly Cloudy,30.779999999999983,0.9691481694769842
6/21/2012 14:00,32.6,20.4,49,20,24.1,100.25,Mainly Clear,32.29499999999995,0.972715136820982
6/21/2012 15:00,33.0,19.0,44,24,24.1,100.2,Mainly Clear,32.73699999999999,0.9647688215963729
6/21/2012 16:00,32.5,17.9,42,24,24.1,100.14,Mainly Clear,32.198999999999984,0.9560527212982598
6/21/2012 17:00,32.1,17.9,43,30,24.1,100.09,Mainly Clear,31.89599999999996,0.9606019699885896
6/21/2012 18:00,31.1,18.5,47,22,24.1,100.06,Clear,31.486999999999966,0.9631415933080786
6/21/2012 19:00,30.3,17.3,46,30,24.1,100.08,Clear,30.01000000000002,0.9557807458503234
6/21/2012 20:00,28.9,17.6,51,22,24.1,100.1,Mainly Clear,28.496000000000002,0.9483348952368555
6/21/2012 21:00,28.1,17.7,53,20,25.0,100.13,Mainly Clear,28.11399999999996,0.9509556689006425
6/21/2012 22:00,27.5,17.8,55,17,25.0,100.14,Mainly Clear,27.579999999999995,0.9536417839493516
6/21/2012 23:00,26.7,17.7,58,17,25.0,100.09,Clear,26.75700000000001,0.9771086735653381
6/22/2012 0:00,25.8,18.1,63,9,25.0,100.07,Clear,25.75100000000001,1.0503413361747098
6/22/2012 1:00,24.8,18.1,66,9,25.0,100.11,Mainly Clear,24.85900000000001,1.1750318113220146
6/22/2012 2:00,24.7,16.9,62,15,25.0,100.1,Mainly Clear,24.677999999999997,1.0305025778855286
6/22/2012 3:00,24.0,16.7,64,22,25.0,100.12,Mainly Clear,23.983,1.0754917436180753
6/22/2012 4:00,23.0,16.7,68,19,24.1,100.14,Mainly Clear,22.931000000000004,1.3579319565140906
6/22/2012 5:00,22.6,16.9,70,20,24.1,100.21,Mainly Clear,22.62499999999997,1.7091525423728813
6/22/2012 6:00,22.7,17.2,71,19,24.1,100.28,Mostly Cloudy,22.800000000000008,1.712430565280306
6/22/2012 7:00,23.4,17.3,69,19,24.1,100.33,Mostly Cloudy,23.326000000000025,1.505906587803386
6/22/2012 8:00,23.0,17.3,70,17,24.1,100.37,Mostly Cloudy,23.08,1.7091525423728813
6/22/2012 9:00,24.6,17.6,65,17,24.1,100.4,Mostly Cloudy,24.586,1.1136122370198804
6/22/2012 10:00,24.4,16.9,63,19,24.1,100.4,Mostly Cloudy,24.354000000000028,1.0503413361747098
6/22/2012 11:00,24.7,17.3,63,22,24.1,100.41,Mostly Cloudy,24.617000000000008,1.0503413361747098
6/22/2012 12:00,26.8,17.8,58,22,24.1,100.41,Mostly Cloudy,26.833000000000013,0.9771086735653381
6/22/2012 13:00,28.0,14.8,45,20,24.1,100.39,Mostly Cloudy,27.76599999999998,0.9418382422836576
6/22/2012 14:00,29.1,14.0,40,22,48.3,100.37,Mostly Cloudy,28.976999999999958,0.9557861893691004
6/22/2012 15:00,29.0,13.8,39,20,48.3,100.32,Mainly Clear,29.054999999999996,0.9601509387055865
6/22/2012 16:00,28.5,12.7,38,22,48.3,100.29,Mainly Clear,28.24,0.9638948809679477
6/22/2012 17:00,27.9,12.4,38,24,48.3,100.29,Mainly Clear,27.79300000000001,0.9638948809679477
6/22/2012 18:00,27.2,11.7,38,17,48.3,100.31,Mainly Clear,27.325,0.9638948809679477
6/22/2012 19:00,25.7,11.7,42,11,48.3,100.38,Mostly Cloudy,25.63200000000001,0.949155270668292
6/22/2012 20:00,23.2,10.9,46,7,24.1,100.42,Mostly Cloudy,23.206000000000007,0.9384328601022601
6/22/2012 21:00,22.8,11.8,50,9,25.0,100.47,Mostly Cloudy,22.790999999999986,0.9392117866663972
6/22/2012 22:00,21.1,11.7,55,9,25.0,100.48,Mainly Clear,21.065999999999978,0.9626743671760342
6/22/2012 23:00,20.0,11.7,59,9,25.0,100.52,Mainly Clear,20.01,0.992970491650873
6/23/2012 0:00,19.6,12.1,62,7,25.0,100.56,Mostly Cloudy,19.565999999999974,1.0305025778855286
6/23/2012 1:00,20.8,11.9,57,9,25.0,100.6,Mainly Clear,20.838999999999984,0.9744412165240783
6/23/2012 2:00,20.1,12.0,60,13,25.0,100.62,Mainly Clear,20.053999999999977,0.9999888186332162
6/23/2012 3:00,19.5,12.3,63,13,25.0,100.65,Mainly Clear,19.538999999999994,1.0503413361747098
6/23/2012 4:00,19.5,12.3,63,15,24.1,100.7,Mainly Clear,19.545,1.0503413361747098
6/23/2012 5:00,19.3,12.4,64,15,48.3,100.82,Mostly Cloudy,19.318999999999985,1.0754917436180753
6/23/2012 6:00,17.4,12.7,74,15,24.1,100.8,Rain Showers,17.369000000000014,1.7209839103698092
6/23/2012 7:00,18.6,13.7,73,11,48.3,100.84,Mostly Cloudy,18.60599999999998,1.718324698506683
6/23/2012 8:00,20.0,12.6,62,15,48.3,100.89,Mostly Cloudy,20.038999999999994,1.0305025778855286
6/23/2012 9:00,21.5,11.8,54,15,48.3,100.9,Mostly Cloudy,21.464000000000002,0.9556485449951032
6/23/2012 10:00,22.2,11.7,51,7,48.3,100.91,Mostly Cloudy,22.236000000000008,0.9441175075659864
6/23/2012 11:00,23.8,11.4,46,11,48.3,100.89,Mostly Cloudy,23.636999999999993,0.9384328601022601
6/23/2012 12:00,25.1,9.8,38,13,48.3,100.85,Mostly Cloudy,25.16699999999996,0.9638948809679477
6/23/2012 13:00,25.6,9.6,36,19,48.3,100.84,Mainly Clear,25.782999999999966,0.9727175933044229
6/23/2012 14:00,26.1,7.1,30,15,48.3,100.82,Mainly Clear,25.79799999999997,1.5
6/23/2012 15:00,26.4,5.7,27,13,48.3,100.86,Mostly Cloudy,26.008000000000028,1.5
6/23/2012 16:00,26.5,5.9,27,22,48.3,100.84,Mostly Cloudy,26.328000000000007,1.5
6/23/2012 17:00,26.4,4.4,24,15,48.3,100.83,Mainly Clear,25.684000000000033,1.5
6/23/2012 18:00,25.8,3.6,24,20,48.3,100.82,Mainly Clear,25.268000000000015,1.5
6/23/2012 19:00,25.8,3.5,24,13,48.3,100.84,Mainly Clear,23.603,1.5
6/23/2012 20:00,23.5,5.4,31,6,48.3,100.88,Clear,23.698999999999998,1.0000000000000002
6/23/2012 21:00,20.1,7.3,43,0,25.0,100.95,Clear,20.23899999999998,0.9542548390895339
6/23/2012 22:00,19.6,7.5,45,0,25.0,100.99,Mainly Clear,19.75600000000001,0.9595639148443083
6/23/2012 23:00,18.8,8.5,51,0,25.0,101.01,Clear,18.82199999999998,0.9741695293530305
6/24/2012 0:00,18.3,8.4,52,0,25.0,101.0,Clear,18.279999999999994,0.9874504917386786
6/24/2012 1:00,17.6,8.7,56,6,25.0,101.02,Clear,17.624999999999986,1.0086540382876559
6/24/2012 2:00,14.1,8.7,70,4,25.0,101.01,Clear,14.115999999999994,1.7091525423728813
6/24/2012 3:00,14.9,9.1,68,0,25.0,101.02,Clear,14.905000000000014,1.7018006700167505
6/24/2012 4:00,14.4,9.0,70,11,48.3,101.04,Clear,14.337000000000014,1.7091525423728813
6/24/2012 5:00,14.0,9.2,73,6,48.3,101.04,Clear,13.987000000000005,1.718324698506683
6/24/2012 6:00,17.8,10.5,62,4,48.3,101.04,Clear,17.85899999999998,1.0581421926395207
6/24/2012 7:00,20.0,12.2,61,7,48.3,101.03,Clear,19.950999999999997,1.0147471754365818
6/24/2012 8:00,22.2,10.6,48,7,48.3,101.03,Clear,22.172000000000022,0.9422104636983268
6/24/2012 9:00,23.2,12.7,52,11,48.3,101.0,Clear,23.072000000000006,0.9425719378737334
6/24/2012 10:00,24.3,13.0,49,15,48.3,100.97,Clear,24.359,0.9345225583818166
6/24/2012 11:00,26.3,12.0,41,17,48.3,100.91,Mainly Clear,26.288000000000025,0.9526517417795389
6/24/2012 12:00,27.1,8.4,31,9,48.3,100.82,Mainly Clear,26.830999999999975,1.0000000000000002
6/24/2012 13:00,27.3,9.9,34,17,48.3,100.75,Mostly Cloudy,27.09500000000001,0.982139433707547
6/24/2012 14:00,26.8,9.4,33,19,48.3,100.67,Mostly Cloudy,26.85100000000002,0.986478005269463
6/24/2012 15:00,26.7,8.9,33,22,48.3,100.63,Mostly Cloudy,26.55800000000001,0.986478005269463
6/24/2012 16:00,26.4,8.7,33,19,24.1,100.61,Cloudy,26.412000000000017,0.986478005269463
6/24/2012 17:00,21.5,11.8,54,32,24.1,100.69,Cloudy,21.476000000000003,0.9555955532215407
6/24/2012 18:00,19.4,12.7,65,26,24.1,100.71,Rain Showers,19.438000000000027,1.1136122370198804
6/24/2012 19:00,19.0,14.0,73,20,24.1,100.74,Rain,18.995,1.718324698506683
6/24/2012 20:00,18.7,14.5,77,24,24.1,100.69,Rain,18.694000000000024,1.7302348458823897
6/24/2012 21:00,18.6,13.6,73,19,25.0,100.67,Cloudy,18.55499999999998,1.718324698506683
6/24/2012 22:00,18.3,13.1,72,9,25.0,100.6,Cloudy,18.253999999999973,1.7154802667147235
6/24/2012 23:00,17.8,13.2,74,13,25.0,100.57,Cloudy,17.864999999999988,1.7209839103698092
6/25/2012 0:00,16.7,13.6,82,9,19.3,100.51,Rain Showers,16.605000000000015,1.7434626346010758
6/25/2012 1:00,15.7,13.6,87,9,19.3,100.41,Rain,15.762000000000018,1.755244623603565
6/25/2012 2:00,15.7,13.8,88,7,12.9,100.32,Drizzle,15.71300000000002,1.7571931537828946
6/25/2012 3:00,15.9,14.2,90,9,11.3,100.26,Rain,15.817000000000016,1.7609487211792867
6/25/2012 4:00,16.1,14.1,88,15,19.3,100.21,Rain,15.939000000000012,1.7571931537828946
6/25/2012 5:00,16.4,14.3,87,15,19.3,100.21,Cloudy,16.229000000000003,1.755244623603565
6/25/2012 6:00,16.7,14.3,86,15,24.1,100.19,Mostly Cloudy,16.494999999999987,1.7530322801745157
6/25/2012 7:00,17.2,13.8,80,15,24.1,100.18,Cloudy,17.23700000000002,1.7383226557949913
6/25/2012 8:00,18.7,13.9,74,17,24.1,100.16,Mainly Clear,18.69900000000002,1.7209839103698092
6/25/2012 9:00,18.8,13.0,69,26,24.1,100.13,Mostly Cloudy,18.839999999999986,1.505906587803386
6/25/2012 10:00,17.9,12.8,72,24,24.1,100.12,Rain Showers,17.89100000000002,1.7154802667147235
6/25/2012 11:00,19.8,13.1,65,22,24.1,100.1,Mostly Cloudy,19.811999999999976,1.1136122370198804
6/25/2012 12:00,19.0,11.9,63,26,24.1,100.12,Mostly Cloudy,19.105,1.0503413361747098
6/25/2012 13:00,19.7,12.4,63,19,24.1,100.12,Mostly Cloudy,19.68300000000002,1.0503413361747098
6/25/2012 14:00,20.2,12.2,60,26,24.1,100.13,Mostly Cloudy,20.193000000000016,0.9999888186332162
6/25/2012 15:00,18.8,10.8,60,28,24.1,100.09,Mostly Cloudy,18.479999999999997,1.0247935183248444
6/25/2012 16:00,18.1,10.8,62,26,24.1,100.12,Mostly Cloudy,18.112999999999982,1.0513991160168505
6/25/2012 17:00,16.5,10.8,69,26,24.1,100.14,Cloudy,16.479999999999997,1.505906587803386
6/25/2012 18:00,16.0,10.7,71,28,24.1,100.12,Cloudy,15.932000000000006,1.712430565280306
6/25/2012 19:00,15.0,10.9,76,22,24.1,100.14,Cloudy,15.044,1.7272721454173066
6/25/2012 20:00,15.2,11.3,78,11,24.1,100.12,Cloudy,15.171000000000015,1.733057876440812
6/25/2012 21:00,16.6,12.3,76,13,25.0,100.13,Cloudy,16.58799999999998,1.7272721454173066
6/25/2012 22:00,17.1,11.8,71,24,25.0,100.13,Cloudy,17.186000000000007,1.712430565280306
6/25/2012 23:00,16.7,11.6,72,22,25.0,100.14,Cloudy,16.66000000000001,1.7154802667147235
6/26/2012 0:00,16.6,11.3,71,26,25.0,100.12,Cloudy,16.576,1.712430565280306
6/26/2012 1:00,16.2,10.9,71,24,25.0,100.13,Cloudy,16.19400000000002,1.712430565280306
6/26/2012 2:00,15.7,10.6,72,11,25.0,100.11,Cloudy,15.702,1.7154802667147235
6/26/2012 3:00,15.8,10.5,71,13,25.0,100.12,Cloudy,15.795999999999985,1.712430565280306
6/26/2012 4:00,15.6,10.2,70,13,24.1,100.12,Cloudy,15.588000000000001,1.7091525423728813
6/26/2012 5:00,15.4,10.2,71,17,24.1,100.16,Cloudy,15.388000000000009,1.712430565280306
6/26/2012 6:00,15.6,10.2,70,17,24.1,100.18,Mostly Cloudy,15.593999999999987,1.7091525423728813
6/26/2012 7:00,16.0,10.4,69,11,24.1,100.19,Mostly Cloudy,16.139999999999997,1.505906587803386
6/26/2012 8:00,16.4,10.3,67,17,24.1,100.18,Cloudy,16.450000000000006,1.2596883954256999
6/26/2012 9:00,16.9,10.5,66,9,24.1,100.16,Cloudy,16.84700000000002,1.1924309233468304
6/26/2012 10:00,17.0,10.4,65,13,24.1,100.15,Cloudy,16.99,1.1609474453664455
6/26/2012 11:00,17.6,10.8,64,11,24.1,100.12,Cloudy,17.617999999999974,1.091731725145779
6/26/2012 12:00,16.9,11.5,70,15,24.1,100.12,Rain,16.910000000000014,1.7091525423728813
6/26/2012 13:00,16.2,10.9,71,26,19.3,100.1,Cloudy,16.19100000000002,1.712430565280306
6/26/2012 14:00,16.3,11.6,74,20,19.3,100.07,Drizzle,16.306000000000004,1.7209839103698092
6/26/2012 15:00,16.6,11.4,71,20,24.1,100.03,Cloudy,16.6,1.712430565280306
6/26/2012 16:00,15.8,12.4,80,17,24.1,100.0,Cloudy,15.778999999999975,1.7383226557949913
6/26/2012 17:00,16.1,12.5,79,13,24.1,99.99,Rain Showers,16.19399999999998,1.7357508862871274
6/26/2012 18:00,15.6,12.6,82,13,19.3,99.99,Rain,15.572999999999993,1.7434626346010758
6/26/2012 19:00,15.4,12.6,83,15,19.3,99.93,Rain,15.421000000000014,1.7459700090483987
6/26/2012 20:00,15.3,12.8,85,15,24.1,99.9,Rain,15.303999999999988,1.7507512632600475
6/26/2012 21:00,15.4,12.9,85,15,12.9,99.9,Rain,15.405000000000014,1.7507512632600475
6/26/2012 22:00,15.4,12.8,84,15,16.1,99.85,Rain,15.405000000000014,1.7483983249034645
6/26/2012 23:00,15.4,12.8,84,15,19.3,99.8,Rain,15.39700000000001,1.7483983249034645
6/27/2012 0:00,15.7,12.9,83,17,19.3,99.75,Rain,15.699000000000023,1.7459700090483987
6/27/2012 1:00,15.7,12.9,83,13,19.3,99.72,Rain,15.686000000000021,1.7459700090483987
6/27/2012 2:00,15.6,12.7,83,11,19.3,99.69,Rain,15.570999999999987,1.7459700090483987
6/27/2012 3:00,15.3,12.7,84,9,19.3,99.69,Rain,15.347999999999987,1.7483983249034645
6/27/2012 4:00,15.2,12.4,83,13,19.3,99.72,Rain,15.265000000000017,1.7459700090483987
6/27/2012 5:00,15.2,12.2,82,17,24.1,99.76,Rain,15.219000000000024,1.7434626346010758
6/27/2012 6:00,15.4,12.2,81,15,24.1,99.79,Rain,15.450000000000019,1.7408722768108806
6/27/2012 7:00,16.3,12.2,77,20,24.1,99.81,Rain,16.308999999999973,1.7302348458823897
6/27/2012 8:00,18.0,12.9,72,28,24.1,99.83,Mostly Cloudy,17.97300000000002,1.7154802667147235
6/27/2012 9:00,18.0,12.0,68,20,24.1,99.86,Cloudy,18.047000000000004,1.3579319565140906
6/27/2012 10:00,18.7,13.0,69,20,24.1,99.89,Rain,18.783000000000005,1.505906587803386
6/27/2012 11:00,17.8,13.5,76,24,24.1,99.93,Rain,17.749999999999986,1.7272721454173066
6/27/2012 12:00,19.8,13.5,67,20,19.3,99.92,Rain,19.75699999999998,1.2523873978786297
6/27/2012 13:00,19.3,14.4,73,13,19.3,99.96,Rain,19.275999999999986,1.718324698506683
6/27/2012 14:00,19.1,14.7,76,19,19.3,99.99,Rain,19.085999999999977,1.7272721454173066
6/27/2012 15:00,19.6,15.1,75,19,24.1,100.02,Mostly Cloudy,19.602999999999984,1.7241591468416737
6/27/2012 16:00,20.3,14.2,68,20,24.1,100.03,Rain,20.175,1.3579319565140906
6/27/2012 17:00,19.9,14.3,70,20,24.1,100.05,Mostly Cloudy,19.95500000000002,1.7091525423728813
6/27/2012 18:00,21.1,14.1,64,15,24.1,100.06,Mostly Cloudy,21.270999999999994,1.0754917436180753
6/27/2012 19:00,19.4,13.8,70,17,24.1,100.09,Rain,19.37200000000003,1.7091525423728813
6/27/2012 20:00,19.3,13.2,68,11,24.1,100.13,Cloudy,19.27099999999998,1.3579319565140906
6/27/2012 21:00,19.3,12.7,66,13,25.0,100.19,Mostly Cloudy,19.333999999999975,1.1750318113220146
6/27/2012 22:00,18.7,13.4,71,11,25.0,100.19,Cloudy,18.958000000000013,1.712430565280306
6/27/2012 23:00,17.5,14.1,80,9,25.0,100.17,Cloudy,17.557000000000002,1.7383226557949913
6/28/2012 0:00,17.2,14.0,81,6,25.0,100.17,Cloudy,17.151000000000007,1.7408722768108806
6/28/2012 1:00,17.7,13.3,75,11,25.0,100.15,Cloudy,17.711000000000023,1.7241591468416737
6/28/2012 2:00,17.6,13.4,76,7,25.0,100.16,Cloudy,17.607000000000006,1.7272721454173066
6/28/2012 3:00,17.5,13.3,76,6,25.0,100.18,Rain,17.514000000000003,1.7272721454173066
6/28/2012 4:00,17.7,13.9,78,11,25.0,100.2,Rain Showers,17.730000000000015,1.733057876440812
6/28/2012 5:00,17.6,13.7,78,9,48.3,100.25,Mostly Cloudy,17.63899999999998,1.733057876440812
6/28/2012 6:00,17.7,13.7,77,11,48.3,100.27,Mostly Cloudy,17.797999999999984,1.7302348458823897
6/28/2012 7:00,18.6,14.2,76,11,48.3,100.29,Mostly Cloudy,18.568999999999974,1.7272721454173066
6/28/2012 8:00,19.4,14.2,72,9,48.3,100.28,Mostly Cloudy,19.380000000000027,1.7154802667147235
6/28/2012 9:00,20.4,14.1,67,11,48.3,100.27,Mostly Cloudy,20.401000000000025,1.2523873978786297
6/28/2012 10:00,21.7,14.7,64,11,48.3,100.23,Mostly Cloudy,21.824999999999996,1.0754917436180753
6/28/2012 11:00,23.0,14.7,60,13,48.3,100.21,Mostly Cloudy,22.897000000000002,0.9999888186332162
6/28/2012 12:00,24.6,15.3,56,9,48.3,100.19,Mostly Cloudy,24.654999999999973,0.9607879911134949
6/28/2012 13:00,24.9,15.0,54,17,48.3,100.11,Mainly Clear,24.854000000000013,0.9472289954341503
6/28/2012 14:00,25.5,15.3,53,22,48.3,100.08,Mainly Clear,25.479000000000006,0.943018325394646
6/28/2012 15:00,27.0,14.8,47,22,48.3,100.03,Mainly Clear,27.043999999999997,0.9385957122055391
6/28/2012 16:00,27.1,14.0,45,22,48.3,100.01,Mainly Clear,27.152999999999967,0.9403088027499734
6/28/2012 17:00,27.2,12.6,40,19,48.3,99.92,Mostly Cloudy,27.231000000000012,0.9557861893691004
6/28/2012 18:00,26.4,12.1,41,19,48.3,99.9,Mostly Cloudy,26.42800000000004,0.9526517417795389
6/28/2012 19:00,25.4,12.9,46,13,48.3,99.91,Mostly Cloudy,25.03000000000001,0.9384328601022601
6/28/2012 20:00,24.1,13.5,52,11,24.1,99.89,Mainly Clear,24.07199999999998,0.9393649710689194
6/28/2012 21:00,23.6,14.3,56,11,25.0,99.95,Mainly Clear,23.743999999999982,0.9607879911134949
6/28/2012 22:00,22.5,15.0,63,11,25.0,99.88,Mostly Cloudy,22.485999999999994,1.0503413361747098
6/28/2012 23:00,21.9,15.4,67,15,25.0,99.85,Mostly Cloudy,21.850000000000033,1.2523873978786297
6/29/2012 0:00,22.2,14.0,60,15,25.0,99.83,Rain Showers,22.09,0.9999888186332162
6/29/2012 1:00,21.1,14.7,67,4,25.0,99.75,Cloudy,21.096999999999962,1.2523873978786297
6/29/2012 2:00,20.3,15.3,73,7,25.0,99.71,Cloudy,20.248,1.718324698506683
6/29/2012 3:00,19.5,16.1,81,7,9.7,99.71,"Thunderstorms,Rain Showers,Fog",19.36099999999997,1.7408722768108806
6/29/2012 4:00,18.8,16.5,86,9,24.1,99.68,Cloudy,18.826999999999984,1.7530322801745157
6/29/2012 5:00,18.9,16.4,85,13,24.1,99.71,Mostly Cloudy,18.86800000000002,1.7507512632600475
6/29/2012 6:00,19.7,16.7,83,17,24.1,99.72,Mostly Cloudy,19.716000000000015,1.7459700090483987
6/29/2012 7:00,21.4,16.7,75,20,24.1,99.65,Mainly Clear,21.360000000000024,1.7241591468416737
6/29/2012 8:00,22.8,17.4,72,24,24.1,99.61,Mainly Clear,22.814999999999994,1.7154802667147235
6/29/2012 9:00,24.8,18.0,66,24,24.1,99.55,Mainly Clear,24.758000000000006,1.1750318113220146
6/29/2012 10:00,25.5,18.3,64,26,48.3,99.52,Clear,25.491000000000007,1.0754917436180753
6/29/2012 11:00,26.5,19.2,64,26,24.1,99.51,Mainly Clear,26.565,1.0754917436180753
6/29/2012 12:00,27.3,18.5,59,32,24.1,99.47,Mostly Cloudy,27.224000000000025,0.987994578192502
6/29/2012 13:00,28.6,18.2,53,37,48.3,99.46,Mainly Clear,28.619999999999983,0.9536317120963994
6/29/2012 14:00,29.8,17.1,46,33,48.3,99.44,Mainly Clear,29.806000000000026,0.95454115367281
6/29/2012 15:00,30.7,14.6,38,32,48.3,99.42,Mainly Clear,30.438999999999982,0.9617664342863589
6/29/2012 16:00,31.1,13.0,33,28,48.3,99.39,Mainly Clear,30.798999999999968,0.9773625608975309
6/29/2012 17:00,30.2,12.2,33,30,48.3,99.43,Mainly Clear,29.818999999999974,0.986478005269463
6/29/2012 18:00,29.8,12.5,35,24,48.3,99.45,Mainly Clear,29.261000000000013,0.9763179605360829
6/29/2012 19:00,28.5,12.3,37,17,48.3,99.45,Mainly Clear,28.26100000000003,0.9681708609999456
6/29/2012 20:00,27.6,13.4,42,9,25.0,99.51,Mainly Clear,27.542999999999974,0.949155270668292
6/29/2012 21:00,26.5,15.3,50,22,25.0,99.58,Mainly Clear,26.434000000000005,0.9362433136974508
6/29/2012 22:00,25.7,14.0,48,22,25.0,99.59,Mostly Cloudy,25.701999999999988,0.9350721128271431
6/29/2012 23:00,24.5,13.5,50,17,25.0,99.61,Mainly Clear,24.656,0.9341216560035943
6/30/2012 0:00,23.1,11.9,49,20,25.0,99.63,Clear,23.105999999999977,0.938042982217022
6/30/2012 1:00,22.6,11.4,49,15,25.0,99.68,Clear,22.60499999999997,0.9399166249731391
6/30/2012 2:00,22.0,11.5,51,17,25.0,99.67,Clear,21.997999999999998,0.9455954091860334
6/30/2012 3:00,21.2,12.3,57,17,25.0,99.66,Clear,21.205000000000013,0.9702743510839599
6/30/2012 4:00,20.5,13.0,62,20,48.3,99.7,Clear,20.555999999999997,1.0305025778855286
6/30/2012 5:00,20.8,12.4,59,26,48.3,99.83,Mostly Cloudy,20.76599999999998,0.987994578192502
6/30/2012 6:00,21.6,13.2,59,28,48.3,99.85,Mostly Cloudy,21.633999999999965,0.987994578192502
6/30/2012 7:00,22.1,13.8,59,20,48.3,99.86,Mostly Cloudy,22.099999999999973,0.987994578192502
6/30/2012 8:00,23.4,14.4,57,26,48.3,99.88,Mostly Cloudy,23.36800000000003,0.9684584060262452
6/30/2012 9:00,24.2,13.9,53,26,48.3,99.83,Mainly Clear,24.156999999999996,0.943018325394646
6/30/2012 10:00,25.1,14.5,52,30,48.3,99.83,Mainly Clear,25.03499999999998,0.9393649710689194
6/30/2012 11:00,26.3,14.9,50,26,48.3,99.79,Mainly Clear,26.25000000000001,0.9355047069522882
6/30/2012 12:00,27.6,15.5,48,26,48.3,99.74,Mainly Clear,27.582999999999966,0.940756907339047
6/30/2012 13:00,28.0,14.8,45,30,48.3,99.68,Mainly Clear,27.94199999999998,0.9429028042622651
6/30/2012 14:00,29.9,13.8,37,33,48.3,99.67,Mainly Clear,29.93200000000003,0.9681708609999456
6/30/2012 15:00,28.8,13.2,38,28,24.1,99.66,Mostly Cloudy,29.19,0.9638948809679477
6/30/2012 16:00,29.0,13.1,38,26,48.3,99.65,Mostly Cloudy,29.057999999999996,0.9638948809679477
6/30/2012 17:00,24.8,17.6,64,11,48.3,99.69,Mostly Cloudy,24.778000000000006,1.0754917436180753
6/30/2012 18:00,24.3,16.2,61,22,24.1,99.79,Mostly Cloudy,24.11900000000001,1.0147471754365818
6/30/2012 19:00,23.9,16.6,64,7,48.3,99.86,Mostly Cloudy,23.85700000000002,1.0754917436180753
6/30/2012 20:00,22.9,16.2,66,6,25.0,99.92,Mostly Cloudy,22.962000000000025,1.1750318113220146
6/30/2012 21:00,23.6,16.3,64,13,25.0,100.02,Mostly Cloudy,23.523999999999972,1.0754917436180753
6/30/2012 22:00,23.3,15.3,61,7,25.0,100.04,Mostly Cloudy,23.29599999999998,1.0147471754365818
6/30/2012 23:00,22.3,15.6,66,4,25.0,100.07,Mostly Cloudy,22.27599999999999,1.1750318113220146
7/1/2012 0:00,22.0,15.7,67,0,25.0,100.1,Mostly Cloudy,22.15900000000001,1.2523873978786297
7/1/2012 1:00,21.1,16.8,76,6,25.0,100.14,Mostly Cloudy,21.133999999999972,1.7272721454173066
7/1/2012 2:00,20.4,16.1,76,9,24.1,100.16,Mostly Cloudy,20.498999999999995,1.7272721454173066
7/1/2012 3:00,20.2,13.8,67,7,25.0,100.22,Mostly Cloudy,20.15400000000003,1.2523873978786297
7/1/2012 4:00,20.0,12.3,61,6,24.1,100.27,Mostly Cloudy,20.25699999999999,1.0147471754365818
7/1/2012 5:00,20.2,12.3,60,0,24.1,100.32,Mostly Cloudy,20.432999999999993,0.9999888186332162
7/1/2012 6:00,21.0,12.9,60,7,24.1,100.41,Mostly Cloudy,20.98,0.9999888186332162
7/1/2012 7:00,21.3,13.4,61,11,24.1,100.46,Mostly Cloudy,21.304999999999993,1.0147471754365818
7/1/2012 8:00,21.6,13.1,58,6,24.1,100.5,Mainly Clear,21.87199999999998,0.9771086735653381
7/1/2012 9:00,22.9,13.0,54,4,48.3,100.51,Mainly Clear,22.858000000000025,0.9478043838391006
7/1/2012 10:00,23.4,13.5,54,13,48.3,100.5,Mainly Clear,23.39200000000003,0.9472289954341503
7/1/2012 11:00,24.6,14.4,53,19,48.3,100.5,Mainly Clear,24.486,0.943018325394646
7/1/2012 12:00,24.2,13.4,51,22,48.3,100.54,Mainly Clear,24.208000000000002,0.9368704909940606
7/1/2012 13:00,25.4,14.0,49,22,48.3,100.55,Mainly Clear,25.392000000000007,0.9343319325939168
7/1/2012 14:00,25.1,13.9,50,17,48.3,100.56,Mainly Clear,24.948000000000008,0.933729825543156
7/1/2012 15:00,24.7,14.0,51,15,48.3,100.56,Mostly Cloudy,24.834999999999994,0.9364696353166625
7/1/2012 16:00,24.7,13.8,51,15,48.3,100.55,Mostly Cloudy,24.659000000000006,0.9364696353166625
7/1/2012 17:00,25.3,14.5,51,11,48.3,100.52,Mainly Clear,25.315000000000012,0.9364696353166625
7/1/2012 18:00,24.5,13.9,52,17,48.3,100.52,Mainly Clear,24.366999999999994,0.9393649710689194
7/1/2012 19:00,23.6,13.0,51,15,48.3,100.51,Mainly Clear,23.82400000000001,0.9375340214508032
7/1/2012 20:00,21.9,12.9,57,11,25.0,100.55,Mainly Clear,21.788000000000014,0.9684584060262452
7/1/2012 21:00,21.3,12.9,59,7,25.0,100.63,Mainly Clear,21.253999999999976,0.987994578192502
7/1/2012 22:00,19.6,13.0,66,11,25.0,100.63,Mainly Clear,19.608999999999966,1.1750318113220146
7/1/2012 23:00,19.1,12.9,67,9,25.0,100.67,Mainly Clear,19.177999999999972,1.2523873978786297
7/2/2012 0:00,18.1,13.0,72,13,25.0,100.69,Mainly Clear,18.131999999999977,1.7154802667147235
7/2/2012 1:00,17.3,12.6,74,7,25.0,100.71,Mainly Clear,17.292999999999996,1.7209839103698092
7/2/2012 2:00,16.6,12.5,77,7,25.0,100.72,Mainly Clear,16.56399999999998,1.7302348458823897
7/2/2012 3:00,16.6,12.5,77,6,25.0,100.72,Mainly Clear,16.572999999999983,1.7302348458823897
7/2/2012 4:00,16.8,12.4,75,0,24.1,100.75,Mainly Clear,16.790999999999983,1.7241591468416737
7/2/2012 5:00,16.6,12.7,78,6,24.1,100.76,Mainly Clear,16.58799999999998,1.733057876440812
7/2/2012 6:00,19.5,14.0,71,6,48.3,100.79,Mainly Clear,19.368000000000006,1.712430565280306
7/2/2012 7:00,21.5,14.6,65,9,48.3,100.81,Mainly Clear,21.502000000000002,1.1136122370198804
7/2/2012 8:00,22.2,14.8,63,15,48.3,100.84,Mostly Cloudy,22.204000000000004,1.0503413361747098
7/2/2012 9:00,23.4,15.0,59,15,48.3,100.83,Mainly Clear,23.501999999999995,0.987994578192502
7/2/2012 10:00,23.6,15.1,59,13,48.3,100.81,Mainly Clear,23.572999999999976,0.987994578192502
7/2/2012 11:00,25.2,15.6,55,19,48.3,100.78,Mainly Clear,25.330999999999996,0.9531525027978544
7/2/2012 12:00,25.9,15.6,53,15,48.3,100.73,Mainly Clear,25.909000000000038,0.943018325394646
7/2/2012 13:00,26.5,13.7,45,17,48.3,100.66,Mainly Clear,26.762000000000004,0.9403088027499734
7/2/2012 14:00,26.7,12.8,42,19,48.3,100.61,Mostly Cloudy,26.57099999999999,0.949155270668292
7/2/2012 15:00,28.3,12.3,37,30,48.3,100.55,Mainly Clear,28.271000000000022,0.9681708609999456
7/2/2012 16:00,28.0,11.6,36,22,48.3,100.54,Mainly Clear,28.140000000000008,0.9727175933044229
7/2/2012 17:00,26.3,9.7,35,26,48.3,100.62,Mostly Cloudy,26.331000000000014,0.9763179605360829
7/2/2012 18:00,25.9,10.0,37,20,48.3,100.66,Mostly Cloudy,25.896000000000026,0.9681708609999456
7/2/2012 19:00,24.5,9.7,39,15,48.3,100.69,Mostly Cloudy,24.592999999999993,0.9601509387055865
7/2/2012 20:00,21.7,10.0,47,9,25.0,100.75,Mainly Clear,21.830000000000005,0.9443191505479577
7/2/2012 21:00,20.0,10.4,54,6,25.0,100.81,Mainly Clear,19.988999999999997,0.966867732216468
7/2/2012 22:00,19.1,10.5,57,6,25.0,100.82,Mainly Clear,19.096999999999976,0.9932281592628613
7/2/2012 23:00,19.0,10.8,59,7,25.0,100.81,Mainly Clear,18.987999999999996,1.007171394683567
7/3/2012 0:00,18.2,10.8,62,7,25.0,100.83,Mainly Clear,18.173000000000005,1.0499272629750684
7/3/2012 1:00,16.7,10.5,67,4,25.0,100.84,Clear,16.68000000000002,1.2523873978786297
7/3/2012 2:00,17.2,11.1,67,4,25.0,100.83,Clear,17.310000000000013,1.2523873978786297
7/3/2012 3:00,16.9,10.4,66,0,25.0,100.83,Clear,16.781000000000017,1.2003841107078115
7/3/2012 4:00,14.3,10.5,78,6,24.1,100.89,Clear,14.257999999999976,1.733057876440812
7/3/2012 5:00,17.6,10.8,64,6,48.3,100.84,Clear,17.623999999999988,1.0913972340012246
7/3/2012 6:00,18.5,11.1,62,9,48.3,100.98,Clear,18.485999999999997,1.041548566129563
7/3/2012 7:00,20.3,10.3,53,6,48.3,100.97,Clear,20.12299999999999,0.9631731667002981
7/3/2012 8:00,21.5,10.9,51,0,48.3,100.96,Clear,21.631999999999994,0.9478466605909796
7/3/2012 9:00,21.9,11.1,50,9,48.3,100.94,Mainly Clear,21.89300000000003,0.9439234919952897
7/3/2012 10:00,23.0,11.6,49,4,48.3,100.89,Mainly Clear,22.97599999999999,0.938521614229627
7/3/2012 11:00,24.1,12.0,47,9,48.3,100.85,Mostly Cloudy,23.88099999999999,0.9365197406993433
7/3/2012 12:00,25.2,12.3,45,11,48.3,100.79,Mostly Cloudy,25.195000000000004,0.9403088027499734
7/3/2012 13:00,26.9,13.1,43,13,48.3,100.74,Cloudy,26.974000000000032,0.945948721343493
7/3/2012 14:00,27.3,13.0,41,9,48.3,100.66,Cloudy,27.47400000000003,0.9526517417795389
7/3/2012 15:00,26.9,12.3,40,15,48.3,100.58,Cloudy,26.90500000000004,0.9557861893691004
7/3/2012 16:00,27.4,11.4,37,15,48.3,100.55,Cloudy,27.323000000000043,0.9681708609999456
7/3/2012 17:00,27.5,10.4,34,15,48.3,100.49,Cloudy,27.4,0.982139433707547
7/3/2012 18:00,27.0,10.7,36,11,48.3,100.44,Cloudy,26.98600000000001,0.9727175933044229
7/3/2012 19:00,25.3,14.4,51,17,48.3,100.41,Cloudy,25.247000000000003,0.9364696353166625
7/3/2012 20:00,24.8,12.8,47,17,48.3,100.36,Cloudy,24.835999999999995,0.9365197406993433
7/3/2012 21:00,25.0,13.9,50,13,25.0,100.37,Rain Showers,24.952999999999996,0.933723136053394
7/3/2012 22:00,21.5,14.8,66,17,25.0,100.35,Rain Showers,21.506999999999994,1.1750318113220146
7/3/2012 23:00,20.8,14.8,69,0,25.0,100.32,Rain Showers,20.67,1.505906587803386
7/4/2012 0:00,19.8,15.9,78,6,16.1,100.34,Rain,19.855999999999984,1.733057876440812
7/4/2012 1:00,19.4,16.6,84,6,25.0,100.25,Cloudy,19.45899999999999,1.7483983249034645
7/4/2012 2:00,19.3,16.5,84,13,25.0,100.21,Cloudy,19.273999999999983,1.7483983249034645
7/4/2012 3:00,19.3,16.4,83,13,25.0,100.19,Cloudy,19.31399999999997,1.7459700090483987
7/4/2012 4:00,19.9,16.9,83,13,19.3,100.21,Cloudy,19.879000000000016,1.7459700090483987
7/4/2012 5:00,20.3,17.1,82,15,12.9,100.25,Cloudy,20.25999999999998,1.7434626346010758
7/4/2012 6:00,20.5,17.3,82,15,16.1,100.24,Cloudy,20.470000000000002,1.7434626346010758
7/4/2012 7:00,21.1,17.7,81,15,16.1,100.24,Cloudy,21.14199999999999,1.7408722768108806
7/4/2012 8:00,22.3,18.1,77,17,16.1,100.23,Cloudy,22.244999999999983,1.7302348458823897
7/4/2012 9:00,23.2,18.4,74,17,16.1,100.2,Mostly Cloudy,23.204000000000004,1.7209839103698092
7/4/2012 10:00,24.6,18.9,71,19,19.3,100.16,Cloudy,24.546999999999976,1.712430565280306
7/4/2012 11:00,24.8,18.9,70,24,19.3,100.13,Cloudy,24.856999999999985,1.7091525423728813
7/4/2012 12:00,26.1,20.2,70,24,19.3,100.14,Cloudy,25.987999999999985,1.7091525423728813
7/4/2012 13:00,27.0,20.1,66,24,19.3,100.07,Mostly Cloudy,27.086,1.1750318113220146
7/4/2012 14:00,27.5,19.9,63,24,19.3,100.04,Mostly Cloudy,27.502000000000006,1.0503413361747098
7/4/2012 15:00,28.4,19.9,60,19,19.3,99.98,Mostly Cloudy,28.351000000000028,0.9999888186332162
7/4/2012 16:00,26.7,20.1,67,15,24.1,99.84,Thunderstorms,26.684999999999995,1.2523873978786297
7/4/2012 17:00,21.6,20.0,91,11,24.1,100.02,"Thunderstorms,Rain Showers",21.599999999999987,1.762772169746578
7/4/2012 18:00,23.4,20.7,85,9,24.1,100.06,Mainly Clear,23.30500000000003,1.7507512632600475
7/4/2012 19:00,23.3,20.2,83,6,24.1,100.09,Mainly Clear,23.250999999999994,1.7459700090483987
7/4/2012 20:00,21.8,19.1,85,9,24.1,100.15,Mainly Clear,21.746999999999986,1.7507512632600475
7/4/2012 21:00,21.2,18.3,84,9,25.0,100.25,Mainly Clear,21.14800000000001,1.7483983249034645
7/4/2012 22:00,21.1,16.9,77,17,25.0,100.31,Clear,21.129999999999978,1.7302348458823897
7/4/2012 23:00,19.1,15.9,82,11,25.0,100.37,Clear,19.141999999999975,1.7434626346010758
7/5/2012 0:00,17.9,14.8,82,9,25.0,100.38,Clear,17.994000000000025,1.7434626346010758
7/5/2012 1:00,17.2,14.8,86,6,25.0,100.45,Mainly Clear,17.315000000000015,1.7530322801745157
7/5/2012 2:00,16.6,14.6,88,11,25.0,100.43,Mainly Clear,16.627999999999986,1.7571931537828946
7/5/2012 3:00,16.8,14.6,87,11,25.0,100.46,Mainly Clear,16.762999999999987,1.755244623603565
7/5/2012 4:00,15.8,14.1,90,7,24.1,100.47,Mainly Clear,15.737999999999978,1.7609487211792867
7/5/2012 5:00,16.1,14.5,90,9,24.1,100.56,Mainly Clear,16.118999999999982,1.7609487211792867
7/5/2012 6:00,18.3,14.5,79,13,24.1,100.62,Mainly Clear,18.179999999999986,1.7357508862871274
7/5/2012 7:00,19.4,14.7,74,17,24.1,100.68,Mainly Clear,19.40600000000002,1.7209839103698092
7/5/2012 8:00,20.4,15.0,71,7,24.1,100.73,Mainly Clear,20.45600000000001,1.712430565280306
7/5/2012 9:00,21.1,15.3,69,6,48.3,100.74,Mostly Cloudy,21.08699999999997,1.505906587803386
7/5/2012 10:00,22.0,15.6,67,9,48.3,100.72,Mostly Cloudy,22.050000000000008,1.2523873978786297
7/5/2012 11:00,23.3,16.3,65,7,48.3,100.69,Cloudy,23.32299999999999,1.1136122370198804
7/5/2012 12:00,23.3,16.3,65,6,48.3,100.68,Cloudy,23.32299999999999,1.1136122370198804
7/5/2012 13:00,24.3,16.8,63,9,48.3,100.66,Cloudy,24.28400000000001,1.0503413361747098
7/5/2012 14:00,24.5,16.1,59,11,48.3,100.66,Mostly Cloudy,24.373999999999995,0.987994578192502
7/5/2012 15:00,24.3,16.7,63,11,48.3,100.69,Mostly Cloudy,24.25500000000001,1.0503413361747098
7/5/2012 16:00,24.8,17.9,66,17,48.3,100.66,Mostly Cloudy,24.665000000000006,1.1750318113220146
7/5/2012 17:00,25.8,17.5,60,17,48.3,100.65,Mainly Clear,25.82400000000001,0.9999888186332162
7/5/2012 18:00,25.0,17.2,62,19,48.3,100.64,Mainly Clear,24.993000000000002,1.0305025778855286
7/5/2012 19:00,24.5,17.4,65,15,48.3,100.65,Mainly Clear,24.47400000000001,1.1136122370198804
7/5/2012 20:00,23.4,17.2,68,13,48.3,100.69,Clear,23.370000000000026,1.3579319565140906
7/5/2012 21:00,23.1,17.1,69,9,25.0,100.76,Clear,23.12199999999998,1.505906587803386
7/5/2012 22:00,21.9,17.6,77,9,25.0,100.76,Clear,21.91400000000003,1.7302348458823897
7/5/2012 23:00,20.8,17.6,82,7,25.0,100.74,Clear,20.715999999999998,1.7434626346010758
7/6/2012 0:00,20.5,17.2,81,7,25.0,100.73,Mainly Clear,20.564000000000007,1.7408722768108806
7/6/2012 1:00,20.7,17.4,81,0,25.0,100.75,Mainly Clear,20.77900000000001,1.7408722768108806
7/6/2012 2:00,19.9,16.9,83,4,25.0,100.74,Clear,19.874000000000024,1.7459700090483987
7/6/2012 3:00,19.1,16.1,83,7,25.0,100.76,Clear,19.131999999999966,1.7459700090483987
7/6/2012 4:00,19.3,16.2,82,7,25.0,100.75,Clear,19.231999999999967,1.7434626346010758
7/6/2012 5:00,19.3,16.3,83,6,48.3,100.78,Mainly Clear,19.261999999999972,1.7459700090483987
7/6/2012 6:00,20.7,17.5,82,9,48.3,100.79,Mostly Cloudy,20.65300000000002,1.7434626346010758
7/6/2012 7:00,20.6,16.8,79,13,48.3,100.79,Mostly Cloudy,20.661999999999985,1.7357508862871274
7/6/2012 8:00,22.1,16.7,71,15,48.3,100.76,Mostly Cloudy,22.226999999999986,1.712430565280306
7/6/2012 9:00,23.8,16.9,65,19,48.3,100.69,Cloudy,23.849,1.1136122370198804
7/6/2012 10:00,25.7,18.3,64,15,48.3,100.65,Cloudy,25.465,1.0754917436180753
7/6/2012 11:00,26.9,18.1,59,15,48.3,100.61,Cloudy,26.78800000000004,0.987994578192502
7/6/2012 12:00,27.7,17.6,54,22,48.3,100.52,Cloudy,27.648999999999983,0.9501884333496856
7/6/2012 13:00,28.5,18.5,55,22,24.1,100.5,Cloudy,28.455000000000005,0.959399407200665
7/6/2012 14:00,29.0,18.5,53,22,24.1,100.45,Cloudy,28.82400000000001,0.9548736600744427
7/6/2012 15:00,29.6,19.7,55,20,24.1,100.47,Cloudy,29.63799999999997,0.9686417608134892
7/6/2012 16:00,30.5,20.4,55,20,24.1,100.41,Cloudy,30.327999999999978,0.9750633723885074
7/6/2012 17:00,29.5,20.2,57,15,24.1,100.38,Cloudy,29.298999999999992,0.9755546128950726
7/6/2012 18:00,29.7,20.8,59,11,24.1,100.33,Cloudy,29.56899999999996,0.9886628023240819
7/6/2012 19:00,29.1,20.9,61,15,24.1,100.36,Cloudy,29.032999999999966,1.0147471754365818
7/6/2012 20:00,28.7,21.2,64,13,24.1,100.33,Cloudy,28.682,1.0754917436180753
7/6/2012 21:00,28.3,21.7,67,7,25.0,100.36,Cloudy,28.060000000000016,1.2523873978786297
7/6/2012 22:00,26.8,21.9,75,9,25.0,100.39,Cloudy,26.278000000000006,1.7241591468416737
7/6/2012 23:00,26.3,21.0,73,11,25.0,100.46,Rain Showers,26.18900000000001,1.718324698506683
7/7/2012 0:00,25.8,20.8,74,6,25.0,100.44,Cloudy,25.742000000000008,1.7209839103698092
7/7/2012 1:00,25.1,17.2,62,11,25.0,100.4,Cloudy,24.940000000000012,1.0305025778855286
7/7/2012 2:00,24.0,16.3,62,7,25.0,100.33,Cloudy,24.054000000000002,1.0305025778855286
7/7/2012 3:00,24.1,16.0,61,9,25.0,100.38,Cloudy,24.085999999999967,1.0147471754365818
7/7/2012 4:00,23.9,16.0,61,13,25.0,100.47,Cloudy,24.013000000000012,1.0147471754365818
7/7/2012 5:00,22.2,17.0,72,11,25.0,100.52,Rain,22.26800000000001,1.7154802667147235
7/7/2012 6:00,23.2,17.4,70,9,24.1,100.45,Cloudy,23.15000000000001,1.7091525423728813
7/7/2012 7:00,23.5,17.1,67,19,24.1,100.42,Mostly Cloudy,23.527,1.2523873978786297
7/7/2012 8:00,23.3,16.3,65,17,24.1,100.4,Cloudy,23.26299999999998,1.1136122370198804
7/7/2012 9:00,23.1,16.1,65,15,24.1,100.42,Mostly Cloudy,23.14199999999997,1.1136122370198804
7/7/2012 10:00,24.1,16.0,61,19,24.1,100.43,Mostly Cloudy,24.088999999999984,1.0147471754365818
7/7/2012 11:00,24.4,16.2,60,17,24.1,100.44,Mostly Cloudy,24.348000000000024,0.9999888186332162
7/7/2012 12:00,26.5,16.5,54,22,24.1,100.42,Mainly Clear,26.487999999999992,0.9472289954341503
7/7/2012 13:00,27.8,16.4,50,20,48.3,100.37,Mainly Clear,27.73300000000002,0.9416413472033455
7/7/2012 14:00,28.8,16.5,47,17,48.3,100.32,Mainly Clear,28.829000000000033,0.9475632970730309
7/7/2012 15:00,28.9,16.4,47,22,48.3,100.28,Mostly Cloudy,28.82300000000003,0.9475083661274344
7/7/2012 16:00,29.1,15.7,44,17,48.3,100.28,Mostly Cloudy,28.716000000000008,0.9467559314854266
7/7/2012 17:00,28.7,14.5,42,20,48.3,100.28,Mainly Clear,28.646999999999984,0.949155270668292
7/7/2012 18:00,27.7,15.3,47,15,48.3,100.33,Mainly Clear,27.662999999999982,0.9412264731379496
7/7/2012 19:00,26.4,15.1,50,13,48.3,100.4,Mostly Cloudy,26.304000000000027,0.9357020972513672
7/7/2012 20:00,25.5,14.5,51,9,48.3,100.43,Mostly Cloudy,25.407000000000007,0.9364696353166625
7/7/2012 21:00,24.5,14.7,54,11,25.0,100.48,Mostly Cloudy,24.480000000000004,0.9472289954341503
7/7/2012 22:00,23.2,15.1,60,9,25.0,100.49,Mainly Clear,23.427999999999987,0.9999888186332162
7/7/2012 23:00,23.8,13.9,54,17,25.0,100.53,Mainly Clear,23.657000000000004,0.9472289954341503
7/8/2012 0:00,22.0,13.6,59,17,25.0,100.56,Mainly Clear,21.977999999999998,0.987994578192502
7/8/2012 1:00,21.0,12.9,60,15,25.0,100.59,Mainly Clear,20.94199999999999,0.9999888186332162
7/8/2012 2:00,20.0,12.7,63,11,25.0,100.62,Mainly Clear,19.979,1.0503413361747098
7/8/2012 3:00,17.7,11.7,68,7,25.0,100.64,Mainly Clear,17.702000000000016,1.3579319565140906
7/8/2012 4:00,16.3,12.2,77,7,24.1,100.7,Clear,16.318999999999974,1.7302348458823897
7/8/2012 5:00,16.6,13.1,80,9,24.1,100.76,Mainly Clear,16.628999999999976,1.7383226557949913
7/8/2012 6:00,18.6,12.5,68,15,48.3,100.8,Mainly Clear,18.57199999999998,1.3579319565140906
7/8/2012 7:00,18.8,12.2,65,20,48.3,100.83,Mainly Clear,18.833999999999982,1.1136122370198804
7/8/2012 8:00,19.3,6.5,43,22,48.3,100.84,Mainly Clear,19.426999999999975,0.9651697131894695
7/8/2012 9:00,20.6,8.5,46,20,48.3,100.81,Clear,20.594999999999974,0.9520915052658355
7/8/2012 10:00,21.6,7.8,41,22,48.3,100.82,Clear,21.815000000000005,0.9526517417795389
7/8/2012 11:00,22.0,7.1,38,19,48.3,100.81,Clear,22.136999999999997,0.9638948809679477
7/8/2012 12:00,23.0,7.8,38,24,48.3,100.79,Clear,22.956999999999994,0.9638948809679477
7/8/2012 13:00,23.9,7.7,35,17,48.3,100.76,Mainly Clear,23.897000000000027,0.9763179605360829
7/8/2012 14:00,24.5,9.6,39,17,48.3,100.72,Mainly Clear,24.535999999999994,0.9601509387055865
7/8/2012 15:00,24.3,8.5,37,15,48.3,100.72,Mainly Clear,24.076999999999998,0.9681708609999456
7/8/2012 16:00,24.5,7.7,34,24,48.3,100.72,Mainly Clear,24.31900000000001,0.982139433707547
7/8/2012 17:00,24.2,7.8,35,26,48.3,100.7,Mainly Clear,24.15600000000001,0.9763179605360829
7/8/2012 18:00,23.6,8.3,38,20,48.3,100.69,Mainly Clear,23.40299999999997,0.9638948809679477
7/8/2012 19:00,22.2,8.5,41,19,48.3,100.72,Mainly Clear,22.264000000000014,0.9526517417795389
7/8/2012 20:00,20.3,8.4,46,11,48.3,100.74,Clear,20.356999999999978,0.9535181408018316
7/8/2012 21:00,19.8,8.0,46,9,25.0,100.8,Clear,19.812999999999974,0.9586465922893667
7/8/2012 22:00,17.9,8.1,53,7,25.0,100.81,Clear,17.942000000000014,0.9972734612034897
7/8/2012 23:00,17.1,8.4,57,9,25.0,100.85,Clear,17.069999999999983,1.0343461690748588
7/9/2012 0:00,16.0,8.9,63,13,25.0,100.83,Clear,15.922,1.3017490669781882
7/9/2012 1:00,14.4,9.0,70,9,25.0,100.84,Clear,14.361000000000013,1.7091525423728813
7/9/2012 2:00,14.9,9.1,68,9,25.0,100.86,Clear,14.914000000000014,1.7018006700167505
7/9/2012 3:00,13.2,9.0,76,9,25.0,100.88,Mainly Clear,13.202000000000016,1.7272721454173066
7/9/2012 4:00,13.5,8.9,74,9,25.0,100.91,Mainly Clear,13.511000000000006,1.7209839103698092
7/9/2012 5:00,12.8,9.4,80,7,24.1,100.98,Mainly Clear,12.82599999999998,1.7383226557949913
7/9/2012 6:00,16.1,9.6,65,13,48.3,101.07,Mainly Clear,16.128999999999984,1.2861836983598105
7/9/2012 7:00,17.8,8.7,55,11,48.3,101.1,Clear,17.745999999999977,1.0037830323851233
7/9/2012 8:00,18.2,8.1,52,11,48.3,101.13,Clear,18.157000000000018,0.9908399530900379
7/9/2012 9:00,19.2,7.9,48,9,48.3,101.13,Clear,19.23800000000002,0.9686514904991756
7/9/2012 10:00,19.9,7.5,45,17,48.3,101.12,Clear,19.775000000000013,0.9592564610569732
7/9/2012 11:00,21.4,7.9,42,20,48.3,101.09,Clear,21.400000000000027,0.949155270668292
7/9/2012 12:00,22.2,7.1,38,13,48.3,101.07,Clear,22.201,0.9638948809679477
7/9/2012 13:00,23.1,7.9,38,19,48.3,101.04,Mainly Clear,23.011999999999976,0.9638948809679477
7/9/2012 14:00,24.3,6.5,32,22,48.3,101.01,Mainly Clear,24.602000000000007,0.9920689044371626
7/9/2012 15:00,24.4,5.3,29,17,48.3,101.0,Mainly Clear,24.42600000000003,1.5
7/9/2012 16:00,24.5,4.7,28,15,48.3,100.99,Mainly Clear,24.564,1.5
7/9/2012 17:00,24.2,5.3,29,11,48.3,100.98,Mainly Clear,24.364000000000004,1.5
7/9/2012 18:00,23.6,6.9,34,13,48.3,101.0,Mainly Clear,23.56099999999997,0.982139433707547
7/9/2012 19:00,22.3,7.2,38,13,48.3,101.01,Mainly Clear,22.307999999999996,0.9638948809679477
7/9/2012 20:00,19.5,7.9,47,7,48.3,101.02,Clear,19.503999999999994,0.9638079773620041
7/9/2012 21:00,19.9,8.1,46,6,25.0,101.05,Mainly Clear,19.87600000000002,0.9576500433680103
7/9/2012 22:00,17.6,9.0,57,4,25.0,101.04,Clear,17.580999999999975,1.0174624486954695
7/9/2012 23:00,16.3,9.6,64,6,25.0,101.05,Mainly Clear,16.289999999999978,1.2376979672567954
7/10/2012 0:00,18.2,11.2,64,7,25.0,101.04,Clear,18.17000000000002,1.0754917436180753
7/10/2012 1:00,18.7,9.4,55,13,25.0,101.04,Clear,18.677000000000024,0.9850354277323522
7/10/2012 2:00,17.0,9.8,63,7,25.0,101.06,Clear,16.98199999999999,1.1288909953801696
7/10/2012 3:00,16.6,11.0,69,9,25.0,101.06,Clear,16.60299999999998,1.505906587803386
7/10/2012 4:00,16.4,12.4,77,11,24.1,101.11,Clear,16.45900000000001,1.7302348458823897
7/10/2012 5:00,16.6,11.7,73,9,48.3,101.15,Mainly Clear,16.66399999999998,1.718324698506683
7/10/2012 6:00,17.1,12.3,73,9,48.3,101.19,Mainly Clear,17.14199999999998,1.718324698506683
7/10/2012 7:00,19.3,11.8,62,9,48.3,101.22,Mainly Clear,19.29899999999997,1.0305025778855286
7/10/2012 8:00,20.4,13.7,65,15,48.3,101.22,Mainly Clear,20.447000000000013,1.1136122370198804
7/10/2012 9:00,22.3,12.9,55,9,48.3,101.24,Mainly Clear,22.241999999999983,0.9548272816265906
7/10/2012 10:00,23.6,11.6,47,9,48.3,101.23,Mainly Clear,23.651999999999973,0.9365197406993433
7/10/2012 11:00,25.0,10.7,41,15,48.3,101.21,Mainly Clear,25.000999999999998,0.9526517417795389
7/10/2012 12:00,25.9,9.4,35,26,48.3,101.15,Mainly Clear,26.01200000000003,0.9763179605360829
7/10/2012 13:00,25.8,8.5,33,22,48.3,101.14,Mainly Clear,25.82500000000001,0.986478005269463
7/10/2012 14:00,27.0,10.7,36,19,48.3,101.11,Mostly Cloudy,26.932,0.9727175933044229
7/10/2012 15:00,26.5,11.2,38,19,48.3,101.09,Mainly Clear,26.511999999999993,0.9638948809679477
7/10/2012 16:00,26.1,10.6,38,13,48.3,101.09,Mostly Cloudy,26.080999999999957,0.9638948809679477
7/10/2012 17:00,26.5,10.3,36,13,48.3,101.1,Mainly Clear,26.42699999999998,0.9727175933044229
7/10/2012 18:00,25.6,9.1,35,19,48.3,101.13,Mainly Clear,25.791000000000007,0.9763179605360829
7/10/2012 19:00,23.9,10.1,42,13,48.3,101.18,Mainly Clear,23.893000000000026,0.949155270668292
7/10/2012 20:00,21.5,9.5,46,11,48.3,101.26,Clear,21.57600000000001,0.9456712915931242
7/10/2012 21:00,21.9,7.7,40,11,25.0,101.34,Mainly Clear,21.824000000000023,0.9557861893691004
7/10/2012 22:00,20.2,6.6,41,7,25.0,101.37,Clear,20.331999999999997,0.9536725458081016
7/10/2012 23:00,17.7,7.8,52,9,25.0,101.43,Clear,17.771000000000015,1.002915013951229
7/11/2012 0:00,18.5,6.5,45,7,25.0,101.45,Clear,18.571999999999985,0.9795308887116514
7/11/2012 1:00,15.5,8.2,62,0,25.0,101.5,Clear,15.482999999999993,1.425603231340741
7/11/2012 2:00,14.9,8.0,63,4,25.0,101.52,Clear,14.933000000000009,1.6856696145686971
7/11/2012 3:00,15.1,6.0,54,4,25.0,101.55,Clear,15.211999999999989,1.5505675251663242
7/11/2012 4:00,13.5,8.6,72,4,24.1,101.6,Clear,13.511000000000001,1.7154802667147235
7/11/2012 5:00,13.1,8.7,75,4,48.3,101.66,Clear,13.095999999999995,1.7241591468416737
7/11/2012 6:00,15.4,9.9,70,6,48.3,101.71,Clear,15.427000000000003,1.7091525423728813
7/11/2012 7:00,18.2,9.6,57,4,48.3,101.73,Clear,18.221000000000018,1.0066316049849426
7/11/2012 8:00,20.4,8.9,48,4,48.3,101.75,Clear,20.20900000000003,0.95444538030258
7/11/2012 9:00,22.5,9.5,44,9,48.3,101.73,Clear,22.35600000000001,0.9432590533134183
7/11/2012 10:00,23.9,9.2,39,7,48.3,101.74,Mainly Clear,23.940000000000026,0.9601509387055865
7/11/2012 11:00,24.9,10.1,39,9,48.3,101.72,Mainly Clear,24.92400000000003,0.9601509387055865
7/11/2012 12:00,26.4,8.7,33,13,48.3,101.69,Mainly Clear,26.357000000000024,0.986478005269463
7/11/2012 13:00,26.7,9.3,33,15,48.3,101.66,Mainly Clear,26.74599999999999,0.986478005269463
7/11/2012 14:00,27.4,9.4,32,13,48.3,101.61,Mostly Cloudy,27.61200000000003,0.9920689044371626
7/11/2012 15:00,27.8,8.9,31,19,48.3,101.59,Mostly Cloudy,27.731000000000016,1.0000000000000002
7/11/2012 16:00,27.6,8.9,31,20,48.3,101.54,Mostly Cloudy,27.664999999999992,1.0000000000000002
7/11/2012 17:00,27.5,10.1,34,19,48.3,101.5,Mostly Cloudy,27.117000000000008,0.982139433707547
7/11/2012 18:00,27.3,8.0,30,19,48.3,101.48,Mostly Cloudy,26.739000000000004,1.5
7/11/2012 19:00,26.5,8.8,33,13,24.1,101.5,Mostly Cloudy,26.529000000000007,0.986478005269463
7/11/2012 20:00,25.6,10.5,39,9,25.0,101.49,Mainly Clear,25.47099999999997,0.9601509387055865
7/11/2012 21:00,22.5,11.8,51,13,25.0,101.53,Mainly Clear,22.467999999999993,0.9427201940865103
7/11/2012 22:00,21.8,11.2,51,9,25.0,101.5,Mainly Clear,21.81599999999999,0.9467572674012661
7/11/2012 23:00,22.8,11.8,50,17,25.0,101.5,Clear,22.79299999999999,0.9392042678031456
7/12/2012 0:00,21.8,12.8,57,11,25.0,101.5,Clear,21.715999999999987,0.9684584060262452
7/12/2012 1:00,18.5,13.3,72,6,25.0,101.5,Clear,18.474,1.7154802667147235
7/12/2012 2:00,20.6,12.9,61,6,25.0,101.49,Clear,20.61899999999998,1.0147471754365818
7/12/2012 3:00,20.6,12.5,60,11,25.0,101.5,Clear,20.564999999999976,0.9999888186332162
7/12/2012 4:00,20.3,12.6,61,7,24.1,101.52,Mainly Clear,20.304999999999982,1.0147471754365818
7/12/2012 5:00,17.7,12.8,73,9,48.3,101.56,Mainly Clear,17.650000000000023,1.718324698506683
7/12/2012 6:00,20.2,12.2,60,17,48.3,101.57,Mainly Clear,20.14000000000001,0.9999888186332162
7/12/2012 7:00,21.6,12.6,57,15,48.3,101.58,Mainly Clear,21.52199999999998,0.9684584060262452
7/12/2012 8:00,22.6,13.2,55,13,48.3,101.59,Mainly Clear,22.59799999999997,0.9531525027978544
7/12/2012 9:00,24.2,16.1,61,15,48.3,101.56,Mainly Clear,24.049000000000007,1.0147471754365818
7/12/2012 10:00,26.0,14.8,50,20,48.3,101.57,Mainly Clear,26.039,0.9351393091200269
7/12/2012 11:00,27.6,13.5,42,22,48.3,101.54,Mainly Clear,27.659999999999968,0.949155270668292
7/12/2012 12:00,29.0,13.9,40,22,48.3,101.5,Mainly Clear,28.94899999999999,0.9557861893691004
7/12/2012 13:00,29.6,13.6,38,24,48.3,101.46,Mainly Clear,29.604999999999972,0.9638948809679477
7/12/2012 14:00,30.8,13.5,35,24,48.3,101.44,Mostly Cloudy,30.721000000000036,0.9711658282499097
7/12/2012 15:00,30.6,12.9,34,24,48.3,101.38,Mostly Cloudy,29.60700000000002,0.982139433707547
7/12/2012 16:00,30.4,13.0,34,24,48.3,101.37,Mostly Cloudy,30.544000000000043,0.9773511988892255
7/12/2012 17:00,29.8,13.1,36,19,48.3,101.33,Mostly Cloudy,30.01600000000003,0.9726188824981161
7/12/2012 18:00,29.1,13.6,39,13,48.3,101.32,Cloudy,29.119999999999973,0.9601509387055865
7/12/2012 19:00,28.2,14.0,42,11,24.1,101.34,Cloudy,28.157999999999994,0.949155270668292
7/12/2012 20:00,26.9,14.6,47,7,25.0,101.36,Mostly Cloudy,26.934000000000022,0.9381897014097356
7/12/2012 21:00,25.7,15.0,52,6,25.0,101.41,Mainly Clear,25.638,0.9393649710689194
7/12/2012 22:00,24.4,17.1,64,9,25.0,101.4,Mainly Clear,24.374000000000027,1.0754917436180753
7/12/2012 23:00,23.5,16.1,63,11,25.0,101.41,Mainly Clear,23.51,1.0503413361747098
7/13/2012 0:00,21.8,16.7,73,6,25.0,101.45,Mainly Clear,21.77199999999998,1.718324698506683
7/13/2012 1:00,22.6,15.5,64,7,25.0,101.44,Mainly Clear,22.60699999999997,1.0754917436180753
7/13/2012 2:00,22.4,14.6,61,9,25.0,101.37,Mainly Clear,22.425000000000026,1.0147471754365818
7/13/2012 3:00,21.1,14.7,67,11,25.0,101.45,Mainly Clear,21.08499999999997,1.2523873978786297
7/13/2012 4:00,20.8,14.6,68,13,24.1,101.49,Clear,20.587999999999997,1.3579319565140906
7/13/2012 5:00,20.7,14.7,68,15,24.1,101.56,Mainly Clear,20.71,1.3579319565140906
7/13/2012 6:00,21.7,15.7,69,15,24.1,101.57,Mainly Clear,21.61500000000001,1.505906587803386
7/13/2012 7:00,22.5,15.1,63,15,48.3,101.59,Mostly Cloudy,22.485,1.0503413361747098
7/13/2012 8:00,24.4,15.1,56,13,24.1,101.61,Mostly Cloudy,24.519999999999985,0.9607879911134949
7/13/2012 9:00,25.9,16.5,56,15,48.3,101.6,Mostly Cloudy,25.896000000000036,0.9607879911134949
7/13/2012 10:00,27.2,17.2,54,15,48.3,101.59,Mostly Cloudy,27.207999999999984,0.948074142513019
7/13/2012 11:00,29.0,16.1,46,17,48.3,101.57,Mainly Clear,29.044000000000004,0.9495733406984561
7/13/2012 12:00,30.1,15.2,40,19,48.3,101.54,Mainly Clear,30.054000000000002,0.9559617151623009
7/13/2012 13:00,31.2,14.6,37,20,48.3,101.51,Mainly Clear,30.998999999999988,0.9627960610844742
7/13/2012 14:00,32.1,10.2,26,20,48.3,101.49,Mainly Clear,31.249999999999968,0.3755555555555556
7/13/2012 15:00,31.9,12.3,30,22,48.3,101.46,Clear,31.618000000000023,0.3671147787969967
7/13/2012 16:00,31.6,11.8,30,22,48.3,101.4,Clear,31.468999999999987,0.37081383674205926
7/13/2012 17:00,31.4,13.8,34,20,48.3,101.36,Mainly Clear,31.07800000000004,0.9726977554792817
7/13/2012 18:00,30.9,14.5,37,13,48.3,101.33,Clear,30.78700000000002,0.9639314867910529
7/13/2012 19:00,29.9,15.4,41,11,24.1,101.33,Mainly Clear,29.752000000000024,0.9541979365175735
7/13/2012 20:00,28.5,15.8,46,11,25.0,101.35,Mainly Clear,28.577999999999996,0.9462369785638212
7/13/2012 21:00,27.4,16.4,51,11,25.0,101.38,Mainly Clear,27.30900000000002,0.9418285726818123
7/13/2012 22:00,26.6,16.4,54,9,25.0,101.37,Clear,26.28200000000001,0.9472289954341503
7/13/2012 23:00,26.0,16.2,55,7,25.0,101.38,Clear,25.945999999999998,0.9531525027978544
7/14/2012 0:00,25.2,16.6,59,11,25.0,101.38,Clear,25.247000000000003,0.987994578192502
7/14/2012 1:00,25.0,15.4,55,15,25.0,101.37,Clear,25.011999999999997,0.9531525027978544
7/14/2012 2:00,24.2,15.6,59,11,25.0,101.34,Clear,24.07,0.987994578192502
7/14/2012 3:00,23.3,15.3,61,13,25.0,101.35,Clear,23.262999999999987,1.0147471754365818
7/14/2012 4:00,23.1,15.4,62,15,24.1,101.4,Clear,23.079999999999963,1.0305025778855286
7/14/2012 5:00,23.0,16.7,68,13,24.1,101.45,Mainly Clear,22.908000000000012,1.3579319565140906
7/14/2012 6:00,23.4,16.8,66,15,24.1,101.47,Mainly Clear,23.469000000000033,1.1750318113220146
7/14/2012 7:00,24.3,17.0,64,13,24.1,101.49,Mainly Clear,24.230000000000004,1.0754917436180753
7/14/2012 8:00,25.7,16.7,58,17,24.1,101.49,Mainly Clear,25.715999999999998,0.9771086735653381
7/14/2012 9:00,27.3,17.0,53,15,48.3,101.45,Mainly Clear,27.312,0.9462909098261475
7/14/2012 10:00,30.2,17.7,47,17,48.3,101.46,Mainly Clear,29.967999999999964,0.9555973919691165
7/14/2012 11:00,29.6,19.8,56,17,48.3,101.44,Mainly Clear,29.498999999999974,0.9724243865378298
7/14/2012 12:00,31.7,19.7,49,22,48.3,101.41,Mainly Clear,31.878,0.970191976514789
7/14/2012 13:00,31.9,19.3,47,19,48.3,101.37,Mainly Clear,31.931000000000036,0.9668777851642126
7/14/2012 14:00,32.7,15.3,35,28,48.3,101.35,Mainly Clear,30.918000000000003,0.9697678810075234
7/14/2012 15:00,33.0,16.8,38,22,48.3,101.31,Mainly Clear,31.769999999999992,0.9612184502379709
7/14/2012 16:00,32.9,15.3,35,24,48.3,101.26,Mainly Clear,30.92400000000001,0.9697253693301847
7/14/2012 17:00,32.5,16.5,38,19,48.3,101.22,Mainly Clear,31.926999999999992,0.960167913292765
7/14/2012 18:00,31.5,18.4,46,15,24.1,101.19,Mainly Clear,31.529,0.9621260242072912
7/14/2012 19:00,30.8,18.2,47,11,24.1,101.21,Mainly Clear,31.12400000000002,0.9597684309193162
7/14/2012 20:00,29.8,17.7,48,9,25.0,101.22,Mainly Clear,29.685999999999986,0.9537842702351852
7/14/2012 21:00,28.3,18.8,56,9,25.0,101.28,Clear,28.456000000000014,0.9638336290622754
7/14/2012 22:00,27.8,18.3,56,11,25.0,101.29,Clear,27.86200000000002,0.9607879911134949
7/14/2012 23:00,26.0,19.2,66,9,25.0,101.31,Clear,26.037000000000003,1.1750318113220146
7/15/2012 0:00,25.5,18.9,67,7,25.0,101.32,Clear,25.45,1.2523873978786297
7/15/2012 1:00,25.2,18.7,67,9,25.0,101.29,Clear,25.154999999999994,1.2523873978786297
7/15/2012 2:00,24.5,18.9,71,9,25.0,101.28,Mainly Clear,24.418999999999972,1.712430565280306
7/15/2012 3:00,24.1,18.6,71,11,25.0,101.26,Clear,24.13099999999996,1.712430565280306
7/15/2012 4:00,21.6,17.8,79,7,24.1,101.24,Mainly Clear,21.650999999999975,1.7357508862871274
7/15/2012 5:00,23.2,18.4,74,9,24.1,101.26,Mostly Cloudy,23.188,1.7209839103698092
7/15/2012 6:00,23.9,18.4,71,9,24.1,101.23,Cloudy,23.91400000000003,1.712430565280306
7/15/2012 7:00,24.5,18.3,68,9,24.1,101.24,Cloudy,24.508000000000003,1.3579319565140906
7/15/2012 8:00,25.8,17.9,62,15,24.1,101.24,Cloudy,25.813000000000006,1.0305025778855286
7/15/2012 9:00,26.5,18.8,63,13,24.1,101.21,Mostly Cloudy,26.434,1.0503413361747098
7/15/2012 10:00,28.1,19.2,58,13,24.1,101.17,Cloudy,28.05399999999997,0.9771086735653381
7/15/2012 11:00,29.3,20.2,58,15,48.3,101.14,Cloudy,29.055999999999962,0.9777727115737918
7/15/2012 12:00,29.4,19.7,56,9,48.3,101.06,Cloudy,29.438000000000006,0.9719372566002806
7/15/2012 13:00,30.5,19.2,51,15,24.1,100.98,Cloudy,30.499999999999986,0.9631346782084952
7/15/2012 14:00,30.2,20.3,55,17,24.1,100.92,Cloudy,30.122999999999962,0.9728008569704615
7/15/2012 15:00,22.7,20.9,90,24,12.9,100.92,"Thunderstorms,Rain Showers",22.72100000000002,1.7609487211792867
7/15/2012 16:00,24.0,20.5,81,0,24.1,100.78,Cloudy,23.838,1.7408722768108806
7/15/2012 17:00,23.5,20.6,84,11,24.1,100.78,Cloudy,23.337999999999997,1.7483983249034645
7/15/2012 18:00,24.4,20.5,79,0,25.0,100.79,Cloudy,24.381000000000025,1.7357508862871274
7/15/2012 19:00,23.8,21.1,85,20,25.0,100.73,Mostly Cloudy,23.239,1.7507512632600475
7/15/2012 20:00,23.2,19.5,80,6,25.0,100.73,Mostly Cloudy,23.236,1.7383226557949913
7/15/2012 21:00,23.0,19.0,78,9,25.0,100.72,Mainly Clear,22.963,1.733057876440812
7/15/2012 22:00,22.2,18.9,82,7,25.0,100.67,Mainly Clear,22.005000000000013,1.7434626346010758
7/15/2012 23:00,21.8,19.1,85,6,25.0,100.67,Mainly Clear,21.78999999999998,1.7507512632600475
7/16/2012 0:00,21.2,19.0,87,6,25.0,100.64,Mostly Cloudy,21.264000000000006,1.755244623603565
7/16/2012 1:00,21.6,19.4,87,0,25.0,100.62,Thunderstorms,21.577999999999975,1.755244623603565
7/16/2012 2:00,20.4,18.6,89,6,19.3,100.52,Rain Showers,20.394000000000037,1.7590894054480448
7/16/2012 3:00,20.8,19.2,91,7,25.0,100.52,Cloudy,20.824999999999985,1.762772169746578
7/16/2012 4:00,20.4,19.2,93,0,19.3,100.52,Mostly Cloudy,20.427000000000024,1.7663155381997573
7/16/2012 5:00,20.3,19.6,96,4,9.7,100.55,Fog,20.35599999999998,1.7699087340766253
7/16/2012 6:00,21.8,19.8,88,6,19.3,100.55,Mainly Clear,21.846999999999984,1.7571931537828946
7/16/2012 7:00,23.0,19.8,82,6,24.1,100.57,Mostly Cloudy,22.826999999999988,1.7434626346010758
7/16/2012 8:00,24.5,20.8,80,7,24.1,100.57,Mostly Cloudy,24.45,1.7383226557949913
7/16/2012 9:00,25.7,20.8,74,9,24.1,100.56,Mostly Cloudy,25.731999999999974,1.7209839103698092
7/16/2012 10:00,26.8,20.9,70,9,24.1,100.55,Mostly Cloudy,26.18399999999999,1.7091525423728813
7/16/2012 11:00,27.4,20.4,66,13,24.1,100.54,Mostly Cloudy,27.31000000000003,1.1750318113220146
7/16/2012 12:00,27.4,20.3,65,11,24.1,100.52,Mostly Cloudy,27.45000000000003,1.1136122370198804
7/16/2012 13:00,28.1,19.9,61,15,24.1,100.45,Mostly Cloudy,28.071999999999967,1.0147471754365818
7/16/2012 14:00,28.1,20.7,64,13,24.1,100.43,Cloudy,28.05500000000003,1.0754917436180753
7/16/2012 15:00,28.6,20.0,60,11,24.1,100.39,Cloudy,28.489999999999963,0.9999888186332162
7/16/2012 16:00,28.8,17.5,50,15,24.1,100.35,Mostly Cloudy,28.795000000000023,0.94725283743732
7/16/2012 17:00,28.7,16.1,46,19,24.1,100.35,Mostly Cloudy,28.733999999999988,0.9468244810825197
7/16/2012 18:00,27.6,16.6,51,15,24.1,100.35,Mostly Cloudy,27.577999999999964,0.9429939401779704
7/16/2012 19:00,26.5,17.2,57,4,24.1,100.32,Mostly Cloudy,26.320999999999984,0.9684584060262452
7/16/2012 20:00,24.3,17.9,67,7,24.1,100.3,Mostly Cloudy,24.329,1.2523873978786297
7/16/2012 21:00,24.5,18.5,69,4,25.0,100.37,Cloudy,24.381000000000007,1.505906587803386
7/16/2012 22:00,24.2,17.7,67,9,25.0,100.38,Mostly Cloudy,24.193000000000012,1.2523873978786297
7/16/2012 23:00,23.5,18.0,71,6,25.0,100.36,Cloudy,23.515000000000008,1.712430565280306
7/17/2012 0:00,23.8,17.6,68,0,25.0,100.33,Cloudy,23.791999999999998,1.3579319565140906
7/17/2012 1:00,24.4,17.0,63,6,25.0,100.28,Mostly Cloudy,24.374000000000024,1.0503413361747098
7/17/2012 2:00,23.9,19.3,75,6,25.0,100.21,Cloudy,23.94200000000002,1.7241591468416737
7/17/2012 3:00,23.3,19.9,81,4,25.0,100.14,Cloudy,23.261000000000003,1.7408722768108806
7/17/2012 4:00,22.8,20.4,86,7,12.9,100.1,Rain,22.913,1.7530322801745157
7/17/2012 5:00,20.6,18.6,88,19,4.8,100.08,"Thunderstorms,Rain,Fog",20.616999999999976,1.7571931537828946
7/17/2012 6:00,19.6,18.5,93,15,3.2,100.01,"Thunderstorms,Moderate Rain Showers,Fog",19.565999999999974,1.7663155381997573
7/17/2012 7:00,19.9,19.1,95,9,6.4,99.99,"Drizzle,Fog",19.97800000000002,1.768832975474038
7/17/2012 8:00,21.5,20.4,93,19,12.9,99.87,Rain,21.90600000000001,1.7663155381997573
7/17/2012 9:00,22.9,21.3,91,17,9.7,99.84,"Thunderstorms,Rain Showers,Fog",22.773000000000035,1.762772169746578
7/17/2012 10:00,24.7,20.8,79,19,16.1,99.79,Mostly Cloudy,24.817999999999998,1.7357508862871274
7/17/2012 11:00,27.2,20.4,66,22,16.1,99.75,Mainly Clear,27.232999999999993,1.1750318113220146
7/17/2012 12:00,28.3,21.0,65,17,16.1,99.72,Cloudy,28.428000000000033,1.1136122370198804
7/17/2012 13:00,29.4,22.3,66,9,19.3,99.66,Cloudy,29.06700000000004,1.1750318113220146
7/17/2012 14:00,25.5,23.1,87,17,6.4,99.65,"Thunderstorms,Rain Showers",25.14900000000001,1.755244623603565
7/17/2012 15:00,25.8,22.0,80,4,24.1,99.69,Cloudy,25.463000000000008,1.7383226557949913
7/17/2012 16:00,23.8,21.7,88,24,16.1,99.81,"Thunderstorms,Rain Showers",24.132,1.7571931537828946
7/17/2012 17:00,25.9,22.2,80,7,24.1,99.83,Cloudy,25.373,1.7383226557949913
7/17/2012 18:00,26.0,20.4,71,19,24.1,99.84,Mostly Cloudy,26.012000000000004,1.712430565280306
7/17/2012 19:00,24.3,18.9,72,19,24.1,99.94,Mostly Cloudy,24.361999999999988,1.7154802667147235
7/17/2012 20:00,23.2,18.6,75,11,24.1,100.0,Mostly Cloudy,23.241,1.7241591468416737
7/17/2012 21:00,23.0,18.5,76,9,25.0,100.09,Mostly Cloudy,23.002,1.7272721454173066
7/17/2012 22:00,22.4,18.3,78,9,25.0,100.19,Mostly Cloudy,22.446000000000026,1.733057876440812
7/17/2012 23:00,21.6,18.1,80,13,25.0,100.25,Mostly Cloudy,21.70099999999998,1.7383226557949913
7/18/2012 0:00,20.7,17.6,82,9,25.0,100.28,Mostly Cloudy,20.68300000000003,1.7434626346010758
7/18/2012 1:00,21.3,17.6,79,11,25.0,100.37,Cloudy,21.337999999999976,1.7357508862871274
7/18/2012 2:00,19.9,17.6,87,7,25.0,100.35,Mostly Cloudy,19.90000000000003,1.755244623603565
7/18/2012 3:00,19.3,17.2,88,9,25.0,100.33,Clear,19.354999999999983,1.7571931537828946
7/18/2012 4:00,19.0,16.6,86,6,24.1,100.38,Mainly Clear,19.007999999999996,1.7530322801745157
7/18/2012 5:00,18.8,16.7,88,0,48.3,100.44,Mainly Clear,18.90699999999998,1.7571931537828946
7/18/2012 6:00,20.0,17.2,84,6,24.1,100.56,Mostly Cloudy,20.004,1.7483983249034645
7/18/2012 7:00,20.5,16.6,78,11,24.1,100.6,Mostly Cloudy,20.552000000000003,1.733057876440812
7/18/2012 8:00,21.1,14.4,66,22,24.1,100.66,Mainly Clear,21.055999999999976,1.1750318113220146
7/18/2012 9:00,22.6,13.1,55,24,24.1,100.73,Mainly Clear,22.687999999999978,0.9531525027978544
7/18/2012 10:00,22.3,10.3,47,26,24.1,100.77,Mainly Clear,22.279999999999987,0.9415640140823501
7/18/2012 11:00,22.6,10.9,48,24,48.3,100.8,Mainly Clear,22.615999999999964,0.9398746312747587
7/18/2012 12:00,23.2,10.2,44,24,48.3,100.8,Mainly Clear,23.12900000000002,0.9432590533134183
7/18/2012 13:00,23.9,10.6,43,24,48.3,100.83,Mostly Cloudy,23.897000000000013,0.945948721343493
7/18/2012 14:00,23.3,10.2,43,19,48.3,100.87,Mostly Cloudy,23.418000000000003,0.945948721343493
7/18/2012 15:00,24.0,10.1,41,26,48.3,100.83,Mainly Clear,24.262000000000008,0.9526517417795389
7/18/2012 16:00,24.1,9.6,40,24,48.3,100.77,Mainly Clear,24.213999999999974,0.9557861893691004
7/18/2012 17:00,23.5,9.8,42,15,48.3,100.78,Mainly Clear,23.555999999999997,0.949155270668292
7/18/2012 18:00,22.6,10.9,48,17,48.3,100.88,Mainly Clear,22.602999999999966,0.9399242644075644
7/18/2012 19:00,21.5,10.7,50,17,48.3,100.98,Mainly Clear,21.471,0.9460554731889959
7/18/2012 20:00,20.0,10.2,53,13,24.1,101.03,Mainly Clear,20.037999999999997,0.9638095486137249
7/18/2012 21:00,19.4,9.9,54,11,25.0,101.06,Clear,19.53000000000002,0.9716477138579858
7/18/2012 22:00,17.5,10.3,63,11,25.0,101.06,Clear,17.451999999999998,1.0862237624844102
7/18/2012 23:00,15.7,10.7,72,7,25.0,101.09,Clear,15.713000000000024,1.7154802667147235
7/19/2012 0:00,14.4,10.9,79,4,25.0,101.14,Clear,14.64700000000001,1.7357508862871274
7/19/2012 1:00,14.2,11.1,82,7,25.0,101.11,Clear,14.181000000000019,1.7434626346010758
7/19/2012 2:00,14.6,10.6,77,6,25.0,101.11,Clear,14.618999999999987,1.7302348458823897
7/19/2012 3:00,13.8,10.5,80,7,25.0,101.09,Clear,13.81399999999998,1.7383226557949913
7/19/2012 4:00,12.4,10.4,88,6,25.0,101.11,Mainly Clear,12.428000000000003,1.7571931537828946
7/19/2012 5:00,12.7,10.5,86,0,48.3,101.2,Mainly Clear,12.74900000000001,1.7530322801745157
7/19/2012 6:00,15.2,11.0,76,6,48.3,101.25,Mainly Clear,15.170000000000021,1.7272721454173066
7/19/2012 7:00,16.7,9.7,63,11,48.3,101.27,Clear,16.721000000000007,1.1587534059203581
7/19/2012 8:00,18.4,9.4,56,6,48.3,101.28,Mainly Clear,18.37700000000002,0.9975044443655706
7/19/2012 9:00,19.3,9.7,54,6,48.3,101.29,Mainly Clear,19.335999999999984,0.9738798712203297
7/19/2012 10:00,19.2,8.9,51,9,48.3,101.3,Mostly Cloudy,19.229000000000028,0.9688224413962344
7/19/2012 11:00,20.3,10.2,52,7,48.3,101.33,Mostly Cloudy,20.25299999999998,0.9595519966104411
7/19/2012 12:00,21.5,10.0,48,6,48.3,101.29,Mostly Cloudy,21.558000000000003,0.9457366954404945
7/19/2012 13:00,21.3,8.8,45,7,48.3,101.27,Mostly Cloudy,21.003000000000007,0.9491268936975077
7/19/2012 14:00,22.6,9.0,42,4,48.3,101.22,Mostly Cloudy,22.639999999999972,0.949155270668292
7/19/2012 15:00,22.9,9.0,41,13,48.3,101.21,Mostly Cloudy,22.849000000000025,0.9526517417795389
7/19/2012 16:00,22.8,7.9,38,11,48.3,101.21,Mainly Clear,22.913,0.9638948809679477
7/19/2012 17:00,22.9,8.2,39,15,48.3,101.21,Mainly Clear,22.898000000000025,0.9601509387055865
7/19/2012 18:00,21.9,8.0,41,15,48.3,101.2,Mainly Clear,21.926000000000016,0.9526517417795389
7/19/2012 19:00,21.4,8.5,44,11,48.3,101.25,Mainly Clear,21.341000000000026,0.9465401757729639
7/19/2012 20:00,20.0,8.5,47,7,48.3,101.28,Mainly Clear,20.090999999999998,0.9552080092496015
7/19/2012 21:00,19.2,9.2,52,13,25.0,101.34,Mainly Clear,19.19400000000003,0.9694918664716735
7/19/2012 22:00,18.7,9.9,57,11,25.0,101.39,Mainly Clear,18.727000000000025,0.9965021336440016
7/19/2012 23:00,19.5,8.1,48,15,25.0,101.41,Mainly Clear,19.46400000000001,0.9645114110730723
7/20/2012 0:00,17.2,9.3,60,11,25.0,101.45,Clear,17.21200000000002,1.058789368183719
7/20/2012 1:00,16.0,9.5,65,15,25.0,101.48,Clear,15.989999999999993,1.318176958805527
7/20/2012 2:00,14.6,9.8,73,11,25.0,101.46,Clear,14.508,1.718324698506683
7/20/2012 3:00,14.2,9.8,75,11,25.0,101.44,Clear,14.21100000000002,1.7241591468416737
7/20/2012 4:00,14.4,9.3,71,11,48.3,101.49,Clear,14.40400000000001,1.712430565280306
7/20/2012 5:00,14.5,9.3,71,13,48.3,101.51,Clear,14.474999999999998,1.712430565280306
7/20/2012 6:00,15.5,9.6,68,13,48.3,101.55,Mainly Clear,15.523999999999996,1.488469236988656
7/20/2012 7:00,17.1,9.9,63,9,48.3,101.56,Mainly Clear,17.050999999999977,1.1217117572507682
7/20/2012 8:00,19.3,10.1,55,9,48.3,101.57,Mainly Clear,19.36299999999999,0.9787525030770395
7/20/2012 9:00,20.3,9.7,51,11,48.3,101.58,Mainly Clear,20.218999999999983,0.957091627110491
7/20/2012 10:00,21.3,10.8,51,13,48.3,101.57,Mainly Clear,21.36799999999998,0.9488646818455424
7/20/2012 11:00,21.3,10.7,51,9,48.3,101.57,Mainly Clear,21.288999999999987,0.9491777921822278
7/20/2012 12:00,22.6,9.5,43,6,48.3,101.51,Mainly Clear,22.644000000000005,0.945948721343493
7/20/2012 13:00,23.2,10.4,44,9,48.3,101.45,Mainly Clear,23.21600000000001,0.9432590533134183
7/20/2012 14:00,23.9,10.0,41,13,48.3,101.42,Mainly Clear,24.125000000000014,0.9526517417795389
7/20/2012 15:00,24.2,9.9,40,4,48.3,101.37,Mainly Clear,24.254000000000005,0.9557861893691004
7/20/2012 16:00,24.4,9.7,39,11,48.3,101.34,Mainly Clear,24.53400000000001,0.9601509387055865
7/20/2012 17:00,24.2,9.8,40,4,48.3,101.34,Mainly Clear,24.244,0.9557861893691004
7/20/2012 18:00,24.6,9.6,39,4,48.3,101.35,Mainly Clear,24.44100000000001,0.9601509387055865
7/20/2012 19:00,23.5,7.6,36,7,48.3,101.33,Mainly Clear,23.451999999999998,0.9727175933044229
7/20/2012 20:00,22.2,9.5,44,6,48.3,101.34,Mainly Clear,22.19900000000001,0.9432590533134183
7/20/2012 21:00,19.6,12.0,61,0,25.0,101.36,Clear,19.704999999999973,1.0147471754365818
7/20/2012 22:00,18.1,12.3,69,0,25.0,101.37,Clear,18.04799999999998,1.505906587803386
7/20/2012 23:00,18.2,12.3,68,0,25.0,101.36,Clear,18.26400000000001,1.3579319565140906
7/21/2012 0:00,17.2,12.6,74,4,25.0,101.4,Clear,17.286000000000016,1.7209839103698092
7/21/2012 1:00,17.2,12.4,73,0,25.0,101.4,Clear,17.170000000000012,1.718324698506683
7/21/2012 2:00,15.1,12.4,84,0,25.0,101.39,Clear,15.11599999999999,1.7483983249034645
7/21/2012 3:00,14.0,12.3,89,0,25.0,101.37,Clear,14.286000000000008,1.7590894054480448
7/21/2012 4:00,14.6,12.9,90,0,24.1,101.4,Clear,14.565999999999985,1.7609487211792867
7/21/2012 5:00,14.5,12.5,88,4,48.3,101.38,Clear,14.494000000000002,1.7571931537828946
7/21/2012 6:00,16.9,13.7,81,4,48.3,101.4,Clear,16.918000000000013,1.7408722768108806
7/21/2012 7:00,20.0,15.0,73,0,48.3,101.43,Clear,20.071000000000005,1.718324698506683
7/21/2012 8:00,21.1,14.2,65,0,48.3,101.47,Mainly Clear,20.96100000000001,1.1136122370198804
7/21/2012 9:00,22.3,14.5,61,7,48.3,101.44,Mainly Clear,22.30099999999999,1.0147471754365818
7/21/2012 10:00,23.2,14.1,57,9,48.3,101.4,Mainly Clear,23.029,0.9684584060262452
7/21/2012 11:00,24.7,13.7,50,9,48.3,101.39,Mainly Clear,24.769999999999992,0.9339684081807043
7/21/2012 12:00,24.9,12.3,45,6,48.3,101.36,Mainly Clear,25.225000000000005,0.9403088027499734
7/21/2012 13:00,25.5,12.1,43,11,48.3,101.3,Mainly Clear,25.549000000000007,0.945948721343493
7/21/2012 14:00,26.2,13.5,45,17,48.3,101.26,Mostly Cloudy,26.722,0.9403088027499734
7/21/2012 15:00,26.3,12.3,42,17,48.3,101.22,Mostly Cloudy,26.09400000000002,0.949155270668292
7/21/2012 16:00,26.2,13.1,44,15,48.3,101.19,Mostly Cloudy,26.709000000000017,0.9432590533134183
7/21/2012 17:00,26.9,12.1,40,15,48.3,101.13,Mainly Clear,26.803000000000043,0.9557861893691004
7/21/2012 18:00,26.1,10.8,38,15,48.3,101.11,Mainly Clear,26.16799999999996,0.9638948809679477
7/21/2012 19:00,25.4,11.7,42,13,24.1,101.06,Mostly Cloudy,25.442000000000036,0.949155270668292
7/21/2012 20:00,24.6,13.5,50,13,25.0,101.08,Mostly Cloudy,24.674,0.9340974356743179
7/21/2012 21:00,23.4,12.9,52,4,25.0,101.18,Mostly Cloudy,23.29900000000003,0.9417084549272942
7/21/2012 22:00,23.0,15.3,62,4,25.0,101.19,Mostly Cloudy,23.069999999999986,1.0305025778855286
7/21/2012 23:00,22.9,14.4,59,9,25.0,101.19,Cloudy,22.817000000000025,0.987994578192502
7/22/2012 0:00,22.7,14.9,61,11,25.0,101.19,Cloudy,22.726000000000017,1.0147471754365818
7/22/2012 1:00,22.5,15.4,64,13,25.0,101.17,Mostly Cloudy,22.52699999999999,1.0754917436180753
7/22/2012 2:00,22.4,15.9,67,15,25.0,101.13,Mostly Cloudy,22.388000000000034,1.2523873978786297
7/22/2012 3:00,22.4,14.8,62,15,25.0,101.12,Mostly Cloudy,22.334000000000028,1.0305025778855286
7/22/2012 4:00,21.9,15.3,66,15,25.0,101.15,Mainly Clear,21.92600000000003,1.1750318113220146
7/22/2012 5:00,21.8,14.8,64,15,48.3,101.18,Mostly Cloudy,22.01000000000001,1.0754917436180753
7/22/2012 6:00,22.2,15.1,64,17,48.3,101.22,Mainly Clear,22.247000000000018,1.0754917436180753
7/22/2012 7:00,22.5,15.6,65,19,48.3,101.24,Mostly Cloudy,22.502000000000002,1.1136122370198804
7/22/2012 8:00,23.3,17.2,69,19,48.3,101.26,Mainly Clear,23.256000000000004,1.505906587803386
7/22/2012 9:00,25.2,17.9,64,26,48.3,101.23,Mainly Clear,25.161000000000012,1.0754917436180753
7/22/2012 10:00,25.7,18.5,64,22,48.3,101.2,Mainly Clear,25.728999999999996,1.0754917436180753
7/22/2012 11:00,26.8,18.6,61,24,48.3,101.16,Mainly Clear,26.697999999999983,1.0147471754365818
7/22/2012 12:00,27.8,18.3,56,22,48.3,101.15,Mainly Clear,27.879000000000016,0.9607879911134949
7/22/2012 13:00,28.3,18.8,56,20,48.3,101.11,Mainly Clear,28.35800000000002,0.9633478271794949
7/22/2012 14:00,28.3,18.5,55,20,48.3,101.09,Mostly Cloudy,28.28700000000002,0.9585161738781851
7/22/2012 15:00,30.1,19.2,52,20,48.3,101.06,Mostly Cloudy,30.063999999999954,0.9618572403856417
7/22/2012 16:00,29.9,17.8,48,24,48.3,101.02,Mostly Cloudy,29.872000000000025,0.9549665906274751
7/22/2012 17:00,29.1,17.9,51,17,24.1,101.02,Mostly Cloudy,29.219999999999963,0.9535856776300851
7/22/2012 18:00,29.2,16.9,47,20,48.3,100.99,Mostly Cloudy,29.23299999999998,0.9511069424957675
7/22/2012 19:00,28.6,16.1,47,20,24.1,100.99,Mostly Cloudy,28.59599999999996,0.9463040138249601
7/22/2012 20:00,27.3,17.5,55,13,25.0,101.05,Mainly Clear,27.30600000000001,0.9531525027978544
7/22/2012 21:00,26.9,17.0,55,15,25.0,101.07,Mostly Cloudy,26.855000000000036,0.9531525027978544
7/22/2012 22:00,25.8,17.4,60,11,25.0,101.01,Clear,25.546000000000028,0.9999888186332162
7/22/2012 23:00,25.0,17.8,64,9,25.0,101.03,Mainly Clear,25.018000000000008,1.0754917436180753
7/23/2012 0:00,24.3,17.7,67,11,25.0,101.01,Mainly Clear,24.267999999999997,1.2523873978786297
7/23/2012 1:00,24.3,17.6,66,11,25.0,101.0,Mainly Clear,24.313999999999997,1.1750318113220146
7/23/2012 2:00,23.8,17.8,69,9,25.0,100.98,Mostly Cloudy,23.790999999999993,1.505906587803386
7/23/2012 3:00,23.4,18.0,72,9,25.0,100.97,Mainly Clear,23.36600000000002,1.7154802667147235
7/23/2012 4:00,23.0,18.1,74,11,24.1,100.94,Mostly Cloudy,22.993000000000002,1.7209839103698092
7/23/2012 5:00,23.1,17.8,72,13,24.1,100.94,Cloudy,23.257,1.7154802667147235
7/23/2012 6:00,23.5,18.3,73,13,24.1,100.94,Cloudy,23.47699999999999,1.718324698506683
7/23/2012 7:00,24.1,18.9,73,17,24.1,100.89,Cloudy,24.080999999999968,1.718324698506683
7/23/2012 8:00,24.8,19.5,72,19,24.1,100.86,Cloudy,24.872000000000003,1.7154802667147235
7/23/2012 9:00,26.3,19.8,67,19,48.3,100.76,Mainly Clear,26.415000000000006,1.2523873978786297
7/23/2012 10:00,27.6,20.9,67,20,48.3,100.7,Mainly Clear,27.430999999999994,1.2523873978786297
7/23/2012 11:00,27.8,20.7,65,15,48.3,100.64,Mainly Clear,27.98700000000003,1.1136122370198804
7/23/2012 12:00,28.8,20.3,60,13,48.3,100.57,Mainly Clear,28.81099999999997,0.9999888186332162
7/23/2012 13:00,30.1,20.4,56,11,48.3,100.46,Mainly Clear,29.99399999999996,0.9766354934896067
7/23/2012 14:00,30.7,19.7,52,17,48.3,100.35,Mostly Cloudy,30.586999999999968,0.9670188843809755
7/23/2012 15:00,30.1,19.4,53,11,24.1,100.19,Cloudy,30.020999999999976,0.9642238309435989
7/23/2012 16:00,29.9,19.1,52,9,24.1,100.15,Cloudy,29.926000000000016,0.9608132636734552
7/23/2012 17:00,19.4,18.2,93,4,24.1,100.24,"Thunderstorms,Rain",19.353000000000016,1.7663155381997573
7/23/2012 18:00,20.6,19.1,91,30,19.3,100.19,"Thunderstorms,Rain",20.634999999999973,1.762772169746578
7/23/2012 19:00,20.7,18.5,87,20,24.1,100.08,Rain,20.739000000000015,1.755244623603565
7/23/2012 20:00,21.0,18.5,86,9,25.0,99.98,Cloudy,20.996,1.7530322801745157
7/23/2012 21:00,18.1,17.7,98,11,6.4,100.27,"Thunderstorms,Rain Showers",18.209999999999983,1.7720304913691292
7/23/2012 22:00,18.7,18.0,96,7,6.4,100.04,"Thunderstorms,Rain Showers",18.78300000000002,1.7699087340766253
7/23/2012 23:00,19.6,18.7,95,11,25.0,99.93,Cloudy,19.552999999999972,1.768832975474038
7/24/2012 0:00,19.3,18.3,94,6,25.0,99.84,Cloudy,19.310999999999986,1.7677471105115399
7/24/2012 1:00,19.4,18.3,93,11,25.0,99.76,Mostly Cloudy,19.327999999999992,1.7663155381997573
7/24/2012 2:00,19.3,18.3,94,0,25.0,99.75,Cloudy,19.297999999999988,1.7677471105115399
7/24/2012 3:00,18.2,17.9,98,4,25.0,99.73,Mainly Clear,18.351000000000024,1.7720304913691292
7/24/2012 4:00,18.9,18.5,98,7,16.1,99.75,Mostly Cloudy,19.07300000000002,1.7720304913691292
7/24/2012 5:00,19.5,18.6,95,6,24.1,99.78,Mostly Cloudy,19.491999999999997,1.768832975474038
7/24/2012 6:00,20.5,18.9,91,7,24.1,99.8,Mainly Clear,20.478999999999996,1.762772169746578
7/24/2012 7:00,21.6,19.3,87,13,24.1,99.85,Mainly Clear,21.509,1.755244623603565
7/24/2012 8:00,22.7,19.2,81,13,24.1,99.89,Mainly Clear,22.71200000000001,1.7408722768108806
7/24/2012 9:00,23.5,17.8,70,19,24.1,99.93,Mostly Cloudy,23.557,1.7091525423728813
7/24/2012 10:00,24.0,16.2,62,19,24.1,99.95,Mostly Cloudy,24.03500000000001,1.0305025778855286
7/24/2012 11:00,23.4,16.9,67,17,24.1,99.96,Cloudy,23.410000000000032,1.2523873978786297
7/24/2012 12:00,23.5,16.9,66,22,24.1,99.98,Mostly Cloudy,23.586000000000016,1.1750318113220146
7/24/2012 13:00,23.8,14.6,56,30,24.1,100.04,Mainly Clear,24.02,0.9607879911134949
7/24/2012 14:00,24.5,12.2,46,28,48.3,100.11,Mostly Cloudy,24.478000000000012,0.9384328601022601
7/24/2012 15:00,23.0,10.4,45,24,48.3,100.14,Mostly Cloudy,22.866000000000003,0.9403088027499734
7/24/2012 16:00,23.8,11.7,47,20,48.3,100.15,Mostly Cloudy,23.751999999999995,0.9365197406993433
7/24/2012 17:00,23.0,11.5,48,24,48.3,100.19,Mostly Cloudy,23.04499999999999,0.9382669249102465
7/24/2012 18:00,22.1,11.8,52,15,24.1,100.25,Mostly Cloudy,22.25799999999997,0.9462615616983608
7/24/2012 19:00,21.4,11.5,53,15,25.0,100.29,Mostly Cloudy,21.453000000000024,0.9533197521130066
7/24/2012 20:00,20.7,12.2,58,17,25.0,100.34,Mostly Cloudy,20.642000000000017,0.9807251967397863
7/24/2012 21:00,19.6,12.2,62,17,25.0,100.41,Mostly Cloudy,19.64199999999998,1.0305025778855286
7/24/2012 22:00,19.0,12.3,65,19,25.0,100.45,Mainly Clear,19.01399999999999,1.1136122370198804
7/24/2012 23:00,18.0,12.5,70,17,25.0,100.5,Clear,18.002000000000002,1.7091525423728813
7/25/2012 0:00,16.6,12.4,76,11,25.0,100.55,Clear,16.604999999999976,1.7272721454173066
7/25/2012 1:00,15.8,12.0,78,4,25.0,100.56,Clear,15.795999999999982,1.733057876440812
7/25/2012 2:00,15.4,12.5,83,9,25.0,100.59,Clear,15.391000000000014,1.7459700090483987
7/25/2012 3:00,15.4,12.5,83,11,25.0,100.65,Clear,15.378000000000016,1.7459700090483987
7/25/2012 4:00,14.5,12.2,86,7,25.0,100.69,Clear,14.494999999999997,1.7530322801745157
7/25/2012 5:00,13.8,12.1,89,7,24.1,100.71,Clear,13.987999999999992,1.7590894054480448
7/25/2012 6:00,16.2,13.2,82,11,24.1,100.76,Clear,16.209000000000007,1.7434626346010758
7/25/2012 7:00,17.5,12.2,71,13,24.1,100.81,Clear,17.471000000000007,1.712430565280306
7/25/2012 8:00,18.8,12.8,68,13,24.1,100.8,Clear,18.77499999999998,1.3579319565140906
7/25/2012 9:00,19.6,12.9,65,11,48.3,100.79,Clear,19.57799999999997,1.1136122370198804
7/25/2012 10:00,21.1,12.6,58,11,48.3,100.88,Clear,21.136999999999965,0.9771086735653381
7/25/2012 11:00,22.3,13.5,57,13,48.3,100.76,Mainly Clear,22.335999999999995,0.9684584060262452
7/25/2012 12:00,23.2,12.7,52,9,48.3,100.76,Mainly Clear,23.087000000000003,0.942514378107195
7/25/2012 13:00,23.4,13.1,52,19,48.3,100.66,Mostly Cloudy,23.476000000000035,0.9409645507621228
7/25/2012 14:00,23.6,13.6,53,22,48.3,100.61,Mostly Cloudy,23.68299999999997,0.943018325394646
7/25/2012 15:00,24.8,13.6,50,19,48.3,100.58,Mostly Cloudy,24.811,0.9339133783244699
7/25/2012 16:00,24.7,13.8,51,22,48.3,100.51,Cloudy,24.668999999999997,0.9364696353166625
7/25/2012 17:00,24.1,12.3,48,28,48.3,100.46,Cloudy,24.06399999999998,0.9350721128271431
7/25/2012 18:00,23.7,13.1,51,20,24.1,100.44,Cloudy,23.776,0.9376192646809801
7/25/2012 19:00,23.4,12.9,52,17,25.0,100.37,Cloudy,23.278000000000024,0.9417876598445551
7/25/2012 20:00,23.2,12.0,49,15,25.0,100.34,Cloudy,23.166999999999994,0.9378201729815477
7/25/2012 21:00,21.8,13.6,60,13,25.0,100.31,Cloudy,21.776999999999983,0.9999888186332162
7/25/2012 22:00,21.2,13.8,63,13,25.0,100.29,Cloudy,21.095000000000017,1.0503413361747098
7/25/2012 23:00,20.8,13.4,63,11,25.0,100.29,Rain Showers,20.716000000000005,1.0503413361747098
7/26/2012 0:00,21.3,14.4,65,13,25.0,100.23,Rain Showers,21.28599999999999,1.1136122370198804
7/26/2012 1:00,20.4,13.9,66,13,25.0,100.18,Mostly Cloudy,20.421000000000014,1.1750318113220146
7/26/2012 2:00,20.3,13.8,66,11,25.0,100.12,Mostly Cloudy,20.346999999999987,1.1750318113220146
7/26/2012 3:00,20.6,14.4,68,9,25.0,100.07,Cloudy,20.54699999999998,1.3579319565140906
7/26/2012 4:00,20.6,14.2,67,6,25.0,100.0,Cloudy,20.434000000000008,1.2523873978786297
7/26/2012 5:00,20.0,14.8,72,7,24.1,99.98,Cloudy,19.953999999999997,1.7154802667147235
7/26/2012 6:00,19.6,15.5,77,9,16.1,100.01,Rain,19.553999999999977,1.7302348458823897
7/26/2012 7:00,19.4,16.0,81,7,24.1,100.0,Cloudy,19.331999999999972,1.7408722768108806
7/26/2012 8:00,20.4,15.0,71,4,24.1,99.99,Cloudy,20.39000000000002,1.712430565280306
7/26/2012 9:00,20.6,15.3,72,9,24.1,99.97,Cloudy,20.354000000000006,1.7154802667147235
7/26/2012 10:00,20.6,16.3,76,11,24.1,99.96,Cloudy,20.598999999999975,1.7272721454173066
7/26/2012 11:00,21.9,17.5,76,7,24.1,99.93,Mostly Cloudy,21.813000000000024,1.7272721454173066
7/26/2012 12:00,21.1,16.2,74,6,24.1,99.91,Cloudy,21.128999999999973,1.7209839103698092
7/26/2012 13:00,21.3,16.2,73,4,24.1,99.9,Cloudy,21.290999999999976,1.718324698506683
7/26/2012 14:00,21.6,16.8,74,6,24.1,99.86,Cloudy,21.565999999999985,1.7209839103698092
7/26/2012 15:00,21.3,16.7,75,4,24.1,99.86,Cloudy,21.312999999999985,1.7241591468416737
7/26/2012 16:00,21.9,16.7,72,7,24.1,99.83,Cloudy,22.092000000000006,1.7154802667147235
7/26/2012 17:00,21.7,16.4,72,7,24.1,99.86,Cloudy,21.563999999999993,1.7154802667147235
7/26/2012 18:00,21.6,16.5,73,11,24.1,99.89,Cloudy,21.472999999999974,1.718324698506683
7/26/2012 19:00,21.0,17.5,80,11,24.1,99.92,Cloudy,21.040999999999993,1.7383226557949913
7/26/2012 20:00,20.5,17.6,83,4,24.1,99.94,Mostly Cloudy,20.49800000000001,1.7459700090483987
7/26/2012 21:00,20.3,17.5,84,4,25.0,99.97,Mostly Cloudy,20.307000000000023,1.7483983249034645
7/26/2012 22:00,18.8,17.5,92,0,25.0,99.94,Mainly Clear,18.793999999999972,1.764560779079539
7/26/2012 23:00,18.6,17.5,93,0,25.0,99.99,Mostly Cloudy,18.63099999999997,1.7663155381997573
7/27/2012 0:00,18.1,17.2,94,0,25.0,100.01,Mainly Clear,18.113999999999987,1.7677471105115399
7/27/2012 1:00,17.2,16.5,96,0,25.0,100.05,Mostly Cloudy,17.20600000000002,1.7699087340766253
7/27/2012 2:00,16.9,16.3,96,4,25.0,100.08,Mainly Clear,16.96300000000002,1.7699087340766253
7/27/2012 3:00,15.9,15.3,96,4,25.0,100.1,Mostly Cloudy,16.06700000000002,1.7699087340766253
7/27/2012 4:00,17.5,16.2,92,0,25.0,100.19,Mainly Clear,17.494000000000003,1.764560779079539
7/27/2012 5:00,16.2,15.6,96,7,24.1,100.33,Mostly Cloudy,16.187000000000026,1.7699087340766253
7/27/2012 6:00,18.4,15.3,82,17,24.1,100.34,Mostly Cloudy,18.28000000000003,1.7434626346010758
7/27/2012 7:00,19.0,14.3,74,24,24.1,100.44,Mostly Cloudy,19.068,1.7209839103698092
7/27/2012 8:00,20.2,14.3,69,13,24.1,100.46,Mostly Cloudy,20.199000000000023,1.505906587803386
7/27/2012 9:00,21.1,14.5,66,7,24.1,100.51,Mostly Cloudy,21.12099999999998,1.1750318113220146
7/27/2012 10:00,22.0,15.3,66,6,24.1,100.53,Mainly Clear,21.98,1.1750318113220146
7/27/2012 11:00,23.4,16.5,65,4,24.1,100.55,Mainly Clear,23.49900000000001,1.1136122370198804
7/27/2012 12:00,24.1,15.6,59,6,24.1,100.56,Mainly Clear,24.097999999999974,0.987994578192502
7/27/2012 13:00,24.8,16.1,58,0,24.1,100.55,Mainly Clear,24.85200000000001,0.9771086735653381
7/27/2012 14:00,26.6,16.8,55,0,24.1,100.57,Mainly Clear,26.587999999999962,0.9531525027978544
7/27/2012 15:00,26.1,17.0,57,11,24.1,100.6,Mostly Cloudy,26.137999999999966,0.9684584060262452
7/27/2012 16:00,25.6,16.0,55,6,24.1,100.63,Mostly Cloudy,25.851,0.9531525027978544
7/27/2012 17:00,25.8,15.8,54,6,24.1,100.66,Mostly Cloudy,25.734999999999985,0.9472289954341503
7/27/2012 18:00,26.1,15.2,51,7,24.1,100.71,Mostly Cloudy,26.082999999999974,0.9373693338019004
7/27/2012 19:00,23.7,17.0,66,4,24.1,100.74,Mainly Clear,23.700000000000003,1.1750318113220146
7/27/2012 20:00,22.5,16.6,69,6,24.1,100.8,Mainly Clear,22.545,1.505906587803386
7/27/2012 21:00,21.4,16.6,74,4,25.0,100.86,Mainly Clear,21.48599999999999,1.7209839103698092
7/27/2012 22:00,21.3,16.0,72,0,25.0,100.88,Mainly Clear,21.255999999999982,1.7154802667147235
7/27/2012 23:00,21.1,16.7,76,0,25.0,100.92,Mostly Cloudy,21.144999999999992,1.7272721454173066
7/28/2012 0:00,22.8,16.8,69,9,25.0,100.95,Mostly Cloudy,22.798000000000002,1.505906587803386
7/28/2012 1:00,22.3,11.4,50,4,25.0,101.01,Mainly Clear,22.16199999999999,0.9422707821666518
7/28/2012 2:00,20.8,11.9,57,13,25.0,101.06,Mostly Cloudy,20.811999999999983,0.9746589631302158
7/28/2012 3:00,18.7,14.3,76,11,25.0,101.09,Mostly Cloudy,18.69000000000001,1.7272721454173066
7/28/2012 4:00,17.6,12.1,70,13,25.0,101.14,Mostly Cloudy,17.63699999999998,1.7091525423728813
7/28/2012 5:00,17.4,11.2,67,15,48.3,101.18,Mostly Cloudy,17.39700000000002,1.2523873978786297
7/28/2012 6:00,18.1,11.5,65,17,48.3,101.2,Mostly Cloudy,18.13299999999998,1.1136122370198804
7/28/2012 7:00,19.5,11.1,58,15,48.3,101.22,Mostly Cloudy,19.41999999999999,0.9944753628540752
7/28/2012 8:00,20.3,11.5,57,17,48.3,101.25,Mostly Cloudy,20.264999999999983,0.9792909259927699
7/28/2012 9:00,20.7,12.3,59,19,48.3,101.25,Mostly Cloudy,20.695000000000004,0.987994578192502
7/28/2012 10:00,21.6,12.8,57,15,48.3,101.29,Mostly Cloudy,21.612999999999964,0.9684584060262452
7/28/2012 11:00,23.9,14.0,54,20,48.3,101.26,Cloudy,23.788000000000014,0.9472289954341503
7/28/2012 12:00,23.9,14.2,55,13,48.3,101.19,Cloudy,23.845000000000027,0.9531525027978544
7/28/2012 13:00,25.5,12.2,44,13,48.3,101.15,Cloudy,25.45500000000001,0.9432590533134183
7/28/2012 14:00,26.4,11.1,38,13,48.3,101.13,Mostly Cloudy,26.453000000000028,0.9638948809679477
7/28/2012 15:00,26.7,11.2,38,22,48.3,101.12,Mostly Cloudy,26.64099999999999,0.9638948809679477
7/28/2012 16:00,25.8,11.9,42,17,48.3,101.1,Mostly Cloudy,25.746000000000013,0.949155270668292
7/28/2012 17:00,26.2,10.6,38,17,48.3,101.1,Mostly Cloudy,26.149999999999974,0.9638948809679477
7/28/2012 18:00,26.2,10.3,37,15,48.3,101.15,Mostly Cloudy,26.189999999999987,0.9681708609999456
7/28/2012 19:00,25.6,10.2,38,13,48.3,101.15,Mostly Cloudy,25.62099999999997,0.9638948809679477
7/28/2012 20:00,24.6,10.8,42,9,24.1,101.14,Mostly Cloudy,24.621999999999975,0.949155270668292
7/28/2012 21:00,22.8,11.8,50,4,25.0,101.14,Mainly Clear,22.717999999999996,0.9394870952988821
7/28/2012 22:00,19.5,13.1,66,7,25.0,101.16,Mainly Clear,19.551999999999992,1.1750318113220146
7/28/2012 23:00,18.9,13.8,72,9,25.0,101.18,Mainly Clear,18.86199999999999,1.7154802667147235
7/29/2012 0:00,18.5,13.7,74,9,25.0,101.18,Clear,18.45100000000001,1.7209839103698092
7/29/2012 1:00,18.4,13.7,74,13,25.0,101.16,Clear,18.41800000000002,1.7209839103698092
7/29/2012 2:00,17.7,12.9,73,15,25.0,101.16,Clear,17.73900000000003,1.718324698506683
7/29/2012 3:00,17.1,10.8,66,15,25.0,101.14,Mainly Clear,17.118999999999982,1.1750318113220146
7/29/2012 4:00,16.8,10.7,67,13,25.0,101.15,Mainly Clear,16.820999999999973,1.2523873978786297
7/29/2012 5:00,16.6,10.8,69,13,48.3,101.23,Mainly Clear,16.62999999999998,1.505906587803386
7/29/2012 6:00,17.6,11.2,66,15,48.3,101.27,Mainly Clear,17.54300000000002,1.1750318113220146
7/29/2012 7:00,19.2,12.3,64,15,24.1,101.29,Mainly Clear,19.231000000000012,1.0754917436180753
7/29/2012 8:00,20.5,13.3,63,13,24.1,101.31,Mainly Clear,20.537000000000006,1.0503413361747098
7/29/2012 9:00,22.2,14.8,63,9,48.3,101.3,Mainly Clear,22.202000000000012,1.0503413361747098
7/29/2012 10:00,24.0,16.9,65,7,48.3,101.28,Mainly Clear,23.916999999999987,1.1136122370198804
7/29/2012 11:00,24.7,16.7,61,11,48.3,101.26,Mainly Clear,24.761999999999997,1.0147471754365818
7/29/2012 12:00,26.6,17.5,57,6,48.3,101.21,Mainly Clear,26.529999999999955,0.9684584060262452
7/29/2012 13:00,26.6,17.5,57,9,48.3,101.17,Mainly Clear,26.517999999999958,0.9684584060262452
7/29/2012 14:00,27.3,17.4,55,4,48.3,101.12,Mainly Clear,27.23600000000001,0.9531525027978544
7/29/2012 15:00,27.8,17.7,54,11,48.3,101.09,Mainly Clear,27.834000000000017,0.9513900760272292
7/29/2012 16:00,27.5,17.5,54,0,48.3,101.06,Mainly Clear,27.56600000000001,0.9496585250582464
7/29/2012 17:00,27.0,16.9,54,7,48.3,101.03,Mainly Clear,26.967999999999996,0.9472289954341503
7/29/2012 18:00,26.8,16.9,55,6,48.3,101.05,Mainly Clear,26.710999999999984,0.9531525027978544
7/29/2012 19:00,26.5,17.4,57,6,48.3,101.08,Mostly Cloudy,26.34699999999997,0.9684584060262452
7/29/2012 20:00,25.8,17.3,59,9,24.1,101.12,Mostly Cloudy,25.771000000000008,0.987994578192502
7/29/2012 21:00,25.3,18.3,65,11,25.0,101.15,Mainly Clear,25.360000000000003,1.1136122370198804
7/29/2012 22:00,22.5,19.5,83,4,25.0,101.16,Mainly Clear,22.403000000000002,1.7459700090483987
7/29/2012 23:00,21.2,18.6,85,4,25.0,101.18,Clear,21.157000000000018,1.7507512632600475
7/30/2012 0:00,21.9,17.6,77,0,25.0,101.17,Mainly Clear,21.92000000000003,1.7302348458823897
7/30/2012 1:00,19.7,17.2,85,6,25.0,101.16,Mainly Clear,19.718000000000014,1.7507512632600475
7/30/2012 2:00,20.6,18.6,88,6,25.0,101.15,Clear,20.65199999999998,1.7571931537828946
7/30/2012 3:00,20.5,18.3,87,4,25.0,101.13,Clear,20.641000000000005,1.755244623603565
7/30/2012 4:00,19.0,15.6,81,6,25.0,101.22,Mainly Clear,18.934000000000008,1.7408722768108806
7/30/2012 5:00,17.9,16.7,93,0,24.1,101.27,Mainly Clear,17.974000000000018,1.7663155381997573
7/30/2012 6:00,20.5,16.9,80,6,24.1,101.28,Mainly Clear,20.629000000000023,1.7383226557949913
7/30/2012 7:00,21.6,17.2,76,6,48.3,101.31,Mainly Clear,21.59199999999997,1.7272721454173066
7/30/2012 8:00,22.4,16.7,70,7,48.3,101.31,Clear,22.45800000000003,1.7091525423728813
7/30/2012 9:00,24.1,16.9,64,7,48.3,101.31,Mainly Clear,24.116999999999965,1.0754917436180753
7/30/2012 10:00,25.0,15.8,57,15,48.3,101.29,Mainly Clear,24.934000000000005,0.9684584060262452
7/30/2012 11:00,26.0,15.0,51,15,48.3,101.27,Mainly Clear,25.98999999999999,0.9372052646802707
7/30/2012 12:00,27.2,15.8,50,19,48.3,101.22,Mainly Clear,27.067999999999987,0.9386847936859913
7/30/2012 13:00,28.5,15.5,45,15,48.3,101.17,Mostly Cloudy,28.41299999999999,0.9456314145795861
7/30/2012 14:00,29.3,15.9,44,17,48.3,101.13,Cloudy,29.161000000000016,0.9507023723532211
7/30/2012 15:00,29.0,13.5,39,17,48.3,101.1,Cloudy,28.992999999999988,0.9601509387055865
7/30/2012 16:00,29.9,14.3,39,9,48.3,101.04,Cloudy,29.60700000000002,0.9601509387055865
7/30/2012 17:00,29.4,12.9,36,9,48.3,101.03,Cloudy,28.83700000000001,0.9727175933044229
7/30/2012 18:00,28.2,15.4,46,13,48.3,101.01,Mainly Clear,28.16899999999998,0.9443128442190187
7/30/2012 19:00,26.9,16.4,53,11,48.3,101.01,Mainly Clear,26.879000000000037,0.9445685970900252
7/30/2012 20:00,25.2,16.5,59,7,48.3,101.01,Mainly Clear,25.245,0.987994578192502
7/30/2012 21:00,24.3,16.9,63,11,25.0,101.0,Clear,24.320000000000004,1.0503413361747098
7/30/2012 22:00,23.8,17.6,68,9,25.0,101.0,Clear,23.78499999999999,1.3579319565140906
7/30/2012 23:00,22.9,17.7,73,6,25.0,101.02,Mainly Clear,22.86600000000003,1.718324698506683
7/31/2012 0:00,22.2,19.0,82,6,25.0,101.03,Mainly Clear,22.199000000000016,1.7434626346010758
7/31/2012 1:00,21.3,18.0,81,9,25.0,101.03,Mainly Clear,21.348999999999982,1.7408722768108806
7/31/2012 2:00,21.5,16.6,74,13,25.0,101.02,Mainly Clear,21.49099999999999,1.7209839103698092
7/31/2012 3:00,20.1,16.1,78,13,25.0,101.02,Clear,20.062999999999978,1.733057876440812
7/31/2012 4:00,19.4,15.8,80,9,25.0,101.03,Mainly Clear,19.318999999999978,1.7383226557949913
7/31/2012 5:00,19.8,17.1,84,11,25.0,101.04,Mainly Clear,19.88199999999998,1.7483983249034645
7/31/2012 6:00,21.1,17.7,81,7,48.3,101.05,Mainly Clear,21.142999999999965,1.7408722768108806
7/31/2012 7:00,22.6,18.2,76,9,48.3,101.03,Clear,22.648999999999983,1.7272721454173066
7/31/2012 8:00,24.2,18.5,71,9,48.3,101.02,Clear,24.018000000000008,1.712430565280306
7/31/2012 9:00,25.9,19.5,68,7,24.1,100.98,Mainly Clear,25.65300000000002,1.3579319565140906
7/31/2012 10:00,27.3,19.8,64,11,24.1,100.97,Mainly Clear,27.341000000000022,1.0754917436180753
7/31/2012 11:00,28.4,20.8,63,13,24.1,100.93,Mainly Clear,28.364000000000036,1.0503413361747098
7/31/2012 12:00,28.9,20.7,61,19,24.1,100.87,Mainly Clear,28.81999999999997,1.0147471754365818
7/31/2012 13:00,28.7,19.2,56,19,24.1,100.79,Mainly Clear,28.890999999999984,0.9668026732866553
7/31/2012 14:00,28.8,18.4,53,20,24.1,100.7,Mainly Clear,28.816000000000027,0.9547955320608763
7/31/2012 15:00,28.8,18.4,53,19,24.1,100.64,Mainly Clear,28.80900000000003,0.9547272654764871
7/31/2012 16:00,28.8,19.1,56,22,24.1,100.58,Mostly Cloudy,28.778000000000016,0.965591493728655
7/31/2012 17:00,28.0,17.7,54,20,24.1,100.55,Mostly Cloudy,27.964999999999986,0.9522585502997469
7/31/2012 18:00,25.3,19.3,69,17,24.1,100.53,Mostly Cloudy,25.294999999999995,1.505906587803386
7/31/2012 19:00,24.8,18.3,67,22,24.1,100.55,Rain Showers,24.782000000000004,1.2523873978786297
7/31/2012 20:00,22.4,18.7,80,35,9.7,100.64,"Thunderstorms,Rain Showers,Fog",22.380000000000024,1.7383226557949913
7/31/2012 21:00,22.8,18.8,78,13,25.0,100.65,"Thunderstorms,Rain Showers",22.837999999999997,1.733057876440812
7/31/2012 22:00,22.8,19.4,81,7,25.0,100.57,Mostly Cloudy,22.857999999999997,1.7408722768108806
7/31/2012 23:00,21.8,19.2,85,4,25.0,100.52,Mainly Clear,21.797999999999984,1.7507512632600475
8/1/2012 0:00,21.0,19.8,93,0,25.0,100.53,Mainly Clear,21.05,1.7663155381997573
8/1/2012 1:00,21.0,19.6,92,4,25.0,100.54,Clear,20.933999999999997,1.764560779079539
8/1/2012 2:00,21.3,19.1,87,9,25.0,100.55,Mostly Cloudy,21.455999999999996,1.755244623603565
8/1/2012 3:00,20.8,19.0,89,9,25.0,100.54,Cloudy,20.80899999999998,1.7590894054480448
8/1/2012 4:00,20.8,18.7,88,6,25.0,100.57,Mostly Cloudy,20.834999999999983,1.7571931537828946
8/1/2012 5:00,20.8,18.1,85,9,25.0,100.58,Cloudy,20.86899999999998,1.7507512632600475
8/1/2012 6:00,20.4,18.6,89,7,25.0,100.62,Rain Showers,20.407000000000032,1.7590894054480448
8/1/2012 7:00,20.8,18.7,88,11,24.1,100.64,Cloudy,20.84399999999999,1.7571931537828946
8/1/2012 8:00,21.2,18.9,87,9,24.1,100.65,Cloudy,21.142000000000017,1.755244623603565
8/1/2012 9:00,22.0,18.9,83,13,24.1,100.64,Cloudy,21.872999999999983,1.7459700090483987
8/1/2012 10:00,24.1,19.4,75,13,24.1,100.6,Mostly Cloudy,24.03799999999998,1.7241591468416737
8/1/2012 11:00,24.1,18.0,69,17,24.1,100.6,Mostly Cloudy,24.008999999999965,1.505906587803386
8/1/2012 12:00,25.2,18.6,67,13,24.1,100.56,Mainly Clear,25.12699999999999,1.2523873978786297
8/1/2012 13:00,25.7,18.2,63,15,24.1,100.51,Mainly Clear,25.767999999999997,1.0503413361747098
8/1/2012 14:00,26.9,19.2,63,15,24.1,100.48,Mainly Clear,26.829000000000033,1.0503413361747098
8/1/2012 15:00,27.3,18.6,59,13,24.1,100.46,Mainly Clear,27.25100000000003,0.987994578192502
8/1/2012 16:00,27.8,18.7,58,9,24.1,100.4,Mainly Clear,27.668000000000024,0.9771086735653381
8/1/2012 17:00,27.4,19.0,60,13,24.1,100.38,Mainly Clear,27.49700000000002,0.9999888186332162
8/1/2012 18:00,27.0,18.9,61,15,24.1,100.39,Mainly Clear,27.018000000000015,1.0147471754365818
8/1/2012 19:00,26.3,19.2,65,13,24.1,100.46,Mostly Cloudy,26.417000000000012,1.1136122370198804
8/1/2012 20:00,25.7,19.1,67,15,25.0,100.48,Mostly Cloudy,25.712999999999994,1.2523873978786297
8/1/2012 21:00,23.1,20.3,84,6,25.0,100.49,Mainly Clear,23.129999999999992,1.7483983249034645
8/1/2012 22:00,24.2,20.3,79,7,25.0,100.52,Mainly Clear,24.19200000000001,1.7357508862871274
8/1/2012 23:00,23.9,19.8,78,6,25.0,100.5,Mainly Clear,23.906000000000045,1.733057876440812
8/2/2012 0:00,23.9,19.8,78,7,25.0,100.51,Mostly Cloudy,23.908000000000044,1.733057876440812
8/2/2012 1:00,22.6,19.6,83,7,25.0,100.48,Mainly Clear,22.47999999999999,1.7459700090483987
8/2/2012 2:00,21.8,19.6,87,9,25.0,100.49,Mainly Clear,21.574,1.755244623603565
8/2/2012 3:00,22.2,20.1,88,11,25.0,100.47,Mainly Clear,22.261,1.7571931537828946
8/2/2012 4:00,21.5,19.6,89,11,25.0,100.51,Mainly Clear,21.247999999999987,1.7590894054480448
8/2/2012 5:00,21.3,19.6,90,7,24.1,100.55,Clear,21.24799999999998,1.7609487211792867
8/2/2012 6:00,21.7,19.6,88,15,48.3,100.55,Clear,21.62300000000001,1.7571931537828946
8/2/2012 7:00,22.5,20.1,86,13,48.3,100.6,Mainly Clear,22.59699999999999,1.7530322801745157
8/2/2012 8:00,23.9,19.9,78,11,48.3,100.61,Mainly Clear,23.914000000000037,1.733057876440812
8/2/2012 9:00,24.5,19.8,75,17,48.3,100.63,Mainly Clear,24.410999999999994,1.7241591468416737
8/2/2012 10:00,25.8,19.5,68,11,24.1,100.6,Mainly Clear,25.756000000000018,1.3579319565140906
8/2/2012 11:00,27.3,20.1,65,17,24.1,100.56,Mainly Clear,27.299000000000028,1.1136122370198804
8/2/2012 12:00,27.4,18.5,58,13,24.1,100.56,Mainly Clear,27.414000000000033,0.9771086735653381
8/2/2012 13:00,29.1,18.0,51,20,24.1,100.5,Mainly Clear,29.233999999999956,0.9536679233295187
8/2/2012 14:00,29.6,18.8,52,13,24.1,100.44,Mainly Clear,29.534999999999968,0.9581242570672454
8/2/2012 15:00,29.8,18.9,52,19,24.1,100.43,Mostly Cloudy,29.672000000000008,0.959038951431172
8/2/2012 16:00,30.0,17.8,48,22,24.1,100.4,Mostly Cloudy,29.892000000000003,0.9550968243694932
8/2/2012 17:00,29.9,16.1,43,20,24.1,100.41,Mostly Cloudy,29.613000000000024,0.9533340234264196
8/2/2012 18:00,28.4,16.3,48,15,24.1,100.42,Mostly Cloudy,28.32900000000003,0.9453291802461594
8/2/2012 19:00,27.7,14.8,45,15,24.1,100.44,Mostly Cloudy,27.72899999999998,0.9416175384874597
8/2/2012 20:00,27.2,15.4,48,19,25.0,100.52,Cloudy,27.435999999999982,0.9400734932697133
8/2/2012 21:00,26.8,15.5,50,24,25.0,100.53,Cloudy,26.81000000000001,0.9377364554278063
8/2/2012 22:00,25.7,15.9,55,17,25.0,100.52,Cloudy,25.735999999999986,0.9531525027978544
8/2/2012 23:00,25.0,17.1,62,24,25.0,100.5,Mostly Cloudy,24.93900000000001,1.0305025778855286
8/3/2012 0:00,24.4,16.9,63,17,25.0,100.5,Mainly Clear,24.36900000000003,1.0503413361747098
8/3/2012 1:00,24.1,16.9,64,13,25.0,100.5,Mainly Clear,24.12099999999998,1.0754917436180753
8/3/2012 2:00,23.5,17.3,68,13,25.0,100.52,Mostly Cloudy,23.50800000000002,1.3579319565140906
8/3/2012 3:00,23.4,18.0,72,15,25.0,100.54,Mostly Cloudy,23.34400000000002,1.7154802667147235
8/3/2012 4:00,22.9,17.8,73,15,25.0,100.6,Cloudy,22.951000000000004,1.718324698506683
8/3/2012 5:00,22.3,17.9,76,11,24.1,100.68,Mainly Clear,22.307999999999996,1.7272721454173066
8/3/2012 6:00,22.5,18.3,77,13,24.1,100.74,Mainly Clear,22.598000000000006,1.7302348458823897
8/3/2012 7:00,23.2,18.5,75,17,24.1,100.81,Mainly Clear,23.182000000000006,1.7241591468416737
8/3/2012 8:00,24.1,18.5,71,13,24.1,100.87,Clear,24.127999999999993,1.712430565280306
8/3/2012 9:00,25.6,17.8,62,15,24.1,100.91,Mainly Clear,25.673999999999996,1.0305025778855286
8/3/2012 10:00,26.0,17.7,60,11,24.1,100.95,Mainly Clear,25.987000000000002,0.9999888186332162
8/3/2012 11:00,27.1,17.3,55,13,24.1,100.99,Mainly Clear,27.00599999999997,0.9531525027978544
8/3/2012 12:00,27.1,16.7,53,17,24.1,101.03,Mainly Clear,27.12299999999997,0.9455314837633343
8/3/2012 13:00,28.2,16.6,49,19,24.1,101.07,Mainly Clear,28.380999999999993,0.9455158036640059
8/3/2012 14:00,27.6,15.6,48,24,24.1,101.1,Mainly Clear,27.686999999999962,0.9413682918475563
8/3/2012 15:00,29.2,16.7,47,17,24.1,101.11,Mainly Clear,29.23799999999997,0.951135037987823
8/3/2012 16:00,28.9,15.9,45,20,24.1,101.1,Mainly Clear,28.954000000000033,0.9487219346678017
8/3/2012 17:00,28.0,16.0,48,20,48.3,101.14,Clear,28.11499999999999,0.9439735502552415
8/3/2012 18:00,27.2,16.1,51,11,48.3,101.18,Clear,27.06899999999999,0.94090714358147
8/3/2012 19:00,25.5,15.6,54,7,48.3,101.24,Clear,25.561,0.9472289954341503
8/3/2012 20:00,23.9,15.7,60,6,24.1,101.31,Clear,24.101999999999993,0.9999888186332162
8/3/2012 21:00,22.0,15.9,68,6,25.0,101.39,Clear,22.013,1.3579319565140906
8/3/2012 22:00,23.3,15.3,61,9,25.0,101.42,Clear,23.267999999999983,1.0147471754365818
8/3/2012 23:00,23.1,15.2,61,4,25.0,101.49,Clear,23.07099999999998,1.0147471754365818
8/4/2012 0:00,21.3,15.3,69,9,25.0,101.51,Clear,21.203999999999986,1.505906587803386
8/4/2012 1:00,22.3,15.2,64,9,25.0,101.55,Mostly Cloudy,22.288999999999998,1.0754917436180753
8/4/2012 2:00,22.0,15.0,64,7,25.0,101.59,Mostly Cloudy,22.199999999999996,1.0754917436180753
8/4/2012 3:00,21.8,14.8,64,6,25.0,101.61,Mostly Cloudy,21.892999999999983,1.0754917436180753
8/4/2012 4:00,22.1,14.2,61,7,24.1,101.62,Cloudy,22.015999999999973,1.0147471754365818
8/4/2012 5:00,21.3,14.3,64,11,48.3,101.65,Cloudy,21.38,1.0754917436180753
8/4/2012 6:00,20.2,16.0,77,9,48.3,101.67,Mostly Cloudy,20.20200000000002,1.7302348458823897
8/4/2012 7:00,21.8,15.3,67,17,48.3,101.75,Mainly Clear,21.79699999999999,1.2523873978786297
8/4/2012 8:00,23.1,15.6,63,13,48.3,101.75,Mainly Clear,22.758999999999986,1.0503413361747098
8/4/2012 9:00,24.7,16.4,60,15,24.1,101.73,Mainly Clear,24.725000000000026,0.9999888186332162
8/4/2012 10:00,27.2,17.2,54,13,24.1,101.72,Mainly Clear,27.20899999999998,0.9480782412101748
8/4/2012 11:00,28.3,18.0,54,17,24.1,101.69,Clear,28.28800000000001,0.9544648417716691
8/4/2012 12:00,30.1,19.2,52,9,25.0,101.62,Clear,30.037999999999965,0.9616213048254687
8/4/2012 13:00,31.2,18.1,46,11,24.1,101.56,Clear,31.24199999999999,0.95848332788096
8/4/2012 14:00,32.0,18.3,44,17,24.1,101.48,Clear,32.023,0.9618153226389612
8/4/2012 15:00,32.8,18.8,44,17,24.1,101.39,Clear,32.623000000000026,0.9641332216434239
8/4/2012 16:00,32.5,18.5,44,15,24.1,101.34,Clear,32.303999999999995,0.9628023270157499
8/4/2012 17:00,32.5,19.8,47,13,24.1,101.32,Clear,32.26599999999999,0.9685503893979848
8/4/2012 18:00,32.2,20.1,49,13,24.1,101.29,Mostly Cloudy,32.10899999999997,0.9715159066349582
8/4/2012 19:00,30.8,19.2,50,20,24.1,101.23,Mainly Clear,31.043000000000006,0.9640081206048051
8/4/2012 20:00,29.2,18.7,53,19,24.1,101.23,Clear,29.084999999999972,0.9574880768922963
8/4/2012 21:00,27.5,18.4,58,17,25.0,101.3,Mainly Clear,27.355,0.9771086735653381
8/4/2012 22:00,26.5,18.2,60,13,25.0,101.28,Mainly Clear,26.45500000000001,0.9999888186332162
8/4/2012 23:00,26.2,18.6,63,17,25.0,101.27,Clear,26.179999999999993,1.0503413361747098
8/5/2012 0:00,25.7,19.0,67,19,25.0,101.24,Clear,25.67699999999999,1.2523873978786297
8/5/2012 1:00,25.1,19.2,70,19,25.0,101.19,Clear,25.041999999999977,1.7091525423728813
8/5/2012 2:00,24.2,19.3,74,19,25.0,101.16,Clear,24.221999999999994,1.7209839103698092
8/5/2012 3:00,24.4,19.3,73,22,25.0,101.06,Mainly Clear,24.418000000000017,1.718324698506683
8/5/2012 4:00,24.3,19.6,75,19,25.0,101.04,Mainly Clear,24.247,1.7241591468416737
8/5/2012 5:00,24.1,19.8,77,22,24.1,101.02,Mostly Cloudy,24.208,1.7302348458823897
8/5/2012 6:00,24.6,20.2,77,19,24.1,100.96,Cloudy,24.484999999999978,1.7302348458823897
8/5/2012 7:00,25.9,20.7,73,22,24.1,100.89,Cloudy,25.883999999999997,1.718324698506683
8/5/2012 8:00,26.5,21.0,72,24,24.1,100.8,Cloudy,26.387000000000004,1.7154802667147235
8/5/2012 9:00,26.9,21.3,71,24,19.3,100.72,Mostly Cloudy,26.693000000000026,1.712430565280306
8/5/2012 10:00,24.8,22.6,88,22,19.3,100.71,Cloudy,24.835000000000015,1.7571931537828946
8/5/2012 11:00,27.9,23.2,76,24,24.1,100.63,Mostly Cloudy,27.32999999999999,1.7272721454173066
8/5/2012 12:00,29.7,22.2,64,19,24.1,100.5,Mostly Cloudy,28.826000000000004,1.0754917436180753
8/5/2012 13:00,25.2,23.0,88,24,12.9,100.4,Rain Showers,24.810000000000024,1.7571931537828946
8/5/2012 14:00,24.9,22.9,89,26,16.1,100.42,Rain Showers,24.699000000000037,1.7590894054480448
8/5/2012 15:00,29.0,24.4,76,13,24.1,100.31,Mostly Cloudy,27.500999999999987,1.7272721454173066
8/5/2012 16:00,31.1,22.0,58,28,24.1,100.26,Mostly Cloudy,29.95599999999995,0.986312357696341
8/5/2012 17:00,30.1,21.1,59,22,24.1,100.2,Cloudy,29.89199999999995,0.991930791990955
8/5/2012 18:00,25.0,22.0,83,22,19.3,100.28,"Thunderstorms,Rain Showers",24.775000000000013,1.7459700090483987
8/5/2012 19:00,24.2,22.2,89,26,16.1,100.29,Rain Showers,24.314000000000018,1.7590894054480448
8/5/2012 20:00,24.3,21.8,86,32,25.0,100.32,Cloudy,24.125000000000004,1.7530322801745157
8/5/2012 21:00,23.9,21.2,85,32,25.0,100.43,Mainly Clear,23.218000000000007,1.7507512632600475
8/5/2012 22:00,23.9,20.0,79,26,25.0,100.5,Mainly Clear,23.94700000000004,1.7357508862871274
8/5/2012 23:00,23.1,17.4,70,30,25.0,100.58,Clear,23.123999999999974,1.7091525423728813
8/6/2012 0:00,21.7,13.7,60,24,25.0,100.67,Clear,21.754000000000005,0.9999888186332162
8/6/2012 1:00,20.7,14.3,67,24,25.0,100.7,Mainly Clear,20.682000000000013,1.2523873978786297
8/6/2012 2:00,19.6,13.7,69,22,25.0,100.77,Clear,19.51399999999998,1.505906587803386
8/6/2012 3:00,18.7,13.2,70,22,25.0,100.79,Clear,18.790000000000017,1.7091525423728813
8/6/2012 4:00,17.7,13.3,75,13,25.0,100.86,Clear,17.717000000000017,1.7241591468416737
8/6/2012 5:00,16.6,13.3,81,9,48.3,100.95,Clear,16.59299999999998,1.7408722768108806
8/6/2012 6:00,18.0,13.8,76,13,48.3,101.01,Clear,18.021,1.7272721454173066
8/6/2012 7:00,19.0,14.0,73,17,48.3,101.06,Mainly Clear,18.996000000000002,1.718324698506683
8/6/2012 8:00,19.7,13.6,68,17,48.3,101.09,Mainly Clear,19.668000000000017,1.3579319565140906
8/6/2012 9:00,20.0,13.3,65,20,48.3,101.11,Mostly Cloudy,19.98899999999999,1.1136122370198804
8/6/2012 10:00,20.8,13.2,62,22,48.3,101.13,Mostly Cloudy,20.642000000000003,1.0305025778855286
8/6/2012 11:00,22.1,13.6,59,28,48.3,101.15,Mainly Clear,22.057999999999964,0.987994578192502
8/6/2012 12:00,21.9,13.0,57,24,48.3,101.17,Mostly Cloudy,21.926000000000016,0.9684584060262452
8/6/2012 13:00,21.4,13.7,61,13,48.3,101.18,Mostly Cloudy,21.494000000000018,1.0147471754365818
8/6/2012 14:00,22.5,13.0,55,13,48.3,101.15,Mostly Cloudy,22.552999999999997,0.9531525027978544
8/6/2012 15:00,22.6,13.8,58,22,48.3,101.12,Mainly Clear,22.441,0.9771086735653381
8/6/2012 16:00,23.0,12.2,51,19,48.3,101.07,Mainly Clear,22.949,0.9408387812836008
8/6/2012 17:00,23.0,12.8,53,24,48.3,101.06,Mainly Clear,23.003000000000007,0.9450318198392749
8/6/2012 18:00,23.0,12.8,53,15,48.3,101.03,Mainly Clear,23.055000000000003,0.9448271297218995
8/6/2012 19:00,21.6,12.8,57,9,48.3,101.02,Clear,21.616999999999965,0.9684584060262452
8/6/2012 20:00,22.1,13.5,58,9,25.0,101.03,Clear,22.132999999999978,0.9771086735653381
8/6/2012 21:00,21.7,14.5,64,9,25.0,101.03,Clear,21.658000000000005,1.0754917436180753
8/6/2012 22:00,20.1,15.6,75,13,25.0,101.04,Clear,20.08799999999998,1.7241591468416737
8/6/2012 23:00,20.6,15.1,71,11,25.0,101.05,Clear,20.595999999999982,1.712430565280306
8/7/2012 0:00,19.6,16.0,80,13,25.0,101.04,Clear,19.56699999999997,1.7383226557949913
8/7/2012 1:00,19.3,15.6,79,17,25.0,101.02,Clear,19.23700000000001,1.7357508862871274
8/7/2012 2:00,18.9,14.8,77,19,25.0,100.99,Clear,18.94600000000002,1.7302348458823897
8/7/2012 3:00,18.2,15.3,83,13,25.0,100.96,Clear,18.18900000000003,1.7459700090483987
8/7/2012 4:00,18.5,15.5,83,11,25.0,100.95,Clear,18.497000000000007,1.7459700090483987
8/7/2012 5:00,16.6,15.0,90,7,48.3,100.99,Clear,16.551999999999985,1.7609487211792867
8/7/2012 6:00,17.9,15.3,85,6,48.3,101.02,Clear,17.85900000000002,1.7507512632600475
8/7/2012 7:00,19.6,16.1,80,15,48.3,101.01,Mainly Clear,19.61999999999997,1.7383226557949913
8/7/2012 8:00,21.2,16.4,74,17,48.3,101.01,Mainly Clear,21.223000000000006,1.7209839103698092
8/7/2012 9:00,22.8,16.7,68,19,48.3,100.99,Mainly Clear,22.815000000000005,1.3579319565140906
8/7/2012 10:00,24.1,17.1,65,24,48.3,100.96,Mainly Clear,24.141000000000012,1.1136122370198804
8/7/2012 11:00,25.3,16.9,60,22,48.3,100.96,Mainly Clear,25.250999999999998,0.9999888186332162
8/7/2012 12:00,26.5,16.1,53,17,48.3,100.9,Mainly Clear,26.488000000000014,0.943018325394646
8/7/2012 13:00,27.7,15.7,48,20,48.3,100.87,Mainly Clear,27.741999999999965,0.9416949620843724
8/7/2012 14:00,27.6,14.2,44,20,48.3,100.82,Mainly Clear,27.54499999999998,0.9432590533134183
8/7/2012 15:00,28.7,13.6,40,24,48.3,100.79,Mostly Cloudy,28.678999999999977,0.9557861893691004
8/7/2012 16:00,27.4,13.6,43,17,48.3,100.74,Mostly Cloudy,27.39600000000003,0.945948721343493
8/7/2012 17:00,27.8,13.1,40,15,48.3,100.74,Mostly Cloudy,27.859000000000027,0.9557861893691004
8/7/2012 18:00,27.0,13.8,44,15,48.3,100.74,Mostly Cloudy,27.126000000000005,0.9432590533134183
8/7/2012 19:00,26.3,14.8,49,13,48.3,100.73,Mostly Cloudy,26.284000000000013,0.9356192145961748
8/7/2012 20:00,25.8,13.7,47,17,25.0,100.81,Mostly Cloudy,25.770000000000003,0.9365197406993433
8/7/2012 21:00,21.2,15.0,68,22,25.0,100.9,Cloudy,21.157000000000025,1.3579319565140906
8/7/2012 22:00,20.2,16.6,80,0,25.0,100.86,Mostly Cloudy,20.275000000000013,1.7383226557949913
8/7/2012 23:00,20.2,17.5,84,9,25.0,100.87,Rain Showers,20.270000000000017,1.7483983249034645
8/8/2012 0:00,19.3,18.0,92,7,25.0,100.92,Mostly Cloudy,19.30699999999998,1.764560779079539
8/8/2012 1:00,18.7,17.8,95,7,25.0,100.94,Mainly Clear,18.637000000000015,1.768832975474038
8/8/2012 2:00,18.3,17.6,96,4,19.3,100.91,Mainly Clear,18.411999999999985,1.7699087340766253
8/8/2012 3:00,17.4,17.1,98,4,12.9,100.92,Clear,17.543000000000017,1.7720304913691292
8/8/2012 4:00,17.2,16.9,98,4,16.1,100.97,Clear,17.468000000000014,1.7720304913691292
8/8/2012 5:00,16.8,16.7,99,0,19.3,101.02,Mainly Clear,17.41200000000002,1.7730767632267987
8/8/2012 6:00,18.1,17.3,95,0,24.1,101.03,Clear,18.24800000000001,1.768832975474038
8/8/2012 7:00,19.3,17.4,89,6,48.3,101.09,Clear,19.31699999999998,1.7590894054480448
8/8/2012 8:00,21.1,17.5,80,0,48.3,101.12,Mostly Cloudy,21.08299999999998,1.7383226557949913
8/8/2012 9:00,22.5,16.6,69,4,48.3,101.11,Mainly Clear,22.501000000000005,1.505906587803386
8/8/2012 10:00,24.1,16.0,61,9,48.3,101.11,Mainly Clear,24.11199999999998,1.0147471754365818
8/8/2012 11:00,24.8,15.2,55,4,48.3,101.08,Mainly Clear,24.802999999999997,0.9531525027978544
8/8/2012 12:00,26.4,11.9,40,0,48.3,101.05,Mainly Clear,26.423000000000034,0.9557861893691004
8/8/2012 13:00,27.4,14.1,44,4,48.3,101.0,Mainly Clear,27.42200000000003,0.9432590533134183
8/8/2012 14:00,28.0,15.6,47,11,24.1,100.98,Mainly Clear,27.976,0.9431113090682192
8/8/2012 15:00,28.3,14.7,43,7,24.1,100.94,Mostly Cloudy,28.126000000000023,0.945948721343493
8/8/2012 16:00,28.0,16.1,48,9,24.1,100.92,Mostly Cloudy,28.127000000000002,0.9440487377732459
8/8/2012 17:00,24.8,17.1,62,19,24.1,100.91,Mostly Cloudy,24.850000000000005,1.0305025778855286
8/8/2012 18:00,25.1,16.8,60,9,24.1,100.9,Mostly Cloudy,25.09999999999996,0.9999888186332162
8/8/2012 19:00,25.1,17.0,61,7,24.1,100.9,Rain Showers,25.028999999999964,1.0147471754365818
8/8/2012 20:00,24.3,17.2,65,11,25.0,100.92,Rain Showers,24.34100000000001,1.1136122370198804
8/8/2012 21:00,23.0,17.8,73,6,25.0,100.93,Mostly Cloudy,22.992000000000008,1.718324698506683
8/8/2012 22:00,23.5,17.1,67,4,25.0,100.89,Mostly Cloudy,23.515000000000008,1.2523873978786297
8/8/2012 23:00,23.1,17.0,69,6,25.0,100.92,Mostly Cloudy,22.921,1.505906587803386
8/9/2012 0:00,22.8,17.7,73,9,25.0,100.93,Mainly Clear,22.841000000000008,1.718324698506683
8/9/2012 1:00,22.8,16.7,68,11,25.0,100.89,Mostly Cloudy,22.824,1.3579319565140906
8/9/2012 2:00,22.4,16.7,70,4,25.0,100.91,Cloudy,22.47400000000001,1.7091525423728813
8/9/2012 3:00,21.8,17.4,76,9,25.0,100.89,Cloudy,21.775999999999986,1.7272721454173066
8/9/2012 4:00,21.4,17.4,78,11,25.0,100.9,Mostly Cloudy,21.404,1.733057876440812
8/9/2012 5:00,21.1,16.9,77,13,24.1,100.93,Cloudy,21.143000000000008,1.7302348458823897
8/9/2012 6:00,20.9,17.0,78,15,24.1,100.98,Cloudy,20.92800000000003,1.733057876440812
8/9/2012 7:00,20.7,17.3,81,13,24.1,101.01,Cloudy,20.74900000000002,1.7408722768108806
8/9/2012 8:00,21.1,17.5,80,19,24.1,101.01,Cloudy,21.076999999999977,1.7383226557949913
8/9/2012 9:00,21.7,17.5,77,22,24.1,100.98,Cloudy,21.660000000000014,1.7302348458823897
8/9/2012 10:00,21.7,17.0,75,17,24.1,100.98,Cloudy,21.622000000000007,1.7241591468416737
8/9/2012 11:00,23.2,17.3,69,13,24.1,100.98,Cloudy,23.265000000000008,1.505906587803386
8/9/2012 12:00,24.2,17.8,67,17,24.1,100.92,Cloudy,24.245,1.2523873978786297
8/9/2012 13:00,23.6,17.4,68,19,24.1,100.94,Cloudy,23.513,1.3579319565140906
8/9/2012 14:00,24.0,17.8,68,20,24.1,100.86,Rain Showers,23.993999999999968,1.3579319565140906
8/9/2012 15:00,23.7,17.0,66,17,16.1,100.91,Rain Showers,23.693000000000012,1.1750318113220146
8/9/2012 16:00,22.3,18.7,80,19,19.3,100.89,Rain,22.305999999999994,1.7383226557949913
8/9/2012 17:00,21.3,18.7,85,17,12.9,100.93,Rain,21.198999999999998,1.7507512632600475
8/9/2012 18:00,20.4,18.6,89,20,16.1,100.87,Rain,20.383000000000035,1.7590894054480448
8/9/2012 19:00,20.2,18.2,88,13,19.3,100.92,Rain,20.44900000000001,1.7571931537828946
8/9/2012 20:00,20.2,17.7,86,15,25.0,100.88,Cloudy,20.14300000000002,1.7530322801745157
8/9/2012 21:00,19.9,17.5,86,19,25.0,100.87,Cloudy,19.860000000000024,1.7530322801745157
8/9/2012 22:00,20.1,17.0,82,19,25.0,100.83,Cloudy,20.053999999999977,1.7434626346010758
8/9/2012 23:00,19.8,17.0,84,20,25.0,100.77,Cloudy,19.811999999999973,1.7483983249034645
8/10/2012 0:00,19.5,17.0,85,17,25.0,100.74,Cloudy,19.548,1.7507512632600475
8/10/2012 1:00,19.3,16.8,85,19,25.0,100.68,Cloudy,19.333999999999982,1.7507512632600475
8/10/2012 2:00,20.1,17.0,82,13,25.0,100.66,Cloudy,20.102999999999984,1.7434626346010758
8/10/2012 3:00,19.7,17.3,86,13,25.0,100.65,Cloudy,19.686000000000018,1.7530322801745157
8/10/2012 4:00,19.3,17.6,90,9,9.7,100.67,Rain,19.25199999999998,1.7609487211792867
8/10/2012 5:00,19.0,17.7,92,19,12.9,100.58,Rain,19.012,1.764560779079539
8/10/2012 6:00,19.0,17.7,92,9,16.1,100.69,Cloudy,19.018999999999995,1.764560779079539
8/10/2012 7:00,19.7,18.2,91,7,12.9,100.66,Cloudy,19.891000000000012,1.762772169746578
8/10/2012 8:00,20.8,18.9,89,9,12.9,100.69,Cloudy,20.775999999999975,1.7590894054480448
8/10/2012 9:00,20.2,18.6,91,13,11.3,100.7,Cloudy,20.21400000000002,1.762772169746578
8/10/2012 10:00,20.2,18.5,90,11,11.3,100.75,Cloudy,20.217000000000013,1.7609487211792867
8/10/2012 11:00,19.9,18.5,92,15,6.4,100.73,Fog,19.915,1.764560779079539
8/10/2012 12:00,20.8,18.8,88,17,6.4,100.73,Fog,20.883999999999993,1.7571931537828946
8/10/2012 13:00,21.3,19.2,88,19,6.4,100.7,"Rain,Fog",21.30899999999998,1.7571931537828946
8/10/2012 14:00,21.7,19.3,86,19,8.0,100.64,"Rain,Fog",21.708000000000006,1.7530322801745157
8/10/2012 15:00,21.0,19.5,91,20,6.4,100.63,"Rain,Fog",21.042999999999996,1.762772169746578
8/10/2012 16:00,20.7,19.0,90,20,8.0,100.65,"Rain,Fog",20.71800000000001,1.7609487211792867
8/10/2012 17:00,20.6,19.0,91,20,8.0,100.63,"Rain,Fog",20.595999999999982,1.762772169746578
8/10/2012 18:00,20.0,18.9,93,22,6.4,100.62,"Rain,Fog",20.004,1.7663155381997573
8/10/2012 19:00,19.6,18.5,93,24,4.8,100.63,"Rain,Fog",19.577999999999975,1.7663155381997573
8/10/2012 20:00,19.1,17.9,93,17,12.9,100.65,Rain,19.04199999999997,1.7663155381997573
8/10/2012 21:00,18.5,17.7,95,22,16.1,100.62,Rain,18.524999999999995,1.768832975474038
8/10/2012 22:00,18.2,17.4,95,20,25.0,100.58,Cloudy,18.23300000000002,1.768832975474038
8/10/2012 23:00,18.0,17.2,95,19,25.0,100.56,Cloudy,18.016000000000005,1.768832975474038
8/11/2012 0:00,17.9,17.0,94,20,16.1,100.57,Cloudy,17.926000000000023,1.7677471105115399
8/11/2012 1:00,17.5,16.7,95,19,16.1,100.57,Cloudy,17.558999999999997,1.768832975474038
8/11/2012 2:00,17.6,16.8,95,19,16.1,100.54,Cloudy,17.60299999999998,1.768832975474038
8/11/2012 3:00,17.5,16.7,95,22,16.1,100.53,Cloudy,17.527999999999995,1.768832975474038
8/11/2012 4:00,17.2,16.7,97,24,16.1,100.54,Rain Showers,17.33800000000001,1.7709745267585884
8/11/2012 5:00,17.2,16.7,97,22,12.9,100.57,Cloudy,17.432000000000013,1.7709745267585884
8/11/2012 6:00,17.4,16.7,96,20,16.1,100.61,Cloudy,17.452000000000016,1.7699087340766253
8/11/2012 7:00,18.4,17.2,93,17,12.9,100.65,Cloudy,18.292000000000023,1.7663155381997573
8/11/2012 8:00,19.4,17.8,90,15,12.9,100.66,Cloudy,19.39300000000002,1.7609487211792867
8/11/2012 9:00,20.4,18.0,86,15,24.1,100.66,Cloudy,20.534000000000013,1.7530322801745157
8/11/2012 10:00,22.3,19.0,82,11,24.1,100.65,Cloudy,22.23499999999997,1.7434626346010758
8/11/2012 11:00,23.9,19.8,78,13,24.1,100.61,Mostly Cloudy,23.936000000000007,1.733057876440812
8/11/2012 12:00,26.1,20.6,72,9,24.1,100.58,Mostly Cloudy,26.02399999999997,1.7154802667147235
8/11/2012 13:00,26.9,20.0,66,15,24.1,100.51,Cloudy,27.020000000000046,1.1750318113220146
8/11/2012 14:00,27.3,20.1,65,17,24.1,100.47,Cloudy,27.304000000000023,1.1136122370198804
8/11/2012 15:00,27.5,19.9,63,19,24.1,100.42,Cloudy,27.480000000000008,1.0503413361747098
8/11/2012 16:00,26.8,20.5,68,9,24.1,100.36,Cloudy,26.587000000000007,1.3579319565140906
8/11/2012 17:00,20.2,19.5,96,32,12.9,100.58,"Thunderstorms,Rain Showers",20.267000000000017,1.7699087340766253
8/11/2012 18:00,19.6,18.7,95,19,24.1,100.59,Rain Showers,19.56399999999998,1.768832975474038
8/11/2012 19:00,20.4,18.6,89,11,24.1,100.59,Mainly Clear,20.41300000000004,1.7590894054480448
8/11/2012 20:00,19.9,18.9,94,13,25.0,100.65,Mostly Cloudy,19.947000000000013,1.7677471105115399
8/11/2012 21:00,20.0,18.5,91,9,25.0,100.68,Mostly Cloudy,20.03900000000001,1.762772169746578
8/11/2012 22:00,20.0,18.6,92,9,25.0,100.72,Cloudy,20.010000000000005,1.764560779079539
8/11/2012 23:00,20.0,18.8,93,9,25.0,100.71,Mostly Cloudy,19.749,1.7663155381997573
8/12/2012 0:00,20.1,18.9,93,4,19.3,100.7,Mostly Cloudy,20.06699999999998,1.7663155381997573
8/12/2012 1:00,19.7,19.2,97,6,19.3,100.69,Cloudy,20.230000000000004,1.7709745267585884
8/12/2012 2:00,19.7,19.0,96,4,12.9,100.66,Cloudy,19.734000000000023,1.7699087340766253
8/12/2012 3:00,19.5,19.0,97,0,12.9,100.65,Mostly Cloudy,19.599000000000007,1.7709745267585884
8/12/2012 4:00,19.5,18.8,96,4,9.7,100.68,Fog,19.531000000000002,1.7699087340766253
8/12/2012 5:00,19.6,18.7,95,4,8.0,100.75,Fog,19.591999999999995,1.768832975474038
8/12/2012 6:00,19.8,18.9,95,9,12.9,100.75,Mostly Cloudy,19.79499999999998,1.768832975474038
8/12/2012 7:00,20.5,19.0,91,7,24.1,100.79,Mostly Cloudy,20.554999999999996,1.762772169746578
8/12/2012 8:00,21.6,17.8,79,15,24.1,100.8,Mostly Cloudy,21.67099999999998,1.7357508862871274
8/12/2012 9:00,22.3,16.6,70,19,48.3,100.79,Mainly Clear,22.330999999999996,1.7091525423728813
8/12/2012 10:00,22.9,16.7,68,17,48.3,100.76,Mainly Clear,22.850000000000026,1.3579319565140906
8/12/2012 11:00,24.0,17.6,67,13,48.3,100.72,Mainly Clear,24.057000000000006,1.2523873978786297
8/12/2012 12:00,24.4,16.9,63,17,48.3,100.67,Mainly Clear,24.372000000000025,1.0503413361747098
8/12/2012 13:00,25.4,17.2,60,13,48.3,100.64,Mainly Clear,25.397000000000038,0.9999888186332162
8/12/2012 14:00,26.4,17.0,56,13,48.3,100.62,Mainly Clear,26.501000000000023,0.9607879911134949
8/12/2012 15:00,26.2,16.9,57,15,48.3,100.58,Mainly Clear,26.12999999999998,0.9684584060262452
8/12/2012 16:00,26.7,16.9,55,17,48.3,100.56,Mainly Clear,26.69399999999999,0.9531525027978544
8/12/2012 17:00,26.0,16.9,57,17,24.1,100.55,Mostly Cloudy,26.052999999999994,0.9684584060262452
8/12/2012 18:00,23.2,18.6,75,15,48.3,100.61,Mainly Clear,23.22200000000001,1.7241591468416737
8/12/2012 19:00,23.2,17.8,72,15,24.1,100.63,Mainly Clear,23.22000000000001,1.7154802667147235
8/12/2012 20:00,22.9,17.5,72,13,25.0,100.69,Mainly Clear,22.935000000000006,1.7154802667147235
8/12/2012 21:00,22.3,17.8,76,11,25.0,100.71,Mainly Clear,22.256999999999998,1.7272721454173066
8/12/2012 22:00,21.8,17.7,78,17,25.0,100.7,Mainly Clear,21.796999999999983,1.733057876440812
8/12/2012 23:00,21.8,17.8,78,19,25.0,100.69,Mainly Clear,21.842999999999982,1.733057876440812
8/13/2012 0:00,21.3,17.3,78,22,25.0,100.68,Clear,21.295999999999985,1.733057876440812
8/13/2012 1:00,20.9,17.5,81,15,25.0,100.68,Clear,20.867000000000026,1.7408722768108806
8/13/2012 2:00,20.4,17.6,84,13,25.0,100.67,Mainly Clear,20.284000000000027,1.7483983249034645
8/13/2012 3:00,20.2,18.0,87,9,25.0,100.7,Mainly Clear,20.290000000000028,1.755244623603565
8/13/2012 4:00,19.5,17.3,87,9,25.0,100.74,Mainly Clear,19.586,1.755244623603565
8/13/2012 5:00,19.5,17.5,88,13,24.1,100.78,Mainly Clear,19.534000000000006,1.7571931537828946
8/13/2012 6:00,19.7,17.6,88,13,24.1,100.81,Mainly Clear,19.64800000000002,1.7571931537828946
8/13/2012 7:00,19.9,17.5,86,19,19.3,100.87,Cloudy,19.903000000000024,1.7530322801745157
8/13/2012 8:00,20.9,18.0,83,13,19.3,100.89,Mostly Cloudy,20.950000000000024,1.7459700090483987
8/13/2012 9:00,21.9,18.0,79,15,19.3,100.88,Mostly Cloudy,21.87200000000003,1.7357508862871274
8/13/2012 10:00,22.4,17.8,75,22,19.3,100.88,Mostly Cloudy,22.43400000000003,1.7241591468416737
8/13/2012 11:00,22.5,17.8,75,20,24.1,100.87,Mostly Cloudy,22.48100000000001,1.7241591468416737
8/13/2012 12:00,23.8,17.4,67,17,24.1,100.85,Mostly Cloudy,23.825999999999993,1.2523873978786297
8/13/2012 13:00,25.2,17.9,64,20,24.1,100.82,Mostly Cloudy,25.180999999999997,1.0754917436180753
8/13/2012 14:00,25.1,17.4,62,19,24.1,100.79,Mostly Cloudy,25.109999999999967,1.0305025778855286
8/13/2012 15:00,25.4,17.4,61,13,24.1,100.74,Mostly Cloudy,25.421000000000028,1.0147471754365818
8/13/2012 16:00,25.2,17.1,61,19,24.1,100.76,Mostly Cloudy,25.15599999999999,1.0147471754365818
8/13/2012 17:00,24.5,18.0,67,11,24.1,100.78,Mostly Cloudy,24.462000000000003,1.2523873978786297
8/13/2012 18:00,24.6,16.9,62,11,24.1,100.8,Mostly Cloudy,24.662999999999982,1.0305025778855286
8/13/2012 19:00,24.4,17.4,65,7,24.1,100.8,Mainly Clear,24.41000000000002,1.1136122370198804
8/13/2012 20:00,23.2,17.6,71,7,25.0,100.83,Mainly Clear,23.324000000000005,1.712430565280306
8/13/2012 21:00,22.4,17.8,75,6,25.0,100.87,Mainly Clear,22.440000000000026,1.7241591468416737
8/13/2012 22:00,22.2,17.7,76,9,25.0,100.88,Mainly Clear,22.258000000000017,1.7272721454173066
8/13/2012 23:00,21.7,17.3,76,9,25.0,100.86,Mainly Clear,21.674000000000007,1.7272721454173066
8/14/2012 0:00,21.2,17.4,79,7,25.0,100.85,Mainly Clear,21.20000000000001,1.7357508862871274
8/14/2012 1:00,21.1,17.7,81,9,25.0,100.85,Mainly Clear,21.125999999999966,1.7408722768108806
8/14/2012 2:00,20.9,18.2,85,11,25.0,100.83,Mostly Cloudy,20.973000000000024,1.7507512632600475
8/14/2012 3:00,20.7,17.6,82,11,25.0,100.82,Mainly Clear,20.68800000000002,1.7434626346010758
8/14/2012 4:00,19.5,17.4,88,6,25.0,100.83,Mostly Cloudy,19.495999999999995,1.7571931537828946
8/14/2012 5:00,19.8,17.3,86,7,24.1,100.84,Mainly Clear,19.763999999999985,1.7530322801745157
8/14/2012 6:00,20.9,17.2,79,9,24.1,100.83,Mostly Cloudy,20.88300000000002,1.7357508862871274
8/14/2012 7:00,21.0,16.7,76,13,24.1,100.88,Mostly Cloudy,21.106000000000005,1.7272721454173066
8/14/2012 8:00,21.9,17.1,74,9,24.1,100.87,Mostly Cloudy,21.910000000000018,1.7209839103698092
8/14/2012 9:00,21.9,17.8,78,11,24.1,100.89,Cloudy,21.891000000000023,1.733057876440812
8/14/2012 10:00,21.9,18.1,79,15,24.1,100.88,Cloudy,21.880000000000038,1.7357508862871274
8/14/2012 11:00,21.9,18.2,80,15,24.1,100.86,Cloudy,21.877000000000024,1.7383226557949913
8/14/2012 12:00,22.6,18.5,78,9,24.1,100.84,Cloudy,22.482000000000017,1.733057876440812
8/14/2012 13:00,23.7,19.2,76,15,24.1,100.79,Mostly Cloudy,23.691,1.7272721454173066
8/14/2012 14:00,24.2,18.5,71,13,24.1,100.75,Mostly Cloudy,24.13099999999999,1.712430565280306
8/14/2012 15:00,25.7,18.4,64,15,24.1,100.71,Mostly Cloudy,25.673999999999992,1.0754917436180753
8/14/2012 16:00,24.5,17.2,64,7,24.1,100.69,Mostly Cloudy,24.5,1.0754917436180753
8/14/2012 17:00,24.9,17.2,62,7,24.1,100.67,Mostly Cloudy,24.944000000000024,1.0305025778855286
8/14/2012 18:00,24.5,17.1,63,6,24.1,100.69,Mostly Cloudy,24.526000000000018,1.0503413361747098
8/14/2012 19:00,24.3,17.2,65,0,24.1,100.67,Mostly Cloudy,24.339000000000006,1.1136122370198804
8/14/2012 20:00,23.3,17.8,71,6,25.0,100.68,Mostly Cloudy,23.392,1.712430565280306
8/14/2012 21:00,23.0,18.5,76,6,25.0,100.69,Cloudy,23.000999999999998,1.7272721454173066
8/14/2012 22:00,22.2,17.7,76,4,25.0,100.66,Cloudy,22.193999999999996,1.7272721454173066
8/14/2012 23:00,21.7,17.8,79,4,25.0,100.64,Cloudy,21.667999999999996,1.7357508862871274
8/15/2012 0:00,21.4,17.4,78,4,25.0,100.61,Cloudy,21.38500000000002,1.733057876440812
8/15/2012 1:00,21.2,18.0,82,20,25.0,100.65,Rain Showers,21.129000000000016,1.7434626346010758
8/15/2012 2:00,19.5,18.7,95,9,25.0,100.63,Rain,19.51199999999999,1.768832975474038
8/15/2012 3:00,19.1,18.0,93,9,25.0,100.58,Cloudy,19.11699999999997,1.7663155381997573
8/15/2012 4:00,18.8,17.7,93,4,19.3,100.56,Cloudy,18.812999999999978,1.7663155381997573
8/15/2012 5:00,18.9,17.6,92,4,24.1,100.62,Cloudy,18.926000000000013,1.764560779079539
8/15/2012 6:00,19.3,17.5,89,0,24.1,100.65,Cloudy,19.374999999999993,1.7590894054480448
8/15/2012 7:00,18.8,17.7,93,0,24.1,100.69,Drizzle,18.822999999999983,1.7663155381997573
8/15/2012 8:00,20.1,18.2,89,0,24.1,100.69,Mostly Cloudy,20.144999999999985,1.7590894054480448
8/15/2012 9:00,21.0,18.4,85,11,24.1,100.73,Mostly Cloudy,21.127000000000006,1.7507512632600475
8/15/2012 10:00,21.5,18.3,82,13,24.1,100.75,Cloudy,21.459999999999994,1.7434626346010758
8/15/2012 11:00,21.6,18.2,81,9,24.1,100.78,Mostly Cloudy,21.592999999999975,1.7408722768108806
8/15/2012 12:00,23.7,17.8,70,7,24.1,100.73,Mostly Cloudy,23.656,1.7091525423728813
8/15/2012 13:00,25.3,18.0,64,9,24.1,100.72,Mostly Cloudy,25.253,1.0754917436180753
8/15/2012 14:00,25.2,16.7,59,15,24.1,100.7,Mainly Clear,25.40299999999999,0.987994578192502
8/15/2012 15:00,25.7,17.8,62,15,24.1,100.68,Mainly Clear,25.67599999999999,1.0305025778855286
8/15/2012 16:00,25.7,16.4,56,17,24.1,100.69,Mainly Clear,25.798999999999996,0.9607879911134949
8/15/2012 17:00,25.6,15.7,54,13,24.1,100.67,Mainly Clear,25.648999999999972,0.9472289954341503
8/15/2012 18:00,24.9,16.0,58,13,24.1,100.68,Mainly Clear,24.87800000000003,0.9771086735653381
8/15/2012 19:00,22.5,16.1,67,7,24.1,100.69,Mainly Clear,22.572000000000006,1.2523873978786297
8/15/2012 20:00,21.7,16.1,70,6,25.0,100.71,Mainly Clear,21.72600000000001,1.7091525423728813
8/15/2012 21:00,20.4,15.9,75,6,25.0,100.7,Clear,20.41300000000002,1.7241591468416737
8/15/2012 22:00,19.9,16.0,78,7,25.0,100.76,Mainly Clear,19.945000000000014,1.733057876440812
8/15/2012 23:00,20.6,16.5,77,0,25.0,100.81,Mainly Clear,20.54,1.7302348458823897
8/16/2012 0:00,18.9,16.2,84,9,25.0,100.76,Clear,18.98500000000001,1.7483983249034645
8/16/2012 1:00,18.5,16.0,85,9,25.0,100.76,Mainly Clear,18.551999999999996,1.7507512632600475
8/16/2012 2:00,17.8,15.7,88,6,25.0,100.75,Mainly Clear,17.74799999999998,1.7571931537828946
8/16/2012 3:00,17.4,15.6,89,6,25.0,100.76,Mainly Clear,17.407,1.7590894054480448
8/16/2012 4:00,16.7,15.2,91,6,25.0,100.79,Mainly Clear,16.45999999999999,1.762772169746578
8/16/2012 5:00,16.6,15.3,92,0,25.0,100.81,Mainly Clear,16.44699999999999,1.764560779079539
8/16/2012 6:00,18.2,15.7,85,0,48.3,100.85,Mainly Clear,18.140000000000004,1.7507512632600475
8/16/2012 7:00,19.3,16.8,85,9,24.1,100.87,Mostly Cloudy,19.343999999999983,1.7507512632600475
8/16/2012 8:00,20.5,17.2,81,7,48.3,100.82,Mainly Clear,20.578000000000007,1.7408722768108806
8/16/2012 9:00,21.7,17.8,79,0,48.3,100.79,Mostly Cloudy,21.691000000000013,1.7357508862871274
8/16/2012 10:00,23.8,17.7,69,0,24.1,100.78,Mainly Clear,23.781000000000002,1.505906587803386
8/16/2012 11:00,23.8,17.3,67,7,24.1,100.74,Mostly Cloudy,23.796999999999997,1.2523873978786297
8/16/2012 12:00,24.9,16.7,60,6,24.1,100.71,Mostly Cloudy,24.974000000000014,0.9999888186332162
8/16/2012 13:00,25.8,17.3,59,11,24.1,100.71,Mainly Clear,25.826000000000008,0.987994578192502
8/16/2012 14:00,25.9,15.7,53,17,24.1,100.71,Mainly Clear,25.967000000000038,0.943018325394646
8/16/2012 15:00,26.9,15.6,50,13,24.1,100.63,Mainly Clear,26.825999999999993,0.9377946768181787
8/16/2012 16:00,27.0,12.6,41,7,24.1,100.54,Mainly Clear,26.819999999999986,0.9526517417795389
8/16/2012 17:00,26.4,14.7,49,9,24.1,100.53,Mainly Clear,26.190000000000012,0.9354004836162898
8/16/2012 18:00,24.9,14.4,52,7,24.1,100.49,Clear,24.839000000000024,0.9393649710689194
8/16/2012 19:00,23.7,13.8,54,4,24.1,100.5,Mainly Clear,23.537000000000006,0.9472289954341503
8/16/2012 20:00,23.5,15.3,60,6,25.0,100.52,Mainly Clear,23.56599999999999,0.9999888186332162
8/16/2012 21:00,21.6,17.4,77,6,25.0,100.5,Mainly Clear,21.580999999999985,1.7302348458823897
8/16/2012 22:00,22.0,17.5,76,4,25.0,100.48,Mainly Clear,21.767,1.7272721454173066
8/16/2012 23:00,22.3,17.6,75,9,25.0,100.48,Mainly Clear,22.232,1.7241591468416737
8/17/2012 0:00,21.9,17.0,74,7,25.0,100.51,Mainly Clear,21.78500000000001,1.7209839103698092
8/17/2012 1:00,21.1,17.3,79,11,25.0,100.47,Clear,21.08699999999997,1.7357508862871274
8/17/2012 2:00,18.9,16.5,86,4,25.0,100.44,Clear,18.894000000000016,1.7530322801745157
8/17/2012 3:00,18.7,16.3,86,0,25.0,100.37,Clear,18.69600000000002,1.7530322801745157
8/17/2012 4:00,18.2,16.1,88,11,25.0,100.32,Mainly Clear,18.389000000000014,1.7571931537828946
8/17/2012 5:00,17.6,15.3,86,7,25.0,100.3,Clear,17.60199999999998,1.7530322801745157
8/17/2012 6:00,18.2,14.9,81,11,24.1,100.28,Mostly Cloudy,18.17900000000001,1.7408722768108806
8/17/2012 7:00,19.5,16.0,80,15,24.1,100.24,Mostly Cloudy,19.486999999999977,1.7383226557949913
8/17/2012 8:00,21.1,17.3,79,17,24.1,100.21,Cloudy,21.070999999999977,1.7357508862871274
8/17/2012 9:00,21.4,17.0,76,17,24.1,100.17,Rain Showers,21.43200000000003,1.7272721454173066
8/17/2012 10:00,21.8,17.0,74,13,24.1,100.13,Cloudy,21.759999999999994,1.7209839103698092
8/17/2012 11:00,23.5,17.8,70,11,24.1,100.1,Cloudy,23.551000000000002,1.7091525423728813
8/17/2012 12:00,22.7,19.1,80,15,24.1,100.09,Rain Showers,22.696000000000012,1.7383226557949913
8/17/2012 13:00,24.1,19.2,74,20,24.1,100.06,Cloudy,24.124999999999964,1.7209839103698092
8/17/2012 14:00,24.8,18.6,68,24,24.1,100.06,Cloudy,24.842000000000002,1.3579319565140906
8/17/2012 15:00,24.9,15.8,57,30,24.1,100.11,Mostly Cloudy,24.873000000000033,0.9684584060262452
8/17/2012 16:00,24.3,14.6,55,28,24.1,100.14,Mostly Cloudy,24.288000000000007,0.9531525027978544
8/17/2012 17:00,24.8,15.7,57,30,24.1,100.15,Mostly Cloudy,24.784000000000006,0.9684584060262452
8/17/2012 18:00,23.9,16.1,62,24,48.3,100.19,Mostly Cloudy,23.94200000000002,1.0305025778855286
8/17/2012 19:00,23.4,16.3,64,17,48.3,100.24,Mainly Clear,23.442999999999984,1.0754917436180753
8/17/2012 20:00,22.4,15.8,66,13,25.0,100.34,Mainly Clear,22.522000000000016,1.1750318113220146
8/17/2012 21:00,21.7,14.9,65,9,25.0,100.37,Mainly Clear,21.932999999999982,1.1136122370198804
8/17/2012 22:00,21.1,14.2,65,13,25.0,100.4,Mainly Clear,21.003,1.1136122370198804
8/17/2012 23:00,18.6,13.0,70,13,25.0,100.44,Mainly Clear,18.60199999999998,1.7091525423728813
8/18/2012 0:00,18.1,11.3,64,11,25.0,100.47,Mainly Clear,18.142000000000014,1.0754917436180753
8/18/2012 1:00,17.7,11.3,66,9,25.0,100.51,Clear,17.57700000000002,1.1750318113220146
8/18/2012 2:00,15.3,11.1,76,7,25.0,100.52,Mainly Clear,15.125,1.7272721454173066
8/18/2012 3:00,15.7,11.2,75,7,25.0,100.54,Mainly Clear,15.689000000000016,1.7241591468416737
8/18/2012 4:00,14.8,10.9,77,11,25.0,100.57,Mainly Clear,14.836999999999982,1.7302348458823897
8/18/2012 5:00,14.8,11.1,78,13,24.1,100.64,Mainly Clear,14.907000000000004,1.733057876440812
8/18/2012 6:00,15.1,12.0,82,17,48.3,100.69,Mainly Clear,15.105999999999993,1.7434626346010758
8/18/2012 7:00,15.6,12.2,80,20,48.3,100.77,Mainly Clear,15.605999999999987,1.7383226557949913
8/18/2012 8:00,17.1,12.6,75,17,48.3,100.79,Mainly Clear,17.099999999999987,1.7241591468416737
8/18/2012 9:00,18.0,11.7,67,19,24.1,100.82,Mainly Clear,18.048,1.2523873978786297
8/18/2012 10:00,18.3,11.6,65,17,24.1,100.83,Mostly Cloudy,18.27299999999998,1.1136122370198804
8/18/2012 11:00,19.0,10.9,59,19,48.3,100.84,Mostly Cloudy,19.038000000000007,1.00666082058293
8/18/2012 12:00,21.0,11.2,53,22,48.3,100.83,Mainly Clear,21.104000000000013,0.9555820898046208
8/18/2012 13:00,21.2,10.4,50,20,48.3,100.85,Mainly Clear,21.174000000000014,0.947535823866129
8/18/2012 14:00,20.1,10.2,53,17,48.3,100.81,Mainly Clear,20.128999999999973,0.9631287249149139
8/18/2012 15:00,22.0,9.3,44,20,48.3,100.79,Mainly Clear,21.973000000000003,0.9434258270328473
8/18/2012 16:00,21.3,7.8,42,22,48.3,100.78,Mostly Cloudy,21.313999999999997,0.949155270668292
8/18/2012 17:00,21.3,8.1,43,13,48.3,100.78,Mostly Cloudy,21.28699999999998,0.9467445260611921
8/18/2012 18:00,20.8,6.9,40,15,48.3,100.8,Mostly Cloudy,20.829999999999988,0.9557861893691004
8/18/2012 19:00,18.4,7.6,49,11,48.3,100.83,Mainly Clear,18.46700000000002,0.9823300186970096
8/18/2012 20:00,18.6,7.9,50,7,25.0,100.88,Clear,18.580999999999985,0.9792967241043586
8/18/2012 21:00,15.9,8.6,62,6,25.0,100.88,Clear,15.931000000000017,1.2805943954323218
8/18/2012 22:00,15.2,8.9,66,6,25.0,100.89,Mainly Clear,15.221000000000014,1.5852076180176493
8/18/2012 23:00,16.6,10.2,66,0,25.0,100.91,Clear,16.54899999999999,1.230762920428821
8/19/2012 0:00,16.0,11.5,75,9,25.0,100.96,Clear,16.01,1.7241591468416737
8/19/2012 1:00,16.6,9.9,65,13,25.0,100.98,Clear,16.574999999999978,1.2116208050721442
8/19/2012 2:00,16.3,11.2,72,13,25.0,100.96,Clear,16.272999999999982,1.7154802667147235
8/19/2012 3:00,15.8,11.2,74,11,25.0,100.94,Clear,15.81399999999999,1.7209839103698092
8/19/2012 4:00,13.3,10.9,85,7,25.0,100.94,Clear,13.302999999999983,1.7507512632600475
8/19/2012 5:00,12.8,11.0,89,9,24.1,100.97,Mainly Clear,12.748999999999988,1.7590894054480448
8/19/2012 6:00,15.2,12.2,82,15,48.3,101.02,Mainly Clear,15.229000000000012,1.7434626346010758
8/19/2012 7:00,16.5,12.6,78,13,48.3,101.06,Mainly Clear,16.579999999999995,1.733057876440812
8/19/2012 8:00,17.5,13.3,76,15,48.3,101.06,Clear,17.61000000000001,1.7272721454173066
8/19/2012 9:00,19.4,14.3,72,11,48.3,101.06,Mainly Clear,19.458000000000023,1.7154802667147235
8/19/2012 10:00,20.6,14.5,68,9,48.3,101.02,Mainly Clear,20.57899999999998,1.3579319565140906
8/19/2012 11:00,22.5,13.8,58,15,48.3,101.0,Mainly Clear,22.461,0.9771086735653381
8/19/2012 12:00,23.3,12.7,51,15,48.3,100.93,Mostly Cloudy,23.262000000000004,0.9396662632148238
8/19/2012 13:00,23.3,11.3,47,13,48.3,100.9,Mostly Cloudy,23.375,0.9370463625270096
8/19/2012 14:00,24.5,10.6,42,15,48.3,100.84,Mostly Cloudy,24.416999999999998,0.949155270668292
8/19/2012 15:00,23.5,11.3,46,17,48.3,100.77,Mostly Cloudy,23.464000000000006,0.9384328601022601
8/19/2012 16:00,23.5,11.0,45,13,48.3,100.74,Cloudy,23.4,0.9403088027499734
8/19/2012 17:00,23.7,10.6,44,13,48.3,100.73,Mostly Cloudy,23.620000000000008,0.9432590533134183
8/19/2012 18:00,22.1,12.3,54,9,48.3,100.74,Mostly Cloudy,22.001999999999974,0.9524796773652044
8/19/2012 19:00,20.7,11.7,56,11,48.3,100.75,Mostly Cloudy,20.792000000000012,0.970158013540486
8/19/2012 20:00,19.5,12.1,62,6,25.0,100.83,Mainly Clear,19.572999999999986,1.0305025778855286
8/19/2012 21:00,16.7,12.2,75,4,25.0,100.81,Mainly Clear,16.652000000000008,1.7241591468416737
8/19/2012 22:00,17.6,11.6,68,0,25.0,100.79,Clear,17.613999999999987,1.3579319565140906
8/19/2012 23:00,16.8,11.6,71,0,25.0,100.78,Mainly Clear,16.81399999999997,1.712430565280306
8/20/2012 0:00,15.4,11.9,80,0,25.0,100.79,Mainly Clear,15.304000000000022,1.7383226557949913
8/20/2012 1:00,16.5,13.6,83,0,25.0,100.75,Mainly Clear,16.441,1.7459700090483987
8/20/2012 2:00,15.3,13.5,89,0,25.0,100.75,Clear,15.652000000000017,1.7590894054480448
8/20/2012 3:00,15.6,13.3,86,0,25.0,100.75,Mainly Clear,15.693999999999985,1.7530322801745157
8/20/2012 4:00,15.3,13.2,87,0,25.0,100.72,Mainly Clear,15.323999999999986,1.755244623603565
8/20/2012 5:00,14.5,13.4,93,0,25.0,100.72,Mainly Clear,14.845000000000004,1.7663155381997573
8/20/2012 6:00,16.0,12.8,81,6,48.3,100.76,Mainly Clear,16.040999999999997,1.7408722768108806
8/20/2012 7:00,17.8,13.6,76,7,48.3,100.77,Mainly Clear,17.867999999999984,1.7272721454173066
8/20/2012 8:00,19.0,14.4,75,11,48.3,100.76,Mainly Clear,18.979,1.7241591468416737
8/20/2012 9:00,20.2,13.9,67,11,48.3,100.78,Clear,20.127000000000024,1.2523873978786297
8/20/2012 10:00,21.6,14.2,63,17,48.3,100.77,Mostly Cloudy,21.588999999999977,1.0503413361747098
8/20/2012 11:00,23.1,15.7,63,13,48.3,100.74,Mainly Clear,23.07799999999997,1.0503413361747098
8/20/2012 12:00,24.8,13.5,49,17,24.1,100.69,Mainly Clear,24.794000000000004,0.9343319325939168
8/20/2012 13:00,24.6,13.2,49,17,24.1,100.64,Mainly Clear,24.494999999999976,0.9343386831338694
8/20/2012 14:00,25.2,11.7,43,11,24.1,100.62,Mainly Clear,25.197000000000003,0.945948721343493
8/20/2012 15:00,24.6,10.5,41,15,24.1,100.6,Mainly Clear,24.77299999999998,0.9526517417795389
8/20/2012 16:00,24.4,10.4,41,13,24.1,100.56,Clear,24.68199999999998,0.9526517417795389
8/20/2012 17:00,23.8,10.6,43,13,24.1,100.57,Mainly Clear,23.831999999999997,0.945948721343493
8/20/2012 18:00,22.5,10.0,45,17,24.1,100.64,Mainly Clear,22.436999999999998,0.9406402702230987
8/20/2012 19:00,20.1,9.0,49,9,24.1,100.69,Mainly Clear,19.88500000000001,0.9575091377278947
8/20/2012 20:00,18.4,9.4,56,9,25.0,100.75,Clear,18.364000000000022,0.997791604088713
8/20/2012 21:00,18.2,9.9,58,7,25.0,100.77,Mainly Clear,18.392000000000003,1.0101946897953793
8/20/2012 22:00,18.5,10.0,58,7,25.0,100.78,Mainly Clear,18.491,1.0078244787732646
8/20/2012 23:00,16.6,10.8,69,6,25.0,100.8,Mainly Clear,16.561999999999976,1.505906587803386
8/21/2012 0:00,16.5,10.4,67,4,25.0,100.82,Mainly Clear,16.541000000000007,1.2523873978786297
8/21/2012 1:00,15.0,10.8,76,4,25.0,100.85,Mainly Clear,14.855,1.7272721454173066
8/21/2012 2:00,15.9,11.0,73,0,25.0,100.9,Mostly Cloudy,15.940999999999997,1.718324698506683
8/21/2012 3:00,15.9,11.3,74,0,25.0,100.92,Mostly Cloudy,15.941000000000004,1.7209839103698092
8/21/2012 4:00,16.1,11.0,72,6,25.0,100.93,Mainly Clear,16.08599999999998,1.7154802667147235
8/21/2012 5:00,15.0,10.3,73,0,24.1,100.99,Mainly Clear,15.122000000000007,1.718324698506683
8/21/2012 6:00,14.6,10.9,78,7,48.3,101.02,Mainly Clear,14.657999999999994,1.733057876440812
8/21/2012 7:00,17.2,12.6,74,6,48.3,101.08,Mainly Clear,17.255000000000017,1.7209839103698092
8/21/2012 8:00,19.3,11.8,62,7,48.3,101.12,Mostly Cloudy,19.306999999999974,1.0305025778855286
8/21/2012 9:00,20.4,9.1,48,13,48.3,101.15,Mostly Cloudy,20.310000000000016,0.9538091610806432
8/21/2012 10:00,21.8,10.9,50,13,48.3,101.18,Mainly Clear,21.777999999999977,0.9446482458561533
8/21/2012 11:00,21.1,9.6,48,11,48.3,101.17,Mainly Clear,21.114999999999974,0.9480789861592466
8/21/2012 12:00,23.7,10.4,43,17,48.3,101.19,Mainly Clear,23.645999999999994,0.945948721343493
8/21/2012 13:00,23.2,10.3,44,22,48.3,101.19,Mostly Cloudy,23.177000000000017,0.9432590533134183
8/21/2012 14:00,22.6,10.9,48,15,48.3,101.18,Mostly Cloudy,22.58799999999998,0.9399816015694802
8/21/2012 15:00,23.4,11.4,47,19,48.3,101.15,Mostly Cloudy,23.42900000000002,0.9368183642621105
8/21/2012 16:00,23.1,11.9,49,17,48.3,101.14,Mostly Cloudy,23.09599999999997,0.9380796162286501
8/21/2012 17:00,22.6,10.9,48,19,48.3,101.17,Mostly Cloudy,22.598999999999975,0.939939547171415
8/21/2012 18:00,22.4,10.8,48,13,48.3,101.18,Mostly Cloudy,22.43400000000002,0.9406577466748978
8/21/2012 19:00,22.1,11.7,52,7,48.3,101.21,Mostly Cloudy,22.121999999999975,0.9471164413892411
8/21/2012 20:00,21.5,10.7,50,6,25.0,101.25,Mainly Clear,21.48999999999999,0.9459854763780108
8/21/2012 21:00,19.2,12.9,67,20,24.1,101.36,Mostly Cloudy,19.15600000000002,1.2523873978786297
8/21/2012 22:00,18.5,13.3,72,6,25.0,101.33,Mostly Cloudy,18.480999999999998,1.7154802667147235
8/21/2012 23:00,18.1,13.6,75,4,25.0,101.34,Mostly Cloudy,18.107999999999986,1.7241591468416737
8/22/2012 0:00,19.0,14.6,76,13,25.0,101.34,Mostly Cloudy,18.959999999999994,1.7272721454173066
8/22/2012 1:00,18.6,14.7,78,15,25.0,101.33,Rain Showers,18.74699999999998,1.733057876440812
8/22/2012 2:00,18.8,13.8,73,11,25.0,101.35,Mostly Cloudy,18.779999999999987,1.718324698506683
8/22/2012 3:00,18.8,12.0,65,13,25.0,101.38,Cloudy,18.74699999999998,1.1136122370198804
8/22/2012 4:00,18.6,12.1,66,9,25.0,101.39,Cloudy,18.63799999999997,1.1750318113220146
8/22/2012 5:00,18.0,12.4,70,7,48.3,101.41,Mainly Clear,17.81799999999999,1.7091525423728813
8/22/2012 6:00,17.6,12.6,72,6,48.3,101.45,Mainly Clear,17.642999999999983,1.7154802667147235
8/22/2012 7:00,18.9,12.1,65,15,48.3,101.46,Mainly Clear,18.856000000000012,1.1136122370198804
8/22/2012 8:00,19.9,11.7,59,15,48.3,101.48,Mainly Clear,19.955000000000023,0.993603391018418
8/22/2012 9:00,21.1,12.9,59,15,48.3,101.5,Mostly Cloudy,21.10899999999997,0.987994578192502
8/22/2012 10:00,22.0,14.1,61,17,48.3,101.5,Mainly Clear,21.992000000000004,1.0147471754365818
8/22/2012 11:00,23.2,13.9,56,24,48.3,101.46,Mainly Clear,23.420000000000027,0.9607879911134949
8/22/2012 12:00,24.4,12.9,49,24,48.3,101.44,Mainly Clear,24.221000000000025,0.9347096529072247
8/22/2012 13:00,25.8,12.8,44,24,48.3,101.39,Mainly Clear,25.987999999999996,0.9432590533134183
8/22/2012 14:00,25.5,11.5,42,19,48.3,101.35,Mainly Clear,25.45000000000001,0.949155270668292
8/22/2012 15:00,25.7,10.9,39,20,48.3,101.33,Clear,25.654999999999987,0.9601509387055865
8/22/2012 16:00,25.6,10.6,39,28,48.3,101.28,Mainly Clear,25.50799999999997,0.9601509387055865
8/22/2012 17:00,25.4,10.9,40,15,48.3,101.27,Mainly Clear,25.38800000000002,0.9557861893691004
8/22/2012 18:00,25.1,10.5,40,11,48.3,101.24,Mainly Clear,25.04899999999999,0.9557861893691004
8/22/2012 19:00,23.9,12.7,49,9,48.3,101.25,Mainly Clear,23.94100000000003,0.9351738099512313
8/22/2012 20:00,23.3,14.6,58,13,25.0,101.28,Mainly Clear,23.27500000000001,0.9771086735653381
8/22/2012 21:00,22.5,14.2,59,15,25.0,101.29,Clear,22.509,0.987994578192502
8/22/2012 22:00,21.9,14.0,61,17,25.0,101.27,Mainly Clear,21.921000000000035,1.0147471754365818
8/22/2012 23:00,21.5,12.7,57,19,25.0,101.26,Mainly Clear,21.52699999999999,0.9684584060262452
8/23/2012 0:00,20.7,12.0,57,11,24.1,101.29,Mainly Clear,20.866000000000028,0.9741239860893329
8/23/2012 1:00,20.2,12.9,63,13,25.0,101.29,Mainly Clear,20.168000000000013,1.0503413361747098
8/23/2012 2:00,19.3,13.0,67,13,25.0,101.32,Mostly Cloudy,19.330999999999975,1.2523873978786297
8/23/2012 3:00,18.9,12.8,68,13,25.0,101.31,Mainly Clear,18.654999999999987,1.3579319565140906
8/23/2012 4:00,18.9,13.5,71,15,25.0,101.31,Mainly Clear,19.020000000000017,1.712430565280306
8/23/2012 5:00,18.5,14.3,77,15,25.0,101.33,Mainly Clear,18.537999999999997,1.7302348458823897
8/23/2012 6:00,19.1,15.2,78,24,24.1,101.36,Mainly Clear,19.131999999999987,1.733057876440812
8/23/2012 7:00,20.3,15.9,76,19,24.1,101.37,Clear,20.31500000000001,1.7272721454173066
8/23/2012 8:00,21.8,15.8,69,22,24.1,101.37,Mainly Clear,21.747999999999983,1.505906587803386
8/23/2012 9:00,22.9,16.8,69,24,48.3,101.39,Mainly Clear,22.811000000000025,1.505906587803386
8/23/2012 10:00,23.9,15.1,58,22,48.3,101.39,Mainly Clear,23.764000000000014,0.9771086735653381
8/23/2012 11:00,26.0,16.0,54,24,48.3,101.37,Mainly Clear,25.994,0.9472289954341503
8/23/2012 12:00,26.5,15.5,51,28,48.3,101.36,Mostly Cloudy,26.549,0.9389036017313703
8/23/2012 13:00,27.0,15.6,50,26,48.3,101.37,Mostly Cloudy,26.87699999999999,0.9379807742847159
8/23/2012 14:00,25.0,15.4,55,13,24.1,101.37,Rain Showers,25.014,0.9531525027978544
8/23/2012 15:00,25.8,16.2,55,19,48.3,101.35,Mostly Cloudy,25.903000000000006,0.9531525027978544
8/23/2012 16:00,25.6,15.5,54,22,48.3,101.34,Mainly Clear,25.530999999999977,0.9472289954341503
8/23/2012 17:00,25.9,15.7,53,17,48.3,101.33,Mainly Clear,25.993000000000034,0.943018325394646
8/23/2012 18:00,25.0,16.0,57,11,48.3,101.34,Mainly Clear,25.053,0.9684584060262452
8/23/2012 19:00,22.6,15.8,65,9,25.0,101.36,Mainly Clear,22.873,1.1136122370198804
8/23/2012 20:00,21.8,16.1,70,7,25.0,101.41,Clear,21.778999999999986,1.7091525423728813
8/23/2012 21:00,22.9,16.6,68,7,25.0,101.47,Mainly Clear,22.83300000000002,1.3579319565140906
8/23/2012 22:00,20.5,16.3,77,6,25.0,101.53,Mostly Cloudy,20.468999999999998,1.7302348458823897
8/23/2012 23:00,21.8,16.7,73,6,25.0,101.55,Mainly Clear,21.77199999999998,1.718324698506683
8/24/2012 0:00,19.1,16.2,83,4,25.0,101.59,Mainly Clear,19.158999999999967,1.7459700090483987
8/24/2012 1:00,19.2,15.6,80,13,25.0,101.62,Mainly Clear,19.14300000000002,1.7383226557949913
8/24/2012 2:00,20.4,12.4,60,9,25.0,101.63,Mostly Cloudy,20.429000000000016,0.9999888186332162
8/24/2012 3:00,19.6,12.4,63,13,25.0,101.64,Mainly Clear,19.61499999999998,1.0503413361747098
8/24/2012 4:00,19.0,12.6,66,13,25.0,101.65,Mainly Clear,19.03499999999999,1.1750318113220146
8/24/2012 5:00,16.4,13.7,84,6,48.3,101.72,Mainly Clear,16.40800000000002,1.7483983249034645
8/24/2012 6:00,16.6,12.9,79,11,48.3,101.76,Mainly Clear,16.535999999999987,1.7357508862871274
8/24/2012 7:00,18.5,12.4,68,11,24.1,101.78,Mainly Clear,18.390000000000004,1.3579319565140906
8/24/2012 8:00,20.7,13.0,61,7,24.1,101.8,Clear,20.947999999999993,1.0147471754365818
8/24/2012 9:00,22.1,13.1,57,9,48.3,101.81,Mainly Clear,22.064999999999973,0.9684584060262452
8/24/2012 10:00,24.2,13.3,51,13,48.3,101.84,Mainly Clear,24.029000000000025,0.9371718209586777
8/24/2012 11:00,25.4,13.4,47,0,48.3,101.82,Mainly Clear,25.54500000000002,0.9365197406993433
8/24/2012 12:00,26.5,13.9,46,6,48.3,101.8,Mainly Clear,26.273000000000003,0.9384328601022601
8/24/2012 13:00,27.3,14.2,45,4,48.3,101.77,Mainly Clear,27.347000000000016,0.9403088027499734
8/24/2012 14:00,27.7,13.5,42,11,48.3,101.71,Mainly Clear,27.646999999999984,0.949155270668292
8/24/2012 15:00,27.7,12.5,39,9,48.3,101.69,Mainly Clear,27.487000000000002,0.9601509387055865
8/24/2012 16:00,27.9,13.3,41,11,48.3,101.68,Mainly Clear,27.686000000000018,0.9526517417795389
8/24/2012 17:00,27.3,13.7,43,6,48.3,101.7,Mainly Clear,27.35100000000002,0.945948721343493
8/24/2012 18:00,25.8,14.2,49,6,24.1,101.71,Mainly Clear,25.68100000000002,0.9345767351701137
8/24/2012 19:00,26.1,13.4,45,11,25.0,101.73,Mostly Cloudy,26.42399999999999,0.9403088027499734
8/24/2012 20:00,25.9,13.1,45,13,25.0,101.76,Mostly Cloudy,26.301999999999992,0.9403088027499734
8/24/2012 21:00,24.9,13.3,48,7,25.0,101.77,Mainly Clear,25.02200000000003,0.9350721128271431
8/24/2012 22:00,23.0,14.3,58,11,25.0,101.77,Mainly Clear,22.972,0.9771086735653381
8/24/2012 23:00,22.4,13.8,58,13,25.0,101.79,Mainly Clear,22.44100000000003,0.9771086735653381
8/25/2012 0:00,22.1,13.9,60,9,25.0,101.8,Mostly Cloudy,22.015999999999973,0.9999888186332162
8/25/2012 1:00,21.6,14.0,62,11,25.0,101.77,Mainly Clear,21.661999999999974,1.0305025778855286
8/25/2012 2:00,20.9,13.7,63,6,25.0,101.8,Mainly Clear,21.029000000000018,1.0503413361747098
8/25/2012 3:00,20.9,14.0,65,6,25.0,101.8,Mainly Clear,20.881000000000025,1.1136122370198804
8/25/2012 4:00,20.8,14.3,66,11,25.0,101.81,Mainly Clear,20.83299999999998,1.1750318113220146
8/25/2012 5:00,20.4,14.6,69,4,24.1,101.88,Mainly Clear,20.421000000000028,1.505906587803386
8/25/2012 6:00,20.2,15.1,72,6,24.1,101.93,Mainly Clear,20.264000000000024,1.7154802667147235
8/25/2012 7:00,21.5,15.9,70,6,24.1,101.96,Mainly Clear,21.580999999999996,1.7091525423728813
8/25/2012 8:00,21.9,16.4,71,4,24.1,101.96,Mainly Clear,21.89900000000003,1.712430565280306
8/25/2012 9:00,24.8,16.7,61,6,48.3,101.97,Mainly Clear,24.785999999999998,1.0147471754365818
8/25/2012 10:00,26.4,16.6,55,7,48.3,101.97,Clear,26.325000000000014,0.9531525027978544
8/25/2012 11:00,27.1,17.0,54,7,48.3,101.94,Mainly Clear,27.07999999999997,0.9475523224846081
8/25/2012 12:00,29.1,17.3,49,7,48.3,101.92,Mainly Clear,29.012999999999973,0.9492784255168529
8/25/2012 13:00,30.1,16.7,45,11,48.3,101.84,Clear,29.95699999999995,0.9555243791745014
8/25/2012 14:00,30.8,15.7,40,7,48.3,101.79,Mainly Clear,30.559000000000022,0.9582149282606399
8/25/2012 15:00,31.1,15.2,38,9,48.3,101.75,Mainly Clear,30.86399999999996,0.9597151205388185
8/25/2012 16:00,31.1,16.6,42,13,48.3,101.74,Mainly Clear,30.84499999999996,0.9595301491724398
8/25/2012 17:00,30.2,17.1,45,11,48.3,101.72,Mainly Clear,30.073999999999966,0.9560447306311852
8/25/2012 18:00,28.9,16.5,47,13,48.3,101.74,Mainly Clear,29.153999999999986,0.9506341038466771
8/25/2012 19:00,27.0,16.3,52,9,25.0,101.76,Mainly Clear,27.065000000000012,0.9431009837922683
8/25/2012 20:00,26.5,16.6,55,13,25.0,101.78,Mainly Clear,26.32400000000001,0.9531525027978544
8/25/2012 21:00,25.3,17.1,60,11,25.0,101.76,Clear,25.252000000000002,0.9999888186332162
8/25/2012 22:00,23.9,17.3,67,9,25.0,101.8,Clear,23.819000000000027,1.2523873978786297
8/25/2012 23:00,24.0,18.0,69,9,25.0,101.83,Clear,23.991999999999994,1.505906587803386
8/26/2012 0:00,22.1,18.0,78,11,25.0,101.85,Clear,22.040999999999976,1.733057876440812
8/26/2012 1:00,22.4,18.4,78,6,25.0,101.89,Clear,22.402000000000033,1.733057876440812
8/26/2012 2:00,23.4,16.9,67,7,25.0,101.9,Clear,23.39200000000003,1.2523873978786297
8/26/2012 3:00,23.5,16.9,66,15,25.0,101.91,Clear,23.53800000000001,1.1750318113220146
8/26/2012 4:00,23.2,16.9,68,7,25.0,101.95,Clear,23.025000000000013,1.3579319565140906
8/26/2012 5:00,21.2,16.9,76,6,24.1,102.02,Clear,21.257000000000012,1.7272721454173066
8/26/2012 6:00,20.9,17.2,79,0,24.1,102.06,Clear,20.89700000000003,1.7357508862871274
8/26/2012 7:00,22.9,17.1,70,9,24.1,102.1,Clear,22.916000000000025,1.7091525423728813
8/26/2012 8:00,24.2,17.3,65,15,24.1,102.09,Mainly Clear,24.264,1.1136122370198804
8/26/2012 9:00,24.7,17.5,64,11,24.1,102.08,Mainly Clear,24.654000000000007,1.0754917436180753
8/26/2012 10:00,26.3,17.7,59,15,48.3,102.07,Mainly Clear,26.395000000000014,0.987994578192502
8/26/2012 11:00,27.9,17.4,53,20,48.3,102.04,Mainly Clear,27.836000000000016,0.9491319515832989
8/26/2012 12:00,28.9,17.1,49,17,48.3,101.99,Mainly Clear,28.834000000000024,0.9476091201605104
8/26/2012 13:00,29.7,16.7,46,13,48.3,101.92,Mainly Clear,29.714999999999964,0.9539652523446774
8/26/2012 14:00,30.2,15.5,41,17,48.3,101.81,Mainly Clear,30.104999999999972,0.9561743520583772
8/26/2012 15:00,30.1,15.7,42,13,48.3,101.76,Mainly Clear,30.02299999999996,0.9558339775504691
8/26/2012 16:00,30.4,16.1,42,11,48.3,101.68,Mainly Clear,30.22200000000003,0.9566742014429397
8/26/2012 17:00,29.5,16.8,46,4,48.3,101.62,Mainly Clear,29.839999999999964,0.9547594924162072
8/26/2012 18:00,28.5,15.2,44,11,48.3,101.56,Mainly Clear,28.36599999999999,0.9454618124695761
8/26/2012 19:00,27.2,14.9,47,15,25.0,101.55,Mainly Clear,27.162999999999982,0.9390391728692012
8/26/2012 20:00,25.7,15.8,54,11,25.0,101.56,Mainly Clear,25.760999999999996,0.9472289954341503
8/26/2012 21:00,24.8,16.1,58,9,25.0,101.55,Mostly Cloudy,24.957000000000008,0.9771086735653381
8/26/2012 22:00,23.9,16.9,65,15,25.0,101.52,Mostly Cloudy,23.856000000000027,1.1136122370198804
8/26/2012 23:00,24.3,17.5,66,15,25.0,101.51,Mostly Cloudy,24.189000000000007,1.1750318113220146
8/27/2012 0:00,24.3,16.9,63,15,25.0,101.49,Mostly Cloudy,24.333999999999996,1.0503413361747098
8/27/2012 1:00,23.2,17.0,68,11,25.0,101.44,Mainly Clear,23.140000000000015,1.3579319565140906
8/27/2012 2:00,22.3,16.2,68,11,25.0,101.43,Mostly Cloudy,22.323999999999987,1.3579319565140906
8/27/2012 3:00,21.8,15.9,69,11,25.0,101.4,Mostly Cloudy,21.79699999999999,1.505906587803386
8/27/2012 4:00,22.4,15.8,66,13,25.0,101.37,Mostly Cloudy,22.502000000000024,1.1750318113220146
8/27/2012 5:00,21.4,15.7,70,15,24.1,101.36,Mostly Cloudy,21.494000000000007,1.7091525423728813
8/27/2012 6:00,22.0,16.4,71,13,24.1,101.38,Mostly Cloudy,21.948,1.712430565280306
8/27/2012 7:00,23.1,16.9,68,13,24.1,101.36,Mostly Cloudy,23.062000000000015,1.3579319565140906
8/27/2012 8:00,24.7,16.7,61,17,24.1,101.33,Mostly Cloudy,24.738999999999987,1.0147471754365818
8/27/2012 9:00,25.6,17.5,61,19,48.3,101.31,Mostly Cloudy,25.583999999999964,1.0147471754365818
8/27/2012 10:00,26.0,17.9,61,22,48.3,101.25,Mostly Cloudy,26.027,1.0147471754365818
8/27/2012 11:00,26.2,18.0,61,17,24.1,101.19,Cloudy,26.122999999999983,1.0147471754365818
8/27/2012 12:00,27.1,18.4,59,20,24.1,101.11,Cloudy,27.096000000000007,0.987994578192502
8/27/2012 13:00,26.7,18.4,60,20,24.1,101.03,Cloudy,26.681999999999988,0.9999888186332162
8/27/2012 14:00,26.4,18.2,61,17,24.1,100.95,Cloudy,26.326000000000022,1.0147471754365818
8/27/2012 15:00,26.0,18.2,62,15,24.1,100.87,Rain Showers,25.990000000000006,1.0305025778855286
8/27/2012 16:00,23.6,20.2,81,13,24.1,100.83,Rain Showers,23.57199999999997,1.7408722768108806
8/27/2012 17:00,22.4,20.5,89,13,24.1,100.84,Rain Showers,22.474000000000018,1.7590894054480448
8/27/2012 18:00,22.8,20.3,86,7,25.0,100.78,Cloudy,22.755999999999986,1.7530322801745157
8/27/2012 19:00,22.6,20.4,87,7,25.0,100.71,Cloudy,22.65899999999998,1.755244623603565
8/27/2012 20:00,22.8,20.1,85,13,25.0,100.68,Mostly Cloudy,22.811999999999998,1.7507512632600475
8/27/2012 21:00,21.8,20.6,93,11,25.0,100.66,Mostly Cloudy,21.869999999999983,1.7663155381997573
8/27/2012 22:00,22.3,20.2,88,15,25.0,100.63,Mostly Cloudy,22.37799999999999,1.7571931537828946
8/27/2012 23:00,22.5,19.1,81,22,25.0,100.59,Mostly Cloudy,22.514999999999997,1.7408722768108806
8/28/2012 0:00,21.8,19.1,85,26,25.0,100.53,Cloudy,21.747999999999983,1.7507512632600475
8/28/2012 1:00,21.5,19.2,87,15,25.0,100.49,Cloudy,21.504,1.755244623603565
8/28/2012 2:00,21.3,19.3,88,15,25.0,100.46,Cloudy,21.441999999999997,1.7571931537828946
8/28/2012 3:00,21.1,19.3,89,13,25.0,100.44,Mostly Cloudy,21.131999999999977,1.7590894054480448
8/28/2012 4:00,20.9,19.3,91,11,25.0,100.42,Mainly Clear,20.884000000000015,1.762772169746578
8/28/2012 5:00,20.0,19.0,94,13,16.1,100.47,Mostly Cloudy,19.991,1.7677471105115399
8/28/2012 6:00,20.3,19.3,94,15,19.3,100.5,Mostly Cloudy,20.29999999999999,1.7677471105115399
8/28/2012 7:00,21.4,19.5,89,15,19.3,100.53,Mostly Cloudy,21.307000000000013,1.7590894054480448
8/28/2012 8:00,21.3,18.9,86,15,19.3,100.57,Cloudy,21.319999999999997,1.7530322801745157
8/28/2012 9:00,22.7,16.7,69,24,48.3,100.59,Mainly Clear,22.692000000000007,1.505906587803386
8/28/2012 10:00,23.8,15.5,60,15,48.3,100.61,Mainly Clear,23.814,0.9999888186332162
8/28/2012 11:00,22.6,15.1,63,13,48.3,100.6,Mostly Cloudy,22.559999999999977,1.0503413361747098
8/28/2012 12:00,25.2,13.9,50,22,48.3,100.6,Mainly Clear,25.028999999999993,0.933699059430634
8/28/2012 13:00,25.4,12.1,44,30,48.3,100.61,Mainly Clear,25.22900000000004,0.9432590533134183
8/28/2012 14:00,24.2,10.0,41,30,48.3,100.61,Mainly Clear,24.158,0.9526517417795389
8/28/2012 15:00,23.2,8.8,40,28,48.3,100.65,Mainly Clear,23.408,0.9557861893691004
8/28/2012 16:00,22.4,8.7,42,24,48.3,100.71,Mainly Clear,22.370000000000022,0.949155270668292
8/28/2012 17:00,21.5,7.7,41,22,48.3,100.76,Mainly Clear,21.657000000000004,0.9526517417795389
8/28/2012 18:00,20.0,7.3,44,20,48.3,100.79,Mainly Clear,19.889999999999997,0.957431012644852
8/28/2012 19:00,19.3,7.4,46,17,25.0,100.87,Mostly Cloudy,19.287999999999982,0.9677104764434331
8/28/2012 20:00,16.9,6.9,52,15,25.0,100.97,Mainly Clear,16.881000000000018,1.0461951494596344
8/28/2012 21:00,14.9,7.1,60,7,25.0,101.01,Mainly Clear,14.855999999999993,1.6850890156158873
8/28/2012 22:00,13.9,7.4,65,9,25.0,101.01,Mainly Clear,13.859999999999998,1.69406736827985
8/28/2012 23:00,14.1,8.7,70,7,25.0,101.05,Mostly Cloudy,14.122999999999992,1.7091525423728813
8/29/2012 0:00,12.0,8.2,78,7,25.0,101.06,Clear,12.011999999999999,1.733057876440812
8/29/2012 1:00,11.5,8.0,79,9,25.0,101.07,Mostly Cloudy,11.657999999999994,1.7357508862871274
8/29/2012 2:00,13.4,8.6,73,11,25.0,101.08,Mostly Cloudy,13.358999999999991,1.718324698506683
8/29/2012 3:00,11.0,7.7,80,9,25.0,101.06,Clear,11.062999999999997,1.7383226557949913
8/29/2012 4:00,10.5,7.6,82,7,25.0,101.06,Clear,10.493999999999998,1.7434626346010758
8/29/2012 5:00,10.5,7.9,84,7,48.3,101.07,Clear,10.475,1.7483983249034645
8/29/2012 6:00,12.0,8.9,81,9,48.3,101.1,Clear,11.975999999999999,1.7408722768108806
8/29/2012 7:00,16.0,8.1,59,19,48.3,101.13,Clear,16.053999999999995,1.201980881764985
8/29/2012 8:00,18.0,7.4,50,20,48.3,101.13,Clear,17.918,0.9980355011502499
8/29/2012 9:00,19.6,7.9,47,22,48.3,101.11,Clear,19.547999999999977,0.963043914475027
8/29/2012 10:00,20.7,8.1,44,20,48.3,101.09,Clear,20.981000000000005,0.9493353694577121
8/29/2012 11:00,21.9,8.5,42,22,48.3,101.07,Clear,21.861000000000036,0.949155270668292
8/29/2012 12:00,22.6,8.2,40,26,48.3,101.01,Mainly Clear,22.42199999999998,0.9557861893691004
8/29/2012 13:00,23.5,7.9,37,32,48.3,100.98,Clear,23.553999999999995,0.9681708609999456
8/29/2012 14:00,24.7,8.3,35,20,48.3,100.92,Clear,24.508000000000006,0.9763179605360829
8/29/2012 15:00,24.2,8.0,36,32,48.3,100.87,Mainly Clear,24.023999999999997,0.9727175933044229
8/29/2012 16:00,24.2,8.1,36,24,48.3,100.86,Mainly Clear,24.074000000000005,0.9727175933044229
8/29/2012 17:00,23.5,7.6,36,26,48.3,100.86,Mainly Clear,23.563999999999997,0.9727175933044229
8/29/2012 18:00,22.5,6.9,36,19,48.3,100.87,Clear,22.77,0.9727175933044229
8/29/2012 19:00,21.7,6.7,38,15,48.3,100.89,Clear,21.673,0.9638948809679477
8/29/2012 20:00,19.7,7.1,44,9,25.0,100.92,Clear,19.669000000000022,0.9609936363769611
8/29/2012 21:00,19.7,7.3,45,15,25.0,100.93,Clear,19.669000000000022,0.9609936363769611
8/29/2012 22:00,19.5,8.7,50,22,25.0,100.93,Clear,19.404,0.9655826782929308
8/29/2012 23:00,18.3,9.9,58,20,25.0,100.97,Clear,18.387000000000004,1.0103171648234104
8/30/2012 0:00,17.5,10.6,64,19,25.0,100.96,Clear,17.545999999999992,1.0958191453326247
8/30/2012 1:00,17.0,11.5,70,11,25.0,100.92,Clear,16.907999999999998,1.7091525423728813
8/30/2012 2:00,15.4,12.1,81,11,25.0,100.97,Mostly Cloudy,15.455000000000016,1.7408722768108806
8/30/2012 3:00,16.2,11.7,75,17,25.0,100.93,Mainly Clear,16.211000000000013,1.7241591468416737
8/30/2012 4:00,15.1,11.8,81,15,25.0,100.96,Clear,15.125000000000018,1.7408722768108806
8/30/2012 5:00,15.5,11.7,78,20,48.3,100.97,Mainly Clear,15.633,1.733057876440812
8/30/2012 6:00,16.3,11.8,75,26,48.3,100.95,Mostly Cloudy,16.268999999999984,1.7241591468416737
8/30/2012 7:00,16.8,11.8,72,20,24.1,100.95,Mainly Clear,16.980000000000004,1.7154802667147235
8/30/2012 8:00,17.9,12.6,71,24,24.1,100.94,Mainly Clear,17.903000000000024,1.712430565280306
8/30/2012 9:00,19.6,13.2,67,32,48.3,100.93,Mainly Clear,19.542999999999985,1.2523873978786297
8/30/2012 10:00,21.8,13.3,58,26,48.3,100.88,Mainly Clear,21.85699999999999,0.9771086735653381
8/30/2012 11:00,23.1,14.0,57,33,48.3,100.84,Mainly Clear,22.831,0.9684584060262452
8/30/2012 12:00,25.0,15.4,55,32,48.3,100.79,Mainly Clear,24.965999999999998,0.9531525027978544
8/30/2012 13:00,26.7,16.6,54,37,48.3,100.73,Mainly Clear,26.616999999999994,0.9472289954341503
8/30/2012 14:00,27.8,16.5,50,26,48.3,100.65,Mainly Clear,27.80500000000002,0.9420720300522136
8/30/2012 15:00,28.5,17.0,50,35,48.3,100.61,Mainly Clear,28.359000000000005,0.9454366603896758
8/30/2012 16:00,27.8,16.2,49,33,48.3,100.54,Mostly Cloudy,28.02400000000003,0.9434072671697393
8/30/2012 17:00,27.4,16.5,51,41,48.3,100.53,Mostly Cloudy,27.48900000000003,0.94253199656293
8/30/2012 18:00,26.6,16.3,53,35,48.3,100.5,Mostly Cloudy,26.652000000000015,0.9436856178934021
8/30/2012 19:00,25.5,16.3,57,43,25.0,100.49,Mostly Cloudy,25.357999999999997,0.9684584060262452
8/30/2012 20:00,24.5,15.2,56,39,25.0,100.51,Mostly Cloudy,24.521999999999995,0.9607879911134949
8/30/2012 21:00,24.5,15.6,58,44,25.0,100.53,Mainly Clear,24.470000000000006,0.9771086735653381
8/30/2012 22:00,24.2,15.5,58,41,25.0,100.54,Mainly Clear,24.260000000000005,0.9771086735653381
8/30/2012 23:00,23.7,15.6,60,37,25.0,100.57,Mainly Clear,24.066000000000013,0.9999888186332162
8/31/2012 0:00,23.4,14.5,57,33,25.0,100.55,Clear,23.41900000000003,0.9684584060262452
8/31/2012 1:00,23.5,14.1,56,35,25.0,100.51,Mainly Clear,23.558000000000003,0.9607879911134949
8/31/2012 2:00,23.2,13.9,56,35,25.0,100.5,Mainly Clear,23.425000000000004,0.9607879911134949
8/31/2012 3:00,22.8,12.3,52,28,25.0,100.52,Mostly Cloudy,22.83299999999999,0.9434988158059877
8/31/2012 4:00,22.8,13.0,54,28,25.0,100.47,Mostly Cloudy,22.954000000000004,0.9474146461075756
8/31/2012 5:00,22.6,14.6,61,28,24.1,100.45,Mostly Cloudy,22.492000000000004,1.0147471754365818
8/31/2012 6:00,22.5,16.1,67,30,24.1,100.51,Rain Showers,22.602000000000004,1.2523873978786297
8/31/2012 7:00,22.6,16.4,68,32,24.1,100.48,Rain Showers,22.439000000000007,1.3579319565140906
8/31/2012 8:00,22.9,15.9,65,37,24.1,100.49,Cloudy,22.865000000000027,1.1136122370198804
8/31/2012 9:00,21.8,17.1,75,35,24.1,100.5,Rain Showers,21.732999999999993,1.7241591468416737
8/31/2012 10:00,19.7,17.8,89,20,24.1,100.54,"Thunderstorms,Rain Showers",19.673000000000016,1.7590894054480448
8/31/2012 11:00,21.1,18.6,86,26,24.1,100.52,Cloudy,20.982999999999997,1.7530322801745157
8/31/2012 12:00,22.8,18.6,77,20,24.1,100.49,Rain Showers,22.919999999999995,1.7302348458823897
8/31/2012 13:00,24.0,18.2,70,22,24.1,100.43,Cloudy,24.006999999999998,1.7091525423728813
8/31/2012 14:00,24.1,18.2,70,22,24.1,100.38,Cloudy,24.058999999999997,1.7091525423728813
8/31/2012 15:00,25.6,18.6,65,30,24.1,100.35,Mostly Cloudy,25.607999999999965,1.1136122370198804
8/31/2012 16:00,24.8,18.5,68,20,24.1,100.38,Mostly Cloudy,24.7,1.3579319565140906
8/31/2012 17:00,25.0,18.4,67,17,24.1,100.41,Mostly Cloudy,24.848,1.2523873978786297
8/31/2012 18:00,24.2,18.6,71,13,24.1,100.47,Mostly Cloudy,24.201999999999995,1.712430565280306
8/31/2012 19:00,23.1,18.9,77,9,25.0,100.52,Mainly Clear,23.07999999999997,1.7302348458823897
8/31/2012 20:00,22.3,19.1,82,11,25.0,100.61,Mainly Clear,22.30299999999998,1.7434626346010758
8/31/2012 21:00,21.6,19.0,85,11,25.0,100.65,Mainly Clear,21.579999999999977,1.7507512632600475
8/31/2012 22:00,21.7,16.9,74,20,25.0,100.78,Mainly Clear,21.708000000000013,1.7209839103698092
8/31/2012 23:00,20.8,12.9,61,11,25.0,100.84,Clear,20.70899999999999,1.0147471754365818
9/1/2012 0:00,19.6,13.1,66,11,25.0,100.94,Mainly Clear,19.625999999999973,1.1750318113220146
9/1/2012 1:00,19.1,12.5,66,4,25.0,101.0,Mainly Clear,18.898999999999987,1.1750318113220146
9/1/2012 2:00,19.1,12.6,66,9,25.0,101.05,Mainly Clear,19.118999999999975,1.1750318113220146
9/1/2012 3:00,17.7,12.8,73,11,25.0,101.13,Mainly Clear,17.668000000000024,1.718324698506683
9/1/2012 4:00,16.3,12.8,80,11,25.0,101.21,Clear,16.195999999999984,1.7383226557949913
9/1/2012 5:00,16.0,12.9,82,13,25.0,101.31,Mainly Clear,15.926000000000009,1.7434626346010758
9/1/2012 6:00,16.2,12.5,79,13,48.3,101.41,Mainly Clear,16.242999999999988,1.7357508862871274
9/1/2012 7:00,17.8,10.6,63,24,48.3,101.48,Mainly Clear,17.73099999999998,1.0726852027300904
9/1/2012 8:00,18.6,9.5,55,20,48.3,101.54,Mainly Clear,18.59599999999999,0.9865278100957969
9/1/2012 9:00,20.4,8.8,47,15,48.3,101.59,Clear,20.492000000000022,0.9526994702079733
9/1/2012 10:00,22.0,8.5,42,20,48.3,101.6,Clear,21.85700000000002,0.949155270668292
9/1/2012 11:00,22.7,6.2,34,15,48.3,101.6,Mainly Clear,22.508000000000006,0.982139433707547
9/1/2012 12:00,23.2,7.0,35,13,48.3,101.57,Clear,23.335,0.9763179605360829
9/1/2012 13:00,23.6,7.0,34,6,48.3,101.54,Clear,23.53499999999999,0.982139433707547
9/1/2012 14:00,23.5,6.7,34,7,48.3,101.47,Clear,23.416999999999987,0.982139433707547
9/1/2012 15:00,24.3,7.3,34,7,48.3,101.44,Clear,23.768999999999984,0.982139433707547
9/1/2012 16:00,24.2,7.0,33,4,48.3,101.43,Clear,24.38099999999999,0.986478005269463
9/1/2012 17:00,24.0,6.6,33,7,48.3,101.39,Clear,24.382999999999996,0.986478005269463
9/1/2012 18:00,22.7,8.4,40,9,48.3,101.41,Clear,22.610999999999994,0.9557861893691004
9/1/2012 19:00,20.9,8.3,44,6,48.3,101.45,Clear,21.03900000000003,0.9487876326078506
9/1/2012 20:00,18.8,9.9,56,11,25.0,101.46,Clear,18.86200000000002,0.9891365107256235
9/1/2012 21:00,18.5,7.6,49,7,25.0,101.47,Clear,18.496000000000006,0.9815443249704667
9/1/2012 22:00,17.5,9.2,58,6,25.0,101.46,Clear,17.470999999999997,1.0279075619639864
9/1/2012 23:00,17.0,9.1,60,7,25.0,101.45,Mainly Clear,17.052000000000003,1.0657379143166277
9/2/2012 0:00,16.1,9.0,63,4,25.0,101.47,Clear,16.041999999999984,1.2718392910626308
9/2/2012 1:00,14.0,9.3,73,4,25.0,101.47,Clear,14.035,1.718324698506683
9/2/2012 2:00,13.5,9.5,77,4,25.0,101.47,Clear,13.46,1.7302348458823897
9/2/2012 3:00,13.0,9.5,79,0,25.0,101.43,Mainly Clear,13.026999999999996,1.7357508862871274
9/2/2012 4:00,13.3,9.7,79,0,25.0,101.41,Mainly Clear,13.186,1.7357508862871274
9/2/2012 5:00,14.2,10.2,77,6,25.0,101.43,Mainly Clear,14.249999999999998,1.7302348458823897
9/2/2012 6:00,13.0,10.8,86,7,24.1,101.48,Mainly Clear,13.022999999999998,1.7530322801745157
9/2/2012 7:00,15.5,11.6,78,4,48.3,101.49,Mainly Clear,15.557000000000002,1.733057876440812
9/2/2012 8:00,17.3,11.7,70,7,48.3,101.51,Mostly Cloudy,17.15999999999999,1.7091525423728813
9/2/2012 9:00,19.1,11.5,61,4,48.3,101.52,Mostly Cloudy,19.137999999999973,1.0210894533112234
9/2/2012 10:00,20.7,11.4,55,6,48.3,101.53,Mostly Cloudy,20.65400000000001,0.9664432424317575
9/2/2012 11:00,21.8,10.3,48,4,48.3,101.52,Mostly Cloudy,21.83399999999999,0.9442939302910032
9/2/2012 12:00,24.4,8.8,37,4,48.3,101.49,Mainly Clear,24.54300000000004,0.9681708609999456
9/2/2012 13:00,25.5,7.0,31,9,48.3,101.47,Mainly Clear,25.321999999999992,1.0000000000000002
9/2/2012 14:00,25.3,7.4,32,9,48.3,101.45,Mainly Clear,25.158999999999995,0.9920689044371626
9/2/2012 15:00,25.6,6.5,29,7,48.3,101.41,Mainly Clear,25.428999999999977,1.5
9/2/2012 16:00,25.4,6.0,29,11,48.3,101.43,Mainly Clear,25.174,1.5
9/2/2012 17:00,23.6,6.9,34,9,48.3,101.44,Mainly Clear,23.569999999999972,0.982139433707547
9/2/2012 18:00,24.0,6.8,33,11,48.3,101.47,Mainly Clear,24.47399999999998,0.986478005269463
9/2/2012 19:00,20.9,8.4,45,13,48.3,101.51,Mainly Clear,20.747999999999987,0.9512138699557978
9/2/2012 20:00,21.2,8.5,44,9,25.0,101.52,Clear,21.212000000000018,0.9471891643883912
9/2/2012 21:00,19.7,9.4,51,7,25.0,101.53,Mainly Clear,19.75000000000003,0.9607382969803916
9/2/2012 22:00,19.2,10.0,55,4,25.0,101.57,Mainly Clear,19.18700000000002,0.9810205140481434
9/2/2012 23:00,18.7,9.8,56,4,25.0,101.57,Clear,18.753000000000018,0.9899564400042051
9/3/2012 0:00,17.5,10.2,62,7,25.0,101.6,Clear,17.626999999999992,1.0651355827918163
9/3/2012 1:00,15.6,9.3,66,0,25.0,101.61,Mainly Clear,15.632999999999981,1.4309743865657905
9/3/2012 2:00,13.7,8.9,73,6,25.0,101.59,Mainly Clear,13.673000000000012,1.718324698506683
9/3/2012 3:00,14.0,10.4,79,4,25.0,101.61,Mainly Clear,13.979,1.7357508862871274
9/3/2012 4:00,13.4,11.0,85,6,25.0,101.63,Clear,13.381000000000006,1.7507512632600475
9/3/2012 5:00,14.5,10.3,76,6,25.0,101.68,Mainly Clear,14.468,1.7272721454173066
9/3/2012 6:00,13.4,10.7,84,6,48.3,101.68,Mainly Clear,13.317999999999993,1.7483983249034645
9/3/2012 7:00,16.3,12.2,77,7,48.3,101.69,Mainly Clear,16.310999999999975,1.7302348458823897
9/3/2012 8:00,18.5,13.0,70,11,48.3,101.67,Mainly Clear,18.569999999999997,1.7091525423728813
9/3/2012 9:00,21.1,11.8,55,9,48.3,101.65,Mainly Clear,21.176999999999975,0.961516581820512
9/3/2012 10:00,23.5,11.7,47,9,48.3,101.63,Mainly Clear,23.782999999999973,0.9365197406993433
9/3/2012 11:00,24.3,10.9,43,9,48.3,101.59,Mainly Clear,24.360000000000003,0.945948721343493
9/3/2012 12:00,26.0,11.1,39,13,48.3,101.54,Mainly Clear,26.055000000000003,0.9601509387055865
9/3/2012 13:00,26.2,10.0,36,4,48.3,101.5,Mainly Clear,26.02499999999998,0.9727175933044229
9/3/2012 14:00,28.0,10.4,33,0,48.3,101.41,Mainly Clear,27.875999999999998,0.986478005269463
9/3/2012 15:00,27.8,10.5,34,13,48.3,101.33,Mainly Clear,27.600000000000012,0.982139433707547
9/3/2012 16:00,27.8,11.4,36,4,48.3,101.29,Mostly Cloudy,27.372000000000018,0.9727175933044229
9/3/2012 17:00,26.6,12.8,42,13,48.3,101.25,Mostly Cloudy,26.52099999999998,0.949155270668292
9/3/2012 18:00,25.8,12.5,44,13,48.3,101.2,Mostly Cloudy,25.651000000000003,0.9432590533134183
9/3/2012 19:00,25.3,12.4,45,9,25.0,101.19,Mostly Cloudy,25.274000000000015,0.9403088027499734
9/3/2012 20:00,25.0,12.6,46,9,25.0,101.21,Mostly Cloudy,24.987,0.9384328601022601
9/3/2012 21:00,24.2,12.8,49,15,25.0,101.19,Mainly Clear,24.05800000000002,0.9349723758180568
9/3/2012 22:00,22.7,14.7,61,13,25.0,101.19,Mainly Clear,22.471000000000025,1.0147471754365818
9/3/2012 23:00,21.1,15.8,72,11,25.0,101.18,Mainly Clear,21.07799999999997,1.7154802667147235
9/4/2012 0:00,20.6,15.9,74,9,25.0,101.21,Mainly Clear,20.74699999999996,1.7209839103698092
9/4/2012 1:00,21.1,16.0,73,9,25.0,101.2,Mostly Cloudy,21.03899999999997,1.718324698506683
9/4/2012 2:00,20.8,15.8,73,13,25.0,101.16,Mostly Cloudy,20.824999999999974,1.718324698506683
9/4/2012 3:00,20.9,15.3,70,7,25.0,101.14,Mostly Cloudy,20.88600000000002,1.7091525423728813
9/4/2012 4:00,20.8,14.8,69,6,25.0,101.13,Cloudy,20.764999999999983,1.505906587803386
9/4/2012 5:00,20.7,14.6,68,9,25.0,101.11,Mostly Cloudy,20.66700000000001,1.3579319565140906
9/4/2012 6:00,20.7,15.3,71,15,25.0,101.15,Cloudy,20.72900000000002,1.712430565280306
9/4/2012 7:00,20.5,16.1,76,17,24.1,101.13,Cloudy,20.484,1.7272721454173066
9/4/2012 8:00,21.1,16.4,75,15,24.1,101.11,Mostly Cloudy,20.83999999999999,1.7241591468416737
9/4/2012 9:00,22.0,16.9,73,11,24.1,101.1,Mostly Cloudy,21.865,1.718324698506683
9/4/2012 10:00,22.9,17.2,70,9,24.1,101.08,Cloudy,22.951000000000022,1.7091525423728813
9/4/2012 11:00,25.0,17.5,63,15,24.1,101.02,Mostly Cloudy,24.89,1.0503413361747098
9/4/2012 12:00,25.6,18.0,63,6,24.1,100.94,Cloudy,25.624000000000013,1.0503413361747098
9/4/2012 13:00,25.2,17.8,64,9,24.1,100.89,Cloudy,25.114999999999995,1.0754917436180753
9/4/2012 14:00,24.7,18.0,66,15,24.1,100.83,Cloudy,24.714000000000006,1.1750318113220146
9/4/2012 15:00,24.1,17.8,68,19,24.1,100.81,Cloudy,23.989999999999966,1.3579319565140906
9/4/2012 16:00,23.5,17.7,70,15,24.1,100.77,Cloudy,23.546,1.7091525423728813
9/4/2012 17:00,23.3,18.0,72,15,24.1,100.74,Cloudy,23.311000000000014,1.7154802667147235
9/4/2012 18:00,21.8,19.2,85,9,19.3,100.73,Rain,21.775999999999982,1.7507512632600475
9/4/2012 19:00,20.8,19.7,93,7,12.9,100.7,Rain,20.819999999999983,1.7663155381997573
9/4/2012 20:00,20.7,19.9,95,9,12.9,100.68,Rain,20.93100000000001,1.768832975474038
9/4/2012 21:00,21.1,19.7,92,9,19.3,100.66,Rain,21.04199999999998,1.764560779079539
9/4/2012 22:00,20.7,19.7,94,15,19.3,100.61,Rain,20.701000000000008,1.7677471105115399
9/4/2012 23:00,20.2,19.2,94,9,19.3,100.47,Rain,20.23000000000001,1.7677471105115399
9/5/2012 0:00,20.3,19.1,93,13,19.3,100.43,Rain,20.271999999999988,1.7663155381997573
9/5/2012 1:00,20.0,18.6,92,13,16.1,100.35,Rain,20.025000000000002,1.764560779079539
9/5/2012 2:00,19.1,18.2,95,17,25.0,100.35,Rain,19.155999999999974,1.768832975474038
9/5/2012 3:00,18.6,17.7,95,15,25.0,100.39,Cloudy,18.516999999999978,1.768832975474038
9/5/2012 4:00,18.5,17.6,94,11,25.0,100.43,Mostly Cloudy,18.714999999999986,1.7677471105115399
9/5/2012 5:00,17.6,17.1,97,7,25.0,100.46,Mostly Cloudy,17.647999999999985,1.7709745267585884
9/5/2012 6:00,18.2,17.4,95,7,24.1,100.51,Mostly Cloudy,18.22900000000002,1.768832975474038
9/5/2012 7:00,19.5,18.3,93,11,24.1,100.55,Mainly Clear,19.447999999999997,1.7663155381997573
9/5/2012 8:00,21.3,18.6,85,13,48.3,100.51,Mainly Clear,21.207999999999988,1.7507512632600475
9/5/2012 9:00,22.4,18.5,79,15,24.1,100.54,Mostly Cloudy,22.418000000000024,1.7357508862871274
9/5/2012 10:00,23.3,18.9,76,11,24.1,100.59,Mostly Cloudy,23.320999999999994,1.7272721454173066
9/5/2012 11:00,23.4,17.9,71,7,24.1,100.57,Rain Showers,23.456000000000003,1.712430565280306
9/5/2012 12:00,25.5,19.2,68,11,24.1,100.54,Mainly Clear,25.491000000000003,1.3579319565140906
9/5/2012 13:00,25.9,18.3,63,11,24.1,100.52,Mainly Clear,25.855000000000032,1.0503413361747098
9/5/2012 14:00,26.4,18.1,60,13,24.1,100.49,Mainly Clear,26.34100000000003,0.9999888186332162
9/5/2012 15:00,26.2,17.6,59,11,24.1,100.47,Mainly Clear,26.231999999999985,0.987994578192502
9/5/2012 16:00,27.0,17.7,57,9,24.1,100.45,Mainly Clear,26.794999999999995,0.9684584060262452
9/5/2012 17:00,26.1,17.2,58,13,24.1,100.44,Mainly Clear,26.047999999999966,0.9771086735653381
9/5/2012 18:00,25.8,17.1,59,9,24.1,100.5,Mainly Clear,25.718000000000014,0.987994578192502
9/5/2012 19:00,25.2,17.5,62,6,25.0,100.55,Mostly Cloudy,25.232999999999997,1.0305025778855286
9/5/2012 20:00,24.2,18.7,71,7,25.0,100.57,Mostly Cloudy,24.201,1.712430565280306
9/5/2012 21:00,24.0,18.1,70,9,25.0,100.58,Rain Showers,23.862999999999996,1.7091525423728813
9/5/2012 22:00,22.9,18.2,75,7,25.0,100.55,Mostly Cloudy,22.84000000000002,1.7241591468416737
9/5/2012 23:00,22.1,18.1,78,6,25.0,100.53,Mainly Clear,22.048999999999978,1.733057876440812
9/6/2012 0:00,21.3,18.1,82,7,25.0,100.53,Mainly Clear,21.26699999999999,1.7434626346010758
9/6/2012 1:00,21.0,18.4,85,7,25.0,100.55,Mostly Cloudy,21.082999999999988,1.7507512632600475
9/6/2012 2:00,21.3,18.5,84,7,25.0,100.55,Mainly Clear,21.23699999999998,1.7483983249034645
9/6/2012 3:00,21.1,18.5,85,6,25.0,100.55,Mostly Cloudy,21.108999999999973,1.7507512632600475
9/6/2012 4:00,21.1,18.8,87,7,25.0,100.54,Mainly Clear,21.083999999999975,1.755244623603565
9/6/2012 5:00,21.0,18.1,84,6,25.0,100.61,Mostly Cloudy,21.01499999999999,1.7483983249034645
9/6/2012 6:00,19.5,17.8,90,9,25.0,100.58,Mostly Cloudy,19.448999999999998,1.7609487211792867
9/6/2012 7:00,19.9,17.7,87,7,25.0,100.62,Cloudy,20.03600000000002,1.755244623603565
9/6/2012 8:00,21.1,18.1,83,7,24.1,100.62,Mostly Cloudy,21.093999999999973,1.7459700090483987
9/6/2012 9:00,23.1,18.3,74,6,24.1,100.59,Mainly Clear,23.113999999999965,1.7209839103698092
9/6/2012 10:00,24.7,17.8,65,6,24.1,100.55,Mainly Clear,24.863999999999997,1.1136122370198804
9/6/2012 11:00,26.1,18.1,61,13,24.1,100.5,Mainly Clear,26.156000000000013,1.0147471754365818
9/6/2012 12:00,26.8,17.3,56,15,24.1,100.45,Mainly Clear,26.8,0.9607879911134949
9/6/2012 13:00,27.9,17.5,53,11,24.1,100.41,Mainly Clear,27.880000000000013,0.9494161959282804
9/6/2012 14:00,28.1,17.8,54,13,24.1,100.34,Mostly Cloudy,28.02199999999997,0.9526410986742551
9/6/2012 15:00,28.2,18.4,55,13,24.1,100.3,Mainly Clear,28.207000000000015,0.9579417329866263
9/6/2012 16:00,27.6,17.9,56,19,24.1,100.31,Mainly Clear,27.66899999999997,0.9607879911134949
9/6/2012 17:00,26.9,17.6,57,17,24.1,100.36,Mainly Clear,26.657999999999998,0.9684584060262452
9/6/2012 18:00,24.8,16.5,60,9,24.1,100.38,Mainly Clear,24.96200000000003,0.9999888186332162
9/6/2012 19:00,22.6,16.5,68,6,25.0,100.42,Mainly Clear,22.545999999999978,1.3579319565140906
9/6/2012 20:00,22.5,16.8,70,11,25.0,100.47,Clear,22.550999999999995,1.7091525423728813
9/6/2012 21:00,21.4,15.1,67,7,25.0,100.52,Mainly Clear,21.502000000000024,1.2523873978786297
9/6/2012 22:00,19.6,15.0,75,9,25.0,100.55,Mainly Clear,19.58099999999997,1.7241591468416737
9/6/2012 23:00,20.2,14.6,70,0,25.0,100.59,Mainly Clear,20.27600000000002,1.7091525423728813
9/7/2012 0:00,18.1,14.8,81,4,24.1,100.62,Clear,18.10999999999999,1.7408722768108806
9/7/2012 1:00,18.7,14.5,77,4,25.0,100.62,Clear,18.61100000000002,1.7302348458823897
9/7/2012 2:00,17.6,15.6,88,9,25.0,100.62,Mainly Clear,17.584999999999976,1.7571931537828946
9/7/2012 3:00,18.5,14.5,78,6,25.0,100.68,Clear,18.530000000000005,1.733057876440812
9/7/2012 4:00,18.3,14.2,77,6,25.0,100.68,Clear,18.347999999999978,1.7302348458823897
9/7/2012 5:00,15.8,14.3,91,7,25.0,100.72,Mainly Clear,15.756999999999982,1.762772169746578
9/7/2012 6:00,17.5,14.6,83,11,48.3,100.77,Mainly Clear,17.446,1.7459700090483987
9/7/2012 7:00,18.6,14.4,77,15,48.3,100.81,Mostly Cloudy,18.60399999999998,1.7302348458823897
9/7/2012 8:00,19.9,13.9,68,9,48.3,100.79,Mostly Cloudy,19.886000000000024,1.3579319565140906
9/7/2012 9:00,21.2,14.4,65,19,48.3,100.8,Mostly Cloudy,21.25900000000001,1.1136122370198804
9/7/2012 10:00,22.2,15.8,67,19,48.3,100.82,Mostly Cloudy,22.233000000000025,1.2523873978786297
9/7/2012 11:00,22.6,15.4,64,19,48.3,100.84,Mostly Cloudy,22.475000000000005,1.0754917436180753
9/7/2012 12:00,23.3,14.0,56,17,48.3,100.82,Cloudy,23.375,0.9607879911134949
9/7/2012 13:00,24.6,12.7,47,17,48.3,100.8,Mostly Cloudy,24.75099999999998,0.9365197406993433
9/7/2012 14:00,25.6,12.5,44,9,48.3,100.76,Mostly Cloudy,25.555999999999973,0.9432590533134183
9/7/2012 15:00,25.1,10.5,40,13,48.3,100.72,Mostly Cloudy,25.09299999999996,0.9557861893691004
9/7/2012 16:00,25.0,9.9,38,6,48.3,100.7,Mostly Cloudy,25.154999999999994,0.9638948809679477
9/7/2012 17:00,24.6,10.2,40,0,48.3,100.64,Cloudy,24.69399999999996,0.9557861893691004
9/7/2012 18:00,23.5,11.8,48,0,24.1,100.6,Cloudy,23.52099999999999,0.9364316650600577
9/7/2012 19:00,21.7,12.0,54,6,25.0,100.61,Mostly Cloudy,21.648000000000003,0.9548469455237342
9/7/2012 20:00,23.2,11.9,49,4,25.0,100.58,Mostly Cloudy,23.126999999999985,0.9379661498975597
9/7/2012 21:00,22.9,13.4,55,6,25.0,100.5,Cloudy,23.01300000000003,0.9531525027978544
9/7/2012 22:00,21.6,14.8,65,9,25.0,100.45,Cloudy,21.665999999999976,1.1136122370198804
9/7/2012 23:00,21.4,15.3,68,17,24.1,100.29,Cloudy,21.414,1.3579319565140906
9/8/2012 0:00,21.1,16.1,73,13,25.0,100.21,Cloudy,21.149999999999963,1.718324698506683
9/8/2012 1:00,20.5,16.6,78,6,25.0,100.21,Cloudy,20.503999999999998,1.733057876440812
9/8/2012 2:00,21.1,16.0,73,7,25.0,100.12,Cloudy,21.07599999999997,1.718324698506683
9/8/2012 3:00,21.1,16.2,74,9,25.0,99.98,Cloudy,21.093999999999966,1.7209839103698092
9/8/2012 4:00,21.9,15.8,68,17,25.0,99.85,"Thunderstorms,Rain Showers",21.989000000000033,1.3579319565140906
9/8/2012 5:00,18.6,16.7,89,11,25.0,99.93,Cloudy,18.769000000000002,1.7590894054480448
9/8/2012 6:00,18.7,16.6,88,17,24.1,99.82,Cloudy,18.75200000000002,1.7571931537828946
9/8/2012 7:00,21.0,17.8,82,20,19.3,99.77,Cloudy,20.906,1.7434626346010758
9/8/2012 8:00,20.9,17.7,82,9,19.3,99.66,Cloudy,20.88500000000002,1.7434626346010758
9/8/2012 9:00,23.2,19.0,77,13,19.3,99.54,Cloudy,23.153,1.7302348458823897
9/8/2012 10:00,25.9,19.5,68,28,19.3,99.35,Cloudy,25.855000000000032,1.3579319565140906
9/8/2012 11:00,26.5,18.9,63,35,19.3,99.27,Cloudy,26.467999999999996,1.0503413361747098
9/8/2012 12:00,26.1,17.9,61,39,19.3,99.21,Cloudy,26.090999999999973,1.0147471754365818
9/8/2012 13:00,25.5,17.4,61,24,24.1,99.08,Cloudy,25.415000000000006,1.0147471754365818
9/8/2012 14:00,26.0,18.4,63,33,24.1,98.94,Rain Showers,25.97,1.0503413361747098
9/8/2012 15:00,24.4,20.2,77,30,16.1,98.89,Rain Showers,24.359000000000027,1.7302348458823897
9/8/2012 16:00,20.4,18.2,87,39,24.1,99.09,Rain Showers,20.45600000000002,1.755244623603565
9/8/2012 17:00,20.6,16.2,76,33,48.3,99.17,Cloudy,20.61699999999999,1.7272721454173066
9/8/2012 18:00,20.5,16.0,75,39,24.1,99.33,Cloudy,20.531,1.7241591468416737
9/8/2012 19:00,19.9,14.6,72,37,25.0,99.44,Mostly Cloudy,19.835000000000015,1.7154802667147235
9/8/2012 20:00,19.2,13.2,68,43,25.0,99.51,Mainly Clear,19.263000000000012,1.3579319565140906
9/8/2012 21:00,16.1,12.7,80,44,25.0,99.67,Mostly Cloudy,16.111999999999988,1.7383226557949913
9/8/2012 22:00,14.2,10.8,80,30,25.0,99.87,Mostly Cloudy,14.24700000000002,1.7383226557949913
9/8/2012 23:00,14.5,10.2,75,28,25.0,100.06,Cloudy,14.562999999999999,1.7241591468416737
9/9/2012 0:00,14.3,9.4,72,30,25.0,100.18,Cloudy,14.30399999999998,1.7154802667147235
9/9/2012 1:00,13.9,9.6,75,28,25.0,100.26,Cloudy,13.942000000000013,1.7241591468416737
9/9/2012 2:00,13.7,9.6,76,24,25.0,100.3,Mostly Cloudy,13.71800000000002,1.7272721454173066
9/9/2012 3:00,12.6,9.4,81,17,25.0,100.28,Mainly Clear,12.578999999999994,1.7408722768108806
9/9/2012 4:00,12.2,9.5,84,20,25.0,100.39,Mainly Clear,12.176000000000014,1.7483983249034645
9/9/2012 5:00,11.5,9.5,88,11,25.0,100.44,Clear,11.474999999999998,1.7571931537828946
9/9/2012 6:00,11.0,9.6,91,6,24.1,100.5,Mainly Clear,10.995999999999997,1.762772169746578
9/9/2012 7:00,12.1,9.8,86,7,24.1,100.57,Mainly Clear,12.035,1.7530322801745157
9/9/2012 8:00,13.7,9.9,78,17,24.1,100.6,Mainly Clear,13.686000000000021,1.733057876440812
9/9/2012 9:00,14.8,8.8,67,17,48.3,100.65,Mainly Clear,14.829999999999984,1.698763522260988
9/9/2012 10:00,15.7,9.0,64,17,48.3,100.69,Mostly Cloudy,15.74100000000002,1.3694041411266904
9/9/2012 11:00,16.8,9.0,60,19,48.3,100.66,Mainly Clear,16.80499999999998,1.0883647356247526
9/9/2012 12:00,17.3,8.9,58,22,48.3,100.65,Mainly Clear,17.213999999999984,1.035619455763387
9/9/2012 13:00,17.3,8.6,57,11,48.3,100.68,Mainly Clear,17.274999999999974,1.0249510277734728
9/9/2012 14:00,18.1,8.4,53,19,48.3,100.67,Mostly Cloudy,18.08499999999999,0.9929188900854499
9/9/2012 15:00,17.6,8.9,57,17,48.3,100.67,Mostly Cloudy,17.476999999999986,1.019609247069554
9/9/2012 16:00,17.9,8.4,54,22,48.3,100.71,Mainly Clear,17.886000000000017,0.9990662210004722
9/9/2012 17:00,15.6,8.4,62,15,48.3,100.76,Mainly Clear,15.59199999999999,1.3845081842131337
9/9/2012 18:00,15.5,8.6,63,11,48.3,100.8,Mostly Cloudy,15.730000000000013,1.35626971556973
9/9/2012 19:00,15.2,8.6,65,11,25.0,100.83,Mostly Cloudy,15.160000000000016,1.6062799302951625
9/9/2012 20:00,14.1,8.6,69,9,25.0,100.87,Mostly Cloudy,14.138999999999992,1.7056195602958193
9/9/2012 21:00,13.7,9.0,73,9,25.0,100.89,Mostly Cloudy,13.725000000000017,1.718324698506683
9/9/2012 22:00,14.2,9.0,71,9,25.0,100.9,Mostly Cloudy,14.235000000000019,1.712430565280306
9/9/2012 23:00,13.9,9.8,76,15,25.0,100.93,Cloudy,13.87000000000002,1.7272721454173066
9/10/2012 0:00,13.4,10.2,81,9,25.0,100.94,Mostly Cloudy,13.365000000000002,1.7408722768108806
9/10/2012 1:00,13.0,10.3,84,9,25.0,100.95,Mostly Cloudy,12.989000000000003,1.7483983249034645
9/10/2012 2:00,12.7,9.9,83,11,25.0,100.96,Mostly Cloudy,12.753000000000016,1.7459700090483987
9/10/2012 3:00,12.4,9.5,82,11,25.0,100.98,Mostly Cloudy,12.457000000000004,1.7434626346010758
9/10/2012 4:00,11.3,8.7,84,13,25.0,101.0,Mainly Clear,11.374999999999986,1.7483983249034645
9/10/2012 5:00,10.4,8.5,88,17,25.0,101.05,Mainly Clear,10.414999999999988,1.7571931537828946
9/10/2012 6:00,10.1,8.1,87,17,24.1,101.15,Mainly Clear,10.116000000000012,1.755244623603565
9/10/2012 7:00,11.5,7.6,77,15,24.1,101.23,Mainly Clear,11.527999999999999,1.7302348458823897
9/10/2012 8:00,12.8,7.1,68,19,24.1,101.29,Mostly Cloudy,12.88499999999998,1.7018006700167505
9/10/2012 9:00,13.3,7.3,67,15,24.1,101.33,Mainly Clear,13.260999999999978,1.698763522260988
9/10/2012 10:00,14.4,6.5,59,15,24.1,101.32,Mostly Cloudy,14.418000000000006,1.6893689882631606
9/10/2012 11:00,14.9,6.3,56,19,48.3,101.31,Mostly Cloudy,14.960000000000019,1.6839824820324911
9/10/2012 12:00,16.0,6.1,52,20,48.3,101.31,Mostly Cloudy,16.159999999999993,1.1712482468443217
9/10/2012 13:00,16.6,6.0,50,13,48.3,101.32,Mostly Cloudy,16.423999999999975,1.1090871436523402
9/10/2012 14:00,17.5,6.1,47,20,48.3,101.3,Mostly Cloudy,17.550999999999995,1.0109738105949857
9/10/2012 15:00,17.8,5.9,46,24,24.1,101.27,Mostly Cloudy,17.742999999999974,1.0038879751523446
9/10/2012 16:00,16.7,5.1,46,20,48.3,101.31,Mostly Cloudy,16.613000000000017,1.0719541221588653
9/10/2012 17:00,16.1,4.9,47,20,48.3,101.39,Mostly Cloudy,16.065999999999985,1.1983892568863836
9/10/2012 18:00,14.5,4.9,52,17,24.1,101.43,Mostly Cloudy,14.413999999999998,1.689405475591111
9/10/2012 19:00,13.5,4.9,56,9,25.0,101.47,Mainly Clear,13.481000000000002,1.6968640728938449
9/10/2012 20:00,10.9,5.7,70,7,25.0,101.54,Clear,11.000000000000005,1.7169268238680393
9/10/2012 21:00,9.8,6.0,77,6,25.0,101.55,Clear,9.824999999999994,1.7302348458823897
9/10/2012 22:00,9.7,5.9,77,7,25.0,101.56,Clear,9.748000000000005,1.7302348458823897
9/10/2012 23:00,9.3,6.4,82,7,25.0,101.56,Clear,9.298999999999992,1.7434626346010758
9/11/2012 0:00,8.4,6.2,86,9,25.0,101.57,Clear,8.366999999999988,1.7530322801745157
9/11/2012 1:00,8.4,6.3,87,9,25.0,101.58,Clear,8.372999999999987,1.755244623603565
9/11/2012 2:00,8.4,6.9,90,9,25.0,101.6,Clear,8.388999999999989,1.7609487211792867
9/11/2012 3:00,9.1,7.3,88,7,25.0,101.64,Clear,9.140000000000008,1.7571931537828946
9/11/2012 4:00,9.2,6.8,85,4,25.0,101.7,Clear,9.18900000000001,1.7507512632600475
9/11/2012 5:00,6.9,5.6,91,0,25.0,101.75,Clear,6.996999999999991,1.762772169746578
9/11/2012 6:00,7.6,6.3,91,6,24.1,101.83,Mainly Clear,7.632000000000012,1.762772169746578
9/11/2012 7:00,11.0,8.4,84,9,48.3,101.89,Mostly Cloudy,10.946,1.7483983249034645
9/11/2012 8:00,13.2,8.9,75,9,48.3,101.92,Mostly Cloudy,13.259000000000015,1.7241591468416737
9/11/2012 9:00,15.1,8.6,65,13,48.3,101.95,Mostly Cloudy,15.13399999999999,1.6193713748051366
9/11/2012 10:00,16.8,8.9,60,17,48.3,101.93,Mostly Cloudy,16.814999999999976,1.0872681793324186
9/11/2012 11:00,18.4,8.4,52,19,48.3,101.89,Mainly Clear,18.33300000000003,0.9860579901306687
9/11/2012 12:00,18.9,9.1,53,19,48.3,101.87,Mainly Clear,18.966000000000033,0.9736934371751886
9/11/2012 13:00,20.6,9.7,50,20,48.3,101.81,Mainly Clear,20.56999999999998,0.9522377767798572
9/11/2012 14:00,21.0,8.9,46,20,48.3,101.75,Mainly Clear,20.993,0.9492215468247506
9/11/2012 15:00,21.3,8.4,44,19,48.3,101.69,Mainly Clear,21.27299999999999,0.9467977990348365
9/11/2012 16:00,21.5,8.9,44,20,48.3,101.67,Mainly Clear,21.579,0.9456604091335695
9/11/2012 17:00,21.4,9.4,46,20,48.3,101.67,Mainly Clear,21.568,0.9457003368617048
9/11/2012 18:00,20.7,10.3,51,17,48.3,101.66,Mainly Clear,20.807000000000016,0.9534277707003154
9/11/2012 19:00,19.8,11.1,57,9,25.0,101.68,Mainly Clear,19.768,0.9844792436982814
9/11/2012 20:00,19.8,11.6,59,15,25.0,101.73,Mainly Clear,19.74199999999998,0.9965251854575199
9/11/2012 21:00,19.1,12.9,67,15,25.0,101.76,Clear,19.09099999999998,1.2523873978786297
9/11/2012 22:00,18.4,12.0,66,17,25.0,101.78,Clear,18.44300000000002,1.1750318113220146
9/11/2012 23:00,17.8,11.9,68,15,25.0,101.8,Clear,17.873999999999985,1.3579319565140906
9/12/2012 0:00,17.5,10.6,64,17,25.0,101.82,Clear,17.56599999999999,1.09466995022907
9/12/2012 1:00,17.2,9.9,62,11,25.0,101.85,Clear,17.230000000000015,1.0869412000583112
9/12/2012 2:00,14.5,9.6,72,6,25.0,101.86,Clear,14.488999999999999,1.7154802667147235
9/12/2012 3:00,13.2,9.9,80,4,25.0,101.9,Clear,13.271999999999998,1.7383226557949913
9/12/2012 4:00,13.7,10.0,78,0,25.0,101.91,Clear,13.895000000000008,1.733057876440812
9/12/2012 5:00,13.1,10.7,85,6,25.0,101.96,Clear,13.15399999999999,1.7507512632600475
9/12/2012 6:00,13.5,11.2,86,0,48.3,102.02,Clear,13.396000000000006,1.7530322801745157
9/12/2012 7:00,15.8,11.8,77,9,48.3,102.02,Clear,15.818999999999978,1.7302348458823897
9/12/2012 8:00,17.4,11.1,66,7,48.3,102.04,Clear,17.51200000000003,1.1750318113220146
9/12/2012 9:00,19.6,11.9,61,7,48.3,102.05,Clear,19.596999999999976,1.0147471754365818
9/12/2012 10:00,21.9,13.2,58,11,48.3,102.02,Mainly Clear,21.944999999999986,0.9771086735653381
9/12/2012 11:00,23.9,13.3,51,20,48.3,101.98,Clear,23.999000000000038,0.9372246385664513
9/12/2012 12:00,25.3,13.4,48,19,48.3,101.95,Mainly Clear,25.269000000000005,0.9350721128271431
9/12/2012 13:00,26.1,14.0,47,13,48.3,101.87,Mainly Clear,26.10499999999997,0.9365197406993433
9/12/2012 14:00,26.9,13.5,44,17,48.3,101.84,Mainly Clear,26.91800000000004,0.9432590533134183
9/12/2012 15:00,27.3,13.4,42,17,48.3,101.8,Mainly Clear,27.372000000000003,0.949155270668292
9/12/2012 16:00,27.3,12.2,39,19,48.3,101.77,Mainly Clear,27.296000000000028,0.9601509387055865
9/12/2012 17:00,26.8,11.6,39,17,48.3,101.77,Mainly Clear,26.786000000000023,0.9601509387055865
9/12/2012 18:00,25.0,12.9,47,11,48.3,101.78,Mainly Clear,24.908999999999995,0.9365197406993433
9/12/2012 19:00,22.2,15.0,64,11,25.0,101.83,Mainly Clear,22.198,1.0754917436180753
9/12/2012 20:00,22.4,14.0,59,11,25.0,101.88,Mainly Clear,22.29099999999999,0.987994578192502
9/12/2012 21:00,22.2,13.2,57,11,25.0,101.91,Clear,22.121000000000002,0.9684584060262452
9/12/2012 22:00,21.0,14.4,66,13,25.0,101.95,Mainly Clear,20.99899999999999,1.1750318113220146
9/12/2012 23:00,20.2,14.6,70,11,25.0,101.96,Mainly Clear,20.34900000000003,1.7091525423728813
9/13/2012 0:00,19.8,13.6,67,9,25.0,101.96,Mainly Clear,19.895999999999983,1.2523873978786297
9/13/2012 1:00,19.5,13.4,68,7,25.0,101.97,Mainly Clear,19.519999999999996,1.3579319565140906
9/13/2012 2:00,16.3,12.9,80,11,25.0,101.98,Mainly Clear,16.25199999999998,1.7383226557949913
9/13/2012 3:00,15.7,13.1,85,9,25.0,101.96,Clear,15.874000000000002,1.7507512632600475
9/13/2012 4:00,15.5,12.8,84,11,25.0,101.96,Clear,15.477999999999998,1.7483983249034645
9/13/2012 5:00,14.9,11.8,82,4,25.0,102.0,Clear,14.868000000000002,1.7434626346010758
9/13/2012 6:00,15.7,12.4,81,6,48.3,102.02,Mainly Clear,15.704000000000018,1.7408722768108806
9/13/2012 7:00,18.1,13.8,76,6,48.3,102.03,Mainly Clear,18.055999999999976,1.7272721454173066
9/13/2012 8:00,19.8,12.8,64,9,48.3,102.04,Mainly Clear,19.670999999999985,1.0754917436180753
9/13/2012 9:00,21.5,13.7,61,13,48.3,102.05,Mainly Clear,21.54,1.0147471754365818
9/13/2012 10:00,22.6,14.2,59,17,48.3,102.05,Mainly Clear,22.55799999999997,0.987994578192502
9/13/2012 11:00,24.6,14.8,54,15,48.3,102.02,Mainly Clear,24.720999999999982,0.9472289954341503
9/13/2012 12:00,26.2,14.9,50,17,48.3,101.97,Mainly Clear,26.156999999999986,0.9353432690103918
9/13/2012 13:00,27.3,14.2,45,19,48.3,101.89,Mainly Clear,27.328000000000007,0.9403088027499734
9/13/2012 14:00,27.9,13.7,42,24,48.3,101.82,Mainly Clear,27.807000000000013,0.949155270668292
9/13/2012 15:00,28.2,13.9,42,22,48.3,101.77,Mainly Clear,28.142999999999983,0.949155270668292
9/13/2012 16:00,28.4,14.0,41,19,48.3,101.73,Mainly Clear,28.43300000000004,0.9526517417795389
9/13/2012 17:00,27.8,13.1,40,20,48.3,101.73,Mainly Clear,28.03900000000002,0.9557861893691004
9/13/2012 18:00,26.0,14.7,50,9,48.3,101.71,Mainly Clear,26.025000000000006,0.9351151751637664
9/13/2012 19:00,24.2,15.8,59,11,25.0,101.72,Mainly Clear,24.247,0.987994578192502
9/13/2012 20:00,23.2,15.7,63,11,25.0,101.74,Clear,23.111000000000004,1.0503413361747098
9/13/2012 21:00,22.3,16.0,68,13,25.0,101.71,Mainly Clear,22.086000000000002,1.3579319565140906
9/13/2012 22:00,21.8,15.2,66,15,25.0,101.7,Mainly Clear,21.838999999999988,1.1750318113220146
9/13/2012 23:00,20.7,15.3,71,13,25.0,101.72,Clear,20.743000000000023,1.712430565280306
9/14/2012 0:00,19.5,15.5,78,9,25.0,101.72,Clear,19.470999999999997,1.733057876440812
9/14/2012 1:00,16.6,14.9,90,0,25.0,101.71,Clear,16.408999999999992,1.7609487211792867
9/14/2012 2:00,18.2,14.8,81,4,25.0,101.69,Clear,18.181000000000015,1.7408722768108806
9/14/2012 3:00,16.4,14.2,87,6,25.0,101.67,Clear,16.250000000000004,1.755244623603565
9/14/2012 4:00,15.9,13.7,87,9,25.0,101.66,Clear,15.901000000000012,1.755244623603565
9/14/2012 5:00,16.4,14.1,86,4,25.0,101.65,Mostly Cloudy,16.342,1.7530322801745157
9/14/2012 6:00,16.6,14.5,87,6,24.1,101.65,Cloudy,16.588999999999984,1.755244623603565
9/14/2012 7:00,17.9,15.1,84,9,24.1,101.64,Cloudy,18.001000000000023,1.7483983249034645
9/14/2012 8:00,19.5,15.1,76,9,24.1,101.63,Mostly Cloudy,19.455999999999996,1.7272721454173066
9/14/2012 9:00,22.2,15.5,66,9,24.1,101.61,Cloudy,22.20300000000001,1.1750318113220146
9/14/2012 10:00,22.6,15.4,64,13,24.1,101.56,Mostly Cloudy,22.54699999999998,1.0754917436180753
9/14/2012 11:00,24.2,16.2,61,13,24.1,101.51,Cloudy,24.225000000000012,1.0147471754365818
9/14/2012 12:00,25.7,16.5,57,9,48.3,101.44,Cloudy,25.680999999999994,0.9684584060262452
9/14/2012 13:00,26.5,16.8,55,9,48.3,101.34,Cloudy,26.62099999999997,0.9531525027978544
9/14/2012 14:00,27.3,16.4,51,9,48.3,101.27,Mostly Cloudy,27.285000000000014,0.9417355900636246
9/14/2012 15:00,26.3,16.4,54,9,24.1,101.2,Cloudy,26.314000000000018,0.9472289954341503
9/14/2012 16:00,25.5,17.8,62,4,24.1,101.13,Cloudy,25.541,1.0305025778855286
9/14/2012 17:00,25.4,17.2,60,7,24.1,101.04,Cloudy,25.38600000000002,0.9999888186332162
9/14/2012 18:00,24.5,17.6,65,6,24.1,100.96,Rain Showers,24.517,1.1136122370198804
9/14/2012 19:00,21.0,18.9,88,17,25.0,100.94,Cloudy,20.986,1.7571931537828946
9/14/2012 20:00,16.5,15.8,96,22,16.1,101.06,"Thunderstorms,Rain Showers",16.477000000000004,1.7699087340766253
9/14/2012 21:00,15.3,14.3,94,13,11.3,101.31,Rain Showers,15.300999999999979,1.7677471105115399
9/14/2012 22:00,15.5,14.2,92,0,19.3,101.21,Rain Showers,15.369999999999996,1.764560779079539
9/14/2012 23:00,15.9,15.4,97,13,16.1,101.13,Rain Showers,15.884000000000013,1.7709745267585884
9/15/2012 0:00,16.3,14.8,91,20,19.3,101.17,Cloudy,16.29799999999998,1.762772169746578
9/15/2012 1:00,15.6,14.2,91,22,25.0,101.14,Cloudy,15.644999999999987,1.762772169746578
9/15/2012 2:00,15.0,13.6,91,24,25.0,101.09,Cloudy,15.115,1.762772169746578
9/15/2012 3:00,14.7,12.9,89,30,25.0,101.08,Cloudy,14.440000000000005,1.7590894054480448
9/15/2012 4:00,14.2,12.2,88,30,25.0,101.12,Mostly Cloudy,14.168000000000015,1.7571931537828946
9/15/2012 5:00,13.7,12.7,94,28,9.7,101.14,"Drizzle,Fog",13.700000000000019,1.7677471105115399
9/15/2012 6:00,13.4,11.1,86,22,24.1,101.25,Mostly Cloudy,13.357000000000003,1.7530322801745157
9/15/2012 7:00,13.8,10.5,80,20,24.1,101.36,Mostly Cloudy,13.808999999999976,1.7383226557949913
9/15/2012 8:00,14.6,10.5,76,19,24.1,101.44,Mainly Clear,14.578999999999986,1.7272721454173066
9/15/2012 9:00,14.9,9.7,71,19,24.1,101.5,Mostly Cloudy,14.931999999999999,1.712430565280306
9/15/2012 10:00,16.0,9.6,66,22,24.1,101.51,Mostly Cloudy,15.948999999999991,1.3432746678894822
9/15/2012 11:00,16.1,7.8,58,22,48.3,101.49,Mostly Cloudy,16.13999999999999,1.176879632897991
9/15/2012 12:00,16.6,7.3,54,17,48.3,101.49,Mostly Cloudy,16.64199999999998,1.0665792764431552
9/15/2012 13:00,16.6,7.9,56,20,48.3,101.44,Mostly Cloudy,16.556999999999977,1.082567598217601
9/15/2012 14:00,16.2,7.5,56,22,24.1,101.39,Rain Showers,16.317999999999998,1.1316565936964218
9/15/2012 15:00,14.2,11.4,83,13,24.1,101.41,Mostly Cloudy,14.220000000000017,1.7459700090483987
9/15/2012 16:00,16.6,9.2,62,17,24.1,101.36,Mainly Clear,16.48299999999999,1.171586143531091
9/15/2012 17:00,14.2,8.7,69,22,24.1,101.39,Rain Showers,14.256000000000018,1.7056195602958193
9/15/2012 18:00,13.3,8.6,73,7,24.1,101.4,Mostly Cloudy,13.331999999999987,1.718324698506683
9/15/2012 19:00,12.7,7.1,69,13,25.0,101.42,Mainly Clear,12.716000000000001,1.7056195602958193
9/15/2012 20:00,11.6,6.3,70,11,25.0,101.46,Mainly Clear,11.657999999999998,1.7119699928416967
9/15/2012 21:00,9.9,6.1,77,13,25.0,101.48,Mainly Clear,9.927999999999995,1.7302348458823897
9/15/2012 22:00,8.5,5.7,83,7,25.0,101.51,Clear,8.359999999999996,1.7459700090483987
9/15/2012 23:00,7.9,5.6,85,9,25.0,101.5,Clear,7.914999999999989,1.7507512632600475
9/16/2012 0:00,6.6,5.0,90,7,25.0,101.52,Clear,6.608000000000005,1.7609487211792867
9/16/2012 1:00,6.1,5.2,94,9,25.0,101.49,Clear,6.201000000000006,1.7677471105115399
9/16/2012 2:00,6.5,5.6,94,6,25.0,101.46,Clear,6.530000000000001,1.7677471105115399
9/16/2012 3:00,6.7,5.6,93,7,25.0,101.44,Clear,6.747000000000002,1.7663155381997573
9/16/2012 4:00,7.3,6.2,93,9,25.0,101.43,Clear,7.378999999999998,1.7663155381997573
9/16/2012 5:00,4.9,4.6,98,9,25.0,101.45,Clear,5.258999999999999,1.7720304913691292
9/16/2012 6:00,5.8,4.9,94,9,48.3,101.53,Clear,5.92,1.7677471105115399
9/16/2012 7:00,8.7,6.5,86,9,48.3,101.55,Clear,8.722000000000003,1.7530322801745157
9/16/2012 8:00,11.7,4.5,61,9,48.3,101.58,Clear,11.710000000000013,1.7115529273930157
9/16/2012 9:00,13.1,3.0,50,19,48.3,101.57,Mainly Clear,13.10799999999999,1.6993562386281982
9/16/2012 10:00,14.0,4.3,52,20,48.3,101.53,Mainly Clear,14.066,1.6924201276547006
9/16/2012 11:00,14.9,3.9,48,20,48.3,101.49,Mainly Clear,15.046000000000014,1.652374716365642
9/16/2012 12:00,15.3,3.2,44,19,48.3,101.44,Mainly Clear,15.235999999999981,1.5370879078174506
9/16/2012 13:00,15.7,2.9,42,24,48.3,101.35,Mainly Clear,15.633000000000012,1.3493769692294033
9/16/2012 14:00,16.6,3.8,42,24,48.3,101.3,Mainly Clear,16.75199999999998,1.0554106437221893
9/16/2012 15:00,16.7,3.6,42,19,48.3,101.25,Clear,16.70400000000002,1.0591116183663292
9/16/2012 16:00,16.6,3.0,40,15,48.3,101.2,Clear,16.075999999999986,1.1954188009523163
9/16/2012 17:00,16.6,3.6,42,20,48.3,101.17,Clear,16.657999999999987,1.0636483823286984
9/16/2012 18:00,15.5,3.2,44,11,48.3,101.16,Clear,15.547999999999993,1.3847705140973887
9/16/2012 19:00,14.2,3.9,50,6,25.0,101.18,Mainly Clear,14.334000000000014,1.6901261095420392
9/16/2012 20:00,12.5,4.6,59,6,25.0,101.18,Clear,12.363999999999999,1.7059487420644253
9/16/2012 21:00,12.8,5.4,61,6,25.0,101.18,Clear,12.679,1.7029880934173987
9/16/2012 22:00,13.1,5.4,60,6,25.0,101.2,Clear,13.014,1.6999478417927376
9/16/2012 23:00,12.1,5.6,64,6,25.0,101.21,Clear,12.077999999999998,1.7084845237134112
9/17/2012 0:00,11.5,8.6,82,4,25.0,101.2,Clear,11.541000000000004,1.7434626346010758
9/17/2012 1:00,10.1,8.4,89,4,25.0,101.21,Clear,10.117000000000013,1.7590894054480448
9/17/2012 2:00,10.1,7.8,86,6,25.0,101.18,Clear,10.086000000000006,1.7530322801745157
9/17/2012 3:00,10.1,8.4,89,7,25.0,101.16,Mostly Cloudy,10.106000000000014,1.7590894054480448
9/17/2012 4:00,11.1,8.3,83,7,25.0,101.12,Cloudy,11.081000000000008,1.7459700090483987
9/17/2012 5:00,12.1,7.9,75,7,25.0,101.12,Cloudy,12.139999999999993,1.7241591468416737
9/17/2012 6:00,12.5,9.0,79,4,48.3,101.13,Cloudy,12.682999999999998,1.7357508862871274
9/17/2012 7:00,13.7,9.7,77,7,24.1,101.13,Cloudy,13.644000000000016,1.7302348458823897
9/17/2012 8:00,14.7,10.8,77,9,24.1,101.13,Cloudy,14.715000000000009,1.7302348458823897
9/17/2012 9:00,16.8,13.1,79,13,24.1,101.13,Mainly Clear,16.79199999999998,1.7357508862871274
9/17/2012 10:00,18.2,13.6,75,17,24.1,101.11,Mainly Clear,18.179000000000027,1.7241591468416737
9/17/2012 11:00,19.9,14.9,73,15,24.1,101.09,Mainly Clear,19.85100000000002,1.718324698506683
9/17/2012 12:00,21.8,14.2,62,17,24.1,101.06,Mainly Clear,21.786999999999985,1.0305025778855286
9/17/2012 13:00,23.5,14.1,56,17,24.1,101.01,Mainly Clear,23.458000000000006,0.9607879911134949
9/17/2012 14:00,24.6,12.6,47,15,24.1,100.95,Clear,24.689999999999973,0.9365197406993433
9/17/2012 15:00,25.2,10.8,40,15,24.1,100.9,Clear,25.279999999999994,0.9557861893691004
9/17/2012 16:00,25.0,12.5,46,13,24.1,100.87,Mainly Clear,24.894000000000005,0.9384328601022601
9/17/2012 17:00,24.4,12.2,46,13,24.1,100.87,Clear,24.456000000000028,0.9384328601022601
9/17/2012 18:00,22.1,14.8,63,15,24.1,100.88,Mainly Clear,22.157999999999973,1.0503413361747098
9/17/2012 19:00,20.6,15.1,71,15,25.0,100.9,Mainly Clear,20.600999999999978,1.712430565280306
9/17/2012 20:00,20.0,15.4,75,13,25.0,100.88,Mainly Clear,19.84199999999998,1.7241591468416737
9/17/2012 21:00,19.3,15.3,78,0,25.0,100.88,Mainly Clear,19.210999999999984,1.733057876440812
9/17/2012 22:00,18.8,15.1,79,6,25.0,100.83,Mainly Clear,18.809999999999974,1.7357508862871274
9/17/2012 23:00,17.0,15.0,88,7,25.0,100.84,Mainly Clear,17.058999999999997,1.7571931537828946
9/18/2012 0:00,16.2,14.2,88,6,25.0,100.84,Mainly Clear,16.17900000000002,1.7571931537828946
9/18/2012 1:00,16.9,12.5,75,0,25.0,100.81,Mainly Clear,16.88800000000001,1.7241591468416737
9/18/2012 2:00,16.6,12.1,75,9,25.0,100.75,Clear,16.58499999999998,1.7241591468416737
9/18/2012 3:00,16.1,13.0,82,19,25.0,100.67,Mostly Cloudy,16.086999999999982,1.7434626346010758
9/18/2012 4:00,16.2,12.9,81,17,25.0,100.59,Mostly Cloudy,16.202000000000012,1.7408722768108806
9/18/2012 5:00,16.1,12.8,81,24,25.0,100.52,Mostly Cloudy,16.094999999999988,1.7408722768108806
9/18/2012 6:00,16.4,12.9,80,22,24.1,100.49,Mainly Clear,16.274,1.7383226557949913
9/18/2012 7:00,16.9,13.1,78,20,24.1,100.44,Mostly Cloudy,17.01600000000001,1.733057876440812
9/18/2012 8:00,18.5,13.4,72,26,24.1,100.4,Cloudy,18.443000000000005,1.7154802667147235
9/18/2012 9:00,18.7,13.8,73,19,24.1,100.31,Cloudy,18.710000000000022,1.718324698506683
9/18/2012 10:00,16.9,16.0,94,19,9.7,100.26,Rain,16.98100000000002,1.7677471105115399
9/18/2012 11:00,17.3,16.4,94,20,9.7,100.13,Rain,17.256999999999984,1.7677471105115399
9/18/2012 12:00,16.6,16.3,98,20,6.4,99.92,Rain,16.70599999999998,1.7720304913691292
9/18/2012 13:00,17.1,16.4,96,35,9.7,99.66,Rain,17.116999999999976,1.7699087340766253
9/18/2012 14:00,17.3,16.6,96,32,24.1,99.49,Rain,17.34099999999998,1.7699087340766253
9/18/2012 15:00,18.1,17.0,93,32,24.1,99.28,Rain,18.08199999999998,1.7663155381997573
9/18/2012 16:00,19.4,17.4,88,33,24.1,99.14,Rain,19.511,1.7571931537828946
9/18/2012 17:00,20.4,17.9,86,35,24.1,99.01,Rain,20.227999999999998,1.7530322801745157
9/18/2012 18:00,20.0,18.9,93,28,6.4,99.19,Rain,19.983,1.7663155381997573
9/18/2012 19:00,19.4,18.5,95,22,25.0,99.28,Rain,19.352000000000025,1.768832975474038
9/18/2012 20:00,19.2,17.9,92,24,25.0,99.33,Rain,19.13000000000001,1.764560779079539
9/18/2012 21:00,19.1,17.6,91,20,25.0,99.39,Cloudy,19.23999999999998,1.762772169746578
9/18/2012 22:00,18.8,17.6,93,30,9.7,99.44,Rain,18.850999999999978,1.7663155381997573
9/18/2012 23:00,17.7,16.1,90,33,12.9,99.52,Rain,17.722000000000023,1.7609487211792867
9/19/2012 0:00,12.8,11.2,90,37,25.0,99.78,Cloudy,12.724999999999982,1.7609487211792867
9/19/2012 1:00,11.0,9.1,88,28,25.0,99.95,Mostly Cloudy,11.03,1.7571931537828946
9/19/2012 2:00,9.7,7.6,87,35,25.0,100.1,Cloudy,9.714000000000016,1.755244623603565
9/19/2012 3:00,8.7,6.1,84,35,25.0,100.31,Cloudy,8.578000000000001,1.7483983249034645
9/19/2012 4:00,8.3,4.9,79,28,25.0,100.49,Cloudy,8.312999999999995,1.7363202755051093
9/19/2012 5:00,8.2,4.8,79,30,25.0,100.63,Mostly Cloudy,8.179000000000004,1.7371862477829778
9/19/2012 6:00,8.0,4.2,77,26,24.1,100.79,Cloudy,7.999999999999997,1.7383226557949913
9/19/2012 7:00,8.2,4.1,75,33,24.1,100.92,Mostly Cloudy,8.286000000000007,1.7364958303125984
9/19/2012 8:00,8.6,4.1,73,26,24.1,101.04,Mostly Cloudy,8.68800000000001,1.7338246324496127
9/19/2012 9:00,9.2,4.1,70,32,24.1,101.13,Mostly Cloudy,9.182000000000015,1.730364807787424
9/19/2012 10:00,11.0,3.6,60,32,48.3,101.19,Mostly Cloudy,11.172,1.7156858100926242
9/19/2012 11:00,12.0,3.9,58,24,48.3,101.29,Mostly Cloudy,12.024000000000003,1.7089480392280578
9/19/2012 12:00,13.2,4.0,54,22,48.3,101.37,Mostly Cloudy,13.273000000000017,1.698283250312446
9/19/2012 13:00,13.6,2.7,48,24,48.3,101.41,Mostly Cloudy,13.544999999999993,1.6964115996510445
9/19/2012 14:00,14.5,3.0,46,24,48.3,101.45,Mainly Clear,14.581999999999995,1.687834215967661
9/19/2012 15:00,14.3,0.9,40,15,48.3,101.49,Mainly Clear,14.34799999999998,1.6900012385183314
9/19/2012 16:00,14.2,2.2,44,19,48.3,101.6,Mainly Clear,14.122000000000012,1.6919554259931058
9/19/2012 17:00,12.7,2.3,49,11,48.3,101.66,Mainly Clear,12.718000000000012,1.7026085186916626
9/19/2012 18:00,10.6,2.1,56,11,48.3,101.68,Clear,10.781,1.7184550536187362
9/19/2012 19:00,10.0,2.5,60,4,25.0,101.75,Clear,9.950999999999995,1.7245489507295502
9/19/2012 20:00,8.8,3.2,68,4,25.0,101.81,Clear,8.748999999999988,1.7334082755650728
9/19/2012 21:00,9.5,2.7,62,0,25.0,101.83,Clear,9.853,1.725321358385992
9/19/2012 22:00,8.5,2.7,67,0,25.0,101.85,Clear,8.512999999999998,1.735002763606988
9/19/2012 23:00,9.8,3.1,63,4,25.0,101.88,Clear,9.83599999999999,1.725454380417207
9/20/2012 0:00,7.2,4.5,83,7,25.0,101.88,Clear,7.173000000000005,1.7459700090483987
9/20/2012 1:00,8.4,4.0,74,6,25.0,101.92,Clear,8.51599999999999,1.7349827684092805
9/20/2012 2:00,9.0,4.0,71,7,25.0,101.89,Clear,9.047000000000004,1.7313306041950949
9/20/2012 3:00,8.0,4.8,80,4,25.0,101.91,Clear,8.073,1.7383226557949913
9/20/2012 4:00,8.3,5.7,84,9,25.0,101.91,Clear,8.30599999999999,1.7483983249034645
9/20/2012 5:00,7.7,6.5,92,6,25.0,101.95,Clear,7.792000000000009,1.764560779079539
9/20/2012 6:00,7.7,6.5,92,6,48.3,101.97,Clear,7.793000000000009,1.764560779079539
9/20/2012 7:00,9.6,6.9,83,9,48.3,101.95,Clear,9.616999999999997,1.7459700090483987
9/20/2012 8:00,11.7,7.6,76,7,48.3,101.94,Clear,11.675000000000013,1.7272721454173066
9/20/2012 9:00,12.8,7.6,71,15,48.3,101.85,Clear,12.73399999999998,1.712430565280306
9/20/2012 10:00,15.2,7.4,60,20,48.3,101.76,Clear,15.195000000000011,1.5602923022668231
9/20/2012 11:00,16.2,6.9,54,19,48.3,101.65,Clear,16.371999999999986,1.119991837023576
9/20/2012 12:00,17.6,7.3,51,15,48.3,101.56,Clear,17.56899999999998,1.0102770678267576
9/20/2012 13:00,18.3,6.7,47,22,48.3,101.48,Mainly Clear,18.425999999999974,0.983457756996472
9/20/2012 14:00,19.3,6.9,44,15,48.3,101.43,Mainly Clear,19.390999999999984,0.9658173793929978
9/20/2012 15:00,19.1,7.5,47,20,48.3,101.39,Clear,19.12099999999997,0.9705165609188134
9/20/2012 16:00,18.7,7.7,49,24,48.3,101.31,Clear,18.413000000000004,0.9838195486509831
9/20/2012 17:00,18.0,7.9,52,26,48.3,101.31,Clear,17.927999999999994,0.9977168509506226
9/20/2012 18:00,16.6,7.9,56,19,48.3,101.26,Clear,16.57899999999998,1.078360560741694
9/20/2012 19:00,16.2,7.9,58,24,25.0,101.27,Clear,16.20400000000002,1.159119496855341
9/20/2012 20:00,15.6,7.9,60,20,25.0,101.24,Mainly Clear,15.697999999999988,1.32372692127649
9/20/2012 21:00,15.4,7.9,61,20,25.0,101.25,Clear,15.488000000000016,1.4111259955291664
9/20/2012 22:00,13.4,8.5,72,15,25.0,101.25,Clear,13.364000000000008,1.7154802667147235
9/20/2012 23:00,14.0,8.9,71,19,25.0,101.24,Mainly Clear,14.042,1.712430565280306
9/21/2012 0:00,13.7,9.6,76,19,25.0,101.23,Mainly Clear,13.705000000000018,1.7272721454173066
9/21/2012 1:00,13.1,9.9,81,20,25.0,101.23,Mainly Clear,13.026999999999997,1.7408722768108806
9/21/2012 2:00,13.5,10.5,82,19,25.0,101.18,Mostly Cloudy,13.521,1.7434626346010758
9/21/2012 3:00,13.9,11.0,83,15,25.0,101.14,Mostly Cloudy,13.784000000000008,1.7459700090483987
9/21/2012 4:00,14.3,11.4,83,19,25.0,101.14,Cloudy,14.292999999999981,1.7459700090483987
9/21/2012 5:00,14.4,11.2,81,19,25.0,101.17,Mostly Cloudy,14.381000000000014,1.7408722768108806
9/21/2012 6:00,14.4,11.4,82,19,48.3,101.19,Mostly Cloudy,14.412000000000008,1.7434626346010758
9/21/2012 7:00,14.6,11.4,81,17,48.3,101.18,Cloudy,14.52300000000001,1.7408722768108806
9/21/2012 8:00,15.2,11.8,80,15,48.3,101.23,Cloudy,15.23400000000002,1.7383226557949913
9/21/2012 9:00,16.0,12.4,79,15,48.3,101.21,Cloudy,16.101999999999993,1.7357508862871274
9/21/2012 10:00,16.7,12.9,78,13,48.3,101.17,Cloudy,16.706000000000014,1.733057876440812
9/21/2012 11:00,17.1,12.8,76,15,48.3,101.13,Cloudy,17.070999999999984,1.7272721454173066
9/21/2012 12:00,17.8,13.3,75,17,48.3,101.08,Cloudy,17.775,1.7241591468416737
9/21/2012 13:00,18.2,13.6,75,15,48.3,101.0,Cloudy,18.186000000000025,1.7241591468416737
9/21/2012 14:00,19.2,13.9,71,17,48.3,100.95,Cloudy,19.24000000000002,1.712430565280306
9/21/2012 15:00,19.3,13.9,71,13,24.1,100.93,Mostly Cloudy,19.287999999999975,1.712430565280306
9/21/2012 16:00,19.0,14.1,73,6,24.1,100.89,Cloudy,19.033000000000005,1.718324698506683
9/21/2012 17:00,17.3,15.5,89,4,24.1,100.88,Cloudy,17.306999999999988,1.7590894054480448
9/21/2012 18:00,15.9,15.2,96,19,19.3,100.95,Cloudy,16.04500000000001,1.7699087340766253
9/21/2012 19:00,15.2,15.1,99,7,25.0,101.01,Rain,15.703000000000022,1.7730767632267987
9/21/2012 20:00,15.7,15.2,97,4,25.0,101.01,Cloudy,15.75500000000002,1.7709745267585884
9/21/2012 21:00,15.4,15.3,99,0,9.7,101.04,"Rain,Fog",15.487000000000016,1.7730767632267987
9/21/2012 22:00,15.7,15.4,98,13,8.0,100.99,"Rain,Fog",15.733000000000022,1.7720304913691292
9/21/2012 23:00,15.7,15.6,99,13,6.4,100.93,Fog,15.800000000000022,1.7730767632267987
9/22/2012 0:00,15.7,15.4,98,7,8.0,100.87,Fog,15.714000000000022,1.7720304913691292
9/22/2012 1:00,15.9,15.4,97,7,11.3,100.85,Cloudy,15.759000000000022,1.7709745267585884
9/22/2012 2:00,15.9,14.7,93,11,19.3,100.76,Cloudy,15.962999999999996,1.7663155381997573
9/22/2012 3:00,15.8,14.4,91,24,19.3,100.68,Rain Showers,15.786999999999978,1.762772169746578
9/22/2012 4:00,15.4,14.1,92,20,19.3,100.5,Rain Showers,15.410000000000004,1.764560779079539
9/22/2012 5:00,15.4,13.3,87,24,25.0,100.46,Cloudy,15.405000000000015,1.755244623603565
9/22/2012 6:00,15.6,12.8,83,26,24.1,100.43,Mostly Cloudy,15.603999999999987,1.7459700090483987
9/22/2012 7:00,16.2,12.8,80,33,24.1,100.36,Mostly Cloudy,16.181000000000015,1.7383226557949913
9/22/2012 8:00,16.4,13.1,81,32,48.3,100.25,Mostly Cloudy,16.45100000000001,1.7408722768108806
9/22/2012 9:00,17.3,13.1,76,39,24.1,100.19,Cloudy,17.34499999999998,1.7272721454173066
9/22/2012 10:00,18.5,13.8,74,33,24.1,100.14,Mostly Cloudy,18.533,1.7209839103698092
9/22/2012 11:00,18.4,14.1,76,32,24.1,100.09,Cloudy,18.368000000000013,1.7272721454173066
9/22/2012 12:00,16.9,15.6,92,22,16.1,100.23,Rain Showers,16.743000000000016,1.764560779079539
9/22/2012 13:00,16.6,15.6,94,15,19.3,100.22,Rain Showers,16.664000000000012,1.7677471105115399
9/22/2012 14:00,16.3,15.7,96,22,6.4,100.29,"Rain,Fog",16.32199999999999,1.7699087340766253
9/22/2012 15:00,16.1,15.0,93,9,24.1,100.32,Rain,16.430000000000007,1.7663155381997573
9/22/2012 16:00,16.8,15.2,90,15,24.1,100.28,Mostly Cloudy,16.739999999999988,1.7609487211792867
9/22/2012 17:00,16.4,14.9,91,13,24.1,100.32,Mostly Cloudy,16.39500000000001,1.762772169746578
9/22/2012 18:00,16.1,15.6,97,13,25.0,100.33,Rain Showers,16.021000000000022,1.7709745267585884
9/22/2012 19:00,16.0,15.3,96,9,25.0,100.36,Rain Showers,16.097000000000023,1.7699087340766253
9/22/2012 20:00,16.3,14.0,86,20,25.0,100.39,Cloudy,16.210999999999984,1.7530322801745157
9/22/2012 21:00,15.7,13.4,86,26,25.0,100.37,Cloudy,15.677999999999988,1.7530322801745157
9/22/2012 22:00,15.4,12.7,84,22,25.0,100.41,Cloudy,15.38900000000001,1.7483983249034645
9/22/2012 23:00,15.1,12.0,82,22,25.0,100.42,Cloudy,15.08999999999999,1.7434626346010758
9/23/2012 0:00,14.2,10.4,78,26,25.0,100.41,Mostly Cloudy,14.176000000000021,1.733057876440812
9/23/2012 1:00,12.8,9.6,81,17,25.0,100.46,Mostly Cloudy,12.643000000000002,1.7408722768108806
9/23/2012 2:00,12.2,8.3,77,26,25.0,100.56,Mostly Cloudy,12.122000000000014,1.7302348458823897
9/23/2012 3:00,11.6,8.0,79,24,25.0,100.58,Cloudy,11.61,1.7357508862871274
9/23/2012 4:00,11.0,7.4,78,24,25.0,100.63,Mostly Cloudy,11.008000000000003,1.733057876440812
9/23/2012 5:00,10.2,7.3,82,20,25.0,100.7,Mainly Clear,10.265000000000008,1.7434626346010758
9/23/2012 6:00,9.9,7.4,84,19,24.1,100.77,Mainly Clear,9.938999999999991,1.7483983249034645
9/23/2012 7:00,10.6,7.8,83,20,24.1,100.82,Mainly Clear,10.57900000000001,1.7459700090483987
9/23/2012 8:00,11.3,7.6,78,28,48.3,100.89,Mainly Clear,11.308000000000003,1.733057876440812
9/23/2012 9:00,12.0,6.8,70,24,48.3,100.9,Mainly Clear,12.019000000000004,1.7091525423728813
9/23/2012 10:00,13.2,5.6,60,33,48.3,100.97,Mainly Clear,13.227000000000011,1.6985869305004844
9/23/2012 11:00,13.5,4.0,53,28,48.3,101.0,Mainly Clear,13.532000000000005,1.696504130866246
9/23/2012 12:00,15.6,4.5,48,26,48.3,101.0,Mainly Clear,15.567999999999989,1.3762449120444677
9/23/2012 13:00,14.6,4.2,50,30,48.3,101.01,Mainly Clear,14.63699999999999,1.6873019582665991
9/23/2012 14:00,16.0,4.1,45,28,48.3,101.02,Mainly Clear,15.947000000000001,1.2353725963806539
9/23/2012 15:00,15.1,4.6,49,24,48.3,101.04,Mainly Clear,15.272999999999989,1.516859599451212
9/23/2012 16:00,15.1,5.7,53,15,48.3,101.07,Mainly Clear,15.030999999999995,1.6623859031956985
9/23/2012 17:00,14.3,3.4,48,20,48.3,101.11,Mainly Clear,14.024999999999983,1.6927556650593514
9/23/2012 18:00,10.9,4.3,64,9,25.0,101.17,Mainly Clear,11.001999999999994,1.716912603441262
9/23/2012 19:00,9.8,5.3,74,4,25.0,101.23,Mainly Clear,9.787999999999991,1.7258284444493373
9/23/2012 20:00,11.4,4.7,63,9,25.0,101.31,Mainly Clear,11.461999999999996,1.7135072731577246
9/23/2012 21:00,8.7,5.2,79,7,25.0,101.38,Mainly Clear,8.66600000000001,1.7357508862871274
9/23/2012 22:00,7.2,4.9,85,7,25.0,101.41,Mainly Clear,7.2800000000000065,1.7507512632600475
9/23/2012 23:00,9.2,5.2,76,7,25.0,101.43,Mostly Cloudy,9.239000000000008,1.7299522908178449
9/24/2012 0:00,7.7,5.1,84,0,25.0,101.42,Mainly Clear,7.704000000000005,1.7483983249034645
9/24/2012 1:00,5.7,4.3,91,6,25.0,101.41,Mainly Clear,5.700999999999997,1.762772169746578
9/24/2012 2:00,6.9,5.1,88,0,25.0,101.37,Clear,6.991000000000002,1.7571931537828946
9/24/2012 3:00,5.7,4.7,93,0,25.0,101.38,Clear,5.852999999999997,1.7663155381997573
9/24/2012 4:00,7.2,5.0,86,4,25.0,101.42,Mainly Clear,7.173000000000006,1.7530322801745157
9/24/2012 5:00,8.0,7.8,99,0,25.0,101.44,Mostly Cloudy,8.285000000000002,1.7730767632267987
9/24/2012 6:00,6.9,6.8,99,9,48.3,101.47,Mostly Cloudy,7.0099999999999945,1.7730767632267987
9/24/2012 7:00,7.9,7.5,97,6,48.3,101.48,Mostly Cloudy,8.251000000000005,1.7709745267585884
9/24/2012 8:00,9.9,7.5,85,13,48.3,101.51,Mainly Clear,9.932999999999998,1.7507512632600475
9/24/2012 9:00,11.0,7.9,81,13,48.3,101.49,Mainly Clear,11.033999999999999,1.7408722768108806
9/24/2012 10:00,12.8,7.5,70,22,48.3,101.46,Mainly Clear,12.698000000000002,1.7091525423728813
9/24/2012 11:00,14.2,5.5,56,28,48.3,101.44,Mainly Clear,13.988000000000005,1.6930551277577108
9/24/2012 12:00,15.0,5.7,54,20,48.3,101.37,Mainly Clear,14.916999999999994,1.6844445335830343
9/24/2012 13:00,15.8,3.2,43,28,48.3,101.28,Mainly Clear,15.772999999999984,1.2955386540679759
9/24/2012 14:00,16.6,3.7,42,32,48.3,101.23,Mainly Clear,16.62699999999998,1.0693492139919398
9/24/2012 15:00,16.3,3.6,43,24,48.3,101.13,Mainly Clear,16.589999999999982,1.0762753301037085
9/24/2012 16:00,16.4,4.5,45,26,48.3,101.09,Mainly Clear,16.386000000000003,1.1170248965806555
9/24/2012 17:00,15.3,5.2,51,28,48.3,101.06,Mainly Clear,15.151999999999976,1.5855696860551804
9/24/2012 18:00,14.4,5.8,56,22,25.0,101.03,Mainly Clear,14.391000000000004,1.6896144284276133
9/24/2012 19:00,13.8,5.6,58,33,25.0,101.05,Mainly Clear,13.692999999999985,1.6953351479254897
9/24/2012 20:00,12.1,6.3,68,15,25.0,101.06,Mainly Clear,12.084000000000003,1.708432730515476
9/24/2012 21:00,11.7,6.2,69,17,25.0,101.06,Mostly Cloudy,11.680000000000017,1.711794023057682
9/24/2012 22:00,12.6,5.6,62,17,25.0,101.08,Mostly Cloudy,12.595999999999995,1.7037861385366777
9/24/2012 23:00,12.1,5.6,64,20,25.0,101.04,Mainly Clear,12.210000000000003,1.707331368158989
9/25/2012 0:00,11.9,6.0,67,17,25.0,101.02,Mostly Cloudy,11.889999999999997,1.7100782142185231
9/25/2012 1:00,12.1,6.4,68,19,25.0,100.92,Mostly Cloudy,12.101999999999999,1.7082769985750181
9/25/2012 2:00,11.7,5.3,65,20,25.0,100.88,Mostly Cloudy,11.594000000000017,1.712477935785584
9/25/2012 3:00,11.2,5.5,68,20,25.0,100.85,Mostly Cloudy,11.26500000000001,1.714999226905282
9/25/2012 4:00,11.6,5.3,65,24,25.0,100.85,Mostly Cloudy,11.556000000000008,1.7127767629113402
9/25/2012 5:00,11.3,6.0,70,17,25.0,100.85,Cloudy,11.294999999999991,1.7147753568583182
9/25/2012 6:00,12.4,6.1,65,19,48.3,100.89,Mostly Cloudy,12.388,1.705729543285768
9/25/2012 7:00,13.0,6.9,66,28,48.3,100.89,Mainly Clear,13.055999999999997,1.699685225599812
9/25/2012 8:00,14.1,7.2,63,24,48.3,100.92,Mainly Clear,14.104999999999988,1.6920972870967153
9/25/2012 9:00,16.3,8.6,60,32,48.3,100.93,Mainly Clear,16.433999999999983,1.1347777072413765
9/25/2012 10:00,17.4,9.0,58,35,48.3,100.92,Mainly Clear,17.295000000000012,1.0330290754894509
9/25/2012 11:00,18.0,9.2,56,28,48.3,100.94,Mainly Clear,18.037000000000006,1.0022505869148572
9/25/2012 12:00,18.1,9.6,58,30,48.3,100.99,Mostly Cloudy,18.028999999999982,1.016526198870296
9/25/2012 13:00,18.9,9.9,56,33,48.3,100.99,Mostly Cloudy,18.88800000000002,0.9889458777818013
9/25/2012 14:00,19.0,10.4,57,32,48.3,100.97,Mostly Cloudy,19.034,0.9937217857526344
9/25/2012 15:00,19.0,10.2,57,28,48.3,100.98,Mostly Cloudy,18.864000000000022,0.9951118362969572
9/25/2012 16:00,19.2,9.5,53,19,48.3,100.98,Mostly Cloudy,19.325000000000017,0.9710007879261132
9/25/2012 17:00,18.8,10.5,59,9,48.3,100.98,Mainly Clear,18.75999999999998,1.0096212582614577
9/25/2012 18:00,17.8,10.9,64,13,24.1,100.99,Mainly Clear,17.73899999999998,1.085160434019506
9/25/2012 19:00,16.6,10.5,67,11,25.0,101.02,Clear,16.656999999999986,1.2523873978786297
9/25/2012 20:00,15.7,10.6,72,7,25.0,101.03,Mainly Clear,15.660000000000025,1.7154802667147235
9/25/2012 21:00,14.3,10.5,78,13,25.0,101.06,Mostly Cloudy,14.25799999999998,1.733057876440812
9/25/2012 22:00,13.1,9.5,79,7,25.0,101.05,Mainly Clear,13.07399999999999,1.7357508862871274
9/25/2012 23:00,14.0,9.2,73,17,25.0,101.03,Cloudy,14.022999999999998,1.718324698506683
9/26/2012 0:00,14.2,9.9,75,15,25.0,101.02,Mostly Cloudy,14.240000000000023,1.7241591468416737
9/26/2012 1:00,14.0,9.7,75,17,25.0,100.96,Mostly Cloudy,14.006000000000004,1.7241591468416737
9/26/2012 2:00,14.1,9.3,73,17,25.0,100.89,Mostly Cloudy,14.084999999999996,1.718324698506683
9/26/2012 3:00,14.7,8.7,67,17,25.0,100.87,Mostly Cloudy,14.787000000000017,1.698763522260988
9/26/2012 4:00,14.6,9.0,69,17,25.0,100.88,Mostly Cloudy,14.555999999999997,1.7056195602958193
9/26/2012 5:00,15.1,9.2,68,17,25.0,100.84,Mostly Cloudy,15.105999999999987,1.6503158221312118
9/26/2012 6:00,15.0,9.1,68,17,24.1,100.86,Cloudy,14.927000000000012,1.7018006700167505
9/26/2012 7:00,14.9,10.4,74,19,24.1,100.87,Cloudy,14.876000000000008,1.7209839103698092
9/26/2012 8:00,14.9,11.0,77,19,24.1,100.89,Cloudy,14.898000000000009,1.7302348458823897
9/26/2012 9:00,15.4,12.0,80,20,24.1,100.88,Cloudy,15.37900000000002,1.7383226557949913
9/26/2012 10:00,16.7,12.6,77,19,24.1,100.89,Cloudy,16.72999999999999,1.7302348458823897
9/26/2012 11:00,18.1,13.5,74,20,24.1,100.84,Cloudy,18.19299999999998,1.7209839103698092
9/26/2012 12:00,18.1,13.9,76,15,24.1,100.82,Cloudy,17.989999999999995,1.7272721454173066
9/26/2012 13:00,18.8,14.6,77,20,24.1,100.8,Cloudy,18.84599999999999,1.7302348458823897
9/26/2012 14:00,20.0,14.8,72,24,24.1,100.73,Cloudy,19.955000000000002,1.7154802667147235
9/26/2012 15:00,17.6,15.6,88,11,24.1,100.75,Mostly Cloudy,17.591999999999977,1.7571931537828946
9/26/2012 16:00,18.8,15.2,80,7,24.1,100.74,Rain Showers,18.596999999999984,1.7383226557949913
9/26/2012 17:00,16.1,12.6,80,19,24.1,100.86,Mostly Cloudy,16.063999999999982,1.7383226557949913
9/26/2012 18:00,14.6,10.2,75,17,24.1,101.0,Mostly Cloudy,14.595999999999997,1.7241591468416737
9/26/2012 19:00,13.6,9.5,76,7,25.0,101.09,Mostly Cloudy,13.579000000000002,1.7272721454173066
9/26/2012 20:00,13.8,7.8,67,15,25.0,101.22,Cloudy,13.782000000000009,1.698763522260988
9/26/2012 21:00,13.6,7.0,64,6,25.0,101.33,Cloudy,13.61799999999999,1.69588599743984
9/26/2012 22:00,12.6,7.5,71,7,25.0,101.39,Mostly Cloudy,12.594999999999992,1.712430565280306
9/26/2012 23:00,11.9,6.2,68,7,25.0,101.46,Mostly Cloudy,11.916000000000002,1.7098611255923772
9/27/2012 0:00,10.1,6.0,76,7,25.0,101.51,Mainly Clear,10.134999999999996,1.7272721454173066
9/27/2012 1:00,8.3,6.3,87,9,25.0,101.54,Mainly Clear,8.329999999999986,1.755244623603565
9/27/2012 2:00,7.4,5.9,90,9,25.0,101.56,Mainly Clear,7.547999999999993,1.7609487211792867
9/27/2012 3:00,6.3,4.9,91,9,25.0,101.63,Clear,6.412000000000001,1.762772169746578
9/27/2012 4:00,5.1,4.1,93,11,25.0,101.69,Clear,5.222000000000006,1.7663155381997573
9/27/2012 5:00,6.0,4.6,91,7,25.0,101.76,Clear,6.004,1.762772169746578
9/27/2012 6:00,6.4,4.3,86,0,48.3,101.86,Clear,6.418999999999994,1.7530322801745157
9/27/2012 7:00,7.5,5.3,86,0,48.3,101.91,Clear,7.522,1.7530322801745157
9/27/2012 8:00,9.0,5.6,79,11,48.3,101.99,Clear,8.826999999999993,1.7357508862871274
9/27/2012 9:00,10.9,5.1,67,9,48.3,102.03,Mainly Clear,11.072000000000005,1.716411802867307
9/27/2012 10:00,12.8,4.4,57,4,48.3,102.06,Mainly Clear,12.762999999999984,1.702166840217095
9/27/2012 11:00,12.8,3.5,53,6,48.3,102.04,Mainly Clear,12.845999999999986,1.70134159132963
9/27/2012 12:00,12.9,3.8,54,4,48.3,102.04,Mainly Clear,12.919000000000006,1.7006041766644198
9/27/2012 13:00,13.6,4.5,54,11,48.3,101.99,Mostly Cloudy,13.679999999999996,1.6954314305612033
9/27/2012 14:00,14.9,4.4,49,4,48.3,101.95,Mainly Clear,15.023000000000014,1.6677853045628923
9/27/2012 15:00,15.1,4.7,50,9,48.3,101.93,Mainly Clear,15.076999999999993,1.6321387255941147
9/27/2012 16:00,15.1,3.7,46,11,48.3,101.93,Mainly Clear,15.252999999999986,1.527712051649818
9/27/2012 17:00,14.6,3.6,48,7,48.3,101.94,Mainly Clear,14.681000000000004,1.686869544563782
9/27/2012 18:00,13.1,3.8,53,7,48.3,101.97,Mainly Clear,13.211999999999998,1.6986851870287583
9/27/2012 19:00,10.6,4.4,65,0,25.0,102.0,Clear,10.860999999999995,1.7179033585556593
9/27/2012 20:00,11.5,4.9,64,4,25.0,102.01,Mainly Clear,11.403999999999991,1.713951940599318
9/27/2012 21:00,9.4,5.5,77,7,25.0,102.01,Clear,9.380999999999991,1.7302348458823897
9/27/2012 22:00,9.3,4.8,73,4,25.0,101.99,Clear,9.322999999999992,1.729339159295986
9/27/2012 23:00,9.2,4.6,73,4,25.0,101.98,Clear,9.213000000000006,1.730140808765129
9/28/2012 0:00,9.2,4.0,70,6,25.0,101.96,Clear,9.18300000000001,1.7303575950815897
9/28/2012 1:00,8.0,4.7,80,7,25.0,101.98,Mainly Clear,7.874000000000004,1.7391089521171874
9/28/2012 2:00,8.9,5.2,78,6,25.0,101.94,Mainly Clear,8.94899999999999,1.733057876440812
9/28/2012 3:00,7.2,4.9,85,9,25.0,101.92,Clear,7.234000000000005,1.7507512632600475
9/28/2012 4:00,6.0,5.3,95,9,25.0,101.91,Clear,6.075,1.768832975474038
9/28/2012 5:00,5.1,4.6,97,7,25.0,101.87,Mainly Clear,5.305999999999999,1.7709745267585884
9/28/2012 6:00,5.3,4.1,92,9,48.3,101.83,Mainly Clear,5.365000000000005,1.764560779079539
9/28/2012 7:00,7.6,4.7,82,11,48.3,101.8,Mainly Clear,7.450000000000009,1.7434626346010758
9/28/2012 8:00,9.3,5.8,79,9,48.3,101.81,Mainly Clear,9.191999999999984,1.7357508862871274
9/28/2012 9:00,10.7,5.3,69,13,48.3,101.76,Mostly Cloudy,10.660000000000016,1.7192755453526423
9/28/2012 10:00,13.3,6.0,61,13,48.3,101.67,Mostly Cloudy,13.319999999999986,1.6979692405737423
9/28/2012 11:00,14.6,5.2,53,13,48.3,101.62,Mostly Cloudy,14.599999999999989,1.687661020116669
9/28/2012 12:00,15.8,7.1,56,7,48.3,101.55,Mostly Cloudy,15.864999999999975,1.2628637154663858
9/28/2012 13:00,16.6,6.9,53,9,48.3,101.42,Mainly Clear,16.584999999999976,1.077221661962719
9/28/2012 14:00,16.7,8.7,59,17,24.1,101.37,Mostly Cloudy,16.721000000000007,1.0734310789867803
9/28/2012 15:00,15.6,9.6,67,19,24.1,101.35,Mostly Cloudy,15.632999999999987,1.4432531006715636
9/28/2012 16:00,14.2,10.0,76,17,24.1,101.33,Mostly Cloudy,14.15300000000002,1.7272721454173066
9/28/2012 17:00,13.3,10.1,81,17,24.1,101.34,Mostly Cloudy,13.247999999999982,1.7408722768108806
9/28/2012 18:00,12.9,10.0,83,15,24.1,101.33,Mostly Cloudy,12.913000000000002,1.7459700090483987
9/28/2012 19:00,13.0,10.0,82,15,25.0,101.35,Mostly Cloudy,13.069999999999999,1.7434626346010758
9/28/2012 20:00,13.1,10.1,82,4,25.0,101.34,Mostly Cloudy,13.152999999999997,1.7434626346010758
9/28/2012 21:00,13.1,9.8,80,7,25.0,101.32,Mostly Cloudy,13.099999999999993,1.7383226557949913
9/28/2012 22:00,13.1,9.8,80,9,25.0,101.3,Mostly Cloudy,13.107999999999993,1.7383226557949913
9/28/2012 23:00,13.1,9.2,77,11,19.3,101.29,Cloudy,13.153999999999991,1.7302348458823897
9/29/2012 0:00,13.0,9.3,78,7,19.3,101.27,Cloudy,13.033000000000001,1.733057876440812
9/29/2012 1:00,13.1,9.3,78,9,25.0,101.24,Cloudy,13.088999999999997,1.733057876440812
9/29/2012 2:00,13.0,9.3,78,11,25.0,101.2,Cloudy,13.032999999999998,1.733057876440812
9/29/2012 3:00,11.7,9.9,89,11,25.0,101.19,Cloudy,11.66300000000001,1.7590894054480448
9/29/2012 4:00,11.3,9.6,89,15,25.0,101.19,Cloudy,11.281999999999998,1.7590894054480448
9/29/2012 5:00,10.3,8.9,91,19,25.0,101.23,Cloudy,10.406000000000008,1.762772169746578
9/29/2012 6:00,10.2,8.8,91,11,25.0,101.27,Cloudy,10.273000000000014,1.762772169746578
9/29/2012 7:00,9.8,8.6,92,17,25.0,101.29,Cloudy,9.827999999999992,1.764560779079539
9/29/2012 8:00,10.9,9.0,88,19,24.1,101.28,Cloudy,11.071,1.7571931537828946
9/29/2012 9:00,12.4,9.6,83,22,24.1,101.27,Mostly Cloudy,12.412999999999997,1.7459700090483987
9/29/2012 10:00,13.0,10.0,82,20,24.1,101.23,Cloudy,13.049000000000001,1.7434626346010758
9/29/2012 11:00,12.6,9.8,83,24,24.1,101.19,Cloudy,12.556,1.7459700090483987
9/29/2012 12:00,12.6,9.9,84,22,24.1,101.18,Drizzle,12.594999999999997,1.7483983249034645
9/29/2012 13:00,12.4,9.8,84,19,24.1,101.15,Drizzle,12.414000000000003,1.7483983249034645
9/29/2012 14:00,12.6,9.8,83,19,24.1,101.12,Cloudy,12.6,1.7459700090483987
9/29/2012 15:00,11.6,10.1,91,20,19.3,101.11,Drizzle,11.635000000000009,1.762772169746578
9/29/2012 16:00,11.7,9.8,88,26,24.1,101.11,Cloudy,11.700000000000015,1.7571931537828946
9/29/2012 17:00,11.1,10.4,95,22,9.7,101.12,Drizzle,11.408000000000005,1.768832975474038
9/29/2012 18:00,10.8,9.8,94,20,16.1,101.12,Drizzle,10.827999999999983,1.7677471105115399
9/29/2012 19:00,10.5,10.2,98,19,6.4,101.15,"Drizzle,Fog",10.739999999999998,1.7720304913691292
9/29/2012 20:00,10.5,9.9,96,24,8.0,101.13,"Drizzle,Fog",10.804999999999993,1.7699087340766253
9/29/2012 21:00,10.7,9.8,94,22,9.7,101.11,"Drizzle,Fog",10.79699999999999,1.7677471105115399
9/29/2012 22:00,10.6,9.9,95,20,9.7,101.08,"Drizzle,Fog",10.880999999999995,1.768832975474038
9/29/2012 23:00,10.8,9.7,93,17,12.9,101.06,Drizzle,10.781999999999984,1.7663155381997573
9/30/2012 0:00,10.8,9.4,91,13,8.0,101.03,"Drizzle,Fog",10.849000000000007,1.762772169746578
9/30/2012 1:00,10.7,9.6,93,15,8.0,101.02,"Drizzle,Fog",10.741000000000007,1.7663155381997573
9/30/2012 2:00,10.3,9.8,97,20,6.4,100.97,"Drizzle,Fog",10.357999999999986,1.7709745267585884
9/30/2012 3:00,10.4,9.6,95,17,12.9,100.92,Drizzle,10.440999999999985,1.768832975474038
9/30/2012 4:00,10.8,9.5,92,17,12.9,100.96,Cloudy,10.772999999999982,1.764560779079539
9/30/2012 5:00,10.9,9.6,92,15,16.1,100.92,Cloudy,10.900999999999993,1.764560779079539
9/30/2012 6:00,11.0,9.6,91,13,19.3,100.9,Cloudy,11.0,1.762772169746578
9/30/2012 7:00,11.2,9.9,92,15,19.3,100.88,Cloudy,11.233000000000015,1.764560779079539
9/30/2012 8:00,11.4,9.9,90,19,19.3,100.9,Cloudy,11.43,1.7609487211792867
9/30/2012 9:00,11.7,9.9,89,20,19.3,100.84,Cloudy,11.694000000000015,1.7590894054480448
9/30/2012 10:00,11.9,10.1,89,17,19.3,100.79,Cloudy,11.896000000000006,1.7590894054480448
9/30/2012 11:00,12.2,10.2,88,19,12.9,100.72,Cloudy,12.15800000000002,1.7571931537828946
9/30/2012 12:00,11.8,11.1,95,17,9.7,100.65,"Drizzle,Fog",11.79599999999999,1.768832975474038
9/30/2012 13:00,11.4,11.0,97,13,6.4,100.54,"Drizzle,Fog",11.419999999999998,1.7709745267585884
9/30/2012 14:00,11.5,11.1,97,19,8.0,100.46,"Rain,Fog",11.483000000000002,1.7709745267585884
9/30/2012 15:00,11.6,10.9,95,20,6.4,100.36,"Rain,Fog",11.675,1.768832975474038
9/30/2012 16:00,11.7,11.2,97,13,8.0,100.28,"Rain,Fog",11.651000000000018,1.7709745267585884
9/30/2012 17:00,11.7,11.2,97,11,8.0,100.21,"Rain,Fog",11.646000000000017,1.7709745267585884
9/30/2012 18:00,11.6,11.5,99,4,9.7,100.15,"Rain,Fog",11.617,1.7730767632267987
9/30/2012 19:00,11.5,11.4,99,9,9.7,100.09,"Rain,Fog",11.510000000000002,1.7730767632267987
9/30/2012 20:00,11.6,11.6,100,9,8.0,100.0,"Rain,Fog",11.662999999999997,1.774113475177305
9/30/2012 21:00,11.6,11.5,99,11,9.7,99.9,"Rain,Fog",11.626,1.7730767632267987
9/30/2012 22:00,11.6,11.2,97,13,16.1,99.79,Rain,11.631000000000007,1.7709745267585884
9/30/2012 23:00,11.5,11.2,98,15,6.4,99.72,"Rain,Fog",11.483999999999996,1.7720304913691292
10/1/2012 0:00,11.5,11.1,97,15,19.3,99.62,Rain,11.512999999999998,1.7709745267585884
10/1/2012 1:00,11.4,11.1,98,17,6.4,99.56,"Rain,Fog",11.402999999999997,1.7720304913691292
10/1/2012 2:00,11.3,11.2,99,15,6.4,99.5,"Rain,Fog",11.327999999999989,1.7730767632267987
10/1/2012 3:00,11.2,11.0,99,17,8.0,99.44,"Rain,Fog",11.228000000000007,1.7730767632267987
10/1/2012 4:00,11.3,11.1,99,15,6.4,99.44,"Rain,Fog",11.31799999999999,1.7730767632267987
10/1/2012 5:00,11.3,11.1,99,15,8.0,99.47,"Rain,Fog",11.322999999999993,1.7730767632267987
10/1/2012 6:00,11.7,11.0,95,15,19.3,99.51,Cloudy,11.748999999999997,1.768832975474038
10/1/2012 7:00,12.1,11.2,94,17,19.3,99.6,Rain,12.02,1.7677471105115399
10/1/2012 8:00,12.6,11.8,95,17,24.1,99.7,Cloudy,12.618999999999996,1.768832975474038
10/1/2012 9:00,14.0,12.3,89,19,24.1,99.8,Mostly Cloudy,14.085999999999995,1.7590894054480448
10/1/2012 10:00,14.9,12.0,83,20,24.1,99.88,Cloudy,14.928000000000008,1.7459700090483987
10/1/2012 11:00,14.8,11.9,83,26,24.1,99.96,Cloudy,14.831999999999983,1.7459700090483987
10/1/2012 12:00,14.8,11.3,80,17,24.1,100.06,Cloudy,14.845999999999997,1.7383226557949913
10/1/2012 13:00,14.9,11.5,80,19,24.1,100.14,Cloudy,14.921000000000014,1.7383226557949913
10/1/2012 14:00,15.3,11.4,78,24,24.1,100.2,Cloudy,15.261999999999986,1.733057876440812
10/1/2012 15:00,15.2,11.5,79,26,24.1,100.27,Cloudy,15.213000000000015,1.7357508862871274
10/1/2012 16:00,15.0,11.5,80,19,24.1,100.35,Cloudy,14.985000000000003,1.7383226557949913
10/1/2012 17:00,14.9,11.4,80,17,48.3,100.45,Mostly Cloudy,14.874000000000018,1.7383226557949913
10/1/2012 18:00,14.6,11.6,82,6,25.0,100.51,Cloudy,14.663000000000004,1.7434626346010758
10/1/2012 19:00,14.6,11.7,83,9,25.0,100.57,Mostly Cloudy,14.650999999999994,1.7459700090483987
10/1/2012 20:00,13.8,11.7,87,9,25.0,100.61,Mostly Cloudy,13.91899999999999,1.755244623603565
10/1/2012 21:00,13.8,12.0,89,6,25.0,100.65,Mostly Cloudy,13.841999999999992,1.7590894054480448
10/1/2012 22:00,13.1,12.7,97,6,25.0,100.66,Mostly Cloudy,13.107999999999986,1.7709745267585884
10/1/2012 23:00,14.2,12.9,92,22,25.0,100.75,Mostly Cloudy,14.088000000000015,1.764560779079539
10/2/2012 0:00,13.5,12.7,95,9,25.0,100.74,Mostly Cloudy,13.529000000000003,1.768832975474038
10/2/2012 1:00,12.8,12.6,99,9,25.0,100.76,Mostly Cloudy,12.833999999999982,1.7730767632267987
10/2/2012 2:00,12.4,12.3,99,7,19.3,100.77,Mostly Cloudy,12.54,1.7730767632267987
10/2/2012 3:00,12.1,11.8,98,7,19.3,100.82,Mainly Clear,12.156999999999998,1.7720304913691292
10/2/2012 4:00,12.0,11.9,99,6,19.3,100.85,Clear,12.168,1.7730767632267987
10/2/2012 5:00,11.1,11.0,99,6,16.1,100.92,Mainly Clear,11.196000000000002,1.7730767632267987
10/2/2012 6:00,11.2,11.2,100,0,48.3,100.96,Mostly Cloudy,11.251000000000008,1.774113475177305
10/2/2012 7:00,11.9,11.8,99,4,24.1,101.04,Mostly Cloudy,11.945000000000002,1.7730767632267987
10/2/2012 8:00,13.0,12.4,96,9,24.1,101.08,Mostly Cloudy,13.003999999999998,1.7699087340766253
10/2/2012 9:00,14.3,13.1,92,6,24.1,101.08,Cloudy,14.519999999999987,1.764560779079539
10/2/2012 10:00,15.2,13.3,88,9,24.1,101.09,Cloudy,15.296000000000019,1.7571931537828946
10/2/2012 11:00,16.6,13.9,84,7,24.1,101.08,Mostly Cloudy,16.60499999999999,1.7483983249034645
10/2/2012 12:00,18.2,13.6,75,13,24.1,101.1,Mostly Cloudy,18.167000000000026,1.7241591468416737
10/2/2012 13:00,18.2,12.9,71,9,24.1,101.03,Cloudy,18.15700000000001,1.712430565280306
10/2/2012 14:00,18.7,12.4,67,11,24.1,101.03,Mostly Cloudy,18.711000000000006,1.2523873978786297
10/2/2012 15:00,18.8,11.5,63,9,24.1,101.08,Mostly Cloudy,18.69399999999998,1.0503413361747098
10/2/2012 16:00,18.7,12.6,68,6,24.1,101.06,Mostly Cloudy,18.666000000000018,1.3579319565140906
10/2/2012 17:00,17.9,13.9,77,9,24.1,101.1,Mostly Cloudy,17.906000000000013,1.7302348458823897
10/2/2012 18:00,16.6,13.3,81,9,24.1,101.16,Mainly Clear,16.61599999999998,1.7408722768108806
10/2/2012 19:00,15.0,13.3,90,11,25.0,101.18,Mainly Clear,15.074000000000007,1.7609487211792867
10/2/2012 20:00,14.6,13.0,90,9,25.0,101.22,Mainly Clear,14.751000000000007,1.7609487211792867
10/2/2012 21:00,14.0,12.8,92,6,25.0,101.27,Mainly Clear,14.043000000000012,1.764560779079539
10/2/2012 22:00,14.2,12.9,92,4,25.0,101.28,Clear,14.147000000000018,1.764560779079539
10/2/2012 23:00,11.4,10.9,97,4,25.0,101.31,Clear,11.431999999999995,1.7709745267585884
10/3/2012 0:00,11.9,11.7,99,4,25.0,101.3,Clear,11.774000000000008,1.7730767632267987
10/3/2012 1:00,11.3,11.0,98,4,25.0,101.33,Clear,11.322999999999984,1.7720304913691292
10/3/2012 2:00,11.3,11.2,99,7,25.0,101.32,Clear,11.309999999999985,1.7730767632267987
10/3/2012 3:00,11.6,11.4,99,7,25.0,101.33,Clear,11.530000000000003,1.7730767632267987
10/3/2012 4:00,11.5,11.2,98,7,25.0,101.37,Clear,11.40899999999999,1.7720304913691292
10/3/2012 5:00,11.0,11.0,100,11,3.2,101.38,Fog,11.131999999999998,1.774113475177305
10/3/2012 6:00,11.5,11.5,100,11,0.6,101.42,Fog,11.554000000000006,1.774113475177305
10/3/2012 7:00,11.7,11.7,100,13,0.6,101.49,Fog,11.754000000000008,1.774113475177305
10/3/2012 8:00,11.4,11.4,100,15,1.6,101.54,Fog,11.445000000000002,1.774113475177305
10/3/2012 9:00,12.7,12.6,99,19,4.8,101.53,Fog,12.752000000000008,1.7730767632267987
10/3/2012 10:00,14.8,13.5,92,19,9.7,101.5,Fog,14.845999999999988,1.764560779079539
10/3/2012 11:00,15.8,13.7,87,19,12.9,101.48,Cloudy,15.843999999999985,1.755244623603565
10/3/2012 12:00,16.9,13.2,79,19,24.1,101.42,Mostly Cloudy,16.904000000000018,1.7357508862871274
10/3/2012 13:00,17.5,13.5,77,13,19.3,101.4,Mostly Cloudy,17.570000000000007,1.7302348458823897
10/3/2012 14:00,18.7,13.6,72,13,19.3,101.4,Cloudy,18.609999999999992,1.7154802667147235
10/3/2012 15:00,19.3,13.9,71,13,24.1,101.4,Cloudy,19.276999999999987,1.712430565280306
10/3/2012 16:00,19.2,14.2,73,11,24.1,101.42,Cloudy,19.17000000000002,1.718324698506683
10/3/2012 17:00,19.2,13.9,71,11,24.1,101.45,Cloudy,19.232000000000014,1.712430565280306
10/3/2012 18:00,18.9,13.9,73,11,25.0,101.47,Cloudy,18.90100000000002,1.718324698506683
10/3/2012 19:00,19.0,13.9,72,7,25.0,101.51,Cloudy,19.030000000000005,1.7154802667147235
10/3/2012 20:00,18.6,14.3,76,9,25.0,101.51,Cloudy,18.637999999999973,1.7272721454173066
10/3/2012 21:00,18.6,14.4,77,11,25.0,101.53,Cloudy,18.602999999999973,1.7302348458823897
10/3/2012 22:00,18.3,14.7,80,7,25.0,101.56,Cloudy,18.278999999999986,1.7383226557949913
10/3/2012 23:00,18.0,14.9,82,7,25.0,101.57,Cloudy,18.02300000000001,1.7434626346010758
10/4/2012 0:00,17.0,15.1,89,11,16.1,101.55,Cloudy,17.08,1.7590894054480448
10/4/2012 1:00,16.1,14.7,91,11,16.1,101.55,Cloudy,16.056999999999984,1.762772169746578
10/4/2012 2:00,14.7,14.1,96,11,6.4,101.56,Drizzle,14.789000000000014,1.7699087340766253
10/4/2012 3:00,12.6,11.8,95,13,9.7,101.55,"Drizzle,Fog",12.675999999999997,1.768832975474038
10/4/2012 4:00,11.7,11.5,99,15,19.3,101.55,Cloudy,11.665000000000015,1.7730767632267987
10/4/2012 5:00,11.5,11.0,97,9,16.1,101.59,Cloudy,11.479000000000001,1.7709745267585884
10/4/2012 6:00,11.3,10.8,97,9,6.4,101.58,Fog,11.399000000000001,1.7709745267585884
10/4/2012 7:00,11.4,11.1,98,13,4.0,101.58,"Drizzle,Fog",11.375999999999998,1.7720304913691292
10/4/2012 8:00,12.0,11.8,99,7,4.0,101.57,Fog,12.013999999999994,1.7730767632267987
10/4/2012 9:00,12.1,12.0,99,11,2.8,101.54,"Drizzle,Fog",12.364999999999998,1.7730767632267987
10/4/2012 10:00,12.6,12.5,99,9,4.8,101.47,"Drizzle,Fog",12.701000000000013,1.7730767632267987
10/4/2012 11:00,13.3,12.8,97,6,6.4,101.47,Fog,13.232999999999986,1.7709745267585884
10/4/2012 12:00,13.6,13.0,96,0,6.4,101.42,"Drizzle,Fog",13.78399999999999,1.7699087340766253
10/4/2012 13:00,14.4,13.2,92,0,6.4,101.38,"Drizzle,Fog",14.386000000000006,1.764560779079539
10/4/2012 14:00,15.6,14.3,92,4,8.0,101.3,"Rain,Fog",14.917999999999996,1.764560779079539
10/4/2012 15:00,15.9,14.7,93,4,9.7,101.24,Fog,15.540999999999986,1.7663155381997573
10/4/2012 16:00,16.0,15.5,97,4,9.7,101.18,Fog,15.798,1.7709745267585884
10/4/2012 17:00,15.8,15.3,97,4,9.7,101.13,Fog,15.731999999999994,1.7709745267585884
10/4/2012 18:00,14.6,14.5,99,0,9.7,101.12,Fog,14.663999999999982,1.7730767632267987
10/4/2012 19:00,14.8,14.6,99,6,9.7,101.1,Fog,14.913999999999978,1.7730767632267987
10/4/2012 20:00,14.1,14.1,100,4,9.7,101.1,Fog,14.327999999999983,1.774113475177305
10/4/2012 21:00,14.4,13.7,96,6,9.7,101.07,Fog,14.678999999999983,1.7699087340766253
10/4/2012 22:00,15.3,13.8,91,13,12.9,101.01,Mainly Clear,15.293999999999977,1.762772169746578
10/4/2012 23:00,16.6,13.7,83,13,9.7,100.97,"Rain,Fog",16.557999999999982,1.7459700090483987
10/5/2012 0:00,15.8,12.7,82,11,12.9,100.94,Mainly Clear,15.766999999999987,1.7434626346010758
10/5/2012 1:00,15.3,12.6,84,15,12.9,100.94,Mainly Clear,15.30099999999999,1.7483983249034645
10/5/2012 2:00,15.7,12.7,82,17,16.1,100.92,Clear,15.708000000000013,1.7434626346010758
10/5/2012 3:00,14.7,12.6,87,17,19.3,100.94,Clear,14.73800000000001,1.755244623603565
10/5/2012 4:00,14.4,12.6,89,13,19.3,100.96,Clear,14.405000000000014,1.7590894054480448
10/5/2012 5:00,13.8,12.6,92,17,19.3,100.96,Clear,13.802999999999983,1.764560779079539
10/5/2012 6:00,13.7,12.9,95,4,16.1,100.93,Mainly Clear,13.676000000000009,1.768832975474038
10/5/2012 7:00,15.3,14.0,92,6,24.1,100.92,Mainly Clear,15.19999999999999,1.764560779079539
10/5/2012 8:00,16.8,14.3,85,9,24.1,100.92,Mostly Cloudy,16.829999999999973,1.7507512632600475
10/5/2012 9:00,17.3,13.6,79,13,24.1,100.84,Mostly Cloudy,17.301999999999985,1.7357508862871274
10/5/2012 10:00,18.9,14.4,75,11,24.1,100.87,Rain Showers,18.959999999999997,1.7241591468416737
10/5/2012 11:00,17.5,14.3,81,22,24.1,100.85,Cloudy,17.444000000000006,1.7408722768108806
10/5/2012 12:00,18.5,15.3,82,19,24.1,100.74,Cloudy,18.192000000000032,1.7434626346010758
10/5/2012 13:00,19.2,14.9,76,20,24.1,100.69,Cloudy,19.13900000000002,1.7272721454173066
10/5/2012 14:00,20.2,15.6,75,19,24.1,100.6,Mostly Cloudy,20.12200000000001,1.7241591468416737
10/5/2012 15:00,20.7,15.4,72,26,24.1,100.57,Cloudy,20.424,1.7154802667147235
10/5/2012 16:00,20.3,15.4,73,28,24.1,100.55,Cloudy,20.324000000000005,1.718324698506683
10/5/2012 17:00,19.7,14.8,73,26,24.1,100.55,Cloudy,19.730000000000025,1.718324698506683
10/5/2012 18:00,19.0,14.8,77,24,25.0,100.53,Cloudy,18.969000000000005,1.7302348458823897
10/5/2012 19:00,18.7,14.2,75,32,25.0,100.53,Cloudy,18.747000000000014,1.7241591468416737
10/5/2012 20:00,18.1,14.0,77,24,25.0,100.55,Cloudy,18.04899999999998,1.7302348458823897
10/5/2012 21:00,17.8,13.8,77,22,25.0,100.56,Cloudy,17.866999999999972,1.7302348458823897
10/5/2012 22:00,17.4,12.1,71,19,25.0,100.54,Cloudy,17.439000000000018,1.712430565280306
10/5/2012 23:00,17.0,10.9,67,17,25.0,100.53,Cloudy,16.977999999999994,1.2523873978786297
10/6/2012 0:00,16.8,11.2,70,13,25.0,100.51,Cloudy,16.754999999999978,1.7091525423728813
10/6/2012 1:00,16.1,10.9,71,17,25.0,100.5,Cloudy,16.153999999999982,1.712430565280306
10/6/2012 2:00,15.4,9.6,68,11,25.0,100.44,Rain Showers,15.514999999999993,1.4914003686591197
10/6/2012 3:00,14.6,10.1,74,11,25.0,100.39,Rain Showers,14.664000000000003,1.7209839103698092
10/6/2012 4:00,11.0,9.7,92,13,16.1,100.35,Rain,10.951999999999996,1.764560779079539
10/6/2012 5:00,9.4,8.8,96,15,16.1,100.32,Rain,9.594000000000001,1.7699087340766253
10/6/2012 6:00,9.1,8.7,97,6,16.1,100.35,Rain,9.249000000000008,1.7709745267585884
10/6/2012 7:00,8.6,8.4,99,11,8.0,100.35,"Rain,Fog",8.686000000000009,1.7730767632267987
10/6/2012 8:00,8.8,8.4,97,7,19.3,100.36,Rain,8.83199999999999,1.7709745267585884
10/6/2012 9:00,9.5,8.6,94,7,24.1,100.33,Rain,9.465,1.7677471105115399
10/6/2012 10:00,9.7,8.7,93,13,24.1,100.32,Rain,9.803000000000011,1.7663155381997573
10/6/2012 11:00,9.6,8.4,92,13,24.1,100.35,Rain,9.526000000000009,1.764560779079539
10/6/2012 12:00,10.9,9.3,90,17,24.1,100.32,Mostly Cloudy,10.878999999999994,1.7609487211792867
10/6/2012 13:00,11.8,9.0,83,20,24.1,100.3,Cloudy,11.813999999999986,1.7459700090483987
10/6/2012 14:00,13.8,8.9,72,17,24.1,100.28,Mostly Cloudy,13.779999999999982,1.7154802667147235
10/6/2012 15:00,14.4,8.8,69,28,48.3,100.25,Mainly Clear,14.341000000000014,1.7056195602958193
10/6/2012 16:00,14.6,7.7,63,28,48.3,100.26,Mainly Clear,14.563999999999991,1.688006452107927
10/6/2012 17:00,12.0,7.9,76,9,48.3,100.32,Mostly Cloudy,11.963000000000001,1.7272721454173066
10/6/2012 18:00,9.7,7.2,84,19,25.0,100.43,Mostly Cloudy,9.77800000000001,1.7483983249034645
10/6/2012 19:00,10.2,5.9,75,26,25.0,100.52,Mostly Cloudy,10.245,1.7241591468416737
10/6/2012 20:00,9.8,5.5,75,17,25.0,100.58,Mainly Clear,9.874,1.725156644230129
10/6/2012 21:00,9.7,5.2,74,19,25.0,100.66,Mainly Clear,9.673000000000012,1.7267155644028167
10/6/2012 22:00,9.2,4.4,72,26,25.0,100.75,Mainly Clear,9.051000000000005,1.7313022122280854
10/6/2012 23:00,8.7,4.0,72,22,25.0,100.79,Mainly Clear,8.756000000000009,1.7333603059457656
10/7/2012 0:00,8.8,4.2,73,28,25.0,100.82,Mostly Cloudy,8.785999999999996,1.7331542739866221
10/7/2012 1:00,8.4,4.4,76,17,25.0,100.9,Mainly Clear,8.46199999999999,1.7353416214249422
10/7/2012 2:00,7.0,4.2,82,15,25.0,100.93,Mainly Clear,7.037000000000003,1.7444941795757853
10/7/2012 3:00,6.5,3.9,83,11,25.0,101.01,Mainly Clear,6.599000000000002,1.7471998839130238
10/7/2012 4:00,5.3,3.7,89,13,25.0,101.09,Clear,5.386000000000003,1.7590894054480448
10/7/2012 5:00,5.7,3.8,88,7,25.0,101.19,Mostly Cloudy,5.670999999999996,1.7571931537828946
10/7/2012 6:00,5.9,3.7,86,11,24.1,101.25,Mostly Cloudy,5.934,1.7530322801745157
10/7/2012 7:00,6.0,3.7,85,13,24.1,101.31,Mostly Cloudy,6.041000000000001,1.7507512632600475
10/7/2012 8:00,5.9,3.3,83,9,24.1,101.29,Mainly Clear,5.811999999999992,1.751832096131336
10/7/2012 9:00,6.9,2.5,74,9,48.3,101.3,Mostly Cloudy,6.8599999999999905,1.7455990359286895
10/7/2012 10:00,8.5,3.1,69,22,48.3,101.3,Mostly Cloudy,8.227999999999994,1.7368711206897822
10/7/2012 11:00,9.0,1.5,59,15,48.3,101.33,Mainly Clear,9.048000000000004,1.7313235074767737
10/7/2012 12:00,9.2,0.6,55,22,48.3,101.36,Mostly Cloudy,9.119000000000009,1.7308174616869707
10/7/2012 13:00,9.3,-0.5,50,20,48.3,101.32,Mostly Cloudy,9.312999999999994,1.7294124793619647
10/7/2012 14:00,10.2,-0.6,47,17,48.3,101.25,Mainly Clear,10.299000000000012,1.7217270431753893
10/7/2012 15:00,10.5,0.3,49,11,48.3,101.24,Mainly Clear,10.531,1.7201322925980707
10/7/2012 16:00,9.2,-0.2,52,11,48.3,101.23,Cloudy,9.09700000000001,1.730974725440737
10/7/2012 17:00,8.6,-1.2,50,13,48.3,101.26,Cloudy,8.534000000000011,1.734862651050219
10/7/2012 18:00,7.3,-0.1,59,9,25.0,101.27,Cloudy,7.243999999999997,1.7431818308078229
10/7/2012 19:00,7.3,0.9,64,6,25.0,101.3,Cloudy,7.222999999999994,1.7433159763620023
10/7/2012 20:00,7.4,0.4,61,6,25.0,101.33,Cloudy,7.410000000000002,1.7421133028215523
10/7/2012 21:00,7.3,0.6,62,7,25.0,101.34,Cloudy,7.365999999999994,1.742397942862046
10/7/2012 22:00,7.5,0.4,61,0,25.0,101.38,Cloudy,7.394000000000003,1.742216927173242
10/7/2012 23:00,6.5,1.4,70,15,25.0,101.44,Rain Showers,6.386000000000004,1.7484819299243874
10/8/2012 0:00,6.4,2.9,78,9,25.0,101.49,Rain Showers,6.455999999999992,1.7480629801431262
10/8/2012 1:00,6.2,2.9,79,7,25.0,101.52,Rain Showers,6.2230000000000025,1.7494485877307047
10/8/2012 2:00,5.4,3.0,84,6,25.0,101.5,Mostly Cloudy,5.488999999999992,1.7536529559338385
10/8/2012 3:00,5.1,2.9,86,0,25.0,101.52,Clear,5.1630000000000065,1.7554394046666213
10/8/2012 4:00,3.6,2.4,92,6,25.0,101.58,Clear,3.594000000000002,1.764560779079539
10/8/2012 5:00,2.8,2.6,99,0,25.0,101.62,Clear,3.2910000000000026,1.7730767632267987
10/8/2012 6:00,2.4,1.9,96,9,24.1,101.73,Mainly Clear,2.4290000000000016,1.7699087340766253
10/8/2012 7:00,2.5,1.3,92,6,48.3,101.83,Mainly Clear,2.700999999999999,1.7667447262280094
10/8/2012 8:00,5.4,1.1,74,7,48.3,101.92,Mainly Clear,5.2779999999999925,1.7548184597612277
10/8/2012 9:00,6.6,0.5,65,4,48.3,101.94,Clear,6.571000000000009,1.7473696529564064
10/8/2012 10:00,8.6,-1.7,48,7,48.3,101.97,Mainly Clear,8.489000000000008,1.7351624752592139
10/8/2012 11:00,10.0,-1.0,46,9,48.3,101.95,Mainly Clear,10.069000000000003,1.7236061139705374
10/8/2012 12:00,10.7,-2.0,41,13,48.3,101.95,Mainly Clear,10.68900000000001,1.7190804066209566
10/8/2012 13:00,11.1,-1.3,42,13,48.3,101.93,Mainly Clear,11.046000000000006,1.7165985176675773
10/8/2012 14:00,11.6,-1.5,40,19,48.3,101.91,Mainly Clear,11.309000000000012,1.7146704801138666
10/8/2012 15:00,11.9,0.3,45,9,48.3,101.89,Mostly Cloudy,11.407999999999998,1.713921420718692
10/8/2012 16:00,12.0,-0.1,43,13,48.3,101.9,Mostly Cloudy,11.978000000000002,1.7093391982559882
10/8/2012 17:00,11.5,-1.0,42,9,48.3,101.94,Cloudy,11.482000000000003,1.7133528720451472
10/8/2012 18:00,10.6,-0.7,45,7,25.0,101.98,Mostly Cloudy,10.685000000000008,1.7191073783794417
10/8/2012 19:00,9.7,1.5,57,15,25.0,102.03,Mainly Clear,9.632000000000012,1.7270287845634085
10/8/2012 20:00,8.1,2.2,66,7,25.0,102.05,Mainly Clear,8.161000000000007,1.7373015682934498
10/8/2012 21:00,7.3,2.7,73,9,25.0,102.08,Mainly Clear,7.330999999999992,1.7426236292399016
10/8/2012 22:00,8.0,2.0,66,4,25.0,102.08,Clear,7.894,1.7389848832727433
10/8/2012 23:00,7.4,1.9,68,7,25.0,102.06,Clear,7.392999999999989,1.7422233991790634
10/9/2012 0:00,5.8,2.6,80,6,25.0,102.06,Clear,5.697000000000002,1.7524855612387757
10/9/2012 1:00,5.8,3.3,84,4,25.0,102.08,Clear,5.755999999999995,1.752151026864159
10/9/2012 2:00,5.9,3.4,84,6,25.0,102.06,Clear,5.763999999999995,1.7521055494176043
10/9/2012 3:00,5.9,3.2,83,4,25.0,102.02,Clear,5.804999999999992,1.751872037700227
10/9/2012 4:00,4.3,2.7,89,7,25.0,102.04,Clear,4.411000000000004,1.7590894054480448
10/9/2012 5:00,5.1,3.2,88,4,25.0,102.08,Mainly Clear,4.992000000000004,1.7571931537828946
10/9/2012 6:00,5.4,3.7,89,7,48.3,102.09,Mainly Clear,5.316999999999996,1.7590894054480448
10/9/2012 7:00,6.7,5.3,91,9,48.3,102.09,Mainly Clear,6.709000000000003,1.762772169746578
10/9/2012 8:00,8.4,6.0,85,15,48.3,102.08,Clear,8.344999999999992,1.7507512632600475
10/9/2012 9:00,10.3,6.4,77,15,48.3,102.06,Clear,10.274999999999988,1.7302348458823897
10/9/2012 10:00,12.5,6.0,65,17,48.3,102.0,Clear,12.428000000000006,1.7053619325940867
10/9/2012 11:00,13.5,4.7,55,6,48.3,101.93,Mainly Clear,13.580999999999996,1.696153680738947
10/9/2012 12:00,14.4,4.4,51,7,48.3,101.84,Mainly Clear,14.438000000000004,1.6891858905015262
10/9/2012 13:00,15.0,4.4,49,7,48.3,101.71,Mostly Cloudy,15.088000000000006,1.6251012598437182
10/9/2012 14:00,14.9,3.2,45,11,48.3,101.66,Mostly Cloudy,14.727999999999984,1.6864010108289877
10/9/2012 15:00,15.0,4.6,50,13,48.3,101.59,Mostly Cloudy,15.038999999999996,1.6570284538468127
10/9/2012 16:00,14.5,4.0,49,13,48.3,101.57,Mostly Cloudy,14.847000000000014,1.6851830319448409
10/9/2012 17:00,13.6,4.8,55,22,48.3,101.5,Mostly Cloudy,13.806000000000006,1.694483694195265
10/9/2012 18:00,13.2,4.8,57,20,25.0,101.44,Mostly Cloudy,13.299000000000012,1.6981100127730482
10/9/2012 19:00,12.8,4.5,57,19,25.0,101.45,Mostly Cloudy,12.86599999999998,1.7011406503480238
10/9/2012 20:00,11.9,4.6,61,19,25.0,101.4,Mainly Clear,11.866,1.7102776776744704
10/9/2012 21:00,11.4,4.5,62,19,25.0,101.36,Mainly Clear,11.551999999999996,1.712808099737123
10/9/2012 22:00,10.6,7.4,81,17,25.0,101.32,Mainly Clear,10.596000000000009,1.7408722768108806
10/9/2012 23:00,10.4,7.4,82,19,25.0,101.26,Mainly Clear,10.386999999999995,1.7434626346010758
10/10/2012 0:00,10.0,7.4,84,15,25.0,101.22,Mainly Clear,9.987999999999998,1.7483983249034645
10/10/2012 1:00,10.3,7.8,84,11,25.0,101.18,Mostly Cloudy,10.344999999999986,1.7483983249034645
10/10/2012 2:00,11.0,7.8,81,15,25.0,101.09,Mostly Cloudy,10.975999999999999,1.7408722768108806
10/10/2012 3:00,11.3,7.9,80,13,25.0,101.01,Mostly Cloudy,11.296999999999985,1.7383226557949913
10/10/2012 4:00,11.3,8.1,81,30,25.0,100.94,Mostly Cloudy,11.290999999999983,1.7408722768108806
10/10/2012 5:00,11.2,8.3,82,20,25.0,100.9,Mostly Cloudy,11.190000000000015,1.7434626346010758
10/10/2012 6:00,11.5,8.4,81,37,24.1,100.85,Mostly Cloudy,11.491999999999996,1.7408722768108806
10/10/2012 7:00,11.6,8.8,83,39,24.1,100.8,Cloudy,11.706999999999999,1.7459700090483987
10/10/2012 8:00,12.0,8.8,81,32,24.1,100.73,Cloudy,11.989000000000006,1.7408722768108806
10/10/2012 9:00,12.5,8.9,79,32,24.1,100.64,Cloudy,12.587999999999997,1.7357508862871274
10/10/2012 10:00,13.5,9.0,74,33,24.1,100.53,Cloudy,13.548999999999996,1.7209839103698092
10/10/2012 11:00,12.2,10.6,90,13,12.9,100.43,Rain,12.20700000000002,1.7609487211792867
10/10/2012 12:00,13.3,9.9,80,20,19.3,100.33,Cloudy,13.234999999999992,1.7383226557949913
10/10/2012 13:00,12.5,10.8,89,19,4.0,100.24,Rain,12.527000000000001,1.7590894054480448
10/10/2012 14:00,12.8,11.8,94,19,48.3,100.07,Cloudy,12.795999999999982,1.7677471105115399
10/10/2012 15:00,13.2,11.2,88,15,48.3,100.01,Cloudy,13.191000000000004,1.7571931537828946
10/10/2012 16:00,13.7,10.4,80,26,16.1,100.02,Rain,13.711000000000007,1.7383226557949913
10/10/2012 17:00,11.5,7.7,77,33,24.1,100.13,Rain,11.549000000000001,1.7302348458823897
10/10/2012 18:00,8.9,7.1,88,19,25.0,100.25,Mostly Cloudy,9.015000000000006,1.7571931537828946
10/10/2012 19:00,7.8,6.1,89,17,25.0,100.31,Mostly Cloudy,7.871999999999999,1.7590894054480448
10/10/2012 20:00,7.4,5.9,90,15,25.0,100.34,Mostly Cloudy,7.480999999999991,1.7609487211792867
10/10/2012 21:00,7.9,5.9,87,19,25.0,100.37,Mostly Cloudy,7.902999999999994,1.755244623603565
10/10/2012 22:00,7.7,5.7,87,11,25.0,100.4,Mostly Cloudy,7.7340000000000035,1.755244623603565
10/10/2012 23:00,6.7,4.9,88,9,25.0,100.37,Mainly Clear,6.719000000000005,1.7571931537828946
10/11/2012 0:00,7.2,4.4,82,17,25.0,100.4,Mostly Cloudy,7.255000000000006,1.7434626346010758
10/11/2012 1:00,6.7,3.8,82,20,25.0,100.42,Mostly Cloudy,6.706000000000005,1.7465476296029994
10/11/2012 2:00,6.6,3.8,82,32,25.0,100.45,Mostly Cloudy,6.718000000000004,1.7464741321477006
10/11/2012 3:00,6.6,3.9,83,24,25.0,100.51,Mostly Cloudy,6.633000000000005,1.7469932273747715
10/11/2012 4:00,6.0,3.2,82,26,25.0,100.68,Mostly Cloudy,6.088999999999999,1.7502340739006532
10/11/2012 5:00,5.5,2.5,81,28,25.0,100.84,Mainly Clear,5.4879999999999995,1.7536585237806868
10/11/2012 6:00,5.0,2.4,83,22,24.1,100.95,Mainly Clear,5.024999999999999,1.7561098651539662
10/11/2012 7:00,4.9,2.3,83,26,24.1,101.05,Mainly Clear,4.997999999999999,1.7562405020882574
10/11/2012 8:00,6.0,2.3,77,20,24.1,101.14,Mainly Clear,6.043000000000001,1.7505018319978138
10/11/2012 9:00,6.8,1.2,67,24,24.1,101.2,Mainly Clear,6.912999999999993,1.7452698534519904
10/11/2012 10:00,7.7,0.2,59,32,48.3,101.19,Mostly Cloudy,7.598000000000002,1.7408854418349065
10/11/2012 11:00,8.7,1.2,59,24,48.3,101.2,Mostly Cloudy,8.707000000000013,1.7336952667385368
10/11/2012 12:00,8.0,-0.6,55,30,48.3,101.22,Mostly Cloudy,8.038000000000002,1.7380833255390498
10/11/2012 13:00,9.2,-1.8,46,30,48.3,101.22,Mostly Cloudy,9.30200000000001,1.7294930285852907
10/11/2012 14:00,9.7,-1.7,45,26,48.3,101.2,Mostly Cloudy,9.614000000000011,1.7271657936683211
10/11/2012 15:00,9.8,-2.9,41,30,48.3,101.21,Mostly Cloudy,9.727999999999986,1.7262928765341619
10/11/2012 16:00,9.8,-2.7,41,28,48.3,101.18,Mostly Cloudy,9.819999999999984,1.7255793185899426
10/11/2012 17:00,9.1,-2.2,45,19,24.1,101.15,Cloudy,9.108000000000006,1.7308961454762746
10/11/2012 18:00,9.1,0.9,56,30,25.0,101.19,Rain,9.105000000000008,1.7309175866637012
10/11/2012 19:00,8.4,2.2,65,37,25.0,101.13,Rain,8.727,1.7335587806888844
10/11/2012 20:00,7.0,3.6,79,32,25.0,101.07,Rain,7.015999999999999,1.744626090247577
10/11/2012 21:00,6.6,4.2,85,22,25.0,100.93,Rain,6.549000000000009,1.7507512632600475
10/11/2012 22:00,6.9,3.9,81,22,25.0,100.77,Rain,6.8799999999999955,1.7454749808056367
10/11/2012 23:00,8.2,4.2,76,19,25.0,100.69,Rain,8.201999999999993,1.7370385498989902
10/12/2012 0:00,7.7,5.3,85,22,25.0,100.74,Rain,7.66900000000001,1.7507512632600475
10/12/2012 1:00,8.1,5.4,83,24,25.0,100.75,Rain,8.090000000000005,1.7459700090483987
10/12/2012 2:00,7.9,4.4,79,30,25.0,100.76,Cloudy,7.805999999999991,1.7395287197242801
10/12/2012 3:00,7.2,1.1,65,33,25.0,100.83,Cloudy,7.214000000000001,1.743373397083873
10/12/2012 4:00,5.5,0.6,71,26,25.0,101.0,Cloudy,5.472,1.7537475517471335
10/12/2012 5:00,4.4,-0.1,73,24,25.0,101.14,Mostly Cloudy,4.388999999999997,1.7591410255435893
10/12/2012 6:00,3.6,-0.4,75,24,24.1,101.3,Mainly Clear,3.6110000000000024,1.7627224953950547
10/12/2012 7:00,3.7,-0.4,75,17,24.1,101.45,Mainly Clear,3.6510000000000025,1.7625416389776216
10/12/2012 8:00,4.8,-0.7,68,17,24.1,101.57,Mainly Clear,4.928999999999997,1.7565735536289329
10/12/2012 9:00,5.4,-1.7,60,19,24.1,101.68,Mostly Cloudy,5.415999999999992,1.7540582984087645
10/12/2012 10:00,5.4,-2.4,57,20,24.1,101.74,Mostly Cloudy,5.329999999999993,1.754532953749144
10/12/2012 11:00,6.2,-3.4,50,22,24.1,101.76,Mostly Cloudy,6.237000000000002,1.749366046367191
10/12/2012 12:00,5.6,-5.1,46,30,24.1,101.83,Mostly Cloudy,5.661000000000007,1.7526889412547775
10/12/2012 13:00,6.2,-5.5,43,26,24.1,101.87,Mostly Cloudy,6.170000000000001,1.7497602480101235
10/12/2012 14:00,6.2,-5.1,44,22,24.1,101.93,Mostly Cloudy,6.247000000000002,1.7493070328154376
10/12/2012 15:00,6.4,-5.4,43,20,24.1,101.98,Mostly Cloudy,6.265999999999992,1.7491947795831237
10/12/2012 16:00,5.2,-5.3,47,19,24.1,102.07,Mostly Cloudy,5.131999999999996,1.7555904188532077
10/12/2012 17:00,4.7,-5.1,49,22,24.1,102.13,Mainly Clear,4.957000000000002,1.7564385404150173
10/12/2012 18:00,4.0,-4.5,54,15,25.0,102.21,Clear,4.106000000000001,1.760459538669507
10/12/2012 19:00,2.5,-3.9,63,13,25.0,102.28,Clear,2.4600000000000004,1.7675833502841811
10/12/2012 20:00,1.2,-3.6,70,9,25.0,102.35,Clear,1.1339999999999992,1.771149434299904
10/12/2012 21:00,0.7,-4.0,71,7,25.0,102.41,Clear,0.7250000000000013,1.772227401618678
10/12/2012 22:00,0.0,-4.7,71,9,25.0,102.47,Clear,0.05399999999999999,1.773974072484244
10/12/2012 23:00,-0.2,-4.9,71,9,25.0,102.48,Mainly Clear,-0.15499999999999983,1.7733108522388004
10/13/2012 0:00,1.9,-3.8,66,9,25.0,102.49,Mostly Cloudy,1.7890000000000013,1.7694016886378883
10/13/2012 1:00,-0.9,-3.8,81,7,25.0,102.51,Mostly Cloudy,-0.951000000000001,1.7690974656090703
10/13/2012 2:00,0.1,-3.6,76,4,25.0,102.47,Mostly Cloudy,0.08299999999999992,1.7738991370380208
10/13/2012 3:00,-1.6,-3.6,86,4,25.0,102.49,Mostly Cloudy,-1.610999999999998,1.7644632941192033
10/13/2012 4:00,-1.9,-3.8,87,4,25.0,102.52,Mainly Clear,-1.9140000000000033,1.7617371386228189
10/13/2012 5:00,-1.9,-3.9,86,0,25.0,102.53,Clear,-1.8830000000000024,1.762019725588888
10/13/2012 6:00,-1.0,-3.3,84,0,48.3,102.54,Mostly Cloudy,-0.9919999999999999,1.7688761989169233
10/13/2012 7:00,1.0,-2.2,79,6,48.3,102.56,Mostly Cloudy,1.0809999999999997,1.7712896970691048
10/13/2012 8:00,3.4,-1.3,71,11,48.3,102.57,Mainly Clear,3.3949999999999982,1.763693121032889
10/13/2012 9:00,4.5,1.2,79,17,48.3,102.55,Mainly Clear,4.5569999999999995,1.758349590782312
10/13/2012 10:00,6.1,-1.1,60,19,48.3,102.52,Mainly Clear,6.023000000000005,1.7506179501657804
10/13/2012 11:00,7.7,-3.7,44,28,48.3,102.46,Mostly Cloudy,8.016999999999996,1.738215713649758
10/13/2012 12:00,9.7,-1.9,44,22,48.3,102.37,Mostly Cloudy,9.63000000000001,1.7270440228887278
10/13/2012 13:00,8.6,-2.8,45,20,48.3,102.24,Mainly Clear,8.679000000000007,1.7338858105508437
10/13/2012 14:00,9.8,-3.1,40,19,48.3,102.2,Mostly Cloudy,9.752999999999984,1.7260997860338614
10/13/2012 15:00,9.4,-2.1,44,19,48.3,102.18,Mostly Cloudy,9.40799999999999,1.7287123201716434
10/13/2012 16:00,9.5,-2.7,42,17,48.3,102.14,Mostly Cloudy,9.547000000000004,1.7276730999398813
10/13/2012 17:00,9.1,-2.7,43,13,25.0,102.08,Mostly Cloudy,9.135000000000009,1.730702826775294
10/13/2012 18:00,8.8,-2.4,45,7,25.0,102.01,Cloudy,8.980999999999993,1.7317971183925154
10/13/2012 19:00,8.2,-1.1,52,15,25.0,101.92,Cloudy,8.183000000000003,1.7371605889452246
10/13/2012 20:00,7.9,-1.4,52,15,25.0,101.85,Cloudy,7.845999999999992,1.7392821833380228
10/13/2012 21:00,8.3,-1.9,49,9,25.0,101.73,Cloudy,8.327999999999996,1.7362225102014053
10/13/2012 22:00,8.2,-0.9,53,24,25.0,101.75,Rain Showers,8.032999999999994,1.7381148749523265
10/13/2012 23:00,5.6,3.0,83,19,9.7,101.77,"Rain,Fog",5.573000000000004,1.7531837394144365
10/14/2012 0:00,5.4,3.1,85,7,8.0,101.68,"Rain,Fog",5.480999999999991,1.7536974868492168
10/14/2012 1:00,4.6,3.4,92,20,9.7,101.51,"Rain,Fog",4.318000000000001,1.764560779079539
10/14/2012 2:00,4.4,3.2,92,17,11.3,101.35,Rain,4.250999999999996,1.764560779079539
10/14/2012 3:00,4.6,3.8,95,17,9.7,101.24,"Rain,Fog",4.822000000000006,1.768832975474038
10/14/2012 4:00,4.9,4.3,96,17,8.0,101.16,"Rain,Fog",4.984999999999996,1.7699087340766253
10/14/2012 5:00,5.4,4.5,94,9,9.7,101.18,"Rain,Fog",5.490999999999994,1.7677471105115399
10/14/2012 6:00,5.5,4.5,93,11,12.9,101.11,Rain,5.555,1.7663155381997573
10/14/2012 7:00,5.9,4.8,93,6,9.7,101.16,Fog,5.975999999999999,1.7663155381997573
10/14/2012 8:00,6.2,5.4,95,7,4.8,101.13,Fog,6.214000000000001,1.768832975474038
10/14/2012 9:00,6.8,5.4,91,7,16.1,101.13,Cloudy,6.802,1.762772169746578
10/14/2012 10:00,7.3,5.7,90,6,16.1,101.14,Drizzle,7.3049999999999935,1.7609487211792867
10/14/2012 11:00,6.7,6.4,98,11,3.2,101.11,"Drizzle,Fog",6.766000000000007,1.7720304913691292
10/14/2012 12:00,6.7,6.3,97,13,2.4,101.0,"Drizzle,Fog",6.763000000000005,1.7709745267585884
10/14/2012 13:00,6.6,6.3,98,13,1.6,100.94,"Drizzle,Fog",6.645000000000011,1.7720304913691292
10/14/2012 14:00,6.6,6.3,98,19,2.0,100.84,"Rain,Fog",6.678000000000011,1.7720304913691292
10/14/2012 15:00,7.0,6.6,97,15,8.0,100.77,"Rain,Fog",7.028,1.7709745267585884
10/14/2012 16:00,7.5,7.1,97,15,3.2,100.68,"Rain,Fog",7.653000000000002,1.7709745267585884
10/14/2012 17:00,7.7,7.3,97,19,6.4,100.67,"Rain,Fog",7.83800000000001,1.7709745267585884
10/14/2012 18:00,9.9,9.4,97,11,2.0,100.56,"Rain,Fog",9.955999999999987,1.7709745267585884
10/14/2012 19:00,9.6,9.1,97,15,9.7,100.48,"Drizzle,Fog",9.679999999999994,1.7709745267585884
10/14/2012 20:00,10.0,9.3,95,15,9.7,100.31,Fog,10.000999999999994,1.768832975474038
10/14/2012 21:00,9.8,9.3,97,11,9.7,100.27,Fog,9.858999999999993,1.7709745267585884
10/14/2012 22:00,9.4,9.1,98,7,9.7,100.17,Fog,9.474999999999989,1.7720304913691292
10/14/2012 23:00,8.9,8.6,98,15,6.4,100.13,"Rain,Fog",9.084999999999992,1.7720304913691292
10/15/2012 0:00,8.8,8.4,97,13,9.7,100.05,"Rain,Fog",8.772999999999994,1.7709745267585884
10/15/2012 1:00,8.5,8.2,98,9,9.7,100.02,"Rain,Fog",8.620999999999999,1.7720304913691292
10/15/2012 2:00,8.7,8.4,98,11,9.7,99.88,"Rain,Fog",8.694000000000006,1.7720304913691292
10/15/2012 3:00,8.8,8.4,97,9,9.7,99.78,"Rain,Fog",8.741000000000001,1.7709745267585884
10/15/2012 4:00,11.9,10.7,92,4,12.9,99.66,Mostly Cloudy,11.901999999999997,1.764560779079539
10/15/2012 5:00,13.5,11.6,88,11,16.1,99.62,Mostly Cloudy,13.545999999999992,1.7571931537828946
10/15/2012 6:00,13.6,11.5,87,19,24.1,99.56,Cloudy,13.673999999999985,1.755244623603565
10/15/2012 7:00,13.8,11.1,84,19,24.1,99.53,Mostly Cloudy,13.780999999999981,1.7483983249034645
10/15/2012 8:00,14.4,11.3,82,20,24.1,99.53,Cloudy,14.394000000000007,1.7434626346010758
10/15/2012 9:00,16.4,12.1,76,24,24.1,99.51,Mostly Cloudy,16.43099999999999,1.7272721454173066
10/15/2012 10:00,16.6,12.7,78,20,24.1,99.5,Cloudy,16.555999999999976,1.733057876440812
10/15/2012 11:00,16.6,12.4,76,17,24.1,99.61,Rain Showers,16.576999999999984,1.7272721454173066
10/15/2012 12:00,16.4,10.6,69,22,24.1,99.63,Mostly Cloudy,16.40400000000001,1.505906587803386
10/15/2012 13:00,16.3,10.7,69,28,24.1,99.64,Mostly Cloudy,16.348999999999986,1.505906587803386
10/15/2012 14:00,17.8,9.3,57,30,48.3,99.65,Mostly Cloudy,17.74699999999998,1.0142740879347694
10/15/2012 15:00,16.2,9.0,62,28,24.1,99.7,Mostly Cloudy,16.12600000000002,1.2335274843117456
10/15/2012 16:00,15.5,8.9,65,30,24.1,99.7,Mostly Cloudy,15.426999999999998,1.4898094070219943
10/15/2012 17:00,14.7,8.2,65,33,24.1,99.69,Mostly Cloudy,14.642000000000017,1.6929583486014415
10/15/2012 18:00,13.7,8.7,72,32,25.0,99.7,Mostly Cloudy,13.632999999999997,1.7154802667147235
10/15/2012 19:00,12.9,8.3,74,30,25.0,99.72,Mostly Cloudy,12.783000000000007,1.7209839103698092
10/15/2012 20:00,12.6,7.9,73,30,25.0,99.76,Mainly Clear,12.587999999999992,1.718324698506683
10/15/2012 21:00,12.1,6.8,70,26,25.0,99.74,Mainly Clear,12.03,1.7091525423728813
10/15/2012 22:00,12.1,5.1,62,32,25.0,99.73,Mostly Cloudy,12.07,1.708553490236891
10/15/2012 23:00,11.6,3.5,57,28,25.0,99.75,Mostly Cloudy,11.991,1.7092289944171721
10/16/2012 0:00,9.8,3.8,66,28,25.0,99.81,Mainly Clear,10.003999999999987,1.7241272191436914
10/16/2012 1:00,9.2,3.9,69,24,25.0,99.89,Mostly Cloudy,9.296000000000014,1.7295369191857641
10/16/2012 2:00,7.6,1.8,67,30,25.0,99.88,Mainly Clear,7.5570000000000075,1.7411548455865722
10/16/2012 3:00,6.7,2.6,75,19,25.0,99.88,Mostly Cloudy,6.719999999999999,1.7464618757263803
10/16/2012 4:00,6.6,3.0,78,22,25.0,99.94,Cloudy,6.5510000000000055,1.7474906857757417
10/16/2012 5:00,5.9,2.9,81,19,25.0,99.99,Cloudy,5.888999999999994,1.7513913130125618
10/16/2012 6:00,5.2,1.0,74,28,24.1,100.05,Mostly Cloudy,5.173999999999994,1.7553857625775042
10/16/2012 7:00,4.8,0.8,75,15,24.1,100.18,Mostly Cloudy,4.706000000000005,1.7576421510722524
10/16/2012 8:00,5.6,0.7,71,22,24.1,100.24,Mainly Clear,5.544000000000006,1.7533460705230466
10/16/2012 9:00,6.0,1.3,72,19,24.1,100.27,Mostly Cloudy,6.005000000000003,1.7507223023976224
10/16/2012 10:00,7.6,1.6,66,26,24.1,100.3,Mostly Cloudy,7.588000000000011,1.7409512342933104
10/16/2012 11:00,7.7,1.4,64,22,24.1,100.34,Mostly Cloudy,7.734000000000006,1.7399852298474046
10/16/2012 12:00,7.8,1.6,65,28,24.1,100.35,Cloudy,7.7579999999999965,1.7398253104668522
10/16/2012 13:00,8.2,1.2,61,24,24.1,100.38,Mostly Cloudy,8.198000000000002,1.737064264261965
10/16/2012 14:00,8.6,0.7,58,30,24.1,100.37,Mostly Cloudy,8.542000000000009,1.7348091849881886
10/16/2012 15:00,8.4,0.7,58,32,24.1,100.39,Mostly Cloudy,8.448999999999993,1.735427677790066
10/16/2012 16:00,8.4,0.0,55,28,24.1,100.43,Mostly Cloudy,8.397999999999994,1.7357640397410075
10/16/2012 17:00,7.3,-0.5,58,20,24.1,100.47,Mainly Clear,7.335999999999995,1.742591427910333
10/16/2012 18:00,6.5,-0.2,62,15,25.0,100.54,Mainly Clear,6.521000000000002,1.7476718755200527
10/16/2012 19:00,4.9,-0.2,70,9,25.0,100.57,Mainly Clear,4.856999999999997,1.7569198671446555
10/16/2012 20:00,3.7,-0.3,75,7,25.0,100.63,Clear,3.7179999999999973,1.7622379206447754
10/16/2012 21:00,3.0,-0.5,78,11,25.0,100.66,Clear,3.061999999999999,1.7651699466456428
10/16/2012 22:00,4.1,-0.4,72,7,25.0,100.73,Clear,4.205000000000002,1.7600003687930197
10/16/2012 23:00,1.6,-0.5,86,7,25.0,100.75,Clear,1.5639999999999987,1.7700050614532397
10/17/2012 0:00,3.8,0.5,79,11,25.0,100.8,Clear,3.8130000000000024,1.7618055843196738
10/17/2012 1:00,2.8,0.6,85,9,25.0,100.86,Clear,2.8410000000000037,1.7661372044099992
10/17/2012 2:00,1.1,-1.2,85,7,25.0,100.91,Clear,1.0919999999999985,1.7712606000692683
10/17/2012 3:00,1.8,-0.9,82,6,25.0,100.92,Mostly Cloudy,1.8300000000000012,1.7692913995401218
10/17/2012 4:00,2.2,-0.2,84,7,25.0,100.96,Mostly Cloudy,2.197999999999998,1.7682967443358573
10/17/2012 5:00,2.6,0.2,84,0,25.0,100.95,Mostly Cloudy,2.528999999999997,1.76739474030029
10/17/2012 6:00,2.7,0.4,85,0,24.1,100.98,Mainly Clear,2.732999999999998,1.7666062183203057
10/17/2012 7:00,3.3,0.7,83,0,24.1,101.02,Clear,3.245000000000003,1.7643612683746235
10/17/2012 8:00,6.3,2.0,74,0,24.1,101.06,Mainly Clear,6.300999999999999,1.7489875589280766
10/17/2012 9:00,7.1,4.1,81,6,24.1,101.08,Mainly Clear,7.15100000000001,1.7437741667308997
10/17/2012 10:00,9.1,1.3,58,6,24.1,101.08,Mainly Clear,9.11400000000001,1.73085323992973
10/17/2012 11:00,10.1,2.1,58,6,48.3,101.02,Mainly Clear,10.105000000000008,1.7233156410174884
10/17/2012 12:00,10.8,2.1,55,7,48.3,100.97,Mainly Clear,10.862999999999989,1.7178894705172976
10/17/2012 13:00,11.4,1.9,52,6,48.3,100.9,Mostly Cloudy,11.322999999999986,1.7145653449304654
10/17/2012 14:00,12.0,2.4,52,0,48.3,100.88,Mostly Cloudy,12.016999999999998,1.7090077810230535
10/17/2012 15:00,12.5,2.9,52,4,48.3,100.86,Mostly Cloudy,12.381000000000002,1.7057935817358065
10/17/2012 16:00,12.5,3.5,54,4,48.3,100.87,Mostly Cloudy,12.537999999999997,1.7043360598746125
10/17/2012 17:00,11.7,4.0,59,11,24.1,100.87,Mostly Cloudy,11.767000000000014,1.7110911956231847
10/17/2012 18:00,11.0,4.7,65,7,25.0,100.94,Mostly Cloudy,11.032000000000004,1.7166987113166312
10/17/2012 19:00,11.7,3.6,58,7,25.0,100.93,Cloudy,11.680000000000016,1.7117940230576818
10/17/2012 20:00,11.7,3.2,56,9,25.0,100.92,Mostly Cloudy,11.552000000000014,1.7128080997371231
10/17/2012 21:00,11.6,3.6,58,11,25.0,100.92,Mostly Cloudy,11.62400000000001,1.7122405693697131
10/17/2012 22:00,11.7,4.1,60,7,25.0,100.93,Mostly Cloudy,11.709000000000005,1.7115609851474547
10/17/2012 23:00,11.1,4.9,66,11,25.0,100.9,Cloudy,11.078000000000005,1.71636859605118
10/18/2012 0:00,11.1,4.8,65,6,25.0,100.92,Cloudy,11.115000000000002,1.716101163839199
10/18/2012 1:00,10.9,5.2,68,4,25.0,100.92,Cloudy,11.006000000000004,1.7168841479772299
10/18/2012 2:00,10.9,4.9,66,4,25.0,100.92,Mostly Cloudy,10.939999999999996,1.717351184772529
10/18/2012 3:00,8.9,5.3,78,9,25.0,100.91,Mostly Cloudy,8.903999999999991,1.733057876440812
10/18/2012 4:00,9.1,5.7,79,11,25.0,100.92,Mostly Cloudy,9.039000000000005,1.7357508862871274
10/18/2012 5:00,9.4,5.8,78,11,25.0,100.94,Mostly Cloudy,9.463999999999992,1.733057876440812
10/18/2012 6:00,9.0,5.8,80,11,48.3,100.96,Mostly Cloudy,9.042999999999997,1.7383226557949913
10/18/2012 7:00,10.7,5.1,68,9,48.3,100.98,Mainly Clear,10.846000000000018,1.718007369284363
10/18/2012 8:00,12.2,5.7,64,6,48.3,101.02,Mostly Cloudy,12.176000000000004,1.707631162764133
10/18/2012 9:00,14.4,6.4,59,15,48.3,100.99,Mainly Clear,14.396000000000006,1.6895691265784818
10/18/2012 10:00,16.1,6.7,54,15,48.3,100.97,Mainly Clear,16.09599999999999,1.1895385497277189
10/18/2012 11:00,17.9,6.3,47,15,48.3,100.94,Mainly Clear,17.863000000000014,0.999817616347631
10/18/2012 12:00,18.3,6.3,45,17,48.3,100.9,Mainly Clear,18.334999999999983,0.9860220296859138
10/18/2012 13:00,18.3,6.2,45,22,48.3,100.85,Mainly Clear,18.209999999999976,0.9893551320733287
10/18/2012 14:00,19.3,5.8,41,28,48.3,100.78,Mainly Clear,19.371999999999986,0.9661620889372946
10/18/2012 15:00,18.6,3.6,37,26,48.3,100.78,Mostly Cloudy,18.62599999999998,0.9803355249263225
10/18/2012 16:00,18.3,3.8,38,28,48.3,100.69,Mostly Cloudy,18.547999999999984,0.9801596982156714
10/18/2012 17:00,16.6,4.7,45,15,48.3,100.74,Mostly Cloudy,16.553999999999977,1.083145099859528
10/18/2012 18:00,16.0,5.1,48,17,25.0,100.8,Mostly Cloudy,15.915999999999997,1.2455897930556405
10/18/2012 19:00,15.6,5.2,50,15,25.0,100.86,Mainly Clear,15.43599999999998,1.4350017427177546
10/18/2012 20:00,14.9,5.7,54,17,25.0,100.9,Mostly Cloudy,14.825,1.6854117071467223
10/18/2012 21:00,13.8,6.0,59,17,25.0,100.95,Mostly Cloudy,14.061000000000002,1.6924612572979179
10/18/2012 22:00,14.4,5.9,57,19,25.0,100.99,Mostly Cloudy,14.40300000000001,1.6895055896770366
10/18/2012 23:00,12.7,5.7,62,15,25.0,100.96,Mostly Cloudy,12.672999999999991,1.703046227078295
10/19/2012 0:00,12.3,6.1,66,17,25.0,100.94,Mainly Clear,12.259999999999991,1.7068869415884316
10/19/2012 1:00,11.7,5.8,67,17,25.0,100.92,Mainly Clear,11.68900000000001,1.711721832482531
10/19/2012 2:00,11.7,6.0,68,15,25.0,100.92,Mainly Clear,11.707000000000015,1.7115770962526435
10/19/2012 3:00,12.0,6.0,67,19,25.0,100.94,Cloudy,11.794000000000004,1.7108707937701728
10/19/2012 4:00,11.9,6.7,70,13,25.0,100.96,Rain Showers,11.891999999999996,1.7100615522244667
10/19/2012 5:00,11.7,8.7,82,17,19.3,100.96,Rain Showers,11.757000000000023,1.7434626346010758
10/19/2012 6:00,11.2,9.8,91,15,9.7,100.91,"Rain,Fog",11.165000000000013,1.762772169746578
10/19/2012 7:00,11.3,9.9,91,17,9.7,101.0,"Rain,Fog",11.31099999999999,1.762772169746578
10/19/2012 8:00,11.7,10.2,91,13,16.1,100.92,Rain,11.674000000000019,1.762772169746578
10/19/2012 9:00,12.8,10.6,86,24,24.1,100.77,Cloudy,12.859999999999982,1.7530322801745157
10/19/2012 10:00,13.1,11.0,87,24,25.0,100.79,Rain Showers,13.110999999999992,1.755244623603565
10/19/2012 11:00,12.8,11.5,92,9,19.3,100.79,Rain,12.668999999999983,1.764560779079539
10/19/2012 12:00,13.0,11.5,91,11,16.1,100.77,Rain,12.940999999999995,1.762772169746578
10/19/2012 13:00,13.1,11.9,92,17,12.9,100.64,Rain,13.176999999999989,1.764560779079539
10/19/2012 14:00,13.0,12.1,94,15,8.0,100.55,"Rain,Fog",13.046999999999995,1.7677471105115399
10/19/2012 15:00,13.3,12.1,92,13,9.7,100.45,"Rain,Fog",13.367999999999995,1.764560779079539
10/19/2012 16:00,12.9,12.3,96,7,3.2,100.45,"Rain,Fog",12.940000000000008,1.7699087340766253
10/19/2012 17:00,13.1,12.1,94,17,6.4,100.38,"Rain,Fog",13.082999999999993,1.7677471105115399
10/19/2012 18:00,13.1,12.1,94,22,12.9,100.29,Rain,13.102999999999998,1.7677471105115399
10/19/2012 19:00,13.5,12.4,93,7,9.7,100.29,Rain,13.487999999999998,1.7663155381997573
10/19/2012 20:00,13.8,12.9,94,19,12.9,100.13,Rain,13.73899999999999,1.7677471105115399
10/19/2012 21:00,13.8,12.6,92,17,24.1,100.16,Mostly Cloudy,13.793999999999983,1.764560779079539
10/19/2012 22:00,13.4,12.3,93,7,16.1,100.15,Cloudy,13.44400000000001,1.7663155381997573
10/19/2012 23:00,13.5,12.3,92,11,16.1,100.1,Cloudy,13.564,1.764560779079539
10/20/2012 0:00,13.2,12.3,94,13,16.1,100.02,Cloudy,13.24700000000002,1.7677471105115399
10/20/2012 1:00,12.9,12.2,96,15,6.4,99.97,Fog,12.875999999999998,1.7699087340766253
10/20/2012 2:00,12.8,12.2,96,19,4.8,99.84,Fog,12.833999999999993,1.7699087340766253
10/20/2012 3:00,12.8,12.1,96,13,6.4,99.83,"Rain Showers,Fog",12.804999999999986,1.7699087340766253
10/20/2012 4:00,12.4,11.9,97,7,11.3,99.83,Cloudy,12.435000000000004,1.7709745267585884
10/20/2012 5:00,12.5,12.0,97,4,8.0,99.84,Fog,12.574000000000002,1.7709745267585884
10/20/2012 6:00,10.6,10.6,100,4,0.4,99.87,Fog,10.918000000000008,1.774113475177305
10/20/2012 7:00,11.8,11.6,99,4,2.4,99.88,Fog,11.802999999999983,1.7730767632267987
10/20/2012 8:00,12.7,12.5,99,4,1.0,99.89,Fog,12.713000000000013,1.7730767632267987
10/20/2012 9:00,13.8,13.2,96,4,9.7,99.89,Fog,14.030999999999983,1.7699087340766253
10/20/2012 10:00,16.0,13.2,83,15,24.1,99.87,Mainly Clear,16.024000000000004,1.7459700090483987
10/20/2012 11:00,16.4,12.2,76,19,24.1,99.93,Mostly Cloudy,16.421999999999997,1.7272721454173066
10/20/2012 12:00,18.1,11.9,67,20,48.3,99.89,Mostly Cloudy,18.17499999999999,1.2523873978786297
10/20/2012 13:00,17.6,10.6,64,11,48.3,99.75,Mainly Clear,17.540999999999983,1.0961081328655953
10/20/2012 14:00,17.2,10.4,64,22,48.3,99.79,Mostly Cloudy,17.250000000000014,1.1189553938718857
10/20/2012 15:00,16.4,8.8,61,22,24.1,99.75,Mostly Cloudy,16.44599999999999,1.1564216398466187
10/20/2012 16:00,14.0,9.2,73,15,24.1,99.9,Rain Showers,14.007,1.718324698506683
10/20/2012 17:00,13.4,9.2,76,11,24.1,99.95,Rain Showers,13.370000000000006,1.7272721454173066
10/20/2012 18:00,12.3,7.2,71,19,25.0,100.01,Mainly Clear,12.344999999999986,1.712430565280306
10/20/2012 19:00,11.6,5.9,68,20,25.0,100.04,Clear,11.629000000000008,1.7122008830691036
10/20/2012 20:00,10.7,5.5,70,17,25.0,100.06,Mainly Clear,10.679000000000007,1.7191478023211175
10/20/2012 21:00,11.0,6.1,72,13,25.0,100.07,Mainly Clear,10.985000000000005,1.7170333221111613
10/20/2012 22:00,10.5,6.2,75,11,25.0,100.05,Mainly Clear,10.528000000000002,1.7241591468416737
10/20/2012 23:00,10.2,6.4,77,19,25.0,100.05,Mainly Clear,10.239000000000011,1.7302348458823897
10/21/2012 0:00,9.2,6.3,82,13,25.0,100.07,Mainly Clear,9.204000000000015,1.7434626346010758
10/21/2012 1:00,9.9,6.8,81,19,25.0,100.14,Mostly Cloudy,9.919999999999987,1.7408722768108806
10/21/2012 2:00,10.3,7.2,81,19,25.0,100.15,Cloudy,10.392000000000003,1.7408722768108806
10/21/2012 3:00,10.6,7.2,79,26,25.0,100.15,Cloudy,10.603000000000009,1.7357508862871274
10/21/2012 4:00,10.2,7.1,81,22,25.0,100.15,Mostly Cloudy,10.292999999999997,1.7408722768108806
10/21/2012 5:00,10.5,7.3,81,24,25.0,100.15,Rain Showers,10.517000000000003,1.7408722768108806
10/21/2012 6:00,10.1,7.6,84,30,25.0,100.21,Cloudy,10.096000000000013,1.7483983249034645
10/21/2012 7:00,9.8,7.1,83,28,24.1,100.26,Mostly Cloudy,9.834999999999987,1.7459700090483987
10/21/2012 8:00,10.2,6.4,77,35,24.1,100.29,Mostly Cloudy,10.263000000000007,1.7302348458823897
10/21/2012 9:00,10.4,6.0,74,26,24.1,100.27,Mostly Cloudy,10.399999999999991,1.7209839103698088
10/21/2012 10:00,10.9,5.8,71,32,24.1,100.31,Mostly Cloudy,10.918,1.7175056995162694
10/21/2012 11:00,11.2,5.9,70,33,24.1,100.33,Mostly Cloudy,11.18600000000001,1.7155831635209473
10/21/2012 12:00,12.6,6.4,66,32,24.1,100.3,Mostly Cloudy,12.626,1.7034992082151186
10/21/2012 13:00,12.6,5.6,62,32,24.1,100.3,Cloudy,12.609000000000002,1.7036620118283639
10/21/2012 14:00,12.7,5.8,63,28,24.1,100.33,Mostly Cloudy,12.671000000000019,1.7030655894856133
10/21/2012 15:00,12.2,5.7,64,32,24.1,100.39,Cloudy,12.246000000000006,1.7070118101444867
10/21/2012 16:00,12.0,5.5,64,30,24.1,100.44,Cloudy,11.858000000000006,1.7103439689950712
10/21/2012 17:00,11.8,5.7,66,28,25.0,100.51,Cloudy,11.901000000000003,1.7099864967749763
10/21/2012 18:00,11.5,5.8,68,22,25.0,100.56,Mostly Cloudy,11.542000000000005,1.7128863433787231
10/21/2012 19:00,11.3,5.6,68,22,25.0,100.6,Mostly Cloudy,11.348000000000004,1.7143769577256767
10/21/2012 20:00,11.4,5.5,67,20,25.0,100.63,Mostly Cloudy,11.41,1.7139061526582509
10/21/2012 21:00,10.7,5.9,72,22,25.0,100.66,Cloudy,10.731000000000012,1.7187961134244292
10/21/2012 22:00,10.1,5.3,72,15,25.0,100.72,Mostly Cloudy,10.141000000000014,1.7230238298843794
10/21/2012 23:00,9.3,4.9,74,17,25.0,100.75,Mostly Cloudy,9.27699999999999,1.7296756954082002
10/22/2012 0:00,8.7,4.1,73,32,25.0,100.73,Mainly Clear,8.765000000000006,1.733298572689812
10/22/2012 1:00,8.0,3.9,75,26,25.0,100.77,Mainly Clear,8.099000000000002,1.7376969850886634
10/22/2012 2:00,7.6,3.9,77,24,25.0,100.81,Mainly Clear,7.661000000000005,1.7404696944195206
10/22/2012 3:00,7.1,3.9,80,17,25.0,100.84,Mainly Clear,7.112000000000007,1.7440212360540648
10/22/2012 4:00,7.4,4.0,79,19,25.0,100.84,Mainly Clear,7.230000000000003,1.7432712866847537
10/22/2012 5:00,7.4,4.2,80,24,25.0,100.9,Clear,7.391000000000002,1.7422363415980089
10/22/2012 6:00,7.2,4.1,81,15,25.0,100.95,Clear,7.183000000000006,1.7435708578330391
10/22/2012 7:00,7.8,4.4,79,15,24.1,101.0,Mainly Clear,7.783999999999995,1.7396638473166313
10/22/2012 8:00,10.0,5.1,72,22,24.1,101.04,Mostly Cloudy,9.903000000000006,1.7249284650339045
10/22/2012 9:00,9.8,5.3,74,24,24.1,101.08,Mostly Cloudy,9.81499999999999,1.7256183103793443
10/22/2012 10:00,11.2,5.6,68,26,48.3,101.01,Mainly Clear,11.338000000000008,1.7144524122162503
10/22/2012 11:00,12.7,6.3,65,30,48.3,101.06,Mainly Clear,12.682000000000022,1.7029590004363222
10/22/2012 12:00,13.0,5.6,61,24,48.3,101.03,Mainly Clear,13.01,1.6999727099525919
10/22/2012 13:00,14.2,6.2,59,24,48.3,101.0,Mainly Clear,14.180000000000017,1.6914661537748064
10/22/2012 14:00,14.5,4.7,52,22,48.3,101.04,Mainly Clear,14.434,1.689222598469477
10/22/2012 15:00,14.6,5.0,52,28,48.3,101.05,Mainly Clear,14.576999999999988,1.687882155265748
10/22/2012 16:00,14.3,4.9,53,15,48.3,101.06,Mainly Clear,14.37199999999998,1.6897859577759025
10/22/2012 17:00,13.2,4.7,56,20,24.1,101.11,Mainly Clear,13.22499999999999,1.6986000531059409
10/22/2012 18:00,11.9,5.4,64,19,25.0,101.16,Mainly Clear,11.844,1.7104597433974802
10/22/2012 19:00,11.1,5.7,69,13,25.0,101.21,Clear,11.116000000000007,1.7160939122018506
10/22/2012 20:00,10.3,5.8,74,13,25.0,101.24,Mainly Clear,10.28799999999999,1.7218181830336077
10/22/2012 21:00,8.4,5.2,80,9,25.0,101.29,Clear,8.487999999999994,1.7383226557949913
10/22/2012 22:00,8.1,5.4,83,7,25.0,101.34,Mainly Clear,8.10800000000001,1.7459700090483987
10/22/2012 23:00,6.4,4.4,87,0,25.0,101.34,Clear,6.348,1.755244623603565
10/23/2012 0:00,6.2,4.1,86,6,25.0,101.36,Clear,6.229,1.7530322801745157
10/23/2012 1:00,5.8,3.8,87,4,25.0,101.38,Clear,5.802,1.755244623603565
10/23/2012 2:00,4.9,3.3,89,9,25.0,101.4,Clear,4.915999999999996,1.7590894054480448
10/23/2012 3:00,5.1,3.5,89,7,25.0,101.42,Clear,5.140000000000008,1.7590894054480448
10/23/2012 4:00,5.1,3.5,89,4,25.0,101.47,Clear,5.140000000000007,1.7590894054480448
10/23/2012 5:00,5.4,3.6,88,6,25.0,101.54,Clear,5.426999999999993,1.7571931537828946
10/23/2012 6:00,5.1,3.5,89,6,24.1,101.59,Mainly Clear,5.122000000000007,1.7590894054480448
10/23/2012 7:00,4.2,2.8,91,0,24.1,101.68,Mainly Clear,4.199000000000001,1.762772169746578
10/23/2012 8:00,6.9,4.5,85,11,24.1,101.71,Mostly Cloudy,6.861999999999994,1.7507512632600475
10/23/2012 9:00,9.4,5.0,74,9,24.1,101.75,Mostly Cloudy,9.39599999999999,1.7288012096492573
10/23/2012 10:00,9.6,4.9,72,4,24.1,101.73,Mostly Cloudy,9.59400000000001,1.7273176683831002
10/23/2012 11:00,10.9,4.6,65,0,24.1,101.69,Mostly Cloudy,10.962999999999992,1.7171890265307426
10/23/2012 12:00,11.1,3.8,61,0,24.1,101.62,Mainly Clear,11.189000000000004,1.71556113530214
10/23/2012 13:00,12.2,3.8,56,4,24.1,101.59,Mostly Cloudy,12.347000000000014,1.7061033921275757
10/23/2012 14:00,13.1,3.8,53,6,24.1,101.58,Mostly Cloudy,13.235999999999997,1.6985277957618208
10/23/2012 15:00,12.3,4.3,58,11,24.1,101.57,Mostly Cloudy,12.294999999999982,1.7065732980659158
10/23/2012 16:00,11.9,4.0,58,11,24.1,101.57,Mostly Cloudy,11.954000000000002,1.709541950041215
10/23/2012 17:00,10.9,3.6,61,9,24.1,101.6,Mainly Clear,10.975999999999994,1.7170970900901854
10/23/2012 18:00,7.9,3.5,74,0,25.0,101.64,Mainly Clear,7.937999999999989,1.7387109521626862
10/23/2012 19:00,8.6,3.3,69,0,25.0,101.7,Mainly Clear,8.449000000000005,1.7354276777900657
10/23/2012 20:00,7.0,2.9,75,0,25.0,101.72,Mainly Clear,6.961,1.7449705123312664
10/23/2012 21:00,6.9,2.6,74,0,25.0,101.73,Mainly Clear,6.9339999999999895,1.7451390340710446
10/23/2012 22:00,6.8,3.9,82,7,25.0,101.76,Mainly Clear,6.744999999999999,1.7463085051787743
10/23/2012 23:00,7.7,0.2,59,13,25.0,101.79,Clear,7.596000000000006,1.7408986046807635
10/24/2012 0:00,7.3,-1.4,54,13,25.0,101.81,Clear,7.346999999999993,1.742520538579052
10/24/2012 1:00,5.1,-1.0,65,13,25.0,101.83,Clear,5.0500000000000025,1.755988747864567
10/24/2012 2:00,4.0,-1.2,69,7,25.0,101.9,Clear,3.8710000000000004,1.7615406514068184
10/24/2012 3:00,4.9,-0.9,66,7,25.0,101.9,Clear,4.905999999999994,1.7566843165195498
10/24/2012 4:00,2.0,-1.5,78,9,25.0,101.91,Clear,1.9969999999999999,1.768841081100991
10/24/2012 5:00,2.6,-1.5,74,9,25.0,101.93,Clear,2.599999999999998,1.767180522811314
10/24/2012 6:00,1.9,-1.4,79,7,48.3,101.94,Clear,1.9250000000000023,1.7690354457621182
10/24/2012 7:00,2.6,-0.8,78,11,48.3,101.99,Clear,2.608999999999997,1.7671417735901354
10/24/2012 8:00,5.8,-0.7,63,11,48.3,102.03,Clear,5.805999999999999,1.7518663330802773
10/24/2012 9:00,7.0,-0.5,59,15,48.3,102.02,Mainly Clear,6.985999999999998,1.7448141463248805
10/24/2012 10:00,7.2,-1.9,52,17,48.3,102.0,Mostly Cloudy,7.338000000000003,1.7425785436884602
10/24/2012 11:00,8.1,-0.9,53,11,48.3,101.93,Mostly Cloudy,8.043999999999995,1.7380454427488918
10/24/2012 12:00,9.1,-0.3,52,11,48.3,101.86,Mostly Cloudy,9.008000000000012,1.7316067157239863
10/24/2012 13:00,10.6,-0.6,46,6,48.3,101.79,Mainly Clear,10.571000000000012,1.7198685861899103
10/24/2012 14:00,11.7,-1.7,39,6,48.3,101.75,Mostly Cloudy,11.64100000000001,1.7121054893424974
10/24/2012 15:00,12.2,-2.1,37,11,48.3,101.73,Mostly Cloudy,12.085000000000012,1.708424092615655
10/24/2012 16:00,11.3,-2.1,39,11,48.3,101.75,Mostly Cloudy,11.321999999999989,1.7145728631774664
10/24/2012 17:00,10.9,-2.2,40,17,48.3,101.78,Mostly Cloudy,11.118999999999993,1.7160721497664753
10/24/2012 18:00,10.6,-0.3,47,13,25.0,101.83,Cloudy,10.593000000000009,1.7197228040405188
10/24/2012 19:00,10.3,0.1,49,7,25.0,101.82,Mostly Cloudy,10.387999999999991,1.721061014029343
10/24/2012 20:00,10.1,-1.2,45,11,25.0,101.85,Mostly Cloudy,10.204000000000013,1.7225099124789693
10/24/2012 21:00,10.0,-2.3,42,6,25.0,101.88,Mostly Cloudy,10.160000000000004,1.7228692758023987
10/24/2012 22:00,9.4,-2.1,44,9,25.0,101.87,Mostly Cloudy,9.509999999999991,1.727951462235366
10/24/2012 23:00,9.6,-2.5,43,15,25.0,101.9,Mostly Cloudy,9.53600000000001,1.727755988840891
10/25/2012 0:00,9.5,-2.6,43,17,25.0,101.9,Cloudy,9.484000000000004,1.7281463114872602
10/25/2012 1:00,9.2,-1.8,46,15,25.0,101.92,Mostly Cloudy,9.264000000000012,1.7297704634746744
10/25/2012 2:00,8.4,-0.9,52,15,25.0,101.89,Mostly Cloudy,8.371999999999993,1.7359347594413155
10/25/2012 3:00,7.3,-0.5,58,13,25.0,101.84,Mainly Clear,7.231999999999995,1.743258513522784
10/25/2012 4:00,6.9,-0.5,59,15,25.0,101.85,Mainly Clear,6.952999999999991,1.7450204829234728
10/25/2012 5:00,5.7,0.2,68,17,25.0,101.89,Mostly Cloudy,5.678999999999998,1.7525873213957823
10/25/2012 6:00,4.1,0.6,78,17,24.1,101.9,Mainly Clear,4.082000000000003,1.7605705185488452
10/25/2012 7:00,4.6,1.5,80,19,24.1,101.93,Mostly Cloudy,4.562000000000006,1.7583259355830798
10/25/2012 8:00,5.2,1.5,77,22,48.3,101.94,Mostly Cloudy,5.170999999999997,1.755400395171427
10/25/2012 9:00,6.4,-0.3,62,17,48.3,101.97,Mostly Cloudy,6.436999999999992,1.748176923991973
10/25/2012 10:00,8.0,0.3,58,9,48.3,101.89,Cloudy,8.059,1.737950623477354
10/25/2012 11:00,9.1,0.9,56,11,24.1,101.89,Cloudy,9.14100000000001,1.7306597818096725
10/25/2012 12:00,11.3,1.4,50,13,24.1,101.77,Cloudy,11.279999999999989,1.714887439091891
10/25/2012 13:00,12.8,2.8,51,11,24.1,101.71,Cloudy,12.569999999999988,1.7040334348331518
10/25/2012 14:00,12.8,2.9,51,17,24.1,101.66,Mostly Cloudy,12.628999999999989,1.7034704210292466
10/25/2012 15:00,13.5,3.5,51,19,24.1,101.59,Mainly Clear,13.321,1.697962518081493
10/25/2012 16:00,13.3,4.2,54,15,24.1,101.59,Mostly Cloudy,13.392999999999986,1.6974738906151083
10/25/2012 17:00,12.6,4.1,56,19,24.1,101.55,Mostly Cloudy,12.604999999999993,1.7037002387602693
10/25/2012 18:00,11.8,4.9,63,15,25.0,101.54,Mostly Cloudy,11.770999999999981,1.7110586123033773
10/25/2012 19:00,11.4,5.5,67,15,25.0,101.53,Clear,11.363999999999999,1.7142559532923478
10/25/2012 20:00,11.0,5.9,71,15,25.0,101.51,Clear,11.014,1.716827178537156
10/25/2012 21:00,10.0,5.7,75,13,25.0,101.51,Clear,10.087999999999997,1.7241591468416737
10/25/2012 22:00,9.8,6.4,79,13,25.0,101.47,Clear,9.695999999999989,1.7357508862871274
10/25/2012 23:00,9.3,6.6,83,9,25.0,101.45,Clear,9.35699999999999,1.7459700090483987
10/26/2012 0:00,8.9,6.4,84,9,25.0,101.47,Clear,8.932999999999986,1.7483983249034645
10/26/2012 1:00,8.5,6.4,87,7,25.0,101.49,Mostly Cloudy,8.37499999999999,1.755244623603565
10/26/2012 2:00,8.3,6.4,88,11,25.0,101.5,Mainly Clear,8.27799999999999,1.7571931537828946
10/26/2012 3:00,7.7,6.4,91,7,25.0,101.49,Clear,7.723000000000008,1.762772169746578
10/26/2012 4:00,7.2,5.2,87,7,25.0,101.48,Clear,7.209000000000007,1.755244623603565
10/26/2012 5:00,7.0,5.0,87,9,16.1,101.52,Clear,6.995,1.755244623603565
10/26/2012 6:00,6.9,4.8,86,11,16.1,101.53,Clear,6.927999999999994,1.7530322801745157
10/26/2012 7:00,6.7,4.5,86,11,19.3,101.57,Clear,6.703000000000002,1.7530322801745157
10/26/2012 8:00,9.1,6.2,82,6,16.1,101.6,Clear,9.07500000000001,1.7434626346010758
10/26/2012 9:00,11.7,7.9,77,7,16.1,101.6,Clear,11.765000000000011,1.7302348458823897
10/26/2012 10:00,15.1,9.8,71,6,16.1,101.54,Clear,15.130999999999988,1.712430565280306
10/26/2012 11:00,18.1,12.7,71,4,16.1,101.51,Clear,17.855000000000004,1.712430565280306
10/26/2012 12:00,19.8,12.9,64,9,16.1,101.43,Clear,19.74699999999998,1.0754917436180753
10/26/2012 13:00,20.9,13.3,62,11,19.3,101.36,Clear,20.90800000000003,1.0305025778855286
10/26/2012 14:00,21.1,13.0,60,9,19.3,101.36,Clear,21.166999999999984,0.9999888186332162
10/26/2012 15:00,20.4,13.1,63,13,24.1,101.35,Clear,20.392000000000024,1.0503413361747098
10/26/2012 16:00,18.2,12.3,68,19,24.1,101.3,Clear,18.25700000000002,1.3579319565140906
10/26/2012 17:00,15.7,11.6,77,9,24.1,101.33,Mainly Clear,15.673000000000012,1.7302348458823897
10/26/2012 18:00,14.7,11.3,80,11,25.0,101.36,Mainly Clear,14.77900000000002,1.7383226557949913
10/26/2012 19:00,13.5,11.0,85,7,25.0,101.39,Mainly Clear,13.431000000000001,1.7507512632600475
10/26/2012 20:00,14.2,11.2,82,15,19.3,101.38,Mostly Cloudy,14.25200000000002,1.7434626346010758
10/26/2012 21:00,13.1,10.9,86,9,25.0,101.38,Mainly Clear,13.135999999999994,1.7530322801745157
10/26/2012 22:00,13.0,10.9,87,4,19.3,101.41,Mainly Clear,13.008999999999999,1.755244623603565
10/26/2012 23:00,12.7,10.9,89,9,16.1,101.4,Mainly Clear,12.643000000000013,1.7590894054480448
10/27/2012 0:00,11.9,10.7,92,4,16.1,101.42,Mostly Cloudy,11.964,1.764560779079539
10/27/2012 1:00,12.1,10.8,92,4,16.1,101.42,Cloudy,12.06,1.764560779079539
10/27/2012 2:00,11.8,10.8,94,6,19.3,101.41,Cloudy,11.860999999999988,1.7677471105115399
10/27/2012 3:00,12.2,10.9,92,4,16.1,101.39,Cloudy,12.088,1.764560779079539
10/27/2012 4:00,12.1,10.9,92,0,12.9,101.38,Cloudy,12.078999999999999,1.764560779079539
10/27/2012 5:00,11.7,10.7,94,9,8.0,101.38,Fog,11.745000000000012,1.7677471105115399
10/27/2012 6:00,11.9,10.6,92,9,9.7,101.41,Fog,11.870000000000003,1.764560779079539
10/27/2012 7:00,12.3,10.8,91,6,4.0,101.42,Fog,12.387000000000008,1.762772169746578
10/27/2012 8:00,12.7,10.8,88,11,6.4,101.46,Fog,12.847000000000014,1.7571931537828946
10/27/2012 9:00,12.5,10.9,90,17,2.4,101.42,Fog,12.483000000000002,1.7609487211792867
10/27/2012 10:00,12.4,10.9,91,15,2.8,101.4,Fog,12.417000000000003,1.762772169746578
10/27/2012 11:00,13.4,11.1,86,11,6.4,101.35,Fog,13.361000000000004,1.7530322801745157
10/27/2012 12:00,14.1,11.1,82,17,6.4,101.26,Haze,14.101999999999999,1.7434626346010758
10/27/2012 13:00,14.2,10.6,79,15,12.9,101.2,Cloudy,14.19800000000001,1.7357508862871274
10/27/2012 14:00,14.4,9.9,74,15,24.1,101.14,Cloudy,14.41600000000002,1.7209839103698092
10/27/2012 15:00,14.6,9.5,71,17,24.1,101.1,Cloudy,14.625999999999987,1.712430565280306
10/27/2012 16:00,14.6,9.1,70,15,24.1,101.08,Mostly Cloudy,14.523999999999996,1.7091525423728813
10/27/2012 17:00,13.9,9.3,74,9,24.1,101.09,Mostly Cloudy,13.90900000000001,1.7209839103698092
10/27/2012 18:00,13.5,9.3,76,9,25.0,101.15,Cloudy,13.415000000000003,1.7272721454173066
10/27/2012 19:00,13.7,8.8,72,11,25.0,101.13,Cloudy,13.738000000000017,1.7154802667147235
10/27/2012 20:00,13.5,7.5,67,11,25.0,101.15,Cloudy,13.490999999999993,1.698763522260988
10/27/2012 21:00,13.3,7.4,67,11,25.0,101.14,Mostly Cloudy,13.320999999999978,1.698763522260988
10/27/2012 22:00,12.8,7.8,72,13,25.0,101.13,Mostly Cloudy,12.763999999999985,1.7154802667147235
10/27/2012 23:00,12.0,8.4,79,11,25.0,101.14,Mostly Cloudy,11.956999999999999,1.7357508862871274
10/28/2012 0:00,11.0,8.4,84,15,25.0,101.18,Mostly Cloudy,10.973999999999998,1.7483983249034645
10/28/2012 1:00,10.4,7.4,82,15,25.0,101.19,Mostly Cloudy,10.393999999999991,1.7434626346010758
10/28/2012 2:00,9.9,6.8,81,11,25.0,101.22,Cloudy,9.879999999999988,1.7408722768108806
10/28/2012 3:00,9.8,6.6,80,9,25.0,101.25,Cloudy,9.802999999999987,1.7383226557949913
10/28/2012 4:00,9.5,6.5,82,13,25.0,101.23,Mostly Cloudy,9.428,1.7434626346010758
10/28/2012 5:00,9.6,6.7,82,7,25.0,101.28,Cloudy,9.619000000000012,1.7434626346010758
10/28/2012 6:00,9.7,6.7,82,7,25.0,101.29,Cloudy,9.65700000000001,1.7434626346010758
10/28/2012 7:00,9.5,6.9,84,7,24.1,101.36,Cloudy,9.495,1.7483983249034645
10/28/2012 8:00,9.9,7.4,84,7,24.1,101.38,Cloudy,9.952999999999989,1.7483983249034645
10/28/2012 9:00,10.8,7.9,82,11,24.1,101.34,Cloudy,10.791999999999987,1.7434626346010758
10/28/2012 10:00,11.4,8.3,81,9,24.1,101.32,Cloudy,11.409999999999998,1.7408722768108806
10/28/2012 11:00,12.0,8.1,77,11,24.1,101.31,Cloudy,11.998,1.7302348458823897
10/28/2012 12:00,12.9,8.4,74,20,24.1,101.2,Cloudy,12.918000000000001,1.7209839103698092
10/28/2012 13:00,12.9,7.8,71,15,24.1,101.19,Cloudy,12.920999999999987,1.712430565280306
10/28/2012 14:00,13.0,6.8,66,20,24.1,101.13,Cloudy,13.004999999999997,1.7000037604238012
10/28/2012 15:00,13.1,6.0,62,20,24.1,101.06,Cloudy,13.053999999999998,1.6996977936073543
10/28/2012 16:00,12.9,5.9,62,22,24.1,101.06,Cloudy,12.91500000000001,1.7006448682955313
10/28/2012 17:00,12.7,6.3,65,26,25.0,101.01,Cloudy,12.66200000000002,1.7031526247006752
10/28/2012 18:00,12.9,6.9,67,24,25.0,101.0,Cloudy,12.963000000000001,1.7002630705482134
10/28/2012 19:00,12.7,7.4,70,28,25.0,100.99,Cloudy,12.686000000000009,1.7091525423728813
10/28/2012 20:00,12.3,7.4,72,24,25.0,101.02,Cloudy,12.397999999999985,1.7154802667147235
10/28/2012 21:00,11.6,7.4,75,24,25.0,101.03,Cloudy,11.554,1.7241591468416737
10/28/2012 22:00,11.0,7.4,78,32,25.0,101.01,Mostly Cloudy,10.998000000000001,1.733057876440812
10/28/2012 23:00,10.3,7.1,81,26,25.0,100.98,Cloudy,10.287999999999993,1.7408722768108806
10/29/2012 0:00,9.9,7.0,82,22,25.0,100.95,Mostly Cloudy,9.888999999999989,1.7434626346010758
10/29/2012 1:00,9.5,6.9,84,26,25.0,100.89,Mostly Cloudy,9.536000000000008,1.7483983249034645
10/29/2012 2:00,9.2,6.6,84,26,25.0,100.82,Mostly Cloudy,9.25900000000001,1.7483983249034645
10/29/2012 3:00,9.6,7.0,84,24,25.0,100.79,Cloudy,9.62900000000001,1.7483983249034645
10/29/2012 4:00,9.9,7.2,83,30,25.0,100.77,Mostly Cloudy,9.953999999999994,1.7459700090483987
10/29/2012 5:00,9.6,7.4,86,20,25.0,100.76,Cloudy,9.61300000000001,1.7530322801745157
10/29/2012 6:00,10.2,7.4,83,33,25.0,100.72,Cloudy,10.194000000000013,1.7459700090483987
10/29/2012 7:00,10.1,7.5,84,26,24.1,100.7,Cloudy,10.041000000000007,1.7483983249034645
10/29/2012 8:00,10.7,7.8,82,24,24.1,100.67,Cloudy,10.721000000000005,1.7434626346010758
10/29/2012 9:00,11.9,8.5,80,26,24.1,100.61,Cloudy,11.854999999999993,1.7383226557949913
10/29/2012 10:00,12.9,8.7,76,28,24.1,100.57,Cloudy,12.950000000000006,1.7272721454173066
10/29/2012 11:00,14.3,9.4,72,32,24.1,100.48,Cloudy,14.309999999999981,1.7154802667147235
10/29/2012 12:00,15.4,9.8,69,26,24.1,100.35,Cloudy,15.63299999999999,1.505906587803386
10/29/2012 13:00,16.5,9.7,64,33,24.1,100.24,Cloudy,16.578999999999986,1.1945895369041124
10/29/2012 14:00,16.6,9.9,65,44,24.1,100.13,Cloudy,16.607999999999983,1.2071384423075397
10/29/2012 15:00,16.6,9.6,63,33,24.1,100.09,Cloudy,16.577999999999978,1.1772009393823537
10/29/2012 16:00,15.2,9.8,70,48,24.1,100.04,Cloudy,15.324000000000002,1.7091525423728813
10/29/2012 17:00,14.2,9.4,73,48,24.1,99.94,Cloudy,14.193000000000014,1.718324698506683
10/29/2012 18:00,14.2,9.2,72,44,25.0,99.83,Mostly Cloudy,14.171000000000015,1.7154802667147235
10/29/2012 19:00,14.0,9.6,75,50,25.0,99.65,Mostly Cloudy,14.014000000000001,1.7241591468416737
10/29/2012 20:00,14.3,9.7,74,52,25.0,99.55,Cloudy,14.246999999999984,1.7209839103698092
10/29/2012 21:00,14.0,9.7,75,48,25.0,99.46,Mostly Cloudy,14.047000000000002,1.7241591468416737
10/29/2012 22:00,14.2,9.8,75,50,25.0,99.37,Cloudy,14.204000000000015,1.7241591468416737
10/29/2012 23:00,14.1,10.0,76,54,25.0,99.33,Cloudy,14.138999999999992,1.7272721454173066
10/30/2012 0:00,14.6,10.2,75,41,25.0,99.28,Cloudy,14.569999999999993,1.7241591468416737
10/30/2012 1:00,14.6,10.4,76,52,25.0,99.23,Mostly Cloudy,14.469999999999992,1.7272721454173066
10/30/2012 2:00,14.1,10.3,78,37,25.0,99.31,Mostly Cloudy,14.100999999999994,1.733057876440812
10/30/2012 3:00,13.9,10.6,80,41,25.0,99.21,Rain Showers,13.952000000000012,1.7383226557949913
10/30/2012 4:00,13.8,10.4,80,35,25.0,99.28,Mostly Cloudy,13.762999999999998,1.7383226557949913
10/30/2012 5:00,13.7,10.5,81,37,25.0,99.32,Mainly Clear,13.678000000000006,1.7408722768108806
10/30/2012 6:00,13.6,10.5,82,37,25.0,99.31,Rain Showers,13.587999999999996,1.7434626346010758
10/30/2012 7:00,15.0,11.1,77,30,19.3,99.45,Rain Showers,15.061000000000002,1.7302348458823897
10/30/2012 8:00,15.7,12.0,79,26,24.1,99.5,Mostly Cloudy,15.65400000000002,1.7357508862871274
10/30/2012 9:00,15.4,12.7,84,22,24.1,99.52,Mostly Cloudy,15.37299999999999,1.7483983249034645
10/30/2012 10:00,16.1,13.3,83,28,24.1,99.57,Mostly Cloudy,16.093999999999983,1.7459700090483987
10/30/2012 11:00,15.1,13.8,92,22,4.0,99.6,Rain,15.018999999999984,1.764560779079539
10/30/2012 12:00,16.1,14.5,90,17,24.1,99.53,Mostly Cloudy,16.13499999999998,1.7609487211792867
10/30/2012 13:00,19.8,14.7,72,28,24.1,99.44,Mainly Clear,19.79299999999999,1.7154802667147235
10/30/2012 14:00,20.4,13.2,63,28,24.1,99.5,Mainly Clear,20.416999999999998,1.0503413361747098
10/30/2012 15:00,20.9,11.8,56,33,24.1,99.47,Mainly Clear,20.979000000000024,0.9682278454809892
10/30/2012 16:00,20.6,9.9,50,20,24.1,99.49,Mainly Clear,20.61199999999998,0.9519925076470527
10/30/2012 17:00,19.7,9.3,51,17,24.1,99.54,Mainly Clear,19.78100000000002,0.9604537637677775
10/30/2012 18:00,19.2,10.4,57,17,25.0,99.61,Mostly Cloudy,19.14800000000002,0.9928366467388529
10/30/2012 19:00,18.8,11.2,61,28,25.0,99.61,Mostly Cloudy,18.771999999999977,1.0258787047369562
10/30/2012 20:00,18.6,12.5,68,26,25.0,99.57,Rain Showers,18.537999999999975,1.3579319565140906
10/30/2012 21:00,16.8,13.5,81,26,19.3,99.6,Rain,16.771999999999988,1.7408722768108806
10/30/2012 22:00,15.0,13.9,93,17,25.0,99.49,Cloudy,15.155,1.7663155381997573
10/30/2012 23:00,15.6,14.0,90,11,25.0,99.45,Rain Showers,15.590999999999985,1.7609487211792867
10/31/2012 0:00,15.0,13.9,93,9,16.1,99.43,Rain Showers,15.066999999999998,1.7663155381997573
10/31/2012 1:00,14.9,13.6,92,9,25.0,99.36,Mainly Clear,15.013000000000007,1.764560779079539
10/31/2012 2:00,13.7,12.7,94,11,25.0,99.41,Mainly Clear,13.662000000000017,1.7677471105115399
10/31/2012 3:00,13.7,12.5,92,11,25.0,99.43,Mainly Clear,13.761,1.764560779079539
10/31/2012 4:00,13.8,11.6,87,13,25.0,99.37,Mainly Clear,13.83899999999998,1.755244623603565
10/31/2012 5:00,13.6,11.2,85,17,25.0,99.34,Mainly Clear,13.685999999999988,1.7507512632600475
10/31/2012 6:00,14.0,10.1,77,11,25.0,99.24,Mostly Cloudy,14.097000000000003,1.7302348458823897
10/31/2012 7:00,11.6,10.4,92,11,24.1,99.26,Mostly Cloudy,11.709000000000009,1.764560779079539
10/31/2012 8:00,14.0,12.1,88,17,24.1,99.22,Mostly Cloudy,14.042000000000003,1.7571931537828946
10/31/2012 9:00,14.6,12.7,88,15,19.3,99.16,Cloudy,14.53599999999999,1.7571931537828946
10/31/2012 10:00,14.6,12.9,90,19,16.1,99.14,Cloudy,14.459999999999981,1.7609487211792867
10/31/2012 11:00,14.8,13.7,93,11,9.7,99.12,Rain Showers,14.864999999999986,1.7663155381997573
10/31/2012 12:00,10.8,9.4,91,24,24.1,99.2,Cloudy,10.814999999999989,1.762772169746578
10/31/2012 13:00,10.2,8.5,89,20,24.1,99.26,Rain Showers,10.228000000000014,1.7590894054480448
10/31/2012 14:00,10.3,8.8,90,11,12.9,99.28,Drizzle,10.33400000000001,1.7609487211792867
10/31/2012 15:00,10.2,8.6,90,4,24.1,99.28,Rain Showers,10.196000000000016,1.7609487211792867
10/31/2012 16:00,10.2,8.6,90,4,24.1,99.26,Cloudy,10.196000000000016,1.7609487211792867
10/31/2012 17:00,9.7,8.1,90,15,24.1,99.31,Cloudy,9.747000000000014,1.7609487211792867
10/31/2012 18:00,8.8,7.4,91,13,25.0,99.37,Cloudy,8.840999999999994,1.762772169746578
10/31/2012 19:00,8.5,6.6,88,7,25.0,99.37,Mostly Cloudy,8.466000000000001,1.7571931537828946
10/31/2012 20:00,8.4,6.3,87,7,25.0,99.4,Mostly Cloudy,8.289999999999992,1.755244623603565
10/31/2012 21:00,8.1,6.5,90,0,25.0,99.39,Rain Showers,8.065000000000012,1.7609487211792867
10/31/2012 22:00,7.8,6.7,93,0,25.0,99.4,Mostly Cloudy,7.797999999999993,1.7663155381997573
10/31/2012 23:00,8.1,6.4,89,4,25.0,99.38,Cloudy,8.076000000000008,1.7590894054480448
11/1/2012 0:00,7.8,6.8,93,7,25.0,99.39,Mostly Cloudy,7.811999999999992,1.7663155381997573
11/1/2012 1:00,7.6,6.8,95,6,25.0,99.37,Cloudy,7.61400000000001,1.768832975474038
11/1/2012 2:00,7.6,6.2,91,4,25.0,99.35,Rain Showers,7.585000000000008,1.762772169746578
11/1/2012 3:00,7.3,5.5,88,6,19.3,99.33,Rain Showers,7.262999999999993,1.7571931537828946
11/1/2012 4:00,7.7,4.7,81,0,25.0,99.32,Rain Showers,7.6720000000000095,1.7408722768108806
11/1/2012 5:00,7.7,5.0,83,4,25.0,99.32,Rain,7.636000000000008,1.7459700090483987
11/1/2012 6:00,7.4,5.4,87,4,25.0,99.31,Cloudy,7.398999999999993,1.755244623603565
11/1/2012 7:00,7.3,4.7,84,7,24.1,99.32,Rain,7.335,1.7483983249034645
11/1/2012 8:00,7.2,4.5,83,9,24.1,99.33,Rain,7.211000000000004,1.7459700090483987
11/1/2012 9:00,7.6,5.6,87,9,24.1,99.34,Rain,7.551000000000001,1.755244623603565
11/1/2012 10:00,7.7,5.1,84,9,24.1,99.31,Cloudy,7.700000000000004,1.7483983249034645
11/1/2012 11:00,8.1,4.7,79,11,24.1,99.29,Cloudy,8.062000000000008,1.7379316403461875
11/1/2012 12:00,8.4,4.9,79,13,24.1,99.25,Cloudy,8.324999999999994,1.7362420767124407
11/1/2012 13:00,8.4,4.9,79,15,24.1,99.22,Rain,8.328999999999994,1.7362159865352127
11/1/2012 14:00,8.4,5.3,81,17,19.3,99.22,Drizzle,8.396000000000006,1.7408722768108806
11/1/2012 15:00,7.7,6.0,89,11,12.9,99.22,Rain,7.767000000000007,1.7590894054480448
11/1/2012 16:00,8.0,6.2,88,17,19.3,99.23,Rain,7.991000000000001,1.7571931537828946
11/1/2012 17:00,8.1,5.9,86,17,16.1,99.26,Rain,8.071000000000009,1.7530322801745157
11/1/2012 18:00,7.5,4.4,81,28,25.0,99.3,Cloudy,7.487000000000004,1.7416127008999511
11/1/2012 19:00,6.9,4.7,86,22,25.0,99.33,Rain,6.876999999999992,1.7530322801745157
11/1/2012 20:00,6.7,4.8,88,24,25.0,99.33,Rain,6.699,1.7571931537828946
11/1/2012 21:00,6.4,4.5,88,22,25.0,99.35,Rain,6.377999999999993,1.7571931537828946
11/1/2012 22:00,5.6,3.6,87,20,25.0,99.37,Rain,5.637000000000008,1.755244623603565
11/1/2012 23:00,5.5,2.9,83,19,25.0,99.38,Rain,5.471,1.7537531123985537
11/2/2012 0:00,5.3,2.8,84,19,25.0,99.4,Cloudy,5.304000000000005,1.7546758469824
11/2/2012 1:00,5.1,2.6,84,20,25.0,99.42,Cloudy,5.084000000000006,1.7558237853116336
11/2/2012 2:00,5.0,2.6,84,22,25.0,99.45,Cloudy,5.084000000000006,1.7558237853116336
11/2/2012 3:00,4.8,2.8,87,24,25.0,99.45,Cloudy,4.748000000000004,1.757441793972601
11/2/2012 4:00,4.7,2.5,86,20,25.0,99.46,Cloudy,4.843000000000001,1.7569870619266348
11/2/2012 5:00,4.8,2.9,87,19,25.0,99.46,Rain Showers,4.781000000000005,1.7572840774938918
11/2/2012 6:00,4.4,2.6,88,20,25.0,99.48,Rain,4.365999999999996,1.7592488683169492
11/2/2012 7:00,4.1,2.4,89,19,25.0,99.53,Rain,4.080000000000003,1.760579761006067
11/2/2012 8:00,3.9,2.5,91,17,24.1,99.58,Rain,3.9249999999999967,1.762772169746578
11/2/2012 9:00,3.7,2.1,89,22,24.1,99.61,Rain,3.551999999999997,1.7629886225294058
11/2/2012 10:00,3.9,2.4,90,20,24.1,99.64,Rain,3.9439999999999986,1.7612061392416687
11/2/2012 11:00,4.2,2.8,91,22,24.1,99.67,Drizzle,4.213999999999996,1.762772169746578
11/2/2012 12:00,4.3,2.9,91,15,24.1,99.68,Drizzle,4.288000000000002,1.762772169746578
11/2/2012 13:00,4.3,3.1,92,20,24.1,99.7,Drizzle,4.269000000000003,1.764560779079539
11/2/2012 14:00,4.6,3.3,91,20,24.1,99.7,Cloudy,4.588000000000005,1.762772169746578
11/2/2012 15:00,4.8,3.4,91,19,24.1,99.74,Cloudy,4.725000000000007,1.762772169746578
11/2/2012 16:00,4.9,3.6,91,22,19.3,99.78,Cloudy,5.184000000000003,1.762772169746578
11/2/2012 17:00,5.3,3.7,89,19,25.0,99.81,Cloudy,5.374000000000003,1.7590894054480448
11/2/2012 18:00,5.7,4.0,89,15,25.0,99.87,Cloudy,5.648999999999998,1.7590894054480448
11/2/2012 19:00,5.9,4.2,89,19,25.0,99.9,Rain Showers,5.822999999999994,1.7590894054480448
11/2/2012 20:00,5.8,3.7,86,17,25.0,99.94,Rain Showers,5.884000000000001,1.7530322801745157
11/2/2012 21:00,5.7,3.1,83,17,25.0,99.96,Cloudy,5.670999999999999,1.7526325030810463
11/2/2012 22:00,5.6,3.1,84,13,25.0,100.0,Rain Showers,5.598000000000004,1.7530435100933244
11/2/2012 23:00,5.6,2.8,82,13,25.0,100.02,Rain Showers,5.666000000000005,1.7526607275725596
11/3/2012 0:00,5.3,2.3,81,17,25.0,100.06,Rain Showers,5.295000000000005,1.7547252446401633
11/3/2012 1:00,4.9,2.2,83,13,25.0,100.1,Rain,4.8879999999999955,1.7567709120747772
11/3/2012 2:00,4.7,1.9,82,17,25.0,100.13,Rain,4.498000000000001,1.7586282818320642
11/3/2012 3:00,4.5,1.2,79,17,25.0,100.14,Cloudy,4.571999999999999,1.7582786076618795
11/3/2012 4:00,4.1,0.9,80,20,25.0,100.17,Mostly Cloudy,4.192000000000005,1.7600607906737002
11/3/2012 5:00,4.0,0.7,79,19,25.0,100.22,Cloudy,3.9530000000000003,1.761164815770387
11/3/2012 6:00,3.7,0.2,78,17,25.0,100.27,Mostly Cloudy,3.641999999999996,1.7625823621204786
11/3/2012 7:00,3.5,0.3,80,20,24.1,100.33,Cloudy,3.4819999999999998,1.7633033872215287
11/3/2012 8:00,4.2,1.2,81,20,24.1,100.39,Cloudy,4.176999999999994,1.7601304604931058
11/3/2012 9:00,4.8,1.0,76,22,25.0,100.42,Cloudy,4.897000000000005,1.756727623996933
11/3/2012 10:00,5.1,1.6,78,22,24.1,100.45,Rain Showers,5.139000000000006,1.755556339370341
11/3/2012 11:00,5.3,2.2,80,24,24.1,100.45,Rain Showers,5.318000000000004,1.7545989393742452
11/3/2012 12:00,5.4,2.0,79,22,24.1,100.45,Drizzle,5.508000000000002,1.7535470862864446
11/3/2012 13:00,5.1,2.6,84,22,24.1,100.46,Drizzle,5.089000000000006,1.7557995024493946
11/3/2012 14:00,5.5,2.6,82,20,24.1,100.47,Drizzle,5.409000000000001,1.7540970489181682
11/3/2012 15:00,5.4,2.7,83,24,24.1,100.52,Drizzle,5.341999999999993,1.7544669082059163
11/3/2012 16:00,5.0,2.7,85,20,24.1,100.57,Drizzle,5.048,1.7559984428158917
11/3/2012 17:00,5.0,2.3,83,20,24.1,100.62,Drizzle,4.986,1.7562985064588572
11/3/2012 18:00,4.7,2.4,85,13,25.0,100.66,Drizzle,4.718999999999994,1.7575801803482174
11/3/2012 19:00,4.8,2.3,84,15,25.0,100.69,Drizzle,4.844000000000004,1.7569822638504216
11/3/2012 20:00,5.0,1.6,79,17,25.0,100.73,Cloudy,4.945000000000002,1.7564964262933376
11/3/2012 21:00,5.0,0.9,75,15,25.0,100.76,Cloudy,4.981,1.756322664698098
11/3/2012 22:00,4.7,0.5,74,17,25.0,100.79,Cloudy,4.660999999999998,1.7578563572286463
11/3/2012 23:00,4.3,-0.1,73,17,25.0,100.82,Cloudy,4.353000000000003,1.7593097690363861
11/4/2012 0:00,3.8,-0.3,75,15,25.0,100.85,Mostly Cloudy,3.7680000000000025,1.762010623122455
11/4/2012 1:00,3.2,-0.7,76,11,25.0,100.87,Mostly Cloudy,3.1939999999999946,1.7645873481103698
11/4/2012 2:00,3.0,-1.3,73,15,25.0,100.88,Mostly Cloudy,2.981,1.765525641121394
11/4/2012 3:00,3.1,-1.2,73,17,25.0,100.88,Mostly Cloudy,3.083,1.7650775055403574
11/4/2012 4:00,2.9,-0.9,76,19,25.0,100.9,Cloudy,2.932999999999999,1.765735777753893
11/4/2012 5:00,3.0,-1.0,75,15,25.0,100.96,Cloudy,2.971,1.7655694591013602
11/4/2012 6:00,3.0,-1.6,72,17,25.0,100.99,Cloudy,2.959000000000001,1.7656220132079394
11/4/2012 7:00,2.8,-1.9,71,15,25.0,101.05,Cloudy,2.811000000000003,1.7662677265139293
11/4/2012 8:00,2.2,-1.2,78,17,24.1,101.11,"Rain Showers,Snow Showers",2.277999999999998,1.7680793789891511
11/4/2012 9:00,2.9,-1.2,74,17,24.1,101.12,Snow Showers,2.8740000000000014,1.7659934157404054
11/4/2012 10:00,3.0,-2.2,69,19,24.1,101.1,Mostly Cloudy,3.0040000000000004,1.7654247807085253
11/4/2012 11:00,3.3,-2.3,67,13,24.1,101.08,Cloudy,3.2960000000000025,1.764134636632905
11/4/2012 12:00,3.7,-2.4,64,13,24.1,101.07,Cloudy,3.677999999999996,1.762419363297189
11/4/2012 13:00,3.4,-2.6,65,11,24.1,101.09,Cloudy,3.3969999999999994,1.7636841799088157
11/4/2012 14:00,3.4,-3.3,61,15,24.1,101.08,Cloudy,3.315999999999999,1.7640456103176743
11/4/2012 15:00,3.6,-3.9,58,17,24.1,101.08,Cloudy,3.5820000000000034,1.7628533982324406
11/4/2012 16:00,3.5,-4.5,56,13,24.1,101.12,Cloudy,3.5059999999999985,1.7631955873324328
11/4/2012 17:00,3.2,-4.1,59,13,24.1,101.17,Cloudy,3.203999999999996,1.7645430621616307
11/4/2012 18:00,3.0,-4.5,58,11,25.0,101.21,Cloudy,3.1889999999999983,1.7646094831542818
11/4/2012 19:00,2.5,-4.3,61,9,25.0,101.25,Cloudy,2.571,1.7672797842716483
11/4/2012 20:00,2.2,-5.2,58,13,25.0,101.28,Cloudy,2.119999999999998,1.7685082836118764
11/4/2012 21:00,2.0,-5.1,59,13,25.0,101.3,Cloudy,2.0149999999999997,1.7687924388110203
11/4/2012 22:00,1.8,-5.1,60,9,25.0,101.3,Cloudy,1.8520000000000008,1.7692321765215657
11/4/2012 23:00,1.7,-5.0,61,11,25.0,101.27,Cloudy,1.679999999999999,1.769694384086135
11/5/2012 0:00,1.5,-4.9,62,9,25.0,101.28,Cloudy,1.6389999999999998,1.7698042883226583
11/5/2012 1:00,1.2,-4.8,64,11,25.0,101.27,Cloudy,1.2139999999999989,1.7709373907821
11/5/2012 2:00,1.3,-6.0,58,17,25.0,101.29,Cloudy,1.260999999999999,1.7708126318758703
11/5/2012 3:00,0.8,-7.7,53,17,25.0,101.29,Cloudy,0.8259999999999991,1.7719621496547018
11/5/2012 4:00,0.4,-7.0,58,13,25.0,101.32,Cloudy,0.3919999999999995,1.7730975907143602
11/5/2012 5:00,-1.1,-6.7,66,11,25.0,101.34,Mostly Cloudy,-1.112999999999999,1.768220712826828
11/5/2012 6:00,-0.6,-5.1,72,11,25.0,101.38,Mostly Cloudy,-0.6290000000000007,1.7708205992705537
11/5/2012 7:00,-0.3,-5.9,66,15,24.1,101.4,Mostly Cloudy,-0.3180000000000002,1.772460627562162
11/5/2012 8:00,-0.5,-5.8,67,15,24.1,101.45,Mainly Clear,-0.4960000000000002,1.7715248462844035
11/5/2012 9:00,0.8,-6.0,60,17,24.1,101.46,Mainly Clear,0.899999999999999,1.771767414155257
11/5/2012 10:00,1.8,-7.0,52,17,48.3,101.49,Mainly Clear,1.7180000000000017,1.7695924278739752
11/5/2012 11:00,1.7,-7.4,51,17,48.3,101.47,Mostly Cloudy,1.7089999999999999,1.7696165835552866
11/5/2012 12:00,1.8,-7.7,49,15,48.3,101.44,Mostly Cloudy,1.8900000000000008,1.7691298105695596
11/5/2012 13:00,1.9,-8.2,47,17,48.3,101.44,Mostly Cloudy,1.903,1.7690947697865944
11/5/2012 14:00,1.8,-8.3,47,15,48.3,101.42,Cloudy,1.8020000000000007,1.7693667303422473
11/5/2012 15:00,1.8,-7.6,50,20,24.1,101.41,Mostly Cloudy,1.7760000000000011,1.7694366363375102
11/5/2012 16:00,1.1,-6.0,59,19,24.1,101.44,Snow Showers,1.0809999999999989,1.7712896970691048
11/5/2012 17:00,0.9,-7.8,52,17,25.0,101.49,Mostly Cloudy,0.9360000000000003,1.7716725576580559
11/5/2012 18:00,0.5,-8.6,50,20,25.0,101.57,Mostly Cloudy,0.5600000000000003,1.772659409057221
11/5/2012 19:00,-0.6,-10.4,47,13,25.0,101.62,Mostly Cloudy,-0.36000000000000054,1.7722405168745825
11/5/2012 20:00,-1.0,-9.5,52,7,25.0,101.64,Mostly Cloudy,-0.9229999999999997,1.7692483312690759
11/5/2012 21:00,-2.0,-9.1,58,7,25.0,101.66,Mainly Clear,-1.9750000000000003,1.7611785922706544
11/5/2012 22:00,-2.2,-9.6,57,11,25.0,101.65,Mainly Clear,-2.270999999999998,1.7584205213604736
11/5/2012 23:00,-3.2,-9.6,61,9,25.0,101.65,Mainly Clear,-3.214999999999997,1.7482188602359447
11/6/2012 0:00,-2.9,-9.9,58,15,25.0,101.68,Mainly Clear,-2.7540000000000004,1.7535470862864446
11/6/2012 1:00,-3.6,-10.3,60,13,25.0,101.69,Clear,-3.624000000000003,1.7431562532265503
11/6/2012 2:00,-4.7,-9.7,68,9,25.0,101.72,Clear,-4.806000000000001,1.7271809980589152
11/6/2012 3:00,-5.5,-8.9,77,4,25.0,101.76,Clear,-5.504000000000002,1.7302348458823897
11/6/2012 4:00,-3.3,-9.9,60,0,25.0,101.76,Mostly Cloudy,-3.2740000000000036,1.747508824144646
11/6/2012 5:00,-3.0,-8.9,64,0,25.0,101.79,Mostly Cloudy,-3.0029999999999997,1.7507165088763597
11/6/2012 6:00,-3.7,-7.5,75,6,25.0,101.83,Mostly Cloudy,-3.7629999999999963,1.741357936227527
11/6/2012 7:00,-3.4,-7.0,76,6,48.3,101.86,Mostly Cloudy,-3.372999999999998,1.7463023639833646
11/6/2012 8:00,-1.6,-5.6,74,6,48.3,101.89,Mainly Clear,-1.6059999999999983,1.7645076181677952
11/6/2012 9:00,-0.2,-5.8,66,7,48.3,101.9,Mainly Clear,-0.2529999999999998,1.7728004376118
11/6/2012 10:00,0.4,-6.1,62,7,48.3,101.93,Mostly Cloudy,0.37799999999999956,1.7731340296195426
11/6/2012 11:00,1.9,-4.5,62,9,48.3,101.94,Mostly Cloudy,1.986000000000002,1.7688707968705397
11/6/2012 12:00,1.5,-6.4,56,17,48.3,101.89,Cloudy,1.5500000000000003,1.7700425003215168
11/6/2012 13:00,2.3,-7.7,48,15,48.3,101.88,Mostly Cloudy,2.308000000000002,1.7679977618036298
11/6/2012 14:00,2.1,-7.4,49,9,48.3,101.87,Mostly Cloudy,2.1859999999999986,1.7683293140004894
11/6/2012 15:00,2.6,-7.7,47,15,48.3,101.87,Mostly Cloudy,2.4509999999999987,1.7676079290386981
11/6/2012 16:00,1.9,-8.1,47,13,48.3,101.87,Mostly Cloudy,2.047000000000002,1.7687059130632883
11/6/2012 17:00,0.0,-7.5,57,6,48.3,101.89,Mainly Clear,-0.01600000000000001,1.7740308869388197
11/6/2012 18:00,-0.9,-7.8,59,4,25.0,101.89,Clear,-0.8440000000000005,1.7696729271196208
11/6/2012 19:00,-0.3,-7.7,57,0,25.0,101.93,Clear,-0.21100000000000022,1.7730194679159428
11/6/2012 20:00,-1.5,-7.3,65,0,25.0,101.94,Clear,-1.5390000000000004,1.765099523713378
11/6/2012 21:00,-0.7,-6.9,63,4,25.0,101.97,Clear,-0.6730000000000005,1.7705866585937822
11/6/2012 22:00,-0.9,-6.6,65,4,25.0,101.98,Clear,-0.8860000000000002,1.769447387344857
11/6/2012 23:00,-1.5,-6.4,69,6,25.0,101.96,Clear,-1.4820000000000004,1.7656001193038349
11/7/2012 0:00,-0.6,-5.9,67,7,25.0,101.93,Clear,-0.5820000000000007,1.77106996400192
11/7/2012 1:00,-0.9,-6.5,66,9,25.0,101.9,Clear,-0.9670000000000003,1.7690111680561904
11/7/2012 2:00,-2.6,-6.9,72,7,25.0,101.94,Clear,-2.5259999999999976,1.7559790519442111
11/7/2012 3:00,-3.6,-6.1,83,9,25.0,101.95,Clear,-3.6370000000000045,1.7459700090483987
11/7/2012 4:00,-4.0,-6.2,85,11,25.0,102.02,Clear,-3.999000000000001,1.7507512632600475
11/7/2012 5:00,-4.3,-6.5,85,13,25.0,101.98,Clear,-4.362000000000002,1.7507512632600475
11/7/2012 6:00,-4.2,-6.4,85,13,25.0,101.92,Mainly Clear,-4.301,1.7507512632600475
11/7/2012 7:00,-3.7,-6.3,82,15,24.1,101.96,Mainly Clear,-3.6959999999999957,1.7434626346010758
11/7/2012 8:00,-3.1,-6.0,80,17,24.1,102.0,Mainly Clear,-3.0670000000000015,1.7499712069180633
11/7/2012 9:00,-1.3,-6.6,67,22,24.1,102.02,Mostly Cloudy,-1.2859999999999996,1.7672770458384452
11/7/2012 10:00,0.0,-6.8,60,20,24.1,102.01,Mostly Cloudy,0.004000000000000001,1.7741031549491004
11/7/2012 11:00,1.1,-7.4,53,26,24.1,101.97,Mostly Cloudy,1.1850000000000003,1.7710143019452325
11/7/2012 12:00,2.1,-7.4,49,26,24.1,101.88,Mostly Cloudy,2.207,1.7682723110770218
11/7/2012 13:00,2.4,-7.5,48,32,24.1,101.78,Mostly Cloudy,2.255,1.768141913285713
11/7/2012 14:00,2.2,-7.4,49,24,24.1,101.75,Mostly Cloudy,2.068,1.7686490953374565
11/7/2012 15:00,1.8,-7.8,49,24,24.1,101.73,Mostly Cloudy,1.794000000000002,1.769388244393795
11/7/2012 16:00,1.5,-7.1,53,26,24.1,101.7,Mostly Cloudy,1.3760000000000003,1.7705067968897488
11/7/2012 17:00,1.2,-6.2,58,20,25.0,101.67,Mainly Clear,1.1710000000000014,1.77105141299002
11/7/2012 18:00,1.0,-5.6,61,19,25.0,101.68,Mostly Cloudy,1.2330000000000003,1.7708869726899161
11/7/2012 19:00,1.4,-6.7,55,20,25.0,101.69,Mainly Clear,1.3260000000000012,1.7706398688578542
11/7/2012 20:00,1.3,-7.8,51,26,25.0,101.65,Mostly Cloudy,1.2179999999999989,1.770926778291015
11/7/2012 21:00,0.8,-6.4,59,22,25.0,101.64,Mainly Clear,0.9530000000000007,1.7716277368988407
11/7/2012 22:00,0.0,-5.6,66,22,25.0,101.58,Clear,-0.07600000000000003,1.7737206424439214
11/7/2012 23:00,-0.7,-4.7,74,22,25.0,101.55,Mostly Cloudy,-0.6870000000000008,1.770512122733143
11/8/2012 0:00,-0.2,-4.5,73,26,25.0,101.54,Mostly Cloudy,-0.22999999999999965,1.772920435111064
11/8/2012 1:00,-0.9,-4.9,74,30,25.0,101.49,Mostly Cloudy,-0.8880000000000007,1.7694366363375102
11/8/2012 2:00,-1.0,-6.0,69,33,25.0,101.48,Mostly Cloudy,-1.005,1.7688059526115723
11/8/2012 3:00,-0.8,-5.8,69,20,25.0,101.46,Mostly Cloudy,-0.8239999999999991,1.7697801719890298
11/8/2012 4:00,-1.3,-5.9,71,26,25.0,101.44,Mostly Cloudy,-1.2710000000000004,1.7673591708101377
11/8/2012 5:00,-1.3,-6.2,69,22,25.0,101.43,Mainly Clear,-1.3480000000000003,1.766766349191928
11/8/2012 6:00,-1.4,-5.7,72,19,25.0,101.42,Mainly Clear,-1.3500000000000016,1.7667490512290518
11/8/2012 7:00,-1.0,-5.1,74,26,24.1,101.44,Mostly Cloudy,-1.0030000000000001,1.7688167625146605
11/8/2012 8:00,-0.2,-4.6,72,20,24.1,101.46,Mostly Cloudy,-0.1329999999999999,1.7734251200700144
11/8/2012 9:00,0.8,-4.4,68,19,24.1,101.45,Cloudy,0.8219999999999991,1.7719726664315398
11/8/2012 10:00,2.4,-3.9,63,30,24.1,101.41,Mostly Cloudy,2.445000000000003,1.767624311987161
11/8/2012 11:00,2.6,-4.0,62,30,24.1,101.38,Mostly Cloudy,2.5820000000000003,1.7672496579614363
11/8/2012 12:00,3.9,-3.6,58,24,24.1,101.29,Mostly Cloudy,3.8859999999999992,1.761472012828698
11/8/2012 13:00,4.7,-3.3,56,26,24.1,101.24,Mostly Cloudy,4.599,1.7581507054521033
11/8/2012 14:00,5.1,-3.4,54,26,24.1,101.21,Mostly Cloudy,4.9740000000000055,1.7563564761111583
11/8/2012 15:00,5.2,-3.3,54,20,24.1,101.18,Mostly Cloudy,5.058000000000004,1.7559499583675042
11/8/2012 16:00,4.4,-3.8,55,19,24.1,101.17,Mostly Cloudy,4.225999999999996,1.7599026829693012
11/8/2012 17:00,3.2,-4.2,58,13,24.1,101.2,Mostly Cloudy,3.4159999999999986,1.763599196408185
11/8/2012 18:00,2.4,-3.0,67,7,25.0,101.25,Mostly Cloudy,2.426000000000003,1.7676761760884503
11/8/2012 19:00,1.8,-3.3,69,9,25.0,101.27,Mostly Cloudy,1.7390000000000005,1.769536044913819
11/8/2012 20:00,1.7,-4.8,62,19,25.0,101.28,Mostly Cloudy,1.666999999999999,1.7697292431314418
11/8/2012 21:00,0.5,-4.6,69,13,25.0,101.24,Mainly Clear,0.48999999999999994,1.7728421902541753
11/8/2012 22:00,-0.3,-4.8,72,11,25.0,101.21,Mainly Clear,-0.28000000000000025,1.772659409057221
11/8/2012 23:00,-1.3,-5.0,76,7,25.0,101.19,Mainly Clear,-1.3530000000000013,1.7667230981601407
11/9/2012 0:00,-3.4,-5.7,84,7,25.0,101.21,Mainly Clear,-3.406999999999998,1.7483983249034645
11/9/2012 1:00,-3.7,-5.9,85,7,25.0,101.18,Mainly Clear,-3.7459999999999964,1.7507512632600475
11/9/2012 2:00,-4.3,-6.3,86,7,25.0,101.19,Clear,-4.313000000000006,1.7530322801745157
11/9/2012 3:00,-3.6,-5.6,86,7,25.0,101.19,Clear,-3.6020000000000016,1.7530322801745157
11/9/2012 4:00,-3.4,-5.2,87,7,25.0,101.2,Clear,-3.360999999999998,1.755244623603565
11/9/2012 5:00,-5.4,-6.7,91,7,25.0,101.22,Mainly Clear,-5.395999999999992,1.762772169746578
11/9/2012 6:00,-3.2,-4.8,89,7,25.0,101.25,Mainly Clear,-3.2059999999999955,1.7590894054480448
11/9/2012 7:00,-2.5,-4.2,88,7,24.1,101.3,Mostly Cloudy,-2.411000000000001,1.7571931537828946
11/9/2012 8:00,-1.6,-3.6,86,7,48.3,101.36,Mostly Cloudy,-1.5769999999999984,1.7647642806030424
11/9/2012 9:00,1.3,-2.4,76,17,48.3,101.34,Mostly Cloudy,1.4149999999999991,1.7704028935122522
11/9/2012 10:00,2.3,-3.3,66,19,48.3,101.36,Cloudy,2.284000000000004,1.7680630601463705
11/9/2012 11:00,3.3,-4.1,58,20,48.3,101.36,Mostly Cloudy,3.4330000000000043,1.7635230927974894
11/9/2012 12:00,3.4,-3.6,60,22,48.3,101.31,Mostly Cloudy,3.335,1.7639609562877985
11/9/2012 13:00,4.0,-3.2,59,20,24.1,101.26,Cloudy,4.061000000000001,1.760667519388362
11/9/2012 14:00,4.8,-2.7,58,20,24.1,101.27,Mostly Cloudy,4.847000000000005,1.756967868190379
11/9/2012 15:00,4.6,-2.0,62,24,24.1,101.29,Cloudy,4.525000000000003,1.7585008459049187
11/9/2012 16:00,4.5,-1.9,63,26,24.1,101.32,Cloudy,4.627000000000006,1.758017885747228
11/9/2012 17:00,4.6,-1.2,66,22,25.0,101.36,Cloudy,4.6170000000000035,1.7580653424624986
11/9/2012 18:00,4.6,-0.5,69,15,25.0,101.42,Cloudy,4.5800000000000045,1.7582407284935362
11/9/2012 19:00,4.6,-0.3,70,15,25.0,101.45,Cloudy,4.6840000000000055,1.7577469337205471
11/9/2012 20:00,4.2,-0.3,72,11,25.0,101.47,Cloudy,4.262999999999995,1.7597303252295846
11/9/2012 21:00,4.6,0.5,75,9,25.0,101.54,Cloudy,4.516000000000004,1.7585433434010231
11/9/2012 22:00,4.5,0.6,76,11,25.0,101.48,Mostly Cloudy,4.457000000000002,1.7588214716484822
11/9/2012 23:00,4.0,0.8,80,15,25.0,101.5,Mostly Cloudy,3.912,1.7613529207797933
11/10/2012 0:00,2.8,0.4,84,13,25.0,101.55,Mostly Cloudy,2.7940000000000023,1.7663416068144915
11/10/2012 1:00,3.6,0.6,81,9,25.0,101.62,Mostly Cloudy,3.5469999999999993,1.7630111409158573
11/10/2012 2:00,2.7,-0.5,79,9,25.0,101.66,Mainly Clear,2.845999999999996,1.7661154326946027
11/10/2012 3:00,2.6,-2.7,68,11,25.0,101.75,Mainly Clear,2.662999999999998,1.7669089328765026
11/10/2012 4:00,1.1,-3.5,71,11,25.0,101.84,Mainly Clear,1.1249999999999984,1.771173264631429
11/10/2012 5:00,0.7,-4.0,71,6,25.0,101.98,Mainly Clear,0.7180000000000013,1.772245762554051
11/10/2012 6:00,-0.6,-5.2,71,9,25.0,102.07,Mainly Clear,-0.5650000000000008,1.7711600261711022
11/10/2012 7:00,-1.4,-6.0,71,13,24.1,102.22,Clear,-1.3960000000000015,1.7663502947085141
11/10/2012 8:00,0.4,-4.9,68,13,24.1,102.32,Clear,0.35399999999999965,1.7731964690927229
11/10/2012 9:00,2.0,-5.2,59,15,48.3,102.39,Clear,2.0069999999999997,1.7688140601336588
11/10/2012 10:00,2.4,-5.9,54,7,48.3,102.43,Mainly Clear,2.4490000000000016,1.7676133902781868
11/10/2012 11:00,3.3,-7.3,46,6,48.3,102.45,Mainly Clear,3.1710000000000043,1.7646891255707182
11/10/2012 12:00,4.2,-7.7,42,6,48.3,102.43,Mainly Clear,4.025999999999995,1.76082896688221
11/10/2012 13:00,4.7,-8.0,39,6,48.3,102.39,Mostly Cloudy,4.853999999999996,1.7569342699648207
11/10/2012 14:00,5.6,-7.6,38,4,48.3,102.37,Mostly Cloudy,5.705,1.7524402893923838
11/10/2012 15:00,5.2,-6.9,41,11,48.3,102.4,Mostly Cloudy,4.938999999999994,1.7565253562510637
11/10/2012 16:00,3.6,-8.2,42,9,48.3,102.39,Mostly Cloudy,3.3980000000000024,1.763679709024949
11/10/2012 17:00,3.5,-7.8,43,7,25.0,102.47,Mostly Cloudy,3.5749999999999993,1.7628849680568577
11/10/2012 18:00,3.4,-7.0,46,7,25.0,102.53,Mostly Cloudy,3.5119999999999982,1.7631686179059796
11/10/2012 19:00,2.6,-6.4,51,7,25.0,102.58,Mainly Clear,2.642999999999999,1.7669952392845178
11/10/2012 20:00,2.6,-5.3,56,15,25.0,102.56,Mainly Clear,2.514,1.767435768506586
11/10/2012 21:00,1.8,-6.1,56,9,25.0,102.53,Clear,1.8060000000000018,1.7693559718110998
11/10/2012 22:00,0.9,-4.6,67,11,25.0,102.55,Mainly Clear,0.8390000000000003,1.771927963429347
11/10/2012 23:00,1.1,-6.7,56,11,25.0,102.5,Mainly Clear,1.007999999999999,1.7714826079251411
11/11/2012 0:00,2.4,-7.2,49,7,25.0,102.45,Mostly Cloudy,2.4960000000000018,1.767484983253079
11/11/2012 1:00,2.7,-7.3,48,13,25.0,102.34,Mostly Cloudy,2.692999999999996,1.766779320521134
11/11/2012 2:00,3.0,-7.8,45,11,25.0,102.33,Cloudy,2.9729999999999994,1.7655606971707312
11/11/2012 3:00,3.1,-7.6,45,17,25.0,102.24,Cloudy,3.07,1.7651347418862724
11/11/2012 4:00,0.9,-4.3,68,20,25.0,102.34,Cloudy,0.8429999999999996,1.7719174425285444
11/11/2012 5:00,0.3,-4.0,73,20,25.0,102.23,Rain,0.19700000000000029,1.7736040810144944
11/11/2012 6:00,0.5,-2.3,81,17,25.0,102.26,Rain,0.5510000000000007,1.7726829259733952
11/11/2012 7:00,0.6,-2.1,82,22,24.1,102.3,Cloudy,0.5990000000000008,1.7725574461676519
11/11/2012 8:00,0.6,-2.0,83,20,24.1,102.34,Cloudy,0.6150000000000007,1.7725155887755015
11/11/2012 9:00,1.1,-2.0,80,20,24.1,102.29,Cloudy,1.041999999999999,1.7713927995371155
11/11/2012 10:00,1.7,-0.6,85,17,24.1,102.31,Rain Showers,1.675999999999999,1.7697051110702853
11/11/2012 11:00,2.9,-0.2,80,22,24.1,102.21,Rain Showers,2.6390000000000016,1.7670124908029878
11/11/2012 12:00,3.7,0.3,78,24,24.1,102.15,Mostly Cloudy,3.5869999999999993,1.7628308418349206
11/11/2012 13:00,5.5,1.4,75,17,48.3,102.11,Mainly Clear,5.302,1.7546868271425853
11/11/2012 14:00,6.3,1.6,72,20,48.3,102.08,Clear,6.348,1.7487083937058077
11/11/2012 15:00,7.0,1.9,70,19,48.3,102.07,Mainly Clear,6.964000000000001,1.7449517650503343
11/11/2012 16:00,6.6,1.8,71,20,24.1,102.07,Mostly Cloudy,6.635000000000008,1.746981053698414
11/11/2012 17:00,4.8,1.5,79,17,25.0,102.12,Mostly Cloudy,4.821000000000005,1.7570925592848885
11/11/2012 18:00,3.3,1.1,85,13,25.0,102.13,Mainly Clear,3.4080000000000026,1.7636349883821507
11/11/2012 19:00,1.9,0.2,88,17,25.0,102.14,Clear,1.9170000000000025,1.7690570216612822
11/11/2012 20:00,1.5,-0.1,89,15,25.0,102.15,Clear,1.4879999999999998,1.7702081546163633
11/11/2012 21:00,1.3,-0.3,89,15,25.0,102.13,Mainly Clear,1.2969999999999988,1.7707169799118947
11/11/2012 22:00,1.0,-0.5,90,13,25.0,102.07,Clear,0.9799999999999999,1.771556514808332
11/11/2012 23:00,1.1,-0.3,90,15,25.0,102.04,Clear,1.1819999999999984,1.7710222553247434
11/12/2012 0:00,0.9,-0.3,92,19,19.3,101.99,Mainly Clear,0.9210000000000005,1.7717120907790274
11/12/2012 1:00,0.6,-0.8,90,17,25.0,101.97,Mainly Clear,0.6020000000000009,1.7725495990799862
11/12/2012 2:00,0.4,-0.7,92,15,19.3,101.98,Mainly Clear,0.43699999999999956,1.7729803863399232
11/12/2012 3:00,0.2,-0.9,92,15,19.3,101.94,Clear,0.2769999999999997,1.7733965639134412
11/12/2012 4:00,-0.3,-1.1,94,11,19.3,101.95,Clear,-0.2400000000000002,1.7728682778637495
11/12/2012 5:00,-0.2,-1.2,93,11,19.3,101.91,Clear,-0.2189999999999999,1.7729777804230045
11/12/2012 6:00,-0.3,-1.2,94,13,19.3,101.87,Mainly Clear,-0.2670000000000002,1.772727333543064
11/12/2012 7:00,-0.2,-1.0,94,11,16.1,101.9,Mainly Clear,-0.16199999999999984,1.7732744701180558
11/12/2012 8:00,1.0,0.0,93,9,19.3,101.88,Mainly Clear,0.996,1.7715142881585038
11/12/2012 9:00,4.2,1.8,84,7,19.3,101.83,Mainly Clear,4.217000000000002,1.7599445606193413
11/12/2012 10:00,7.2,3.3,76,6,19.3,101.78,Mostly Cloudy,7.161000000000007,1.743710689493246
11/12/2012 11:00,11.8,5.3,64,6,19.3,101.71,Mostly Cloudy,11.776999999999981,1.7110096925197509
11/12/2012 12:00,17.5,8.5,55,13,19.3,101.61,Mostly Cloudy,17.495000000000005,1.0131138121990042
11/12/2012 13:00,16.9,8.4,57,22,24.1,101.52,Mostly Cloudy,16.92100000000002,1.043534841552822
11/12/2012 14:00,16.3,8.2,59,22,24.1,101.43,Cloudy,16.22899999999999,1.1523829925793936
11/12/2012 15:00,17.0,8.4,57,20,24.1,101.33,Cloudy,16.969000000000005,1.0404549890040475
11/12/2012 16:00,16.7,8.0,56,22,24.1,101.21,Cloudy,16.695000000000018,1.0598233461293034
11/12/2012 17:00,17.1,7.5,53,33,25.0,101.13,Mostly Cloudy,17.190999999999995,1.0276252705633238
11/12/2012 18:00,17.1,7.3,52,35,25.0,101.09,Mainly Clear,17.115999999999975,1.0317186334441486
11/12/2012 19:00,17.1,7.8,54,32,25.0,100.98,Mainly Clear,17.240999999999996,1.0250195625364917
11/12/2012 20:00,16.4,7.5,56,33,25.0,100.91,Mostly Cloudy,16.308000000000003,1.1338560795297643
11/12/2012 21:00,15.9,7.7,58,30,25.0,100.9,Cloudy,15.908000000000008,1.2482615731370887
11/12/2012 22:00,16.0,8.2,60,26,25.0,100.87,Cloudy,16.004999999999992,1.2172732311102923
11/12/2012 23:00,15.6,8.9,64,24,25.0,100.84,Cloudy,15.688999999999995,1.3852944678261752
11/13/2012 0:00,14.8,10.0,73,48,25.0,100.94,Rain,14.705999999999982,1.718324698506683
11/13/2012 1:00,9.1,7.4,89,37,12.9,101.25,Rain,9.11500000000001,1.7590894054480448
11/13/2012 2:00,8.0,6.2,88,35,25.0,101.36,Rain,8.017999999999999,1.7571931537828946
11/13/2012 3:00,7.9,5.6,85,41,25.0,101.45,Rain,7.890999999999988,1.7507512632600475
11/13/2012 4:00,6.2,4.1,86,28,25.0,101.53,Rain,6.239000000000002,1.7530322801745157
11/13/2012 5:00,5.6,3.4,86,30,25.0,101.6,Rain,5.570000000000005,1.7532005489509517
11/13/2012 6:00,5.7,3.3,85,30,25.0,101.76,Cloudy,5.684999999999999,1.7525534169464558
11/13/2012 7:00,5.4,2.3,80,30,24.1,101.78,Cloudy,5.381999999999994,1.754246322603673
11/13/2012 8:00,5.2,0.9,74,33,24.1,101.89,Mostly Cloudy,5.184999999999994,1.7553262915189825
11/13/2012 9:00,4.6,-1.2,66,32,24.1,101.95,Mostly Cloudy,4.626,1.758022632474779
11/13/2012 10:00,4.7,-1.3,65,37,24.1,102.07,Mostly Cloudy,4.704999999999996,1.7576469163977162
11/13/2012 11:00,4.8,-2.0,61,30,48.3,102.09,Mostly Cloudy,4.758000000000007,1.7573940283676956
11/13/2012 12:00,6.1,-1.8,57,28,48.3,102.08,Mostly Cloudy,6.069000000000009,1.7503506082249554
11/13/2012 13:00,5.3,-3.2,54,33,48.3,102.13,Mostly Cloudy,5.383000000000003,1.7542407993957465
11/13/2012 14:00,5.6,-6.5,41,30,24.1,102.18,Mainly Clear,5.528,1.753435478945908
11/13/2012 15:00,5.4,-2.9,55,28,24.1,102.25,Mainly Clear,5.354999999999993,1.7543952911567746
11/13/2012 16:00,4.9,-5.1,48,24,24.1,102.33,Mainly Clear,5.202000000000002,1.7552337275812309
11/13/2012 17:00,3.7,-6.1,49,13,25.0,102.41,Clear,3.784999999999997,1.7619332165514434
11/13/2012 18:00,2.5,-5.5,56,11,25.0,102.54,Clear,2.503999999999999,1.767463112604193
11/13/2012 19:00,0.8,-5.6,62,11,25.0,102.6,Clear,0.9110000000000003,1.771738438588495
11/13/2012 20:00,-0.7,-6.0,67,9,25.0,102.68,Clear,-0.6540000000000006,1.7706877369957539
11/13/2012 21:00,-1.0,-6.0,69,7,25.0,102.75,Clear,-1.013,1.7687627028881159
11/13/2012 22:00,-0.9,-5.7,70,7,25.0,102.81,Clear,-0.8870000000000006,1.7694420119665146
11/13/2012 23:00,-1.5,-5.9,72,7,25.0,102.84,Clear,-1.5269999999999997,1.76520513799915
11/14/2012 0:00,-0.1,-6.0,64,4,25.0,102.91,Clear,-0.04200000000000004,1.773896552170886
11/14/2012 1:00,-0.7,-5.7,69,6,25.0,102.91,Clear,-0.8360000000000004,1.7697158370552164
11/14/2012 2:00,-2.3,-6.1,75,6,25.0,102.97,Clear,-2.330000000000002,1.7578611119469925
11/14/2012 3:00,-2.4,-6.7,72,6,25.0,102.99,Clear,-2.297000000000003,1.7581744039200178
11/14/2012 4:00,-4.0,-7.0,80,4,25.0,103.01,Clear,-4.052000000000003,1.7383226557949913
11/14/2012 5:00,-4.7,-6.6,87,4,25.0,103.09,Clear,-4.774999999999995,1.755244623603565
11/14/2012 6:00,-3.6,-6.1,83,4,25.0,103.15,Clear,-3.637000000000004,1.7459700090483987
11/14/2012 7:00,-5.2,-7.0,87,4,48.3,103.25,Clear,-5.216999999999993,1.755244623603565
11/14/2012 8:00,-3.0,-4.9,87,4,48.3,103.29,Clear,-3.031999999999999,1.755244623603565
11/14/2012 9:00,0.6,-3.1,76,6,24.1,103.31,Clear,0.6000000000000005,1.7725548305319256
11/14/2012 10:00,2.4,-4.3,61,2,24.1,103.34,Clear,2.478000000000002,1.7675341771745383
11/14/2012 11:00,4.6,-5.0,50,4,24.1,103.31,Clear,4.486000000000003,1.758684865595859
11/14/2012 12:00,4.8,-6.4,44,7,24.1,103.25,Mainly Clear,5.023999999999995,1.7561147067002005
11/14/2012 13:00,4.8,-6.6,43,4,48.3,103.2,Mainly Clear,5.091999999999993,1.7557849298165886
11/14/2012 14:00,5.2,-6.2,44,6,48.3,103.15,Clear,5.189999999999995,1.755299079121393
11/14/2012 15:00,4.6,-7.4,41,6,48.3,103.15,Clear,4.199999999999996,1.7600236125266673
11/14/2012 16:00,4.2,-7.4,43,6,48.3,103.16,Mainly Clear,4.011999999999995,1.7608934688111593
11/14/2012 17:00,3.6,-7.2,45,7,24.1,103.15,Mainly Clear,3.6580000000000017,1.7625099531849662
11/14/2012 18:00,2.8,-6.3,51,7,25.0,103.16,Clear,2.734000000000002,1.7666018865744089
11/14/2012 19:00,2.5,-5.9,54,9,25.0,103.17,Clear,2.471,1.7675533025227934
11/14/2012 20:00,2.1,-5.8,56,11,25.0,103.18,Clear,2.123999999999998,1.7684974448405184
11/14/2012 21:00,1.8,-6.1,56,7,25.0,103.16,Clear,1.8100000000000016,1.7693452122761815
11/14/2012 22:00,1.4,-5.7,59,13,25.0,103.15,Clear,1.3480000000000012,1.77058133620945
11/14/2012 23:00,0.4,-6.2,61,11,25.0,103.12,Clear,0.8199999999999998,1.7719779244562026
11/15/2012 0:00,-1.4,-6.1,70,13,25.0,103.1,Clear,-1.321,1.7669995524690822
11/15/2012 1:00,-2.0,-5.1,79,9,25.0,103.06,Mainly Clear,-1.9510000000000007,1.7613987432155238
11/15/2012 2:00,-2.3,-5.1,81,13,25.0,103.0,Mainly Clear,-2.035,1.7606259597670086
11/15/2012 3:00,-2.9,-5.4,83,9,25.0,103.01,Mainly Clear,-2.9330000000000025,1.7515232499443298
11/15/2012 4:00,-3.6,-6.3,82,9,25.0,103.0,Clear,-3.6370000000000022,1.7434626346010758
11/15/2012 5:00,-2.9,-6.0,79,13,25.0,102.94,Mainly Clear,-2.917999999999999,1.7516949899308878
11/15/2012 6:00,-3.1,-6.1,80,15,25.0,102.91,Mainly Clear,-3.108000000000002,1.749489824499736
11/15/2012 7:00,-2.9,-5.9,80,13,24.1,102.94,Mostly Cloudy,-2.924000000000001,1.7516263416338749
11/15/2012 8:00,-2.1,-5.1,80,11,24.1,102.99,Cloudy,-2.0070000000000006,1.7608842569430716
11/15/2012 9:00,-1.0,-4.8,75,19,24.1,102.93,Cloudy,-1.0760000000000003,1.7684215450124412
11/15/2012 10:00,0.3,-4.6,70,15,24.1,102.84,Cloudy,0.27500000000000036,1.773401756477293
11/15/2012 11:00,1.3,-4.8,64,11,24.1,102.79,Cloudy,1.2879999999999985,1.7707409003872212
11/15/2012 12:00,1.8,-4.7,62,15,24.1,102.73,Cloudy,1.7940000000000011,1.769388244393795
11/15/2012 13:00,2.6,-5.6,55,13,24.1,102.65,Mostly Cloudy,2.647999999999999,1.7669736703115806
11/15/2012 14:00,2.6,-5.5,55,11,24.1,102.59,Mostly Cloudy,2.630999999999998,1.7670469840841547
11/15/2012 15:00,2.4,-5.8,55,13,24.1,102.55,Mainly Clear,2.3399999999999994,1.767910640131238
11/15/2012 16:00,1.8,-5.5,58,11,24.1,102.53,Mainly Clear,1.8160000000000014,1.7693290710914285
11/15/2012 17:00,1.2,-5.9,59,9,25.0,102.53,Mainly Clear,1.1790000000000014,1.771030208151783
11/15/2012 18:00,1.0,-5.9,60,7,25.0,102.54,Clear,0.9970000000000003,1.7715116484745572
11/15/2012 19:00,0.5,-5.8,63,7,25.0,102.51,Clear,0.46399999999999975,1.7729100055780245
11/15/2012 20:00,-0.7,-5.7,69,4,25.0,102.46,Clear,-0.7680000000000007,1.770079927003084
11/15/2012 21:00,-2.9,-6.3,77,6,25.0,102.46,Clear,-2.9379999999999997,1.7514659148577318
11/15/2012 22:00,-1.7,-5.2,77,4,25.0,102.42,Clear,-1.6889999999999998,1.7637690859537272
11/15/2012 23:00,-4.3,-6.3,86,6,25.0,102.44,Clear,-4.341000000000005,1.7530322801745157
11/16/2012 0:00,-3.1,-5.5,83,4,25.0,102.42,Clear,-3.0680000000000014,1.7499595025222277
11/16/2012 1:00,-5.3,-6.9,88,4,19.3,102.4,Clear,-5.321000000000002,1.7571931537828946
11/16/2012 2:00,-4.5,-6.3,87,0,19.3,102.42,Clear,-4.555000000000001,1.755244623603565
11/16/2012 3:00,-3.6,-5.1,89,0,19.3,102.4,Clear,-3.478000000000002,1.7590894054480448
11/16/2012 4:00,-6.7,-8.1,90,0,19.3,102.42,Clear,-6.583000000000003,1.7609487211792867
11/16/2012 5:00,-6.5,-7.7,91,4,19.3,102.48,Clear,-6.452000000000001,1.762772169746578
11/16/2012 6:00,-5.4,-6.4,93,4,16.1,102.48,Mostly Cloudy,-5.397999999999992,1.7663155381997573
11/16/2012 7:00,-5.2,-6.5,91,4,16.1,102.49,Mostly Cloudy,-5.202999999999994,1.762772169746578
11/16/2012 8:00,-3.2,-4.8,89,0,19.3,102.54,Mostly Cloudy,-3.2269999999999963,1.7590894054480448
11/16/2012 9:00,0.4,-1.7,86,9,19.3,102.55,Mostly Cloudy,0.39899999999999936,1.7730793668718405
11/16/2012 10:00,2.0,-2.0,75,13,24.1,102.57,Mainly Clear,1.9749999999999996,1.7689005050010713
11/16/2012 11:00,3.1,-2.5,67,15,24.1,102.53,Mostly Cloudy,3.095999999999999,1.7650202337414438
11/16/2012 12:00,3.9,-2.8,62,17,24.1,102.48,Mainly Clear,3.933999999999996,1.7612520330030317
11/16/2012 13:00,4.9,-2.6,58,15,24.1,102.49,Mainly Clear,4.922999999999995,1.7566024605309682
11/16/2012 14:00,5.3,-2.1,59,13,24.1,102.5,Mainly Clear,5.203000000000003,1.7552282789549163
11/16/2012 15:00,5.5,-1.9,59,9,24.1,102.5,Mostly Cloudy,5.5280000000000005,1.753435478945908
11/16/2012 16:00,4.8,-2.0,61,13,24.1,102.55,Mostly Cloudy,4.802000000000004,1.757183577874801
11/16/2012 17:00,4.4,-1.3,66,13,25.0,102.61,Cloudy,4.517999999999998,1.7585339011431373
11/16/2012 18:00,4.2,-1.5,66,15,25.0,102.66,Cloudy,4.348999999999999,1.7593284998965792
11/16/2012 19:00,3.7,-1.7,68,13,25.0,102.69,Mostly Cloudy,3.8539999999999957,1.7616183814007773
11/16/2012 20:00,3.3,-1.7,70,9,25.0,102.75,Mostly Cloudy,3.2030000000000034,1.7645474917084776
11/16/2012 21:00,0.8,-2.5,79,9,25.0,102.79,Mainly Clear,0.8329999999999987,1.7719437429607883
11/16/2012 22:00,-0.9,-3.1,85,11,25.0,102.81,Mainly Clear,-0.8050000000000003,1.7698819621506405
11/16/2012 23:00,-1.5,-3.5,86,13,25.0,102.84,Mainly Clear,-1.5399999999999998,1.765090717073393
11/17/2012 0:00,-1.1,-3.5,84,9,25.0,102.9,Clear,-1.19,1.76780164598378
11/17/2012 1:00,-1.3,-3.5,85,9,25.0,102.94,Clear,-1.34,1.766835508398955
11/17/2012 2:00,-2.4,-4.2,87,11,25.0,103.05,Mainly Clear,-2.3460000000000036,1.7577088441501003
11/17/2012 3:00,-2.0,-5.0,80,11,25.0,103.13,Clear,-1.9760000000000004,1.7611694081605016
11/17/2012 4:00,-3.1,-6.5,77,17,25.0,103.17,Clear,-3.0410000000000013,1.7502748815534996
11/17/2012 5:00,-2.2,-7.3,68,13,25.0,103.24,Clear,-2.197999999999997,1.7591081796222698
11/17/2012 6:00,-2.6,-8.2,65,13,25.0,103.28,Clear,-2.585999999999998,1.7553955178846121
11/17/2012 7:00,-3.2,-8.2,68,13,24.1,103.39,Mainly Clear,-3.1699999999999955,1.7487559840576596
11/17/2012 8:00,-2.7,-8.2,66,15,24.1,103.47,Mainly Clear,-2.772999999999996,1.7533348867996894
11/17/2012 9:00,-2.1,-8.9,60,15,24.1,103.51,Mainly Clear,-2.0689999999999977,1.7603113630572877
11/17/2012 10:00,-1.0,-8.9,55,7,48.3,103.52,Mostly Cloudy,-1.0650000000000002,1.7684811847802733
11/17/2012 11:00,-0.1,-9.1,51,4,48.3,103.5,Mostly Cloudy,-0.24500000000000025,1.7728421902541753
11/17/2012 12:00,1.2,-9.0,46,4,48.3,103.47,Mainly Clear,1.368000000000001,1.7705280987802687
11/17/2012 13:00,2.3,-8.3,45,4,48.3,103.43,Mainly Clear,2.4950000000000028,1.767487716794929
11/17/2012 14:00,2.8,-7.4,47,6,48.3,103.43,Mainly Clear,2.6840000000000033,1.766818223492022
11/17/2012 15:00,2.4,-7.4,48,6,48.3,103.43,Mainly Clear,2.454000000000002,1.7675997366981633
11/17/2012 16:00,2.0,-7.3,50,4,48.3,103.46,Mainly Clear,2.224,1.7682261453036505
11/17/2012 17:00,0.9,-7.7,53,4,25.0,103.46,Clear,0.8859999999999999,1.7718042815117196
11/17/2012 18:00,-1.7,-7.9,63,4,25.0,103.5,Mainly Clear,-1.6989999999999987,1.7636797090249487
11/17/2012 19:00,-2.1,-7.2,68,4,25.0,103.51,Clear,-2.051999999999998,1.7604687919592787
11/17/2012 20:00,-0.1,-7.0,60,7,25.0,103.49,Clear,-0.09599999999999989,1.773617038214297
11/17/2012 21:00,-1.4,-6.5,68,7,25.0,103.51,Clear,-1.3840000000000017,1.76645448536064
11/17/2012 22:00,-1.0,-6.3,67,7,25.0,103.54,Clear,-1.064,1.76848660505414
11/17/2012 23:00,-1.3,-6.7,67,9,25.0,103.56,Clear,-1.2799999999999991,1.7673099027840014
11/18/2012 0:00,-1.6,-6.2,71,0,25.0,103.58,Clear,-1.6089999999999978,1.7644810262803299
11/18/2012 1:00,-3.2,-6.9,76,0,25.0,103.59,Clear,-3.241999999999997,1.7478947508069251
11/18/2012 2:00,-4.6,-6.9,84,0,25.0,103.63,Clear,-4.580000000000005,1.7483983249034645
11/18/2012 3:00,-3.9,-6.1,85,7,25.0,103.61,Clear,-3.9130000000000003,1.7507512632600475
11/18/2012 4:00,-4.8,-6.9,85,7,25.0,103.59,Clear,-4.732000000000006,1.7507512632600475
11/18/2012 5:00,-5.0,-7.4,83,7,25.0,103.61,Clear,-4.915,1.7459700090483987
11/18/2012 6:00,-5.4,-7.4,86,9,25.0,103.59,Mainly Clear,-5.359999999999993,1.7530322801745157
11/18/2012 7:00,-6.4,-8.4,86,9,24.1,103.63,Mostly Cloudy,-6.289999999999992,1.7530322801745157
11/18/2012 8:00,-4.5,-6.4,87,7,24.1,103.65,Cloudy,-4.565999999999999,1.755244623603565
11/18/2012 9:00,-2.4,-5.4,80,9,24.1,103.65,Cloudy,-2.327000000000001,1.7578896353161457
11/18/2012 10:00,-0.5,-6.8,62,7,24.1,103.65,Mostly Cloudy,-0.446,1.771788482674644
11/18/2012 11:00,1.9,-6.5,54,7,48.3,103.59,Mostly Cloudy,1.937000000000002,1.769003074353314
11/18/2012 12:00,4.1,-10.1,35,4,48.3,103.51,Mostly Cloudy,3.8880000000000035,1.7614628572405047
11/18/2012 13:00,4.0,-11.6,31,6,48.3,103.46,Mostly Cloudy,4.109000000000001,1.7604456570406097
11/18/2012 14:00,4.5,-10.6,32,7,48.3,103.39,Mostly Cloudy,4.625,1.7580273789676113
11/18/2012 15:00,4.5,-11.9,29,9,48.3,103.38,Mostly Cloudy,4.2620000000000005,1.7597349876562325
11/18/2012 16:00,2.7,-9.3,41,9,24.1,103.36,Mostly Cloudy,2.6949999999999967,1.7667706731723969
11/18/2012 17:00,1.5,-8.5,47,9,25.0,103.36,Mostly Cloudy,1.5860000000000003,1.7699462043095
11/18/2012 18:00,2.6,-7.5,47,9,25.0,103.36,Mostly Cloudy,2.601999999999998,1.7671719132925767
11/18/2012 19:00,1.1,-7.0,55,4,25.0,103.36,Mostly Cloudy,1.0609999999999986,1.771342581744167
11/18/2012 20:00,-1.8,-6.8,69,6,25.0,103.3,Mostly Cloudy,-1.8000000000000012,1.762772169746578
11/18/2012 21:00,-0.6,-7.1,61,11,25.0,103.27,Mainly Clear,-0.5080000000000007,1.7714614828884923
11/18/2012 22:00,-1.3,-6.9,66,11,25.0,103.25,Cloudy,-1.3359999999999992,1.7668700684287173
11/18/2012 23:00,-2.1,-6.0,75,11,25.0,103.22,Cloudy,-2.1499999999999972,1.7595576546590475
11/19/2012 0:00,-1.8,-5.7,75,7,25.0,103.2,Mostly Cloudy,-1.8300000000000003,1.7625008981338184
11/19/2012 1:00,-2.4,-5.9,77,6,25.0,103.15,Cloudy,-2.5340000000000034,1.7559014496788026
11/19/2012 2:00,-3.1,-6.4,78,13,25.0,103.11,Mostly Cloudy,-3.089000000000002,1.7497132876603252
11/19/2012 3:00,-3.6,-6.9,78,9,25.0,103.11,Mostly Cloudy,-3.5920000000000014,1.7435644959030736
11/19/2012 4:00,-3.7,-6.9,78,6,25.0,103.05,Mostly Cloudy,-3.5920000000000005,1.7435644959030738
11/19/2012 5:00,-4.0,-7.1,79,9,25.0,103.03,Mainly Clear,-3.904000000000003,1.7395164189837011
11/19/2012 6:00,-4.3,-7.0,81,7,25.0,103.01,Clear,-4.284000000000007,1.7408722768108806
11/19/2012 7:00,-4.6,-7.1,83,9,16.1,102.99,Clear,-4.635000000000008,1.7459700090483987
11/19/2012 8:00,-2.8,-5.9,79,11,24.1,102.99,Mainly Clear,-2.825000000000003,1.7527509733375266
11/19/2012 9:00,-0.5,-4.5,74,7,24.1,102.92,Clear,-0.6930000000000004,1.770480163964359
11/19/2012 10:00,1.3,-3.4,71,7,19.3,102.9,Mainly Clear,1.2329999999999983,1.7708869726899161
11/19/2012 11:00,2.4,-3.4,65,6,24.1,102.83,Mainly Clear,2.425000000000003,1.7676789051366928
11/19/2012 12:00,4.9,-2.7,58,4,24.1,102.72,Clear,4.9929999999999986,1.7562646747972455
11/19/2012 13:00,4.9,-0.4,69,6,19.3,102.64,Mainly Clear,4.8349999999999955,1.7570254379504957
11/19/2012 14:00,5.9,-0.9,62,6,19.3,102.54,Mainly Clear,5.699999999999999,1.75246858755212
11/19/2012 15:00,6.2,-1.2,59,4,24.1,102.5,Mainly Clear,6.104999999999997,1.7501407156839253
11/19/2012 16:00,3.7,-2.0,66,6,24.1,102.45,Mainly Clear,3.7209999999999948,1.7622242982946856
11/19/2012 17:00,3.0,-1.5,72,4,25.0,102.42,Clear,3.030000000000001,1.7653106317010283
11/19/2012 18:00,1.1,-1.9,80,4,19.3,102.39,Mainly Clear,1.0749999999999988,1.771305565040029
11/19/2012 19:00,0.1,-2.9,80,4,25.0,102.33,Mainly Clear,0.04599999999999998,1.7739947355911372
11/19/2012 20:00,-1.4,-3.6,85,6,25.0,102.29,Clear,-1.3979999999999992,1.7663329180984357
11/19/2012 21:00,-2.5,-3.8,91,4,19.3,102.23,Mainly Clear,-2.3280000000000003,1.762772169746578
11/19/2012 22:00,-3.3,-4.3,93,6,12.9,102.21,Clear,-3.362000000000005,1.7663155381997573
11/19/2012 23:00,-0.7,-2.2,90,6,9.7,102.16,Fog,-0.7740000000000014,1.7700478477362978
11/20/2012 0:00,-3.3,-4.5,91,7,9.7,102.12,Fog,-3.312000000000003,1.762772169746578
11/20/2012 1:00,-3.6,-4.3,95,7,9.7,102.08,Fog,-3.5460000000000043,1.768832975474038
11/20/2012 2:00,-1.8,-3.5,88,6,8.0,102.08,Fog,-1.7640000000000011,1.763096661349585
11/20/2012 3:00,-3.6,-4.5,93,6,9.7,102.08,Fog,-3.5220000000000034,1.7663155381997573
11/20/2012 4:00,-2.9,-4.5,89,6,6.4,102.02,Fog,-2.9350000000000005,1.7590894054480448
11/20/2012 5:00,-2.9,-4.5,89,6,6.4,102.0,Fog,-2.9290000000000007,1.7590894054480448
11/20/2012 6:00,-2.9,-4.8,87,6,6.4,102.01,Fog,-2.921,1.755244623603565
11/20/2012 7:00,-3.4,-5.2,87,7,4.8,102.02,Fog,-3.3119999999999994,1.755244623603565
11/20/2012 8:00,-2.0,-4.4,84,9,9.7,102.03,Haze,-2.109,1.759939908458295
11/20/2012 9:00,-0.7,-3.6,81,6,9.7,102.01,Haze,-0.7240000000000011,1.770314901755234
11/20/2012 10:00,1.9,-1.9,76,9,12.9,102.0,Mostly Cloudy,1.9190000000000011,1.7690516280644148
11/20/2012 11:00,3.0,-2.2,69,6,11.3,101.96,Cloudy,3.002,1.7654335555572365
11/20/2012 12:00,4.6,-1.9,63,2,11.3,101.88,Cloudy,4.621000000000007,1.7580463625921057
11/20/2012 13:00,5.5,-1.0,63,4,11.3,101.83,Mostly Cloudy,5.469999999999999,1.7537586726271484
11/20/2012 14:00,5.8,-1.6,59,6,12.9,101.77,Mostly Cloudy,5.784000000000001,1.7519917333068915
11/20/2012 15:00,5.9,-1.5,59,11,16.1,101.77,Cloudy,5.865999999999994,1.7515232499443292
11/20/2012 16:00,5.6,-1.6,60,6,16.1,101.78,Cloudy,5.525999999999998,1.753446647334111
11/20/2012 17:00,4.2,-0.4,72,7,16.1,101.79,Cloudy,4.2259999999999955,1.759902682969301
11/20/2012 18:00,2.4,-0.9,79,6,19.3,101.82,Mostly Cloudy,2.3130000000000006,1.7679841533540976
11/20/2012 19:00,1.9,-1.1,80,7,16.1,101.85,Mostly Cloudy,1.8890000000000022,1.7691325055738991
11/20/2012 20:00,3.4,-2.0,68,9,19.3,101.86,Mostly Cloudy,3.425999999999998,1.7635544371030771
11/20/2012 21:00,1.9,-2.5,73,9,25.0,101.84,Mostly Cloudy,1.6790000000000003,1.769697065925857
11/20/2012 22:00,1.9,-2.3,74,7,25.0,101.81,Mostly Cloudy,1.8980000000000024,1.7691082482695277
11/20/2012 23:00,2.0,-2.3,73,9,25.0,101.83,Mostly Cloudy,2.0310000000000006,1.7687491840308607
11/21/2012 0:00,3.1,-2.1,69,6,25.0,101.8,Mostly Cloudy,3.045,1.7652447122571835
11/21/2012 1:00,0.6,-2.3,81,6,25.0,101.82,Mostly Cloudy,0.5850000000000007,1.7725940587520388
11/21/2012 2:00,0.4,-2.5,81,7,25.0,101.82,Mainly Clear,0.38099999999999956,1.7731262222680089
11/21/2012 3:00,-0.7,-3.3,83,9,25.0,101.83,Mainly Clear,-0.7300000000000009,1.7702828880285348
11/21/2012 4:00,-1.9,-3.7,87,9,25.0,101.85,Mainly Clear,-1.8750000000000029,1.762092513599186
11/21/2012 5:00,-1.4,-3.4,86,11,25.0,101.86,Mostly Cloudy,-1.4110000000000016,1.7662198899315753
11/21/2012 6:00,-1.6,-3.6,86,4,12.9,101.92,Mostly Cloudy,-1.5849999999999982,1.7646935481430919
11/21/2012 7:00,-0.1,-2.8,82,11,9.7,102.0,Haze,-0.06099999999999998,1.7737982834059527
11/21/2012 8:00,0.4,-2.2,83,7,12.9,102.01,Mostly Cloudy,0.3090000000000002,1.773313450514918
11/21/2012 9:00,2.9,-1.6,72,7,16.1,102.01,Mostly Cloudy,2.911000000000001,1.7658319304658447
11/21/2012 10:00,5.2,-1.5,62,4,19.3,101.98,Mainly Clear,5.232999999999995,1.7550646292328178
11/21/2012 11:00,6.3,-0.3,63,4,19.3,101.93,Mainly Clear,6.3269999999999955,1.7488332545554615
11/21/2012 12:00,7.2,-0.4,58,6,19.3,101.89,Mainly Clear,7.1860000000000035,1.7435517704905874
11/21/2012 13:00,7.4,-0.6,57,7,19.3,101.89,Mainly Clear,7.386999999999995,1.7422622200669444
11/21/2012 14:00,8.3,-1.6,50,4,19.3,101.86,Mainly Clear,8.157000000000004,1.7373271630632297
11/21/2012 15:00,8.2,-2.1,48,4,19.3,101.87,Mainly Clear,8.247000000000007,1.7367484543637244
11/21/2012 16:00,5.5,-1.5,61,7,24.1,101.86,Mainly Clear,5.469999999999999,1.7537586726271484
11/21/2012 17:00,2.8,-2.0,71,7,25.0,101.85,Mainly Clear,2.784000000000004,1.7663850380666062
11/21/2012 18:00,2.1,-1.0,80,6,25.0,101.89,Mainly Clear,2.0389999999999984,1.7687275505710687
11/21/2012 19:00,2.5,-0.8,79,4,25.0,101.89,Mainly Clear,2.407,1.7677280170437317
11/21/2012 20:00,1.4,-0.9,85,6,25.0,101.9,Mostly Cloudy,1.3219999999999978,1.7706505079488173
11/21/2012 21:00,2.2,-0.5,82,6,25.0,101.88,Mainly Clear,2.303000000000001,1.7680113686569006
11/21/2012 22:00,0.9,-1.4,85,4,19.3,101.88,Mostly Cloudy,0.8849999999999997,1.7718069144385642
11/21/2012 23:00,1.0,-0.7,88,4,19.3,101.86,Mainly Clear,1.0490000000000002,1.7713743008114522
11/22/2012 0:00,1.3,0.4,94,4,16.1,101.87,Mainly Clear,1.3179999999999985,1.7706611460528172
11/22/2012 1:00,1.5,0.6,94,6,16.1,101.83,Clear,1.5099999999999998,1.7701494013856285
11/22/2012 2:00,1.3,-0.1,90,4,16.1,101.85,Clear,1.3079999999999987,1.7706877369957539
11/22/2012 3:00,1.1,-0.9,86,4,16.1,101.86,Clear,1.1539999999999981,1.771096460233146
11/22/2012 4:00,-0.9,-2.3,90,4,12.9,101.84,Clear,-0.897000000000001,1.769388244393795
11/22/2012 5:00,-1.4,-3.3,87,6,16.1,101.85,Clear,-1.4330000000000018,1.7660282942475711
11/22/2012 6:00,-0.3,-2.6,84,9,19.3,101.84,Clear,-0.19000000000000014,1.7731288247782266
11/22/2012 7:00,0.8,-2.6,78,4,24.1,101.85,Mainly Clear,0.7779999999999987,1.772088286986763
11/22/2012 8:00,1.7,-1.9,77,4,24.1,101.87,Mainly Clear,1.7419999999999987,1.7695279879525005
11/22/2012 9:00,3.3,-0.8,74,6,24.1,101.81,Clear,3.243000000000004,1.7643701446326268
11/22/2012 10:00,6.4,-1.2,58,0,24.1,101.8,Clear,6.3669999999999956,1.7485952464983963
11/22/2012 11:00,8.4,-0.8,52,6,24.1,101.72,Mainly Clear,8.387999999999993,1.7358297616059928
11/22/2012 12:00,10.8,-1.5,42,13,24.1,101.6,Mainly Clear,10.788000000000004,1.7184070764898869
11/22/2012 13:00,11.6,-3.2,35,13,24.1,101.52,Mainly Clear,11.654000000000002,1.7120019119414016
11/22/2012 14:00,12.1,-2.6,36,9,24.1,101.45,Mainly Clear,11.909999999999995,1.7099113159502832
11/22/2012 15:00,10.7,-1.2,44,15,24.1,101.39,Mainly Clear,10.612000000000013,1.7195964737310623
11/22/2012 16:00,9.2,0.4,54,15,24.1,101.37,Mainly Clear,9.146000000000011,1.7306238872691058
11/22/2012 17:00,7.1,0.1,61,15,25.0,101.35,Mainly Clear,7.040000000000007,1.7444753169076954
11/22/2012 18:00,6.9,0.5,64,15,25.0,101.34,Mainly Clear,6.937999999999993,1.7451140910095018
11/22/2012 19:00,6.3,0.6,67,6,25.0,101.3,Mainly Clear,6.356999999999997,1.7486548187482815
11/22/2012 20:00,5.9,0.4,68,7,25.0,101.28,Mainly Clear,5.926999999999996,1.7511728157737863
11/22/2012 21:00,5.6,0.8,71,17,25.0,101.24,Mainly Clear,5.593000000000007,1.7530715773835188
11/22/2012 22:00,3.4,-0.9,73,13,25.0,101.16,Mainly Clear,3.327999999999999,1.763992153580375
11/22/2012 23:00,4.4,-1.3,66,11,25.0,101.11,Mainly Clear,4.494999999999994,1.7586424309106563
11/23/2012 0:00,4.5,-1.5,65,15,25.0,101.06,Clear,4.5040000000000004,1.7585999773968117
11/23/2012 1:00,2.7,-1.0,77,17,25.0,100.96,Mainly Clear,2.660999999999996,1.7669175671803785
11/23/2012 2:00,2.6,-1.3,75,11,25.0,100.96,Mainly Clear,2.622999999999998,1.7670814643637545
11/23/2012 3:00,2.8,-2.2,70,6,25.0,100.9,Mainly Clear,2.8300000000000027,1.7661850840412696
11/23/2012 4:00,1.2,-2.5,76,11,25.0,100.79,Mainly Clear,1.153000000000001,1.7710991095189397
11/23/2012 5:00,2.5,-2.4,70,11,25.0,100.69,Mostly Cloudy,2.5299999999999994,1.7673920045718243
11/23/2012 6:00,3.7,-2.1,66,13,25.0,100.61,Mostly Cloudy,3.6429999999999945,1.7625778382005899
11/23/2012 7:00,4.1,-1.5,67,13,48.3,100.54,Mostly Cloudy,4.144000000000003,1.7602835543341329
11/23/2012 8:00,4.3,-1.1,68,17,48.3,100.47,Cloudy,4.336999999999998,1.7593846704052298
11/23/2012 9:00,6.2,-1.2,59,20,48.3,100.34,Mostly Cloudy,6.191,1.7496369144476693
11/23/2012 10:00,8.2,0.3,57,17,24.1,100.25,Mostly Cloudy,8.32000000000001,1.736274672613399
11/23/2012 11:00,10.4,0.4,50,24,24.1,100.11,Mostly Cloudy,10.357999999999993,1.7212531164519913
11/23/2012 12:00,12.1,1.5,48,22,24.1,99.93,Mostly Cloudy,12.212999999999996,1.7073048222368619
11/23/2012 13:00,10.9,1.3,51,24,48.3,99.8,Cloudy,10.843999999999992,1.7180212174723186
11/23/2012 14:00,10.4,1.5,54,24,48.3,99.71,Cloudy,10.40499999999999,1.7209517393724914
11/23/2012 15:00,10.4,2.5,58,17,16.1,99.79,Rain,10.286999999999987,1.7218264620535728
11/23/2012 16:00,9.2,6.4,83,30,12.9,99.83,Rain,9.180000000000009,1.7459700090483987
11/23/2012 17:00,8.8,6.8,87,22,16.1,99.78,Rain,8.770999999999994,1.755244623603565
11/23/2012 18:00,8.6,7.0,90,19,25.0,99.73,Cloudy,8.595,1.7609487211792867
11/23/2012 19:00,8.7,6.6,87,20,25.0,99.7,Mostly Cloudy,8.686000000000009,1.755244623603565
11/23/2012 20:00,10.0,5.4,73,39,25.0,99.71,Cloudy,10.012000000000006,1.724063315119857
11/23/2012 21:00,9.3,4.1,70,39,25.0,99.72,Cloudy,9.270999999999994,1.7297194530732194
11/23/2012 22:00,8.6,3.0,68,26,25.0,99.7,Rain Showers,8.505000000000003,1.73505605016172
11/23/2012 23:00,7.9,1.6,64,26,25.0,99.65,Cloudy,7.929999999999991,1.7387608583252778
11/24/2012 0:00,7.5,0.4,61,19,25.0,99.59,Cloudy,7.433000000000002,1.7419641041305602
11/24/2012 1:00,5.3,2.3,81,32,25.0,99.6,Rain Showers,5.261000000000005,1.7549115553365784
11/24/2012 2:00,5.1,2.1,81,30,25.0,99.61,Rain Showers,5.169000000000007,1.7554101490116685
11/24/2012 3:00,4.6,-0.6,69,28,25.0,99.59,Cloudy,4.3790000000000004,1.759187928685371
11/24/2012 4:00,4.1,-2.2,63,37,25.0,99.56,Mostly Cloudy,4.040000000000003,1.7607644209366056
11/24/2012 5:00,3.0,-1.9,70,35,25.0,99.57,Mainly Clear,2.9730000000000008,1.7655606971707312
11/24/2012 6:00,2.8,-1.8,72,28,25.0,99.58,Mostly Cloudy,2.8300000000000027,1.7661850840412696
11/24/2012 7:00,2.6,-1.7,73,32,25.0,99.54,Mostly Cloudy,2.6509999999999985,1.7669607264872071
11/24/2012 8:00,2.2,-2.0,74,30,25.0,99.57,Mostly Cloudy,2.2079999999999997,1.768269595952394
11/24/2012 9:00,1.6,-0.9,83,33,24.1,99.58,Rain Showers,1.6569999999999983,1.7697560506018006
11/24/2012 10:00,1.8,-2.5,73,30,24.1,99.62,Snow Showers,1.753000000000001,1.7694984409407075
11/24/2012 11:00,1.6,-3.7,68,33,24.1,99.6,Snow Showers,1.5729999999999982,1.7699809871712493
11/24/2012 12:00,1.8,-5.0,61,30,24.1,99.6,Snow Showers,1.7440000000000007,1.7695226163319824
11/24/2012 13:00,1.5,-7.4,52,37,24.1,99.64,Cloudy,1.5010000000000003,1.770173440429183
11/24/2012 14:00,1.3,-6.3,57,39,24.1,99.65,Mostly Cloudy,1.3609999999999998,1.7705467346907746
11/24/2012 15:00,0.7,-6.4,59,35,2.4,99.7,Snow Pellets,0.9989999999999999,1.7715063689236825
11/24/2012 16:00,-0.5,-5.1,71,28,24.1,99.74,Mostly Cloudy,-0.49400000000000005,1.7715354034345843
11/24/2012 17:00,-0.6,-5.3,70,37,12.9,99.81,Snow Showers,-0.6010000000000006,1.770969222356316
11/24/2012 18:00,-0.4,-5.5,68,28,25.0,99.85,Snow Showers,-0.33899999999999947,1.7723506254237715
11/24/2012 19:00,-0.9,-5.0,74,22,19.3,99.9,Snow Showers,-0.911000000000001,1.7693129276474022
11/24/2012 20:00,-0.9,-5.8,69,32,25.0,99.92,Cloudy,-0.8500000000000004,1.7696407341722178
11/24/2012 21:00,-1.5,-7.8,62,28,25.0,99.96,Mostly Cloudy,-1.518,1.7652842695690036
11/24/2012 22:00,-1.8,-8.3,61,24,25.0,100.0,Mostly Cloudy,-1.8370000000000022,1.7624374882773433
11/24/2012 23:00,-2.1,-8.8,60,32,25.0,100.0,Mostly Cloudy,-2.0529999999999973,1.7604595386695068
11/25/2012 0:00,-2.6,-9.0,61,30,25.0,100.04,Mostly Cloudy,-2.631999999999999,1.754895135382188
11/25/2012 1:00,-2.9,-9.3,61,26,25.0,100.08,Mainly Clear,-2.8090000000000015,1.7529311336183635
11/25/2012 2:00,-3.3,-9.4,63,33,25.0,100.15,Clear,-3.1050000000000018,1.7495251523262618
11/25/2012 3:00,-3.6,-9.8,62,26,25.0,100.19,Mainly Clear,-3.3540000000000005,1.746535384914373
11/25/2012 4:00,-4.1,-9.3,67,30,25.0,100.2,Mainly Clear,-4.077000000000005,1.737346351512577
11/25/2012 5:00,-4.3,-10.0,64,32,25.0,100.25,Mainly Clear,-4.269000000000005,1.7348359242247409
11/25/2012 6:00,-4.3,-9.7,66,28,25.0,100.26,Mainly Clear,-4.357000000000004,1.7336475330318888
11/25/2012 7:00,-4.8,-9.5,70,26,25.0,100.27,Mainly Clear,-4.760000000000006,1.7278763541872333
11/25/2012 8:00,-4.3,-9.4,68,24,24.1,100.3,Mainly Clear,-4.2710000000000035,1.7348091849881886
11/25/2012 9:00,-3.8,-9.4,65,33,24.1,100.33,Mainly Clear,-3.6730000000000045,1.7425269857020504
11/25/2012 10:00,-3.0,-9.5,61,32,48.3,100.33,Mostly Cloudy,-3.0159999999999996,1.750565719320338
11/25/2012 11:00,-2.9,-9.6,60,35,48.3,100.28,Snow Showers,-2.870000000000001,1.752241897903127
11/25/2012 12:00,-2.5,-9.9,57,33,48.3,100.21,Cloudy,-2.55,1.7557460587681284
11/25/2012 13:00,-2.1,-9.9,55,32,48.3,100.19,Cloudy,-1.736999999999999,1.7633392928750036
11/25/2012 14:00,-1.8,-10.3,52,30,48.3,100.22,Mostly Cloudy,-1.7880000000000011,1.7628804587340619
11/25/2012 15:00,-1.8,-10.9,50,28,48.3,100.22,Mostly Cloudy,-1.9719999999999986,1.761206139241669
11/25/2012 16:00,-2.1,-10.9,51,24,48.3,100.24,Mostly Cloudy,-2.170999999999998,1.7593612700490675
11/25/2012 17:00,-3.1,-11.8,51,24,25.0,100.27,Clear,-3.1320000000000006,1.7492066035876928
11/25/2012 18:00,-3.4,-11.5,53,20,25.0,100.35,Clear,-3.4439999999999986,1.7454253029213511
11/25/2012 19:00,-3.7,-11.0,57,22,25.0,100.39,Clear,-3.7129999999999996,1.742009542269408
11/25/2012 20:00,-3.7,-10.7,58,17,25.0,100.42,Mostly Cloudy,-3.5659999999999967,1.7438946315363786
11/25/2012 21:00,-3.4,-10.3,59,15,25.0,100.46,Mostly Cloudy,-3.5380000000000007,1.7442486074393708
11/25/2012 22:00,-3.6,-10.3,60,13,25.0,100.47,Mostly Cloudy,-3.6390000000000025,1.742964155089586
11/25/2012 23:00,-4.2,-10.5,61,15,25.0,100.5,Mostly Cloudy,-4.154999999999998,1.7363398084077424
11/26/2012 0:00,-4.9,-10.1,67,9,25.0,100.52,Mostly Cloudy,-4.976999999999994,1.7245251545982605
11/26/2012 1:00,-6.5,-10.6,73,7,25.0,100.53,Mainly Clear,-6.457000000000001,1.718324698506683
11/26/2012 2:00,-5.0,-10.0,68,7,25.0,100.57,Mainly Clear,-5.012000000000001,1.7239673373291329
11/26/2012 3:00,-4.5,-9.3,69,7,25.0,100.62,Cloudy,-4.355000000000002,1.7336748142323184
11/26/2012 4:00,-4.3,-9.3,68,9,25.0,100.66,Cloudy,-4.236000000000003,1.7352753362015991
11/26/2012 5:00,-4.3,-10.4,62,13,25.0,100.72,Cloudy,-4.193000000000002,1.7358428969054198
11/26/2012 6:00,-4.5,-10.9,61,11,25.0,100.77,Cloudy,-4.496,1.7317196209106143
11/26/2012 7:00,-4.7,-10.5,64,11,25.0,100.9,Cloudy,-4.765,1.7278011536399562
11/26/2012 8:00,-5.5,-10.6,67,19,24.1,101.03,Mainly Clear,-5.423000000000001,1.7180073692843632
11/26/2012 9:00,-4.2,-11.0,59,17,48.3,101.14,Mainly Clear,-4.2159999999999975,1.7355400183135972
11/26/2012 10:00,-3.4,-11.3,54,19,48.3,101.25,Clear,-3.432999999999998,1.7455618403114281
11/26/2012 11:00,-2.5,-10.9,52,22,48.3,101.3,Clear,-2.476,1.7564626637392935
11/26/2012 12:00,-1.3,-10.6,49,24,48.3,101.33,Mainly Clear,-1.2329999999999985,1.7675669615592424
11/26/2012 13:00,-1.0,-10.6,48,24,48.3,101.34,Clear,-0.9579999999999995,1.769059718365245
11/26/2012 14:00,-0.8,-11.3,45,24,48.3,101.38,Clear,-0.9559999999999986,1.7690705045513415
11/26/2012 15:00,-0.9,-9.9,50,26,48.3,101.48,Clear,-0.8130000000000004,1.7698391141082208
11/26/2012 16:00,-1.8,-9.0,58,24,48.3,101.56,Clear,-1.8420000000000007,1.762392169257897
11/26/2012 17:00,-3.0,-9.5,61,20,25.0,101.67,Clear,-3.045,1.75022824242003
11/26/2012 18:00,-3.4,-9.5,63,20,25.0,101.75,Clear,-3.394999999999998,1.7460316646583467
11/26/2012 19:00,-3.8,-10.0,62,15,25.0,101.81,Clear,-3.807000000000005,1.7407800606085337
11/26/2012 20:00,-4.6,-10.0,66,13,25.0,101.85,Clear,-4.580000000000004,1.73052326758738
11/26/2012 21:00,-7.3,-10.3,79,7,25.0,101.87,Clear,-7.272999999999993,1.7357508862871274
11/26/2012 22:00,-5.4,-9.6,72,0,25.0,101.9,Clear,-5.338999999999998,1.7191545357171256
11/26/2012 23:00,-5.8,-9.7,74,4,25.0,101.94,Clear,-5.840999999999999,1.7209839103698092
11/27/2012 0:00,-7.4,-9.9,82,4,25.0,101.97,Clear,-7.3539999999999965,1.7434626346010758
11/27/2012 1:00,-9.0,-11.0,85,4,25.0,101.98,Clear,-8.982999999999999,1.7507512632600475
11/27/2012 2:00,-7.0,-9.3,84,4,25.0,102.04,Mainly Clear,-6.873000000000002,1.7483983249034645
11/27/2012 3:00,-6.1,-8.5,83,7,25.0,102.03,Cloudy,-6.043000000000009,1.7459700090483987
11/27/2012 4:00,-4.8,-8.1,78,7,25.0,102.01,Cloudy,-4.932999999999996,1.733057876440812
11/27/2012 5:00,-4.4,-9.0,70,7,25.0,102.02,Cloudy,-4.324999999999995,1.7340825024275421
11/27/2012 6:00,-4.4,-8.7,72,6,25.0,102.04,Cloudy,-4.283000000000004,1.7346484884515394
11/27/2012 7:00,-4.4,-8.8,71,9,24.1,102.05,Mostly Cloudy,-4.2999999999999945,1.734420066002622
11/27/2012 8:00,-5.2,-8.4,78,9,24.1,102.15,Mostly Cloudy,-5.167999999999996,1.733057876440812
11/27/2012 9:00,-4.3,-8.6,72,9,24.1,102.13,Mostly Cloudy,-4.277000000000006,1.7347288927255817
11/27/2012 10:00,-3.1,-7.8,70,9,24.1,102.2,Mostly Cloudy,-2.845000000000001,1.7525251513229174
11/27/2012 11:00,-2.4,-7.8,66,6,24.1,102.2,Mostly Cloudy,-2.3750000000000027,1.7574322427470264
11/27/2012 12:00,-0.7,-7.4,60,4,24.1,102.16,Mainly Clear,-0.5600000000000007,1.771186501560147
11/27/2012 13:00,0.3,-7.2,57,7,24.1,102.12,Mainly Clear,0.2939999999999998,1.773352417510465
11/27/2012 14:00,0.5,-6.9,58,6,24.1,102.08,Mainly Clear,0.38199999999999945,1.7731236196980817
11/27/2012 15:00,0.4,-6.8,58,7,24.1,102.07,Mainly Clear,0.41999999999999926,1.773024677776105
11/27/2012 16:00,-0.5,-6.9,62,7,24.1,102.08,Clear,-0.5000000000000001,1.7715037290567508
11/27/2012 17:00,-2.2,-7.0,70,6,25.0,102.09,Clear,-2.1589999999999967,1.759473539391838
11/27/2012 18:00,-2.8,-7.0,73,4,25.0,102.15,Clear,-2.841000000000004,1.7525703711203735
11/27/2012 19:00,-2.8,-6.7,74,6,25.0,102.16,Clear,-2.780000000000003,1.753256552950366
11/27/2012 20:00,-4.5,-7.5,80,6,25.0,102.14,Clear,-4.565999999999998,1.7383226557949913
11/27/2012 21:00,-3.0,-6.5,77,7,25.0,102.13,Mainly Clear,-3.0169999999999995,1.7505541075052768
11/27/2012 22:00,-3.4,-6.0,82,7,25.0,102.1,Mostly Cloudy,-3.4079999999999986,1.7458712572979613
11/27/2012 23:00,-3.8,-6.5,81,7,25.0,102.07,Mostly Cloudy,-3.8410000000000037,1.7408722768108806
11/28/2012 0:00,-3.8,-6.2,83,7,25.0,102.03,Mainly Clear,-3.787000000000006,1.7459700090483987
11/28/2012 1:00,-4.0,-6.0,86,6,25.0,101.99,Mainly Clear,-3.9690000000000003,1.7530322801745157
11/28/2012 2:00,-3.6,-6.1,83,4,25.0,101.99,Mostly Cloudy,-3.6860000000000053,1.7459700090483987
11/28/2012 3:00,-3.4,-5.9,83,11,25.0,101.96,Mostly Cloudy,-3.4830000000000005,1.7459700090483987
11/28/2012 4:00,-3.4,-5.5,85,4,25.0,101.93,Mostly Cloudy,-3.3170000000000015,1.7507512632600475
11/28/2012 5:00,-3.2,-5.0,87,7,25.0,101.92,Cloudy,-3.1689999999999965,1.755244623603565
11/28/2012 6:00,-3.4,-5.2,87,11,25.0,101.89,Cloudy,-3.3509999999999986,1.755244623603565
11/28/2012 7:00,-3.1,-5.3,85,9,24.1,101.86,Cloudy,-3.142,1.7507512632600475
11/28/2012 8:00,-3.1,-5.0,87,4,24.1,101.85,Cloudy,-3.1079999999999997,1.755244623603565
11/28/2012 9:00,-1.1,-3.4,84,6,24.1,101.79,Mostly Cloudy,-1.0689999999999988,1.7684595011465405
11/28/2012 10:00,0.0,-4.1,74,4,24.1,101.76,Mostly Cloudy,-0.22099999999999992,1.7729673561570443
11/28/2012 11:00,0.5,-4.2,71,6,24.1,101.66,Cloudy,0.47,1.7728943594820246
11/28/2012 12:00,1.0,-6.4,58,9,24.1,101.55,Cloudy,0.9740000000000002,1.7715723457783872
11/28/2012 13:00,1.8,-4.3,64,20,19.3,101.47,Cloudy,1.7860000000000014,1.7694097544319467
11/28/2012 14:00,0.7,-1.3,86,19,3.2,101.42,Snow Showers,0.726,1.7722247783862415
11/28/2012 15:00,0.0,-0.8,94,15,2.4,101.37,Snow Showers,0.162,1.7736947502777523
11/28/2012 16:00,0.6,-0.9,90,20,6.4,101.37,Snow Showers,0.6210000000000008,1.7724998882811953
11/28/2012 17:00,0.4,-0.7,92,22,4.8,101.36,Snow,0.4919999999999996,1.7728369720131227
11/28/2012 18:00,0.8,-0.6,90,24,8.0,101.35,Snow,0.7979999999999989,1.7720357467274201
11/28/2012 19:00,1.0,-0.7,88,22,12.9,101.35,Snow Showers,1.049,1.7713743008114522
11/28/2012 20:00,0.9,-0.9,88,20,16.1,101.36,Snow Showers,0.8590000000000003,1.7718753492170147
11/28/2012 21:00,0.4,-1.9,85,24,16.1,101.38,Snow Showers,0.43999999999999945,1.772972568409685
11/28/2012 22:00,-0.7,-6.1,67,30,25.0,101.45,Mostly Cloudy,-0.7980000000000004,1.7699194411028987
11/28/2012 23:00,-2.6,-7.5,69,20,25.0,101.56,Mainly Clear,-2.5899999999999976,1.7553534936833908
11/29/2012 0:00,-3.9,-8.6,70,28,25.0,101.62,Clear,-3.9219999999999966,1.739294536288443
11/29/2012 1:00,-5.1,-10.6,65,22,25.0,101.71,Clear,-5.111000000000007,1.7223623139664084
11/29/2012 2:00,-6.3,-11.9,64,17,25.0,101.8,Clear,-6.279999999999998,1.7041282106317526
11/29/2012 3:00,-7.4,-12.2,68,17,25.0,101.87,Clear,-7.338999999999996,1.7018006700167505
11/29/2012 4:00,-8.4,-12.4,73,9,25.0,101.86,Clear,-8.441999999999991,1.718324698506683
11/29/2012 5:00,-8.4,-11.7,77,6,25.0,101.85,Mainly Clear,-8.38599999999999,1.7302348458823897
11/29/2012 6:00,-6.0,-10.2,72,13,25.0,101.84,Mostly Cloudy,-5.941999999999998,1.7154802667147235
11/29/2012 7:00,-5.0,-10.6,65,11,24.1,101.81,Cloudy,-5.024,1.7237749422030768
11/29/2012 8:00,-4.8,-8.3,76,13,19.3,101.77,Snow,-4.796000000000007,1.7273328352012225
11/29/2012 9:00,-4.6,-7.0,83,19,9.7,101.67,Snow,-4.607000000000006,1.7459700090483987
11/29/2012 10:00,-4.7,-6.8,85,20,4.8,101.56,Snow,-4.625999999999997,1.7507512632600475
11/29/2012 11:00,-3.5,-5.2,88,15,19.3,101.46,Snow,-3.4569999999999976,1.7571931537828946
11/29/2012 12:00,-1.8,-4.2,84,15,6.4,101.35,Snow,-1.866000000000001,1.762174332761991
11/29/2012 13:00,-1.4,-3.4,86,17,24.1,101.33,Snow,-1.400000000000002,1.7663155381997575
11/29/2012 14:00,-0.8,-3.3,83,22,24.1,101.33,Snow,-0.7849999999999988,1.7699890124918778
11/29/2012 15:00,-1.2,-4.6,78,22,24.1,101.4,Snow,-1.1410000000000011,1.768068500015793
11/29/2012 16:00,-1.4,-5.4,74,15,24.1,101.5,Cloudy,-1.4140000000000006,1.7661937867497588
11/29/2012 17:00,-2.2,-8.3,63,24,25.0,101.63,Cloudy,-2.205999999999997,1.7590330607615945
11/29/2012 18:00,-4.2,-11.8,55,28,25.0,101.78,Snow Showers,-4.189999999999996,1.7358822846753448
11/29/2012 19:00,-4.9,-11.9,58,22,25.0,101.9,Cloudy,-4.912999999999993,1.7255324961608998
11/29/2012 20:00,-5.7,-12.1,61,20,25.0,102.08,Cloudy,-5.813000000000001,1.7122246991555368
11/29/2012 21:00,-6.4,-12.3,63,19,25.0,102.18,Cloudy,-6.490999999999993,1.7001460975550131
11/29/2012 22:00,-7.3,-14.0,59,17,25.0,102.29,Mostly Cloudy,-7.397999999999997,1.6857106887381372
11/29/2012 23:00,-9.4,-15.3,62,20,25.0,102.42,Mainly Clear,-9.304999999999996,1.681279062923068
11/30/2012 0:00,-10.6,-16.1,64,19,25.0,102.52,Clear,-10.619000000000005,1.6895328361301014
11/30/2012 1:00,-12.0,-16.5,69,9,25.0,102.6,Clear,-11.969999999999997,1.7056195602958193
11/30/2012 2:00,-13.5,-16.9,76,6,25.0,102.72,Clear,-13.510000000000007,1.7272721454173066
11/30/2012 3:00,-12.6,-16.7,71,4,25.0,102.78,Clear,-12.592999999999993,1.712430565280306
11/30/2012 4:00,-12.4,-17.0,68,4,25.0,102.82,Clear,-12.562999999999999,1.7018006700167505
11/30/2012 5:00,-13.6,-17.0,75,6,25.0,102.9,Clear,-13.374000000000006,1.7241591468416737
11/30/2012 6:00,-13.0,-16.6,74,9,25.0,102.96,Mainly Clear,-12.884999999999996,1.7209839103698092
11/30/2012 7:00,-13.4,-17.3,72,9,24.1,103.03,Mainly Clear,-13.006000000000004,1.7154802667147235
11/30/2012 8:00,-12.8,-16.7,73,13,48.3,103.12,Mainly Clear,-12.781999999999982,1.718324698506683
11/30/2012 9:00,-11.9,-16.0,72,7,48.3,103.16,Mainly Clear,-12.092,1.7154802667147235
11/30/2012 10:00,-10.4,-16.3,62,11,48.3,103.2,Mostly Cloudy,-10.450999999999997,1.681279062923068
11/30/2012 11:00,-9.9,-15.9,61,9,48.3,103.18,Mostly Cloudy,-9.902000000000003,1.6768881290465567
11/30/2012 12:00,-9.3,-15.2,62,0,48.3,103.16,Mostly Cloudy,-9.233999999999991,1.681279062923068
11/30/2012 13:00,-9.0,-15.2,61,6,48.3,103.15,Mostly Cloudy,-9.017999999999999,1.6768881290465567
11/30/2012 14:00,-9.0,-15.6,59,6,48.3,103.15,Mostly Cloudy,-8.956999999999988,1.672110259985864
11/30/2012 15:00,-8.8,-15.8,57,11,48.3,103.14,Cloudy,-8.895999999999988,1.6648421508897826
11/30/2012 16:00,-9.1,-15.8,58,11,24.1,103.16,Cloudy,-8.99399999999999,1.6688951382675015
11/30/2012 17:00,-9.3,-15.6,60,15,25.0,103.2,Cloudy,-9.305999999999992,1.6747229916897506
11/30/2012 18:00,-9.5,-15.5,62,13,25.0,103.24,Cloudy,-9.434999999999997,1.681279062923068
11/30/2012 19:00,-9.7,-15.8,61,15,25.0,103.24,Mostly Cloudy,-9.674000000000014,1.6768881290465567
11/30/2012 20:00,-10.0,-16.3,60,15,25.0,103.26,Cloudy,-10.021999999999998,1.6747229916897506
11/30/2012 21:00,-10.4,-16.9,59,19,25.0,103.3,Mainly Clear,-10.45299999999999,1.672110259985864
11/30/2012 22:00,-10.7,-16.8,61,19,25.0,103.29,Mainly Clear,-10.657000000000012,1.6768881290465567
11/30/2012 23:00,-10.8,-16.1,65,17,25.0,103.25,Mainly Clear,-10.809999999999985,1.6929583486014415
12/1/2012 0:00,-10.8,-16.2,64,9,25.0,103.26,Clear,-10.724999999999987,1.6895328361301014
12/1/2012 1:00,-11.0,-16.5,64,13,25.0,103.25,Mainly Clear,-11.000000000000002,1.6895328361301014
12/1/2012 2:00,-11.1,-16.5,64,20,25.0,103.21,Mainly Clear,-11.078000000000007,1.6895328361301014
12/1/2012 3:00,-12.5,-15.7,77,15,25.0,103.27,Mainly Clear,-12.533000000000001,1.7302348458823897
12/1/2012 4:00,-11.8,-15.1,76,17,25.0,103.22,Mostly Cloudy,-11.806999999999984,1.7272721454173066
12/1/2012 5:00,-11.9,-14.6,80,20,25.0,103.19,Mostly Cloudy,-11.841,1.7383226557949913
12/1/2012 6:00,-11.8,-15.0,77,26,25.0,103.18,Mostly Cloudy,-11.784999999999984,1.7302348458823897
12/1/2012 7:00,-11.3,-14.2,79,24,24.1,103.19,Cloudy,-11.309999999999988,1.7357508862871274
12/1/2012 8:00,-10.9,-15.3,70,19,24.1,103.23,Mostly Cloudy,-10.699999999999998,1.7091525423728813
12/1/2012 9:00,-10.6,-15.9,65,24,24.1,103.18,Cloudy,-10.732999999999993,1.6929583486014415
12/1/2012 10:00,-10.9,-15.7,68,24,24.1,103.18,Cloudy,-10.895999999999994,1.7018006700167505
12/1/2012 11:00,-10.3,-15.1,68,20,24.1,103.08,Cloudy,-10.222999999999988,1.7018006700167505
12/1/2012 12:00,-9.4,-14.6,66,24,24.1,102.97,Cloudy,-9.458999999999987,1.6960165533823464
12/1/2012 13:00,-8.9,-14.6,63,22,24.1,102.9,Cloudy,-8.842999999999993,1.6856696145686971
12/1/2012 14:00,-8.3,-13.6,66,22,24.1,102.86,Cloudy,-8.273999999999994,1.6960165533823464
12/1/2012 15:00,-8.3,-13.5,66,17,24.1,102.84,Cloudy,-8.262999999999991,1.6960165533823464
12/1/2012 16:00,-7.9,-12.4,70,20,24.1,102.82,Cloudy,-7.888999999999987,1.7091525423728813
12/1/2012 17:00,-7.5,-12.0,70,20,19.3,102.73,Snow,-7.495,1.7091525423728813
12/1/2012 18:00,-6.9,-11.3,71,19,25.0,102.71,Snow,-6.872999999999993,1.712430565280306
12/1/2012 19:00,-6.6,-10.8,72,17,25.0,102.63,Cloudy,-6.533000000000007,1.7154802667147235
12/1/2012 20:00,-6.0,-10.0,73,17,25.0,102.55,Cloudy,-5.961999999999998,1.718324698506683
12/1/2012 21:00,-5.9,-9.6,75,17,25.0,102.49,Cloudy,-5.945999999999991,1.7241591468416737
12/1/2012 22:00,-4.8,-8.4,76,13,19.3,102.36,Snow,-4.866000000000007,1.7272721454173066
12/1/2012 23:00,-4.7,-8.0,78,19,16.1,102.28,Cloudy,-4.7979999999999965,1.733057876440812
12/2/2012 0:00,-4.3,-7.3,80,15,24.1,102.18,Cloudy,-4.323000000000005,1.7383226557949913
12/2/2012 1:00,-4.2,-6.8,82,15,24.1,102.11,Cloudy,-4.184000000000002,1.7434626346010758
12/2/2012 2:00,-3.9,-6.5,82,15,25.0,102.06,Cloudy,-3.905999999999998,1.7434626346010758
12/2/2012 3:00,-3.5,-5.8,84,13,25.0,102.02,Snow,-3.5010000000000003,1.7483983249034645
12/2/2012 4:00,-3.2,-5.3,85,13,25.0,101.86,Cloudy,-3.1939999999999973,1.7507512632600475
12/2/2012 5:00,-2.7,-5.1,84,11,25.0,101.75,Cloudy,-2.708999999999997,1.7540472230537059
12/2/2012 6:00,-1.9,-4.0,86,9,25.0,101.67,Cloudy,-1.8910000000000022,1.7619468811662828
12/2/2012 7:00,-0.3,-2.3,86,6,25.0,101.58,Cloudy,-0.28900000000000015,1.7726123606243025
12/2/2012 8:00,4.7,2.4,85,28,25.0,101.46,Cloudy,4.788999999999994,1.75724580428037
12/2/2012 9:00,5.1,2.6,84,32,24.1,101.34,Cloudy,5.093000000000006,1.7557800717863004
12/2/2012 10:00,5.7,3.0,83,28,19.3,101.27,Cloudy,5.636,1.7528298477435682
12/2/2012 11:00,6.2,3.2,81,28,24.1,101.16,Cloudy,6.221000000000001,1.749460371970257
12/2/2012 12:00,6.6,3.3,79,28,24.1,101.0,Rain Showers,6.572000000000006,1.747363596272469
12/2/2012 13:00,6.2,4.3,88,19,12.9,100.89,Rain,6.114999999999998,1.7571931537828946
12/2/2012 14:00,6.0,4.5,90,19,9.7,100.82,"Rain,Fog",6.01,1.7609487211792867
12/2/2012 15:00,5.6,4.9,95,22,4.8,100.75,"Rain,Fog",5.731,1.768832975474038
12/2/2012 16:00,5.5,4.9,96,20,6.4,100.68,"Rain,Fog",5.678,1.7699087340766253
12/2/2012 17:00,5.5,5.0,97,17,6.4,100.65,"Rain,Fog",5.621999999999999,1.7709745267585884
12/2/2012 18:00,5.8,5.6,99,15,4.8,100.65,"Rain,Fog",6.006999999999997,1.7730767632267987
12/2/2012 19:00,5.9,5.9,100,15,3.6,100.67,"Drizzle,Fog",6.196999999999996,1.774113475177305
12/2/2012 20:00,6.6,6.5,99,13,3.2,100.68,"Drizzle,Fog",6.682000000000009,1.7730767632267987
12/2/2012 21:00,6.7,6.6,99,11,8.0,100.7,Fog,6.7930000000000055,1.7730767632267987
12/2/2012 22:00,7.1,6.9,99,15,8.0,100.71,"Drizzle,Fog",7.19100000000001,1.7730767632267987
12/2/2012 23:00,8.2,7.7,97,19,8.0,100.72,"Drizzle,Fog",8.243000000000011,1.7709745267585884
12/3/2012 0:00,8.1,7.5,96,15,9.7,100.78,"Drizzle,Fog",8.23100000000001,1.7699087340766253
12/3/2012 1:00,7.8,6.8,93,22,12.9,100.85,Cloudy,7.798999999999991,1.7663155381997573
12/3/2012 2:00,6.8,5.3,90,28,25.0,100.99,Mostly Cloudy,6.818999999999996,1.7609487211792867
12/3/2012 3:00,5.5,2.9,83,26,25.0,101.22,Mostly Cloudy,5.4910000000000005,1.753641818969008
12/3/2012 4:00,4.1,1.6,84,13,25.0,101.35,Mostly Cloudy,4.025000000000005,1.7608335756220517
12/3/2012 5:00,3.2,0.6,83,13,25.0,101.48,Mostly Cloudy,3.2029999999999985,1.7645474917084778
12/3/2012 6:00,1.8,-0.1,87,11,25.0,101.58,Clear,1.792000000000001,1.7693936222795446
12/3/2012 7:00,1.2,-0.6,88,9,25.0,101.7,Mainly Clear,1.208000000000001,1.77095330767515
12/3/2012 8:00,2.2,0.0,85,11,24.1,101.78,Mainly Clear,2.183999999999998,1.7683347413877444
12/3/2012 9:00,3.6,1.0,83,11,48.3,101.87,Mostly Cloudy,3.646000000000001,1.7625642651304392
12/3/2012 10:00,3.9,1.2,83,13,24.1,101.99,Mostly Cloudy,3.8619999999999965,1.7615818105688354
12/3/2012 11:00,3.7,1.1,83,11,24.1,101.96,Cloudy,3.725999999999995,1.7622015899848191
12/3/2012 12:00,3.9,1.3,83,9,24.1,101.96,Cloudy,3.8679999999999963,1.7615543731253558
12/3/2012 13:00,4.0,1.2,82,9,24.1,101.95,Cloudy,3.966999999999999,1.7611004988463819
12/3/2012 14:00,4.2,0.8,79,13,24.1,101.95,Cloudy,4.159000000000002,1.7602139968410528
12/3/2012 15:00,4.0,1.0,81,9,24.1,101.98,Cloudy,4.025,1.7608335756220515
12/3/2012 16:00,3.7,-0.1,76,4,24.1,102.01,Cloudy,3.741999999999996,1.7621288864701932
12/3/2012 17:00,2.9,1.1,88,4,25.0,102.03,Cloudy,2.845000000000001,1.7661197874501602
12/3/2012 18:00,3.0,0.6,84,4,25.0,102.03,Cloudy,2.966,1.7655913602862445
12/3/2012 19:00,3.4,0.5,81,6,25.0,102.01,Cloudy,3.379999999999998,1.763760152119665
12/3/2012 20:00,3.5,0.7,82,0,25.0,101.99,Cloudy,3.4879999999999995,1.763276448915025
12/3/2012 21:00,3.1,1.2,87,6,25.0,101.99,Cloudy,3.1759999999999984,1.7646670095419628
12/3/2012 22:00,3.7,1.3,84,11,25.0,101.94,Cloudy,3.7129999999999943,1.762260620169922
12/3/2012 23:00,3.7,1.1,83,13,25.0,101.91,Cloudy,3.7209999999999956,1.7622242982946856
12/4/2012 0:00,3.7,1.3,84,13,25.0,101.92,Cloudy,3.6979999999999946,1.7623286858261507
12/4/2012 1:00,3.6,1.4,86,7,25.0,101.86,Cloudy,3.56,1.7629525818277918
12/4/2012 2:00,3.9,1.1,82,6,25.0,101.81,Mostly Cloudy,3.8699999999999966,1.7615452255350252
12/4/2012 3:00,3.8,1.2,83,19,25.0,101.71,Cloudy,3.8140000000000045,1.7618010228216185
12/4/2012 4:00,3.1,1.3,88,20,25.0,101.56,Mainly Clear,3.0689999999999986,1.7651391432145886
12/4/2012 5:00,2.9,1.5,90,13,25.0,101.52,Mostly Cloudy,2.9579999999999997,1.7656263913649008
12/4/2012 6:00,4.2,2.6,89,15,25.0,101.41,Cloudy,4.225,1.759907336952864
12/4/2012 7:00,5.1,3.4,89,13,25.0,101.35,Cloudy,5.0430000000000055,1.7590894054480448
12/4/2012 8:00,5.5,3.9,89,9,19.3,101.29,Rain Showers,5.547000000000001,1.7590894054480448
12/4/2012 9:00,5.9,4.8,93,11,19.3,101.23,Rain Showers,5.991999999999998,1.7663155381997573
12/4/2012 10:00,8.0,6.3,89,19,19.3,101.16,Mostly Cloudy,8.04,1.7590894054480448
12/4/2012 11:00,10.1,7.7,85,17,24.1,101.06,Cloudy,10.12500000000001,1.7507512632600475
12/4/2012 12:00,11.5,8.3,81,19,24.1,100.92,Mostly Cloudy,11.462000000000003,1.7408722768108806
12/4/2012 13:00,11.9,8.4,79,17,24.1,100.84,Cloudy,11.904000000000003,1.7357508862871274
12/4/2012 14:00,11.3,8.1,81,24,24.1,100.74,Cloudy,11.296999999999983,1.7408722768108806
12/4/2012 15:00,11.0,7.9,81,24,24.1,100.66,Cloudy,11.036,1.7408722768108806
12/4/2012 16:00,10.7,7.9,83,24,19.3,100.64,Cloudy,10.713000000000013,1.7459700090483987
12/4/2012 17:00,10.8,8.1,83,30,25.0,100.55,Cloudy,10.833999999999989,1.7459700090483987
12/4/2012 18:00,10.7,8.2,85,32,25.0,100.5,Cloudy,10.66200000000001,1.7507512632600475
12/4/2012 19:00,10.7,8.4,86,7,25.0,100.57,Rain Showers,10.528000000000002,1.7530322801745157
12/4/2012 20:00,9.9,9.1,95,15,12.9,100.53,Rain,9.87299999999999,1.768832975474038
12/4/2012 21:00,10.4,9.7,95,9,6.4,100.56,Rain,10.333999999999987,1.768832975474038
12/4/2012 22:00,9.8,9.3,97,6,12.9,100.57,Rain,9.871999999999991,1.7709745267585884
12/4/2012 23:00,9.7,9.1,96,19,9.7,100.63,Rain,9.770000000000003,1.7699087340766253
12/5/2012 0:00,9.5,8.0,90,19,12.9,100.56,Rain,9.587,1.7609487211792867
12/5/2012 1:00,9.0,7.3,89,30,16.1,100.45,Rain,8.987000000000009,1.7590894054480448
12/5/2012 2:00,8.7,7.1,90,24,16.1,100.5,Rain,8.655000000000008,1.7609487211792867
12/5/2012 3:00,7.8,6.7,93,24,9.7,100.53,Rain,7.75699999999999,1.7663155381997573
12/5/2012 4:00,7.2,4.8,85,15,25.0,100.55,Mainly Clear,7.194000000000005,1.7507512632600475
12/5/2012 5:00,6.6,4.1,84,17,25.0,100.62,Cloudy,6.815000000000003,1.7483983249034645
12/5/2012 6:00,5.7,2.7,81,24,25.0,100.68,Mostly Cloudy,5.619999999999999,1.7529198865174693
12/5/2012 7:00,5.2,0.4,71,30,25.0,100.74,Mostly Cloudy,5.195999999999997,1.7552664107283547
12/5/2012 8:00,4.2,-0.5,71,26,24.1,100.85,Cloudy,4.226999999999997,1.7598980287578485
12/5/2012 9:00,3.6,-1.5,69,26,24.1,100.95,Cloudy,3.592000000000001,1.7628082799993914
12/5/2012 10:00,2.1,-1.8,75,28,19.3,101.09,"Rain Showers,Snow Showers",2.1599999999999975,1.7683998502052407
12/5/2012 11:00,2.2,-2.5,71,30,24.1,101.17,Snow Showers,2.1280000000000032,1.7684866050541397
12/5/2012 12:00,1.1,-4.8,65,26,24.1,101.23,Snow Showers,1.0759999999999983,1.7713029205311157
12/5/2012 13:00,1.3,-7.0,54,30,24.1,101.29,Mostly Cloudy,1.339999999999999,1.7706026242651647
12/5/2012 14:00,0.8,-6.7,57,35,24.1,101.34,Mostly Cloudy,0.7529999999999992,1.7721539282634513
12/5/2012 15:00,0.1,-7.6,56,26,24.1,101.47,Mostly Cloudy,0.12899999999999986,1.7737801719474895
12/5/2012 16:00,-0.4,-9.4,51,30,24.1,101.58,Cloudy,-0.4839999999999993,1.7715881745544444
12/5/2012 17:00,-0.7,-8.3,56,30,25.0,101.66,Cloudy,-0.691000000000001,1.770490817876267
12/5/2012 18:00,-0.8,-8.0,58,22,25.0,101.76,Mostly Cloudy,-0.7919999999999994,1.769951556203688
12/5/2012 19:00,-1.0,-8.5,57,28,25.0,101.84,Snow,-1.1160000000000005,1.7682044138682902
12/5/2012 20:00,-1.4,-8.6,58,19,25.0,101.88,Mostly Cloudy,-1.4020000000000012,1.7662981550115466
12/5/2012 21:00,-1.9,-8.7,60,24,25.0,101.93,Mostly Cloudy,-1.9239999999999997,1.7616458002097317
12/5/2012 22:00,-1.6,-9.5,55,26,25.0,102.01,Mostly Cloudy,-1.5749999999999984,1.7647819552816615
12/5/2012 23:00,-1.8,-9.7,55,20,25.0,102.07,Mostly Cloudy,-1.8070000000000008,1.7627089432696572
12/6/2012 0:00,-2.1,-9.7,56,20,25.0,102.1,Mostly Cloudy,-2.0039999999999982,1.7609118898553253
12/6/2012 1:00,-2.3,-9.3,59,17,25.0,102.12,Mostly Cloudy,-2.3710000000000035,1.7574704419653615
12/6/2012 2:00,-2.9,-9.4,61,17,25.0,102.21,Mostly Cloudy,-2.9570000000000003,1.751247637097065
12/6/2012 3:00,-3.4,-9.1,65,15,25.0,102.26,Mostly Cloudy,-3.4319999999999986,1.745574240841583
12/6/2012 4:00,-3.9,-9.0,68,11,25.0,102.33,Mostly Cloudy,-3.915999999999998,1.7393685961437384
12/6/2012 5:00,-5.2,-9.7,71,9,25.0,102.38,Mainly Clear,-5.187999999999995,1.7211379673605354
12/6/2012 6:00,-5.7,-9.7,73,13,25.0,102.45,Mainly Clear,-5.701999999999997,1.718324698506683
12/6/2012 7:00,-5.9,-10.0,73,11,24.1,102.47,Mainly Clear,-5.9249999999999945,1.718324698506683
12/6/2012 8:00,-4.6,-8.8,72,7,24.1,102.52,Mainly Clear,-4.538000000000006,1.7311244541721598
12/6/2012 9:00,-3.4,-8.9,66,9,48.3,102.53,Mostly Cloudy,-3.455,1.745288523894685
12/6/2012 10:00,-2.6,-8.4,64,13,48.3,102.56,Mostly Cloudy,-2.4999999999999964,1.756230831315577
12/6/2012 11:00,-1.8,-8.9,58,13,48.3,102.46,Mainly Clear,-1.7420000000000013,1.7632944086497013
12/6/2012 12:00,-1.8,-9.4,56,6,48.3,102.37,Mainly Clear,-1.8230000000000022,1.7625642651304392
12/6/2012 13:00,-1.0,-8.3,58,7,48.3,102.27,Mainly Clear,-1.0650000000000002,1.7684811847802733
12/6/2012 14:00,-0.9,-8.7,55,13,48.3,102.21,Mainly Clear,-0.898000000000001,1.7693828662572078
12/6/2012 15:00,-1.2,-7.9,60,11,48.3,102.18,Mainly Clear,-1.1850000000000012,1.767828904116891
12/6/2012 16:00,-2.8,-7.9,68,7,48.3,102.11,Mainly Clear,-2.8920000000000026,1.7519917333068908
12/6/2012 17:00,-2.8,-7.6,69,7,25.0,102.1,Mainly Clear,-2.5860000000000007,1.7553955178846126
12/6/2012 18:00,-2.7,-6.8,73,13,25.0,102.06,Mostly Cloudy,-2.844000000000002,1.752536458872683
12/6/2012 19:00,-2.8,-7.4,71,9,25.0,102.05,Mostly Cloudy,-2.8130000000000037,1.752886134890946
12/6/2012 20:00,-1.9,-7.4,66,7,25.0,101.95,Mostly Cloudy,-1.9560000000000024,1.7613529207797933
12/6/2012 21:00,-1.7,-7.0,67,11,25.0,101.88,Cloudy,-1.6789999999999994,1.7638583771762708
12/6/2012 22:00,-1.4,-7.2,65,17,25.0,101.8,Cloudy,-1.4630000000000007,1.765766382687418
12/6/2012 23:00,-1.1,-6.0,69,7,25.0,101.73,Mostly Cloudy,-1.040999999999999,1.7686112013428543
12/7/2012 0:00,-1.3,-5.9,71,13,25.0,101.67,Mostly Cloudy,-1.3099999999999992,1.7670943911181383
12/7/2012 1:00,-1.5,-5.7,73,7,25.0,101.58,Mostly Cloudy,-1.5159999999999996,1.765301845159801
12/7/2012 2:00,-1.3,-5.3,74,9,25.0,101.51,Mainly Clear,-1.2989999999999988,1.7671891315192318
12/7/2012 3:00,-1.8,-5.3,77,9,25.0,101.46,Mainly Clear,-1.7450000000000014,1.7632674677519262
12/7/2012 4:00,-2.7,-5.7,80,11,25.0,101.38,Mostly Cloudy,-2.5550000000000006,1.7556974480713319
12/7/2012 5:00,-2.2,-5.5,78,11,25.0,101.3,Mostly Cloudy,-2.1289999999999982,1.7597536350780574
12/7/2012 6:00,-2.9,-5.5,82,7,25.0,101.27,Cloudy,-2.8650000000000007,1.7522986356003671
12/7/2012 7:00,-2.8,-5.3,83,11,24.1,101.3,Mostly Cloudy,-2.8280000000000043,1.7527171441339089
12/7/2012 8:00,-3.3,-5.4,85,7,24.1,101.29,Cloudy,-3.229000000000003,1.7507512632600475
12/7/2012 9:00,-2.1,-4.7,82,7,24.1,101.32,Mostly Cloudy,-2.004999999999998,1.760902679781867
12/7/2012 10:00,1.2,-5.8,60,9,48.3,101.26,Mostly Cloudy,1.166000000000001,1.7710646640195744
12/7/2012 11:00,2.6,-5.0,57,4,48.3,101.24,Mostly Cloudy,2.5629999999999984,1.7673016894174374
12/7/2012 12:00,3.0,-5.0,56,4,24.1,101.2,Cloudy,2.605999999999998,1.767154691822184
12/7/2012 13:00,3.7,-4.3,56,6,48.3,101.15,Cloudy,3.740999999999995,1.7621334320890056
12/7/2012 14:00,3.9,-4.3,55,11,48.3,101.09,Cloudy,3.865999999999995,1.761563519827681
12/7/2012 15:00,3.9,-3.3,59,11,48.3,101.11,Cloudy,3.755999999999998,1.7620652247019817
12/7/2012 16:00,3.5,-3.8,59,9,24.1,101.13,Cloudy,3.4209999999999976,1.7635768194422545
12/7/2012 17:00,2.8,-3.3,64,11,25.0,101.14,Cloudy,2.7700000000000027,1.7664458073219225
12/7/2012 18:00,2.2,-3.5,66,7,25.0,101.13,Mostly Cloudy,2.1499999999999977,1.7684269680791849
12/7/2012 19:00,2.2,-3.3,67,6,25.0,101.17,Cloudy,2.0989999999999998,1.76856517051447
12/7/2012 20:00,2.1,-3.1,68,4,25.0,101.18,Cloudy,2.1519999999999984,1.7684215450124412
12/7/2012 21:00,2.0,-3.1,69,6,25.0,101.18,Cloudy,1.9380000000000006,1.7690003763263102
12/7/2012 22:00,2.3,-2.5,71,4,25.0,101.19,Cloudy,2.2490000000000028,1.768158221034719
12/7/2012 23:00,1.5,-2.2,76,4,19.3,101.22,Snow,1.5519999999999996,1.7700371526580263
12/8/2012 0:00,1.8,-1.4,79,4,25.0,101.2,Snow,1.8470000000000013,1.769245638968229
12/8/2012 1:00,2.0,-1.3,79,6,25.0,101.17,Cloudy,2.0230000000000006,1.7687708134437994
12/8/2012 2:00,2.0,-1.9,75,7,25.0,101.17,Cloudy,2.046,1.768708617973174
12/8/2012 3:00,2.1,-1.5,77,6,25.0,101.18,Cloudy,2.146999999999998,1.768435102203079
12/8/2012 4:00,2.5,-1.2,77,0,25.0,101.13,Cloudy,2.4709999999999996,1.7675533025227934
12/8/2012 5:00,2.7,-1.0,77,9,25.0,101.07,Cloudy,2.666999999999996,1.7668916618253192
12/8/2012 6:00,2.4,0.3,86,9,25.0,101.05,Cloudy,2.4110000000000023,1.7677171050811324
12/8/2012 7:00,2.3,1.0,91,6,8.0,101.09,Fog,2.3620000000000023,1.767850706015992
12/8/2012 8:00,2.7,1.6,92,7,6.4,101.06,"Rain,Fog",2.6909999999999967,1.7667879670537026
12/8/2012 9:00,2.7,1.8,94,11,4.8,100.98,"Rain,Fog",2.572999999999997,1.7677471105115399
12/8/2012 10:00,3.2,2.1,92,11,8.0,100.95,"Rain,Fog",3.274999999999999,1.764560779079539
12/8/2012 11:00,2.2,1.5,95,17,8.0,100.83,"Rain,Fog",2.1689999999999974,1.768832975474038
12/8/2012 12:00,2.1,1.6,96,15,4.8,100.74,"Rain,Fog",1.9840000000000015,1.7699087340766253
12/8/2012 13:00,1.9,1.3,96,17,3.6,100.59,"Rain,Fog",1.903000000000003,1.7699087340766253
12/8/2012 14:00,2.1,1.2,94,15,6.4,100.52,"Rain,Fog",2.122999999999997,1.768500154628511
12/8/2012 15:00,2.0,1.0,93,17,4.8,100.48,"Rain,Fog",2.049000000000001,1.768700503053712
12/8/2012 16:00,1.8,0.8,93,17,4.8,100.49,"Rain,Fog",1.7630000000000015,1.76947157344593
12/8/2012 17:00,1.6,0.6,93,9,8.0,100.46,"Rain,Fog",1.5869999999999982,1.7699435282690243
12/8/2012 18:00,1.1,0.5,96,9,6.4,100.54,"Rain,Fog",1.0839999999999992,1.7712817622578645
12/8/2012 19:00,0.9,0.2,95,9,6.4,100.61,"Rain,Fog",0.9020000000000004,1.771762146417569
12/8/2012 20:00,0.8,0.3,96,9,6.4,100.67,"Rain,Fog",0.8069999999999986,1.772012095706781
12/8/2012 21:00,0.8,0.3,96,9,6.4,100.73,"Rain,Snow,Fog",0.8059999999999985,1.7720147238403074
12/8/2012 22:00,1.2,0.6,96,13,6.4,100.84,Fog,1.2050000000000012,1.7709612652921893
12/8/2012 23:00,1.3,0.6,95,17,8.0,100.96,"Drizzle,Fog",1.311999999999999,1.7706771013585614
12/9/2012 0:00,1.5,0.7,94,20,9.7,101.07,Fog,1.6140000000000005,1.7698712516357613
12/9/2012 1:00,1.9,0.7,92,17,16.1,101.22,Cloudy,1.849000000000002,1.7692402541780563
12/9/2012 2:00,1.8,0.1,88,17,19.3,101.37,Cloudy,1.8300000000000023,1.7692913995401218
12/9/2012 3:00,1.5,-0.5,87,17,25.0,101.47,Mainly Clear,1.4900000000000009,1.7702028146547713
12/9/2012 4:00,1.5,-0.3,88,13,25.0,101.59,Mostly Cloudy,1.4909999999999999,1.7702001445809061
12/9/2012 5:00,1.1,-0.9,86,15,25.0,101.72,Cloudy,1.1199999999999983,1.771186501560147
12/9/2012 6:00,0.8,-1.5,85,11,25.0,101.84,Cloudy,0.7959999999999989,1.772041001843414
12/9/2012 7:00,0.2,-2.3,83,20,24.1,102.02,Cloudy,0.24899999999999978,1.773469238158289
12/9/2012 8:00,-0.5,-2.9,84,11,24.1,102.16,Cloudy,-0.48,1.771609276177091
12/9/2012 9:00,-0.9,-3.9,80,20,24.1,102.24,Cloudy,-0.9130000000000006,1.7693021640959985
12/9/2012 10:00,-1.5,-4.5,80,20,24.1,102.35,Cloudy,-1.4820000000000002,1.7656001193038349
12/9/2012 11:00,-1.7,-4.8,79,17,24.1,102.35,Cloudy,-1.643,1.7641791178319257
12/9/2012 12:00,-1.9,-5.1,79,17,12.9,102.32,Snow Showers,-1.8630000000000022,1.7622015899848187
12/9/2012 13:00,-2.3,-5.4,79,9,24.1,102.28,Cloudy,-2.0880000000000005,1.760135103330538
12/9/2012 14:00,-1.9,-5.1,79,7,24.1,102.28,Cloudy,-1.8870000000000013,1.761983310433222
12/9/2012 15:00,-1.9,-4.9,80,6,24.1,102.33,Cloudy,-1.9230000000000016,1.761654938039119
12/9/2012 16:00,-1.6,-5.2,76,4,24.1,102.31,Cloudy,-1.580000000000001,1.7647377622593472
12/9/2012 17:00,-1.2,-5.7,71,15,25.0,102.31,Cloudy,-1.210000000000001,1.767692549416238
12/9/2012 18:00,-1.4,-5.9,71,19,25.0,102.25,Cloudy,-1.2970000000000004,1.767206346503065
12/9/2012 19:00,-1.7,-6.2,71,22,24.1,102.22,Cloudy,-1.6939999999999988,1.763724408210328
12/9/2012 20:00,-2.2,-7.2,69,28,25.0,102.11,Cloudy,-2.199999999999997,1.7590894054480457
12/9/2012 21:00,-2.4,-6.5,73,20,25.0,101.91,Cloudy,-2.461000000000002,1.7566072775079882
12/9/2012 22:00,-3.0,-8.2,67,28,25.0,101.78,Cloudy,-2.9969999999999994,1.7507860014653083
12/9/2012 23:00,-3.6,-8.6,68,32,25.0,101.64,Cloudy,-3.6350000000000007,1.7430154272541063
12/10/2012 0:00,-3.9,-8.1,73,20,25.0,101.54,Cloudy,-3.944000000000001,1.739022133066948
12/10/2012 1:00,-5.0,-6.2,91,32,1.6,101.31,Snow,-4.971999999999999,1.762772169746578
12/10/2012 2:00,-4.7,-6.2,89,33,4.0,101.1,Snow,-4.696999999999997,1.7590894054480448
12/10/2012 3:00,-4.3,-5.9,89,33,2.8,100.96,"Snow,Ice Pellets",-4.315000000000005,1.7590894054480448
12/10/2012 4:00,-3.3,-4.4,92,28,3.6,100.73,"Freezing Drizzle,Fog",-3.2870000000000044,1.764560779079539
12/10/2012 5:00,-1.9,-2.8,94,33,4.0,100.55,"Freezing Drizzle,Fog",-1.7680000000000025,1.7677471105115399
12/10/2012 6:00,0.1,-0.9,93,22,8.0,100.3,"Freezing Rain,Fog",0.11399999999999982,1.7738189786648628
12/10/2012 7:00,1.0,0.0,93,19,8.0,100.09,"Rain,Fog",1.0049999999999997,1.7714905288070586
12/10/2012 8:00,1.7,0.8,94,17,6.4,99.98,"Moderate Rain,Fog",1.6709999999999994,1.7697185183953377
12/10/2012 9:00,2.2,1.5,95,19,6.4,99.78,"Rain,Fog",2.143999999999997,1.768832975474038
12/10/2012 10:00,2.2,1.6,96,17,2.4,99.7,"Rain,Fog",1.9860000000000022,1.7699087340766253
12/10/2012 11:00,1.9,1.5,97,15,3.2,99.6,"Rain,Fog",1.8140000000000018,1.7709745267585884
12/10/2012 12:00,1.4,0.8,96,15,4.8,99.44,"Drizzle,Fog",1.3950000000000014,1.7704561890457242
12/10/2012 13:00,0.6,0.3,98,19,2.4,99.34,"Rain,Fog",0.6270000000000006,1.7724841856195093
12/10/2012 14:00,0.1,-0.2,98,15,2.4,99.32,"Rain,Fog",0.2310000000000002,1.773515932705255
12/10/2012 15:00,0.0,-0.5,96,9,4.0,99.34,"Drizzle,Fog",0.047000000000000014,1.7739921529093874
12/10/2012 16:00,0.0,-0.5,96,6,4.0,99.41,"Rain,Fog",0.044000000000000004,1.77399990077756
12/10/2012 17:00,0.1,-0.3,97,4,4.8,99.42,"Rain,Fog",0.15699999999999992,1.7737076971014767
12/10/2012 18:00,1.5,1.1,97,15,12.9,99.57,Cloudy,1.6690000000000007,1.7709745267585884
12/10/2012 19:00,2.6,0.9,89,22,25.0,99.54,Cloudy,2.5679999999999974,1.767287999184595
12/10/2012 20:00,2.5,-0.5,81,24,25.0,99.58,Cloudy,2.3610000000000024,1.7678534309654828
12/10/2012 21:00,2.2,-1.3,78,24,25.0,99.63,Cloudy,2.207999999999998,1.7682695959523937
12/10/2012 22:00,1.7,-1.3,80,20,25.0,99.73,Cloudy,1.7029999999999996,1.7696326845291852
12/10/2012 23:00,1.2,-2.1,79,20,25.0,99.78,Mostly Cloudy,1.2630000000000006,1.770807319971646
12/11/2012 0:00,0.7,-2.7,78,17,25.0,99.89,Cloudy,0.6800000000000006,1.7723453845736898
12/11/2012 1:00,0.0,-3.6,77,28,25.0,99.99,Cloudy,0.006000000000000005,1.7740979944813593
12/11/2012 2:00,-1.1,-5.2,74,22,25.0,100.09,Mostly Cloudy,-1.0769999999999988,1.768416121691693
12/11/2012 3:00,-2.5,-6.0,77,24,25.0,100.27,Mostly Cloudy,-2.6050000000000004,1.7551901270836505
12/11/2012 4:00,-4.5,-8.0,76,20,25.0,100.38,Mainly Clear,-4.4799999999999995,1.7319447864847564
12/11/2012 5:00,-5.9,-9.6,75,17,25.0,100.51,Mainly Clear,-5.936999999999995,1.7241591468416737
12/11/2012 6:00,-7.3,-10.3,79,15,25.0,100.62,Mainly Clear,-7.284999999999996,1.7357508862871274
12/11/2012 7:00,-8.0,-11.5,76,15,24.1,100.78,Mainly Clear,-7.998999999999998,1.7272721454173066
12/11/2012 8:00,-8.4,-12.0,75,17,24.1,100.91,Mainly Clear,-8.34499999999999,1.7241591468416737
12/11/2012 9:00,-7.9,-12.0,72,19,24.1,101.03,Mainly Clear,-7.8589999999999955,1.7154802667147235
12/11/2012 10:00,-7.1,-12.0,68,9,24.1,101.12,Mainly Clear,-7.068000000000008,1.7018006700167505
12/11/2012 11:00,-6.6,-12.2,64,7,24.1,101.1,Mainly Clear,-6.628999999999999,1.6983826698848468
12/11/2012 12:00,-6.1,-12.4,61,11,24.1,101.13,Mainly Clear,-6.212000000000007,1.7053988226288437
12/11/2012 13:00,-5.5,-11.1,65,17,24.1,101.18,Mainly Clear,-5.495,1.7169978530494774
12/11/2012 14:00,-5.2,-11.0,64,17,24.1,101.21,Mainly Clear,-5.1909999999999945,1.7210995094584909
12/11/2012 15:00,-5.7,-11.5,64,13,24.1,101.29,Clear,-5.684999999999998,1.7142104884080125
12/11/2012 16:00,-6.1,-11.6,65,15,24.1,101.35,Clear,-6.122000000000006,1.707029621175441
12/11/2012 17:00,-6.8,-11.7,68,11,24.1,101.45,Clear,-6.797999999999997,1.7018006700167505
12/11/2012 18:00,-6.9,-11.5,70,13,25.0,101.51,Clear,-6.8309999999999915,1.7091525423728813
12/11/2012 19:00,-7.9,-11.0,78,13,25.0,101.6,Clear,-7.870999999999992,1.733057876440812
12/11/2012 20:00,-7.9,-11.3,77,15,25.0,101.68,Clear,-7.94799999999999,1.7302348458823897
12/11/2012 21:00,-8.7,-11.6,79,9,25.0,101.74,Clear,-8.64700000000001,1.7357508862871274
12/11/2012 22:00,-9.1,-11.4,83,6,25.0,101.78,Clear,-8.994000000000007,1.7459700090483987
12/11/2012 23:00,-8.3,-11.2,80,9,25.0,101.84,Clear,-8.319999999999991,1.7383226557949913
12/12/2012 0:00,-9.2,-11.6,83,7,25.0,101.87,Clear,-9.26100000000001,1.7459700090483987
12/12/2012 1:00,-9.4,-11.5,85,7,25.0,101.91,Clear,-9.488999999999995,1.7507512632600475
12/12/2012 2:00,-10.3,-12.0,87,4,25.0,101.96,Clear,-10.138999999999989,1.755244623603565
12/12/2012 3:00,-9.6,-11.3,87,4,25.0,102.0,Clear,-9.52800000000001,1.755244623603565
12/12/2012 4:00,-10.1,-11.6,89,6,25.0,102.04,Clear,-10.13800000000001,1.7590894054480448
12/12/2012 5:00,-10.3,-11.7,89,4,25.0,102.06,Clear,-10.234999999999992,1.7590894054480448
12/12/2012 6:00,-9.5,-11.3,87,4,25.0,102.1,Clear,-9.507000000000003,1.755244623603565
12/12/2012 7:00,-11.2,-12.4,91,4,24.1,102.19,Mainly Clear,-11.051000000000014,1.762772169746578
12/12/2012 8:00,-7.3,-9.2,86,11,24.1,102.14,Mostly Cloudy,-7.011,1.7530322801745157
12/12/2012 9:00,-6.1,-9.0,80,4,24.1,102.21,Snow Showers,-6.052000000000008,1.7383226557949913
12/12/2012 10:00,-4.7,-7.6,80,9,24.1,102.2,Snow Showers,-4.6879999999999935,1.7383226557949913
12/12/2012 11:00,-3.7,-6.8,79,7,19.3,102.15,Cloudy,-3.6999999999999953,1.7421780839853218
12/12/2012 12:00,-2.7,-6.5,75,7,19.3,102.14,Mostly Cloudy,-2.684999999999997,1.7543125684645182
12/12/2012 13:00,-3.0,-6.7,76,6,19.3,102.14,Mainly Clear,-3.033999999999998,1.7503564301808399
12/12/2012 14:00,-2.9,-6.5,76,7,16.1,102.16,Cloudy,-2.9349999999999996,1.751500321222119
12/12/2012 15:00,-3.2,-6.7,77,6,19.3,102.17,Mostly Cloudy,-3.1259999999999963,1.749277508696451
12/12/2012 16:00,-2.8,-6.2,77,4,12.9,102.2,Mostly Cloudy,-2.8340000000000027,1.7526494390734173
12/12/2012 17:00,-3.2,-6.0,81,7,9.7,102.25,Snow Showers,-3.2479999999999967,1.7478225384237862
12/12/2012 18:00,-3.6,-5.7,85,7,12.9,102.28,Snow Showers,-3.582000000000001,1.7507512632600475
12/12/2012 19:00,-4.0,-6.1,85,11,12.9,102.3,Cloudy,-3.935,1.7507512632600475
12/12/2012 20:00,-4.4,-6.4,86,7,16.1,102.36,Snow Showers,-4.406999999999996,1.7530322801745157
12/12/2012 21:00,-3.9,-5.9,86,6,16.1,102.37,Snow Showers,-3.921,1.7530322801745157
12/12/2012 22:00,-3.8,-5.6,87,4,11.3,102.4,Snow Showers,-3.7490000000000054,1.755244623603565
12/12/2012 23:00,-4.3,-5.8,89,4,16.1,102.45,Mainly Clear,-4.1400000000000015,1.7590894054480448
12/13/2012 0:00,-6.1,-7.4,90,6,12.9,102.44,Clear,-6.034000000000005,1.7609487211792867
12/13/2012 1:00,-4.3,-5.3,93,11,12.9,102.49,Clear,-4.050000000000006,1.7663155381997573
12/13/2012 2:00,-5.9,-6.6,95,6,11.3,102.57,Clear,-5.588999999999994,1.768832975474038
12/13/2012 3:00,-6.1,-7.0,93,11,11.3,102.61,Clear,-5.85,1.7663155381997573
12/13/2012 4:00,-5.4,-6.2,94,6,8.0,102.61,Fog,-5.268999999999992,1.7677471105115399
12/13/2012 5:00,-6.0,-6.8,94,4,9.7,102.63,Fog,-5.869999999999999,1.7677471105115399
12/13/2012 6:00,-6.4,-7.5,92,4,9.7,102.66,Fog,-6.312999999999993,1.764560779079539
12/13/2012 7:00,-6.1,-7.4,90,4,9.7,102.69,Fog,-6.044000000000002,1.7609487211792867
12/13/2012 8:00,-6.0,-7.1,92,4,8.0,102.67,Fog,-5.905000000000001,1.764560779079539
12/13/2012 9:00,-4.7,-6.0,91,4,8.0,102.68,Fog,-4.685999999999994,1.762772169746578
12/13/2012 10:00,-2.3,-4.2,87,4,6.4,102.64,Fog,-2.295000000000003,1.7581933584793268
12/13/2012 11:00,-0.7,-3.1,84,9,9.7,102.55,Haze,-0.6960000000000008,1.7704641812417707
12/13/2012 12:00,-0.4,-2.9,83,9,9.7,102.46,Haze,-0.3599999999999996,1.7722405168745825
12/13/2012 13:00,0.1,-2.5,83,9,12.9,102.36,Cloudy,0.08299999999999991,1.7738991370380208
12/13/2012 14:00,1.1,-2.1,79,11,19.3,102.28,Mostly Cloudy,1.1629999999999985,1.7710726139010706
12/13/2012 15:00,2.1,-1.9,75,7,19.3,102.25,Mainly Clear,2.0469999999999975,1.7687059130632883
12/13/2012 16:00,1.3,-2.1,78,9,19.3,102.21,Mainly Clear,1.3349999999999989,1.7706159272938913
12/13/2012 17:00,1.4,-1.8,79,19,25.0,102.1,Mainly Clear,1.4750000000000008,1.770242858318308
12/13/2012 18:00,1.1,-2.0,80,19,25.0,102.01,Mostly Cloudy,1.0649999999999995,1.771332006765809
12/13/2012 19:00,1.7,-2.5,74,15,25.0,101.99,Mainly Clear,1.6039999999999994,1.7698980260537807
12/13/2012 20:00,0.4,-2.5,81,11,25.0,101.98,Mainly Clear,0.37499999999999967,1.7731418364337506
12/13/2012 21:00,0.6,-2.3,81,15,25.0,101.9,Mostly Cloudy,0.5700000000000007,1.7726332734428438
12/13/2012 22:00,0.2,-2.5,82,15,25.0,101.84,Cloudy,0.2299999999999998,1.7735185262823248
12/13/2012 23:00,0.7,-2.3,80,17,25.0,101.77,Cloudy,0.6860000000000005,1.7723296605755126
12/14/2012 0:00,0.8,-2.6,78,15,25.0,101.71,Cloudy,0.7899999999999988,1.7720567657377824
12/14/2012 1:00,0.0,-3.0,80,17,25.0,101.62,Mostly Cloudy,-0.05499999999999998,1.7738293248743215
12/14/2012 2:00,-0.6,-3.2,83,15,25.0,101.59,Cloudy,-0.5709999999999995,1.7711282476157622
12/14/2012 3:00,-0.8,-3.4,83,15,25.0,101.51,Cloudy,-0.8299999999999993,1.7697480090160944
12/14/2012 4:00,-0.2,-3.5,78,20,25.0,101.44,Mostly Cloudy,-0.19699999999999973,1.7730923842009014
12/14/2012 5:00,0.3,-3.3,77,11,25.0,101.4,Cloudy,0.2700000000000004,1.7734147368458497
12/14/2012 6:00,0.5,-3.5,75,15,25.0,101.36,Cloudy,0.3650000000000002,1.7731678552677974
12/14/2012 7:00,2.0,-3.6,66,20,48.3,101.3,Mainly Clear,2.0360000000000005,1.7687356635928033
12/14/2012 8:00,1.5,-3.5,69,13,48.3,101.32,Mostly Cloudy,1.511,1.7701467300703662
12/14/2012 9:00,2.3,-3.1,67,26,48.3,101.32,Mostly Cloudy,2.316000000000003,1.7679759875180556
12/14/2012 10:00,2.8,-2.4,69,22,24.1,101.34,Cloudy,2.780000000000004,1.7664024048164848
12/14/2012 11:00,2.6,-2.0,72,22,24.1,101.35,Rain Showers,2.671,1.7668743875154587
12/14/2012 12:00,2.8,-1.5,73,17,24.1,101.33,Cloudy,2.7890000000000033,1.766363325008491
12/14/2012 13:00,3.3,-1.2,72,22,24.1,101.33,Mostly Cloudy,3.2710000000000035,1.7642457997252186
12/14/2012 14:00,3.2,-1.1,73,19,24.1,101.38,Mostly Cloudy,3.113999999999998,1.7649408757372687
12/14/2012 15:00,3.0,-1.0,75,15,24.1,101.44,Cloudy,2.9660000000000006,1.7655913602862445
12/14/2012 16:00,2.8,-1.0,76,17,24.1,101.53,Mostly Cloudy,2.8150000000000035,1.7662503342746856
12/14/2012 17:00,2.5,-0.6,80,13,25.0,101.61,Mostly Cloudy,2.377,1.767809824095742
12/14/2012 18:00,2.3,-1.3,77,17,25.0,101.7,Cloudy,2.2700000000000022,1.7681011338744204
12/14/2012 19:00,1.8,-3.6,67,19,25.0,101.76,Mostly Cloudy,1.814000000000001,1.7693344517373533
12/14/2012 20:00,0.8,-4.7,67,15,25.0,101.85,Mostly Cloudy,0.7899999999999997,1.7720567657377824
12/14/2012 21:00,-1.5,-6.4,69,22,25.0,101.96,Mainly Clear,-1.511,1.7653457695075871
12/14/2012 22:00,-2.9,-7.4,71,20,25.0,102.06,Mainly Clear,-2.8680000000000008,1.752264598212044
12/14/2012 23:00,-4.3,-8.6,72,22,25.0,102.13,Mainly Clear,-4.219000000000005,1.735500393881631
12/15/2012 0:00,-5.3,-10.5,67,20,25.0,102.18,Clear,-5.277000000000005,1.7199808738933122
12/15/2012 1:00,-6.5,-11.4,68,17,25.0,102.27,Clear,-6.4719999999999995,1.7018006700167505
12/15/2012 2:00,-7.1,-11.8,69,19,25.0,102.36,Clear,-7.081000000000009,1.7056195602958193
12/15/2012 3:00,-8.0,-13.2,66,17,25.0,102.41,Clear,-7.949000000000003,1.6960165533823464
12/15/2012 4:00,-8.5,-13.8,66,15,25.0,102.42,Clear,-8.418,1.6960165533823464
12/15/2012 5:00,-9.3,-14.2,67,20,25.0,102.47,Clear,-9.242999999999984,1.698763522260988
12/15/2012 6:00,-9.9,-14.5,69,17,25.0,102.58,Clear,-9.89399999999999,1.7056195602958193
12/15/2012 7:00,-10.2,-15.1,67,19,48.3,102.63,Clear,-10.107000000000006,1.698763522260988
12/15/2012 8:00,-10.7,-15.6,67,13,48.3,102.69,Clear,-10.579000000000002,1.698763522260988
12/15/2012 9:00,-10.4,-15.9,64,19,48.3,102.74,Clear,-10.394999999999996,1.6895328361301014
12/15/2012 10:00,-9.9,-15.2,65,13,48.3,102.78,Mainly Clear,-9.877999999999991,1.6929583486014415
12/15/2012 11:00,-9.3,-14.9,64,19,48.3,102.74,Mainly Clear,-9.289999999999988,1.6895328361301014
12/15/2012 12:00,-9.1,-15.1,62,19,48.3,102.71,Mainly Clear,-9.172999999999996,1.681279062923068
12/15/2012 13:00,-8.4,-14.7,60,19,48.3,102.64,Clear,-8.369999999999994,1.6747229916897506
12/15/2012 14:00,-8.0,-14.2,61,13,48.3,102.59,Mainly Clear,-8.030000000000003,1.6768881290465567
12/15/2012 15:00,-7.8,-13.7,63,15,48.3,102.55,Mainly Clear,-7.965999999999999,1.6856696145686971
12/15/2012 16:00,-8.5,-14.8,60,20,48.3,102.54,Mainly Clear,-8.498999999999999,1.6747229916897506
12/15/2012 17:00,-8.7,-15.3,59,15,25.0,102.53,Mainly Clear,-8.685000000000008,1.672110259985864
12/15/2012 18:00,-9.1,-15.1,62,17,25.0,102.54,Clear,-9.137000000000008,1.681279062923068
12/15/2012 19:00,-9.1,-14.7,64,20,25.0,102.58,Mainly Clear,-9.031000000000008,1.6895328361301014
12/15/2012 20:00,-8.7,-15.1,60,20,25.0,102.5,Clear,-8.786000000000007,1.6747229916897506
12/15/2012 21:00,-9.0,-15.5,59,24,25.0,102.46,Mainly Clear,-8.820000000000004,1.672110259985864
12/15/2012 22:00,-9.5,-15.0,64,19,25.0,102.47,Mostly Cloudy,-9.405999999999997,1.6895328361301014
12/15/2012 23:00,-9.9,-15.0,66,26,25.0,102.38,Cloudy,-9.926999999999992,1.6960165533823464
12/16/2012 0:00,-10.0,-14.9,67,24,25.0,102.31,Cloudy,-9.967999999999998,1.698763522260988
12/16/2012 1:00,-10.1,-14.8,68,24,25.0,102.27,Cloudy,-10.077000000000009,1.7018006700167505
12/16/2012 2:00,-10.1,-14.6,70,28,25.0,102.17,Cloudy,-10.144000000000013,1.7091525423728813
12/16/2012 3:00,-10.1,-14.5,70,28,25.0,102.15,Cloudy,-10.095000000000015,1.7091525423728813
12/16/2012 4:00,-10.1,-14.5,70,24,25.0,102.08,Cloudy,-10.087000000000014,1.7091525423728813
12/16/2012 5:00,-10.0,-14.4,70,22,25.0,102.0,Cloudy,-10.009000000000007,1.7091525423728813
12/16/2012 6:00,-9.9,-14.6,68,35,25.0,101.93,Cloudy,-9.927999999999999,1.7018006700167505
12/16/2012 7:00,-9.8,-14.9,66,32,25.0,101.89,Cloudy,-9.833999999999984,1.6960165533823464
12/16/2012 8:00,-9.5,-14.8,65,32,48.3,101.85,Cloudy,-9.629999999999988,1.6929583486014415
12/16/2012 9:00,-9.4,-14.7,65,33,19.3,101.82,Snow,-9.369999999999987,1.6929583486014415
12/16/2012 10:00,-7.7,-13.8,62,32,24.1,101.8,Cloudy,-7.7780000000000085,1.681279062923068
12/16/2012 11:00,-8.2,-13.9,63,35,24.1,101.71,Snow,-8.18400000000001,1.6856696145686971
12/16/2012 12:00,-8.5,-12.2,75,32,4.8,101.62,Snow,-8.523000000000001,1.7241591468416737
12/16/2012 13:00,-8.0,-11.2,78,26,12.9,101.54,Snow,-7.948999999999999,1.733057876440812
12/16/2012 14:00,-7.7,-10.2,82,32,4.8,101.45,Snow,-7.59400000000001,1.7434626346010758
12/16/2012 15:00,-7.6,-9.4,87,32,3.2,101.38,"Snow,Fog",-7.545000000000009,1.755244623603565
12/16/2012 16:00,-7.0,-8.7,88,35,4.0,101.33,"Snow,Fog",-6.988999999999999,1.7571931537828946
12/16/2012 17:00,-6.4,-8.0,88,30,4.8,101.28,"Snow,Fog",-6.184999999999995,1.7571931537828946
12/16/2012 18:00,-5.9,-7.4,89,30,4.0,101.25,"Snow,Fog",-5.809999999999993,1.7590894054480448
12/16/2012 19:00,-5.1,-6.6,89,22,16.1,101.2,Snow,-5.043999999999998,1.7590894054480448
12/16/2012 20:00,-4.7,-6.0,91,28,12.9,101.18,Snow,-4.638999999999995,1.762772169746578
12/16/2012 21:00,-4.0,-5.4,90,24,16.1,101.17,Snow,-3.893999999999999,1.7609487211792867
12/16/2012 22:00,-3.6,-4.7,92,22,9.7,101.12,Snow,-3.4940000000000024,1.764560779079539
12/16/2012 23:00,-3.1,-4.2,92,24,12.9,101.09,Cloudy,-3.0230000000000015,1.764560779079539
12/17/2012 0:00,-2.3,-3.3,93,24,12.9,101.02,Freezing Drizzle,-2.267000000000003,1.7663155381997573
12/17/2012 1:00,-2.3,-3.3,93,26,9.7,101.01,"Freezing Rain,Fog",-2.269000000000003,1.7663155381997573
12/17/2012 2:00,-2.2,-3.3,92,24,11.3,101.0,Freezing Rain,-2.220999999999998,1.764560779079539
12/17/2012 3:00,-2.6,-3.7,92,28,8.0,100.95,"Freezing Rain,Ice Pellets,Fog",-2.5179999999999962,1.764560779079539
12/17/2012 4:00,-3.0,-4.1,92,24,6.4,100.91,"Snow,Ice Pellets",-2.873,1.764560779079539
12/17/2012 5:00,-3.0,-4.2,91,24,8.0,100.89,"Snow,Ice Pellets",-2.9319999999999995,1.762772169746578
12/17/2012 6:00,-2.1,-3.2,92,19,8.0,100.88,"Snow,Ice Pellets",-2.014999999999997,1.764560779079539
12/17/2012 7:00,-0.3,-1.3,93,13,12.9,100.88,Cloudy,-0.2880000000000003,1.7726175891895906
12/17/2012 8:00,0.3,-0.5,94,20,3.2,100.84,"Drizzle,Fog",0.31900000000000006,1.7732874650731383
12/17/2012 9:00,0.4,-0.7,92,20,4.0,100.79,"Drizzle,Ice Pellets,Fog",0.4559999999999995,1.7729308636861558
12/17/2012 10:00,0.5,-0.8,91,20,3.6,100.78,"Snow,Fog",0.5050000000000001,1.772803047601611
12/17/2012 11:00,0.4,-0.4,94,19,1.6,100.76,"Snow,Fog",0.39599999999999946,1.773087177448499
12/17/2012 12:00,0.4,-0.3,95,22,2.0,100.71,"Snow,Fog",0.4009999999999995,1.7730741595220085
12/17/2012 13:00,0.6,-0.1,95,17,4.8,100.66,"Snow,Fog",0.5850000000000005,1.7725940587520386
12/17/2012 14:00,0.8,0.1,95,19,4.0,100.65,"Snow,Fog",0.7150000000000012,1.7722536306202072
12/17/2012 15:00,0.9,0.2,95,19,11.3,100.63,"Drizzle,Snow",0.9290000000000004,1.7716910081516077
12/17/2012 16:00,1.3,0.4,94,15,12.9,100.62,Drizzle,1.2969999999999984,1.7707169799118947
12/17/2012 17:00,1.9,0.7,92,17,16.1,100.57,Cloudy,1.855000000000002,1.7692240982995449
12/17/2012 18:00,2.0,0.6,90,19,16.1,100.61,Drizzle,2.0190000000000006,1.7687816266330534
12/17/2012 19:00,2.1,0.4,88,15,16.1,100.63,Drizzle,2.088999999999998,1.7685922496900526
12/17/2012 20:00,2.3,0.5,88,19,16.1,100.64,Drizzle,2.2130000000000014,1.7682560193748154
12/17/2012 21:00,1.7,0.3,90,20,16.1,100.58,Cloudy,1.751,1.7695038136881593
12/17/2012 22:00,1.9,0.1,88,13,19.3,100.56,Cloudy,1.8690000000000029,1.769186392450801
12/17/2012 23:00,1.2,-0.1,91,20,16.1,100.5,Cloudy,1.1720000000000004,1.7710487626000304
12/18/2012 0:00,0.6,-0.5,92,19,16.1,100.44,Cloudy,0.6440000000000006,1.7724396829707303
12/18/2012 1:00,0.1,-0.9,93,24,19.3,100.37,Cloudy,0.09099999999999989,1.7738784564459484
12/18/2012 2:00,0.4,-0.9,91,24,19.3,100.32,Cloudy,0.4280000000000005,1.773003836900347
12/18/2012 3:00,0.4,-0.9,91,24,16.1,100.24,Rain,0.43500000000000044,1.7729855979942908
12/18/2012 4:00,0.5,-0.8,91,24,11.3,100.15,Rain,0.5110000000000001,1.7727873867632038
12/18/2012 5:00,0.6,-0.6,92,24,9.7,100.12,"Rain,Ice Pellets",0.6100000000000008,1.7725286708654429
12/18/2012 6:00,0.5,-0.4,94,24,3.6,100.07,Snow,0.47399999999999987,1.7728839275535384
12/18/2012 7:00,0.5,-0.2,95,24,3.2,100.0,Snow,0.513,1.772782166003941
12/18/2012 8:00,0.7,0.0,95,24,2.8,99.92,Snow,0.675000000000001,1.7723584862464727
12/18/2012 9:00,0.7,0.1,96,22,2.0,99.88,Snow,0.694000000000001,1.772308691865478
12/18/2012 10:00,0.6,0.0,96,24,1.2,99.86,Snow,0.6300000000000009,1.7724763334757587
12/18/2012 11:00,0.5,-0.2,95,22,1.2,99.76,Snow,0.4949999999999999,1.7728291442020054
12/18/2012 12:00,0.8,0.0,94,32,4.8,99.64,Snow,0.8279999999999993,1.7719568909024943
12/18/2012 13:00,1.0,0.0,93,26,4.0,99.56,Snow,0.9919999999999999,1.7715248462844038
12/18/2012 14:00,1.0,0.2,94,24,4.0,99.53,Snow,1.0209999999999995,1.7714482777570784
12/18/2012 15:00,1.1,0.2,94,22,4.8,99.51,Snow,1.1059999999999985,1.7712235568146577
12/18/2012 16:00,1.1,0.1,93,26,8.0,99.48,"Rain,Snow",1.1159999999999988,1.771197090000541
12/18/2012 17:00,1.2,0.3,94,22,8.0,99.48,"Rain,Snow",1.2330000000000014,1.7708869726899161
12/18/2012 18:00,1.4,0.5,94,22,8.0,99.49,"Rain,Snow",1.3790000000000016,1.7704988076611425
12/18/2012 19:00,1.4,0.7,95,15,8.0,99.53,Rain,1.3489999999999995,1.770578674924674
12/18/2012 20:00,1.3,0.7,96,15,6.4,99.54,Drizzle,1.280999999999999,1.7707595017509954
12/18/2012 21:00,1.0,0.6,97,13,3.2,99.58,"Drizzle,Snow,Fog",1.0279999999999996,1.7714297880092023
12/18/2012 22:00,0.8,0.4,97,15,3.2,99.6,"Drizzle,Snow,Fog",0.767999999999999,1.7721145480355345
12/18/2012 23:00,0.8,0.5,98,11,3.2,99.64,"Drizzle,Snow,Fog",0.8679999999999989,1.7720304913691292
12/19/2012 0:00,0.6,0.2,97,9,4.0,99.65,"Drizzle,Snow,Fog",0.6120000000000004,1.7725234382100277
12/19/2012 1:00,0.5,0.1,97,7,6.4,99.71,"Drizzle,Snow,Fog",0.48399999999999943,1.7728578435389915
12/19/2012 2:00,0.4,0.1,98,7,8.0,99.78,"Drizzle,Snow,Fog",0.4669999999999994,1.772902182799512
12/19/2012 3:00,0.4,0.0,97,9,4.8,99.82,"Drizzle,Snow,Fog",0.4189999999999994,1.7730272826165012
12/19/2012 4:00,0.4,0.0,97,11,4.0,99.87,"Drizzle,Snow,Fog",0.40899999999999936,1.773053327732505
12/19/2012 5:00,0.3,-0.1,97,11,3.2,99.95,"Drizzle,Snow,Fog",0.3439999999999999,1.7732224753971306
12/19/2012 6:00,0.4,-0.1,96,9,2.4,100.05,"Drizzle,Snow,Fog",0.41599999999999954,1.773035096778975
12/19/2012 7:00,0.4,0.0,97,11,3.2,100.15,"Drizzle,Snow,Fog",0.4069999999999995,1.7730585360384399
12/19/2012 8:00,0.5,0.1,97,11,2.4,100.24,"Drizzle,Fog",0.4819999999999999,1.7728630608212048
12/19/2012 9:00,0.6,0.2,97,13,2.4,100.33,"Drizzle,Fog",0.6110000000000008,1.7725260545678276
12/19/2012 10:00,0.6,0.2,97,15,2.4,100.42,"Drizzle,Fog",0.6110000000000008,1.7725260545678276
12/19/2012 11:00,0.8,0.2,96,11,9.7,100.44,Fog,0.8079999999999988,1.7720094675126619
12/19/2012 12:00,0.8,0.0,94,17,19.3,100.53,Cloudy,0.8239999999999991,1.7719674081643784
12/19/2012 13:00,1.0,-0.2,92,11,24.1,100.61,Cloudy,1.0109999999999992,1.771474686494078
12/19/2012 14:00,1.1,-0.1,92,13,24.1,100.72,Cloudy,1.0999999999999983,1.7712394339642408
12/19/2012 15:00,1.3,-0.1,90,9,24.1,100.83,Drizzle,1.3139999999999983,1.770671783169991
12/19/2012 16:00,1.3,-0.4,88,7,24.1,100.96,Cloudy,1.3159999999999987,1.770666464734749
12/19/2012 17:00,1.1,-0.2,91,6,16.1,101.04,Drizzle,1.0919999999999985,1.7712606000692683
12/19/2012 18:00,1.2,0.1,92,9,9.7,101.15,"Drizzle,Snow",1.2620000000000005,1.7708099759545366
12/19/2012 19:00,0.8,0.3,96,11,4.8,101.26,"Snow,Fog",0.7919999999999989,1.7720515113485782
12/19/2012 20:00,0.7,0.1,96,11,6.4,101.32,"Snow,Fog",0.6480000000000006,1.772429209229014
12/19/2012 21:00,0.6,-0.1,95,13,11.3,101.38,Snow,0.5870000000000005,1.7725888291045364
12/19/2012 22:00,0.6,-0.5,92,9,25.0,101.42,Cloudy,0.6540000000000005,1.7724134968085639
12/19/2012 23:00,0.6,-0.9,90,13,25.0,101.5,Snow,0.6300000000000009,1.7724763334757587
12/20/2012 0:00,0.4,-2.1,83,20,25.0,101.57,Snow,0.4539999999999998,1.7729360776145124
12/20/2012 1:00,0.1,-2.2,84,17,25.0,101.6,Cloudy,0.12699999999999986,1.7737853469458487
12/20/2012 2:00,-0.2,-2.4,85,19,25.0,101.68,Cloudy,-0.14299999999999993,1.7733731944308275
12/20/2012 3:00,-0.5,-2.9,84,17,25.0,101.69,Cloudy,-0.501,1.7714984491398862
12/20/2012 4:00,-0.7,-3.4,82,15,25.0,101.72,Cloudy,-0.6179999999999995,1.7708790099095726
12/20/2012 5:00,-1.1,-3.9,81,13,25.0,101.78,Cloudy,-1.084999999999999,1.76837272597939
12/20/2012 6:00,-1.6,-4.2,82,15,25.0,101.82,Snow,-1.583000000000001,1.7647112363218334
12/20/2012 7:00,-1.8,-4.9,79,20,25.0,101.88,Cloudy,-1.7590000000000006,1.763141640691113
12/20/2012 8:00,-1.9,-4.6,82,15,24.1,101.91,Cloudy,-1.8729999999999996,1.762110701795016
12/20/2012 9:00,-1.7,-4.5,81,13,24.1,101.98,Cloudy,-1.6509999999999991,1.76410793769017
12/20/2012 10:00,-1.4,-4.2,81,7,24.1,101.97,Cloudy,-1.4380000000000017,1.7659846940471142
12/20/2012 11:00,-1.1,-4.0,81,4,24.1,101.92,Snow,-1.127999999999999,1.7681391951044974
12/20/2012 12:00,-1.0,-3.9,81,6,24.1,101.83,Cloudy,-1.037,1.7686328565739522
12/20/2012 13:00,-0.9,-4.0,79,15,24.1,101.65,Cloudy,-0.8990000000000004,1.7693774878697661
12/20/2012 14:00,-1.0,-4.3,78,15,24.1,101.62,Cloudy,-0.9960000000000001,1.7688545892161411
12/20/2012 15:00,-0.5,-3.8,78,13,24.1,101.55,Cloudy,-0.607,1.7709373907821
12/20/2012 16:00,-0.3,-3.3,80,13,24.1,101.56,Cloudy,-0.33000000000000024,1.7723977822182642
12/20/2012 17:00,-0.3,-3.2,81,19,25.0,101.38,Mostly Cloudy,-0.28700000000000025,1.7726228175144325
12/20/2012 18:00,0.2,-3.0,79,19,25.0,101.25,Mostly Cloudy,0.3719999999999999,1.7731496427106872
12/20/2012 19:00,0.3,-2.7,80,17,25.0,101.23,Mostly Cloudy,0.28500000000000036,1.7733757912780368
12/20/2012 20:00,0.1,-2.4,83,20,25.0,101.12,Mostly Cloudy,0.13399999999999987,1.7737672334156571
12/20/2012 21:00,0.7,-2.3,80,22,25.0,101.0,Cloudy,0.6730000000000007,1.77236372649335
12/20/2012 22:00,1.1,-2.4,77,20,25.0,100.88,Cloudy,1.3209999999999997,1.7706531675673394
12/20/2012 23:00,1.2,-2.1,79,28,25.0,100.69,Cloudy,1.2520000000000002,1.7708365323981803
12/21/2012 0:00,1.9,-2.1,75,26,25.0,100.6,"Rain,Snow Grains",1.955,1.7689545002224234
12/21/2012 1:00,1.1,-0.7,88,17,6.4,100.47,"Rain,Snow,Ice Pellets",1.0320000000000003,1.7714192210957453
12/21/2012 2:00,1.0,-0.3,91,20,6.4,100.35,"Rain,Snow",1.001,1.7715010891288194
12/21/2012 3:00,0.9,0.0,94,28,4.8,100.12,"Rain,Snow,Ice Pellets",0.8379999999999995,1.7719305935028924
12/21/2012 4:00,1.1,-0.1,92,22,6.4,99.98,"Rain,Snow,Ice Pellets",1.0929999999999986,1.7712579545203422
12/21/2012 5:00,1.3,0.1,92,26,6.4,99.85,"Rain,Snow,Ice Pellets",1.2829999999999984,1.77075418738365
12/21/2012 6:00,1.0,0.0,93,22,4.0,99.76,"Rain,Snow",0.9860000000000001,1.7715406816438228
12/21/2012 7:00,0.9,-0.1,93,32,6.4,99.64,"Rain,Snow",0.9370000000000005,1.771669921629823
12/21/2012 8:00,0.8,-0.2,93,32,2.4,99.5,"Rain,Snow",0.7939999999999988,1.772046256717128
12/21/2012 9:00,0.8,-0.2,93,33,2.4,99.38,"Rain,Snow",0.7939999999999988,1.772046256717128
12/21/2012 10:00,1.0,0.0,93,32,12.9,99.24,Snow,1.003,1.77149580908995
12/21/2012 11:00,0.9,0.0,94,30,2.0,99.01,Snow,0.8420000000000003,1.7719200728447424
12/21/2012 12:00,1.3,0.3,93,41,9.7,98.67,Snow,1.2979999999999992,1.770714321773174
12/21/2012 13:00,1.8,0.3,90,41,19.3,98.36,Snow,1.7870000000000017,1.7694070658966219
12/21/2012 14:00,2.1,0.4,88,41,19.3,98.16,Rain,2.0849999999999995,1.768603079586056
12/21/2012 15:00,1.8,0.2,89,33,12.9,98.1,Rain,1.7900000000000014,1.769398999914475
12/21/2012 16:00,1.4,0.2,92,43,9.7,97.93,Rain,1.3550000000000013,1.7705627059193334
12/21/2012 17:00,1.3,0.2,92,46,12.9,97.76,Rain,1.3189999999999997,1.7706584866193373
12/21/2012 18:00,1.4,0.3,92,46,25.0,97.56,Rain,1.4440000000000017,1.7703255710146786
12/21/2012 19:00,2.3,1.1,92,37,11.3,97.52,Rain,2.3630000000000027,1.76784798100253
12/21/2012 20:00,2.4,1.7,95,15,9.7,97.58,Rain,2.4230000000000014,1.768832975474038
12/21/2012 21:00,1.3,0.4,94,22,9.7,97.64,Rain,1.3170000000000002,1.7706638054246204
12/21/2012 22:00,0.7,0.0,95,28,3.6,97.75,Snow,0.6600000000000008,1.7723977822182642
12/21/2012 23:00,1.1,0.0,92,30,9.7,97.79,"Drizzle,Snow,Fog",1.1169999999999984,1.7711944429823152
12/22/2012 0:00,1.1,-0.1,92,32,9.7,97.81,"Drizzle,Snow,Fog",1.0949999999999982,1.7712526632388983
12/22/2012 1:00,1.2,0.1,92,30,12.9,97.84,Drizzle,1.2679999999999985,1.7707940391337695
12/22/2012 2:00,1.1,0.1,93,30,8.0,97.89,"Drizzle,Snow,Fog",1.1059999999999985,1.7712235568146577
12/22/2012 3:00,1.1,0.1,93,28,9.7,97.93,"Drizzle,Snow,Fog",1.1099999999999985,1.7712129708238173
12/22/2012 4:00,0.6,-0.6,92,35,11.3,97.98,Snow,0.6140000000000007,1.7725182053138666
12/22/2012 5:00,-0.9,-1.9,93,35,4.8,98.07,Snow,-0.7179999999999995,1.7703469065602129
12/22/2012 6:00,-1.6,-3.0,90,41,4.0,98.19,Snow,-1.5689999999999986,1.7648349590856833
12/22/2012 7:00,-2.2,-3.7,89,35,4.8,98.32,Snow,-2.121999999999997,1.7598188722797796
12/22/2012 8:00,-2.5,-4.5,86,41,4.0,98.44,Snow,-2.5300000000000002,1.7559402585695707
12/22/2012 9:00,-3.0,-5.0,86,35,3.2,98.58,Snow,-2.904,1.7530322801745157
12/22/2012 10:00,-3.6,-5.0,90,37,1.6,98.7,Snow,-3.2679999999999993,1.7609487211792867
12/22/2012 11:00,-4.3,-5.4,92,35,1.2,98.78,Snow,-4.129000000000003,1.764560779079539
12/22/2012 12:00,-4.5,-5.9,90,33,1.6,98.86,Snow,-4.445000000000001,1.7609487211792867
12/22/2012 13:00,-4.7,-6.9,85,37,4.0,98.96,Snow,-4.647,1.7507512632600475
12/22/2012 14:00,-5.0,-7.6,82,32,4.0,99.08,"Snow,Blowing Snow",-5.013000000000002,1.7434626346010758
12/22/2012 15:00,-5.4,-7.1,88,35,1.6,99.24,"Snow,Blowing Snow",-5.388999999999993,1.7571931537828946
12/22/2012 16:00,-5.9,-7.8,86,41,1.6,99.37,"Snow,Blowing Snow",-5.842999999999992,1.7530322801745157
12/22/2012 17:00,-5.7,-8.5,81,32,6.4,99.5,Snow,-5.722999999999998,1.7408722768108806
12/22/2012 18:00,-6.0,-8.7,81,33,4.8,99.62,Snow,-5.948999999999999,1.7408722768108806
12/22/2012 19:00,-6.7,-9.1,83,32,6.4,99.75,Snow,-6.573999999999997,1.7459700090483987
12/22/2012 20:00,-6.9,-10.6,75,32,16.1,99.83,Snow,-6.939999999999991,1.7241591468416737
12/22/2012 21:00,-7.2,-11.6,71,28,16.1,99.96,Snow,-7.232,1.712430565280306
12/22/2012 22:00,-7.4,-11.9,70,35,16.1,100.0,Snow,-7.40599999999999,1.7091525423728813
12/22/2012 23:00,-7.8,-12.6,68,39,19.3,100.12,Cloudy,-7.758999999999993,1.7018006700167505
12/23/2012 0:00,-7.8,-11.6,74,32,19.3,100.19,Snow Showers,-7.817999999999994,1.7209839103698092
12/23/2012 1:00,-7.9,-11.8,74,32,25.0,100.27,Snow Showers,-7.982999999999993,1.7209839103698092
12/23/2012 2:00,-8.2,-12.5,71,30,25.0,100.36,Mostly Cloudy,-8.226000000000008,1.712430565280306
12/23/2012 3:00,-8.2,-12.4,72,30,25.0,100.4,Cloudy,-8.181000000000006,1.7154802667147235
12/23/2012 4:00,-8.3,-12.7,71,28,25.0,100.43,Cloudy,-8.35399999999999,1.712430565280306
12/23/2012 5:00,-8.5,-13.2,69,30,25.0,100.49,Cloudy,-8.565000000000005,1.7056195602958193
12/23/2012 6:00,-8.4,-12.3,73,26,25.0,100.51,Cloudy,-8.414000000000001,1.718324698506683
12/23/2012 7:00,-8.5,-12.1,75,20,19.3,100.52,Snow Showers,-8.418999999999992,1.7241591468416737
12/23/2012 8:00,-8.7,-12.0,77,20,19.3,100.54,Snow Showers,-8.675000000000006,1.7302348458823897
12/23/2012 9:00,-8.7,-12.2,76,22,24.1,100.52,Cloudy,-8.749000000000006,1.7272721454173066
12/23/2012 10:00,-8.6,-12.5,73,24,24.1,100.54,Cloudy,-8.618000000000007,1.718324698506683
12/23/2012 11:00,-8.3,-12.6,71,26,24.1,100.5,Cloudy,-8.255999999999997,1.712430565280306
12/23/2012 12:00,-7.9,-12.6,69,24,24.1,100.44,Cloudy,-7.892999999999994,1.7056195602958193
12/23/2012 13:00,-7.4,-12.4,67,20,24.1,100.37,Mostly Cloudy,-7.360999999999993,1.698763522260988
12/23/2012 14:00,-6.9,-11.9,67,11,24.1,100.33,Cloudy,-6.815999999999992,1.698763522260988
12/23/2012 15:00,-6.8,-11.1,71,13,24.1,100.34,Snow Showers,-6.723999999999998,1.712430565280306
12/23/2012 16:00,-7.0,-9.6,82,13,9.7,100.35,Snow Showers,-7.031000000000005,1.7434626346010758
12/23/2012 17:00,-7.1,-9.4,84,9,12.9,100.36,Snow,-7.061000000000011,1.7483983249034645
12/23/2012 18:00,-7.2,-10.0,80,11,12.9,100.4,Snow,-7.163000000000007,1.7383226557949913
12/23/2012 19:00,-7.2,-10.1,80,9,25.0,100.46,Snow,-7.217000000000008,1.7383226557949913
12/23/2012 20:00,-7.2,-10.4,78,9,25.0,100.55,Cloudy,-7.171000000000005,1.733057876440812
12/23/2012 21:00,-8.0,-11.2,78,9,25.0,100.62,Mainly Clear,-7.985999999999999,1.733057876440812
12/23/2012 22:00,-9.0,-11.7,81,9,25.0,100.68,Mainly Clear,-9.035000000000005,1.7408722768108806
12/23/2012 23:00,-8.3,-10.9,81,9,25.0,100.76,Cloudy,-8.24899999999999,1.7408722768108806
12/24/2012 0:00,-8.5,-10.7,84,15,25.0,100.8,Mostly Cloudy,-8.414999999999997,1.7483983249034645
12/24/2012 1:00,-8.4,-10.7,83,17,25.0,100.85,Cloudy,-8.373999999999993,1.7459700090483987
12/24/2012 2:00,-8.8,-11.4,81,17,25.0,100.91,Cloudy,-8.775999999999993,1.7408722768108806
12/24/2012 3:00,-8.9,-12.3,76,20,25.0,100.99,Cloudy,-8.873999999999988,1.7272721454173066
12/24/2012 4:00,-10.0,-12.7,81,24,25.0,101.02,Mostly Cloudy,-10.005999999999993,1.7408722768108806
12/24/2012 5:00,-10.4,-13.3,79,19,25.0,101.07,Mostly Cloudy,-10.504000000000001,1.7357508862871274
12/24/2012 6:00,-10.9,-14.0,78,15,25.0,101.13,Mainly Clear,-10.911,1.733057876440812
12/24/2012 7:00,-11.1,-13.9,80,15,25.0,101.23,Clear,-11.056,1.7383226557949913
12/24/2012 8:00,-11.0,-13.9,79,13,25.0,101.32,Clear,-10.986,1.7357508862871274
12/24/2012 9:00,-10.5,-13.7,77,13,24.1,101.41,Clear,-10.459000000000001,1.7302348458823897
12/24/2012 10:00,-9.9,-13.4,76,11,48.3,101.45,Mainly Clear,-9.961999999999987,1.7272721454173066
12/24/2012 11:00,-9.0,-13.7,69,11,48.3,101.44,Mainly Clear,-8.976999999999999,1.7056195602958193
12/24/2012 12:00,-7.9,-13.3,65,9,48.3,101.43,Mainly Clear,-7.9179999999999975,1.6929583486014415
12/24/2012 13:00,-7.6,-13.1,65,15,48.3,101.45,Mainly Clear,-7.503000000000005,1.6929583486014415
12/24/2012 14:00,-7.8,-13.7,63,15,48.3,101.46,Mainly Clear,-7.827999999999994,1.6856696145686971
12/24/2012 15:00,-7.5,-13.3,63,13,48.3,101.49,Mainly Clear,-7.5299999999999985,1.6856696145686971
12/24/2012 16:00,-8.2,-13.3,67,11,24.1,101.45,Mainly Clear,-8.193000000000007,1.698763522260988
12/24/2012 17:00,-9.7,-13.7,73,6,25.0,101.49,Mainly Clear,-9.656000000000011,1.718324698506683
12/24/2012 18:00,-10.4,-13.8,76,9,25.0,101.45,Clear,-10.355999999999995,1.7272721454173066
12/24/2012 19:00,-9.7,-13.1,76,7,25.0,101.43,Mainly Clear,-9.69200000000001,1.7272721454173066
12/24/2012 20:00,-9.6,-12.8,77,6,25.0,101.43,Mainly Clear,-9.613000000000012,1.7302348458823897
12/24/2012 21:00,-9.4,-13.2,74,7,25.0,101.44,Mainly Clear,-9.45599999999999,1.7209839103698092
12/24/2012 22:00,-9.8,-13.2,76,4,25.0,101.44,Mostly Cloudy,-9.780999999999988,1.7272721454173066
12/24/2012 23:00,-10.5,-12.8,83,4,25.0,101.48,Mostly Cloudy,-10.473000000000003,1.7459700090483987
12/25/2012 0:00,-9.0,-12.5,76,11,25.0,101.44,Mostly Cloudy,-9.22199999999999,1.7272721454173066
12/25/2012 1:00,-10.5,-13.0,82,6,25.0,101.51,Mostly Cloudy,-10.555000000000001,1.7434626346010758
12/25/2012 2:00,-10.6,-13.1,82,13,25.0,101.51,Mostly Cloudy,-10.697000000000003,1.7434626346010758
12/25/2012 3:00,-10.5,-12.6,85,19,25.0,101.47,Cloudy,-10.53,1.7507512632600475
12/25/2012 4:00,-10.1,-13.2,78,15,24.1,101.49,Mostly Cloudy,-10.111000000000011,1.733057876440812
12/25/2012 5:00,-10.8,-13.1,83,17,25.0,101.49,Cloudy,-10.764000000000001,1.7459700090483987
12/25/2012 6:00,-10.6,-13.6,79,13,25.0,101.59,Cloudy,-10.654000000000005,1.7357508862871274
12/25/2012 7:00,-11.3,-14.1,80,11,25.0,101.72,Cloudy,-11.320999999999986,1.7383226557949913
12/25/2012 8:00,-11.3,-14.4,78,11,24.1,101.79,Cloudy,-11.26099999999999,1.733057876440812
12/25/2012 9:00,-11.0,-14.2,77,13,24.1,101.87,Cloudy,-10.972999999999999,1.7302348458823897
12/25/2012 10:00,-10.1,-14.3,71,15,24.1,101.95,Cloudy,-10.059000000000013,1.712430565280306
12/25/2012 11:00,-9.6,-14.4,68,9,24.1,101.93,Cloudy,-9.670000000000003,1.7018006700167505
12/25/2012 12:00,-9.4,-14.4,67,9,24.1,101.92,Cloudy,-9.471000000000005,1.698763522260988
12/25/2012 13:00,-8.7,-14.5,63,7,24.1,101.92,Mostly Cloudy,-8.70900000000001,1.6856696145686971
12/25/2012 14:00,-7.7,-14.1,60,6,48.3,101.95,Mainly Clear,-7.7030000000000065,1.6787756131359728
12/25/2012 15:00,-7.1,-13.7,59,17,48.3,101.98,Clear,-7.041000000000008,1.692288116752499
12/25/2012 16:00,-7.5,-13.9,60,11,48.3,102.03,Clear,-7.507000000000002,1.683392923133579
12/25/2012 17:00,-8.3,-13.4,67,13,25.0,102.1,Clear,-8.272999999999994,1.698763522260988
12/25/2012 18:00,-8.9,-13.4,70,13,25.0,102.16,Mainly Clear,-8.86999999999999,1.7091525423728813
12/25/2012 19:00,-8.8,-12.6,74,19,25.0,102.27,Mainly Clear,-8.887999999999991,1.7209839103698092
12/25/2012 20:00,-9.4,-12.6,77,13,25.0,102.3,Mainly Clear,-9.472999999999992,1.7302348458823897
12/25/2012 21:00,-9.7,-12.5,80,4,25.0,102.28,Clear,-9.695000000000004,1.7383226557949913
12/25/2012 22:00,-10.9,-13.2,83,4,25.0,102.34,Clear,-10.987999999999998,1.7459700090483987
12/25/2012 23:00,-10.4,-12.7,83,11,25.0,102.45,Clear,-10.480999999999993,1.7459700090483987
12/26/2012 0:00,-11.8,-13.5,87,4,25.0,102.41,Clear,-11.755999999999982,1.755244623603565
12/26/2012 1:00,-11.2,-12.9,87,6,25.0,102.42,Clear,-11.108000000000013,1.755244623603565
12/26/2012 2:00,-12.7,-14.4,87,4,25.0,102.45,Clear,-12.651000000000018,1.755244623603565
12/26/2012 3:00,-14.2,-15.8,88,6,25.0,102.52,Clear,-13.900000000000018,1.7571931537828946
12/26/2012 4:00,-13.1,-14.7,88,6,25.0,102.55,Clear,-13.143000000000004,1.7571931537828946
12/26/2012 5:00,-12.7,-14.1,89,4,25.0,102.48,Clear,-12.528000000000011,1.7590894054480448
12/26/2012 6:00,-13.4,-14.8,89,4,25.0,102.47,Clear,-13.237000000000009,1.7590894054480448
12/26/2012 7:00,-13.0,-14.4,89,7,25.0,102.46,Mainly Clear,-12.869000000000005,1.7590894054480448
12/26/2012 8:00,-13.7,-15.2,88,4,16.1,102.53,Mostly Cloudy,-13.561000000000018,1.7571931537828946
12/26/2012 9:00,-11.3,-12.7,89,15,4.0,102.52,"Snow Showers,Fog",-11.14299999999999,1.7590894054480448
12/26/2012 10:00,-11.0,-13.2,84,15,24.1,102.54,Mainly Clear,-11.001,1.7483983249034645
12/26/2012 11:00,-11.3,-14.5,77,20,48.3,102.5,Mainly Clear,-11.451999999999998,1.7302348458823897
12/26/2012 12:00,-10.6,-14.3,74,20,48.3,102.36,Mainly Clear,-10.584000000000009,1.7209839103698092
12/26/2012 13:00,-10.3,-14.0,74,15,24.1,102.35,Mostly Cloudy,-10.322999999999984,1.7209839103698092
12/26/2012 14:00,-10.0,-14.0,72,19,24.1,102.27,Cloudy,-9.827999999999994,1.7154802667147235
12/26/2012 15:00,-10.0,-14.2,71,19,24.1,102.28,Cloudy,-9.937999999999997,1.712430565280306
12/26/2012 16:00,-10.3,-14.1,74,19,25.0,102.17,Cloudy,-10.409999999999991,1.7209839103698092
12/26/2012 17:00,-10.2,-13.9,74,22,25.0,102.16,Cloudy,-10.204999999999993,1.7209839103698092
12/26/2012 18:00,-10.0,-13.8,74,24,25.0,102.14,Cloudy,-10.109000000000002,1.7209839103698092
12/26/2012 19:00,-9.6,-13.1,76,39,25.0,102.03,Cloudy,-9.69700000000001,1.7272721454173066
12/26/2012 20:00,-10.3,-12.9,81,28,25.0,101.88,Cloudy,-10.190999999999987,1.7408722768108806
12/26/2012 21:00,-9.8,-12.5,81,22,25.0,101.87,Cloudy,-9.806999999999986,1.7408722768108806
12/26/2012 22:00,-9.7,-12.8,78,37,25.0,101.7,Cloudy,-9.753000000000013,1.733057876440812
12/26/2012 23:00,-9.7,-12.3,81,24,25.0,101.61,Cloudy,-9.625000000000009,1.7408722768108806
12/27/2012 0:00,-9.8,-12.5,81,30,25.0,101.46,Cloudy,-9.793999999999984,1.7408722768108806
12/27/2012 1:00,-9.4,-12.2,80,26,25.0,101.37,Cloudy,-9.37599999999999,1.7383226557949913
12/27/2012 2:00,-8.5,-11.3,80,30,25.0,101.31,Cloudy,-8.496999999999995,1.7383226557949913
12/27/2012 3:00,-8.1,-10.2,85,37,2.4,101.21,Snow,-8.143000000000011,1.7507512632600475
12/27/2012 4:00,-7.9,-9.5,88,33,2.0,101.03,Snow,-7.793999999999993,1.7571931537828946
12/27/2012 5:00,-7.5,-9.1,88,43,1.2,100.95,Snow,-7.432999999999997,1.7571931537828946
12/27/2012 6:00,-6.8,-8.1,90,39,1.2,100.83,Snow,-6.529999999999998,1.7609487211792867
12/27/2012 7:00,-6.5,-7.6,92,44,1.2,100.73,Snow,-6.368999999999996,1.764560779079539
12/27/2012 8:00,-6.3,-7.4,92,39,0.8,100.65,Moderate Snow,-5.984999999999997,1.764560779079539
12/27/2012 9:00,-5.7,-6.7,93,37,0.8,100.67,Moderate Snow,-5.599999999999994,1.7663155381997573
12/27/2012 10:00,-5.4,-6.4,93,41,0.6,100.64,"Moderate Snow,Blowing Snow",-5.352999999999992,1.7663155381997573
12/27/2012 11:00,-5.2,-6.4,91,39,0.6,100.62,"Snow,Blowing Snow",-5.169999999999995,1.762772169746578
12/27/2012 12:00,-5.5,-6.6,92,39,0.6,100.5,"Moderate Snow,Blowing Snow",-5.319999999999993,1.764560779079539
12/27/2012 13:00,-5.4,-6.7,91,48,0.6,100.36,"Snow,Blowing Snow",-5.360999999999993,1.762772169746578
12/27/2012 14:00,-5.2,-6.7,89,46,0.6,100.35,"Snow,Blowing Snow",-5.198999999999992,1.7590894054480448
12/27/2012 15:00,-5.0,-6.2,91,37,0.6,100.37,"Snow,Blowing Snow",-4.988999999999999,1.762772169746578
12/27/2012 16:00,-4.5,-6.2,88,37,2.0,100.44,"Snow,Blowing Snow",-4.613,1.7571931537828946
12/27/2012 17:00,-4.2,-5.9,88,32,3.2,100.47,"Snow,Blowing Snow",-4.212000000000004,1.7571931537828946
12/27/2012 18:00,-4.0,-5.7,88,28,8.0,100.49,"Snow,Blowing Snow",-3.944,1.7571931537828946
12/27/2012 19:00,-3.9,-5.6,88,26,9.7,100.52,"Snow,Blowing Snow",-3.872999999999997,1.7571931537828946
12/27/2012 20:00,-3.7,-5.3,89,37,16.1,100.58,Snow,-3.663999999999995,1.7590894054480448
12/27/2012 21:00,-3.7,-4.8,92,24,4.8,100.62,"Freezing Drizzle,Snow",-3.4880000000000035,1.764560779079539
12/27/2012 22:00,-3.8,-4.6,94,20,4.8,100.65,"Freezing Drizzle,Snow",-3.591000000000004,1.7677471105115399
12/27/2012 23:00,-4.0,-5.6,89,24,9.7,100.7,Snow,-3.930999999999999,1.7590894054480448
12/28/2012 0:00,-4.2,-5.7,89,19,8.0,100.78,"Freezing Drizzle,Snow",-3.987,1.7590894054480448
12/28/2012 1:00,-4.4,-6.6,85,15,6.4,100.83,"Freezing Drizzle,Snow",-4.3909999999999965,1.7507512632600475
12/28/2012 2:00,-4.3,-6.3,86,11,12.9,100.93,"Freezing Drizzle,Snow",-4.314000000000005,1.7530322801745157
12/28/2012 3:00,-4.6,-5.9,91,13,4.0,101.01,Snow,-4.615000000000006,1.762772169746578
12/28/2012 4:00,-4.9,-5.9,93,9,9.7,101.0,Snow,-4.776999999999997,1.7663155381997573
12/28/2012 5:00,-5.0,-6.1,92,7,25.0,101.01,Cloudy,-4.934999999999998,1.764560779079539
12/28/2012 6:00,-4.8,-6.6,87,9,25.0,101.04,Cloudy,-4.719999999999998,1.755244623603565
12/28/2012 7:00,-5.0,-6.5,89,9,25.0,101.07,Cloudy,-4.949999999999999,1.7590894054480448
12/28/2012 8:00,-5.2,-7.0,87,17,24.1,101.15,Mostly Cloudy,-5.151999999999992,1.755244623603565
12/28/2012 9:00,-5.5,-8.0,83,17,24.1,101.23,Mostly Cloudy,-5.467999999999995,1.7459700090483987
12/28/2012 10:00,-6.1,-8.6,82,19,24.1,101.27,Clear,-6.080000000000008,1.7434626346010758
12/28/2012 11:00,-6.2,-8.8,82,24,48.3,101.24,Mainly Clear,-6.222,1.7434626346010758
12/28/2012 12:00,-7.2,-9.9,81,24,48.3,101.22,Mainly Clear,-7.183000000000004,1.7408722768108806
12/28/2012 13:00,-6.8,-9.8,79,20,48.3,101.17,Mainly Clear,-6.940000000000001,1.7357508862871274
12/28/2012 14:00,-6.5,-9.9,77,22,48.3,101.17,Mainly Clear,-6.394000000000002,1.7302348458823897
12/28/2012 15:00,-6.8,-10.3,76,24,48.3,101.22,Mainly Clear,-6.7170000000000005,1.7272721454173066
12/28/2012 16:00,-7.7,-11.0,77,30,48.3,101.25,Mainly Clear,-7.640000000000003,1.7302348458823897
12/28/2012 17:00,-8.6,-12.0,76,26,25.0,101.34,Mainly Clear,-8.494999999999992,1.7272721454173066
12/28/2012 18:00,-9.0,-12.2,78,24,25.0,101.37,Mainly Clear,-9.034999999999998,1.733057876440812
12/28/2012 19:00,-9.4,-12.3,79,22,25.0,101.37,Mainly Clear,-9.373999999999992,1.7357508862871274
12/28/2012 20:00,-9.8,-12.6,80,20,25.0,101.35,Mainly Clear,-9.772999999999989,1.7383226557949913
12/28/2012 21:00,-9.8,-12.5,81,19,25.0,101.36,Mainly Clear,-9.804999999999984,1.7408722768108806
12/28/2012 22:00,-9.9,-12.5,81,17,25.0,101.38,Mainly Clear,-9.865999999999984,1.7408722768108806
12/28/2012 23:00,-10.9,-13.2,83,13,25.0,101.38,Mainly Clear,-10.919999999999995,1.7459700090483987
12/29/2012 0:00,-11.6,-13.5,86,13,25.0,101.35,Mainly Clear,-11.503,1.7530322801745157
12/29/2012 1:00,-11.9,-13.6,87,11,25.0,101.31,Clear,-11.838999999999992,1.755244623603565
12/29/2012 2:00,-11.8,-13.1,90,13,25.0,101.33,Clear,-11.635999999999985,1.7609487211792867
12/29/2012 3:00,-13.4,-15.2,86,4,4.8,101.33,Fog,-13.309000000000003,1.7530322801745157
12/29/2012 4:00,-16.0,-17.2,90,6,9.7,101.25,Fog,-14.60899999999999,1.7609487211792867
12/29/2012 5:00,-14.8,-15.9,91,4,6.4,101.25,Fog,-14.535999999999985,1.762772169746578
12/29/2012 6:00,-13.8,-15.3,88,4,9.7,101.25,Fog,-13.507000000000005,1.7571931537828946
12/29/2012 7:00,-14.8,-16.4,88,7,8.0,101.22,Fog,-14.679999999999982,1.7571931537828946
12/29/2012 8:00,-13.6,-15.1,88,11,12.9,101.19,Cloudy,-13.366999999999992,1.7571931537828946
12/29/2012 9:00,-13.2,-14.8,88,11,12.9,101.13,Cloudy,-13.101999999999999,1.7571931537828946
12/29/2012 10:00,-12.0,-13.3,90,7,6.4,101.15,Fog,-11.880999999999995,1.7609487211792867
12/29/2012 11:00,-10.9,-12.2,90,7,6.4,101.09,"Snow Showers,Fog",-10.806999999999995,1.7609487211792867
12/29/2012 12:00,-10.5,-11.6,92,11,8.0,100.93,"Snow Showers,Fog",-10.424000000000001,1.764560779079539
12/29/2012 13:00,-10.0,-11.1,92,22,9.7,100.63,"Snow Showers,Fog",-9.330999999999992,1.764560779079539
12/29/2012 14:00,-9.3,-10.5,91,22,4.8,100.6,"Snow,Fog",-9.08599999999999,1.762772169746578
12/29/2012 15:00,-8.8,-10.0,91,20,1.2,100.55,"Snow,Fog",-8.682999999999991,1.762772169746578
12/29/2012 16:00,-8.5,-9.9,90,24,1.2,100.49,"Snow,Fog",-8.431999999999999,1.7609487211792867
12/29/2012 17:00,-9.0,-10.4,90,19,2.4,100.46,"Snow,Fog",-8.987000000000002,1.7609487211792867
12/29/2012 18:00,-9.3,-10.9,88,26,6.4,100.38,"Snow,Fog",-9.179999999999993,1.7571931537828946
12/29/2012 19:00,-9.5,-11.2,87,26,3.2,100.33,"Snow,Fog",-9.434000000000003,1.755244623603565
12/29/2012 20:00,-9.7,-11.6,86,24,9.7,100.25,"Snow,Fog",-9.791999999999998,1.7530322801745157
12/29/2012 21:00,-9.8,-11.8,85,24,8.0,100.24,"Snow,Fog",-9.830999999999992,1.7507512632600475
12/29/2012 22:00,-10.1,-11.6,89,15,2.4,100.2,"Snow,Fog",-10.153000000000013,1.7590894054480448
12/29/2012 23:00,-10.0,-12.0,85,20,6.4,100.19,"Snow,Fog",-9.963,1.7507512632600475
12/30/2012 0:00,-9.6,-11.3,87,13,3.2,100.23,"Snow,Fog",-9.55000000000001,1.755244623603565
12/30/2012 1:00,-9.4,-10.5,92,9,2.4,100.22,"Snow,Fog",-9.33799999999999,1.764560779079539
12/30/2012 2:00,-9.3,-10.4,92,9,4.0,100.28,"Snow,Fog",-9.212999999999996,1.764560779079539
12/30/2012 3:00,-9.1,-10.4,90,11,3.6,100.3,"Snow,Fog",-9.102000000000011,1.7609487211792867
12/30/2012 4:00,-9.3,-10.6,90,13,9.7,100.28,"Snow,Fog",-9.283999999999988,1.7609487211792867
12/30/2012 5:00,-9.1,-10.4,90,11,4.0,100.32,"Snow,Fog",-9.11900000000001,1.7609487211792867
12/30/2012 6:00,-9.3,-10.8,89,17,8.0,100.39,"Snow,Fog",-9.271999999999988,1.7590894054480448
12/30/2012 7:00,-9.9,-13.2,77,19,25.0,100.48,Mostly Cloudy,-9.957999999999993,1.7302348458823897
12/30/2012 8:00,-11.3,-14.5,77,20,24.1,100.57,Cloudy,-11.418000000000001,1.7302348458823897
12/30/2012 9:00,-11.7,-15.0,76,19,24.1,100.69,Cloudy,-11.633000000000013,1.7272721454173066
12/30/2012 10:00,-12.4,-16.0,74,24,24.1,100.82,Cloudy,-12.33,1.7209839103698092
12/30/2012 11:00,-11.9,-15.4,75,32,24.1,100.89,Cloudy,-11.824000000000003,1.7241591468416737
12/30/2012 12:00,-12.2,-15.7,75,26,48.3,100.91,Mostly Cloudy,-12.217000000000017,1.7241591468416737
12/30/2012 13:00,-12.4,-16.2,73,37,48.3,100.92,Mostly Cloudy,-12.366000000000003,1.718324698506683
12/30/2012 14:00,-11.8,-16.1,70,37,48.3,100.96,Mainly Clear,-11.710000000000003,1.7091525423728813
12/30/2012 15:00,-11.3,-15.6,70,32,48.3,101.05,Mainly Clear,-11.124,1.7091525423728813
12/30/2012 16:00,-11.4,-15.5,72,26,48.3,101.15,Mainly Clear,-11.503000000000007,1.7154802667147235
12/30/2012 17:00,-12.1,-15.8,74,28,25.0,101.26,Mainly Clear,-12.155000000000005,1.7209839103698092
12/30/2012 18:00,-12.6,-16.0,76,24,25.0,101.36,Mainly Clear,-12.658999999999997,1.7272721454173066
12/30/2012 19:00,-13.4,-16.5,77,26,25.0,101.47,Mainly Clear,-13.432,1.7302348458823897
12/30/2012 20:00,-13.8,-16.5,80,24,25.0,101.52,Clear,-13.779999999999982,1.7383226557949913
12/30/2012 21:00,-13.8,-16.5,80,20,25.0,101.5,Mainly Clear,-13.813999999999986,1.7383226557949913
12/30/2012 22:00,-13.7,-16.3,81,19,25.0,101.54,Mainly Clear,-13.722000000000014,1.7408722768108806
12/30/2012 23:00,-12.1,-15.1,78,28,25.0,101.52,Mostly Cloudy,-11.994000000000007,1.733057876440812
12/31/2012 0:00,-11.1,-14.4,77,26,25.0,101.51,Cloudy,-11.164000000000001,1.7302348458823897
12/31/2012 1:00,-10.7,-14.0,77,15,25.0,101.5,Cloudy,-10.71200000000001,1.7302348458823897
12/31/2012 2:00,-10.1,-13.4,77,9,25.0,101.45,Cloudy,-10.121000000000008,1.7302348458823897
12/31/2012 3:00,-11.8,-14.4,81,6,25.0,101.42,Mostly Cloudy,-11.863999999999983,1.7408722768108806
12/31/2012 4:00,-10.5,-12.8,83,11,25.0,101.34,Cloudy,-10.474,1.7459700090483987
12/31/2012 5:00,-10.2,-12.4,84,6,25.0,101.28,Cloudy,-10.217000000000011,1.7483983249034645
12/31/2012 6:00,-9.7,-11.7,85,4,25.0,101.23,Cloudy,-9.766000000000009,1.7507512632600475
12/31/2012 7:00,-9.3,-11.3,85,0,19.3,101.19,Snow Showers,-9.329999999999993,1.7507512632600475
12/31/2012 8:00,-8.6,-10.3,87,4,3.2,101.14,Snow Showers,-8.493000000000011,1.755244623603565
12/31/2012 9:00,-8.1,-9.6,89,4,2.4,101.09,Snow,-7.98700000000001,1.7590894054480448
12/31/2012 10:00,-7.4,-8.9,89,4,6.4,101.05,"Snow,Fog",-7.251999999999993,1.7590894054480448
12/31/2012 11:00,-6.7,-7.9,91,9,9.7,100.93,Snow,-6.533,1.762772169746578
12/31/2012 12:00,-5.8,-7.5,88,4,12.9,100.78,Snow,-5.86,1.7571931537828946
12/31/2012 13:00,-4.6,-6.6,86,4,12.9,100.63,Snow,-4.4769999999999985,1.7530322801745157
12/31/2012 14:00,-3.4,-5.7,84,6,11.3,100.57,Snow,-3.421,1.7483983249034645
12/31/2012 15:00,-2.3,-4.6,84,9,9.7,100.47,Snow,-2.2910000000000026,1.7582312563626037
12/31/2012 16:00,-1.4,-4.0,82,13,12.9,100.4,Snow,-1.3870000000000018,1.7664284487824669
12/31/2012 17:00,-1.1,-3.3,85,19,9.7,100.3,Snow,-1.12,1.7681826783574088
12/31/2012 18:00,-1.3,-3.1,88,17,9.7,100.19,Snow,-1.3379999999999992,1.7668527900442128
12/31/2012 19:00,0.1,-2.7,81,30,9.7,100.13,Snow,0.13999999999999985,1.77375170522369
12/31/2012 20:00,0.2,-2.4,83,24,9.7,100.03,Snow,0.09699999999999978,1.773862943519031
12/31/2012 21:00,-0.5,-1.5,93,28,4.8,99.95,Snow,-0.3710000000000001,1.7721827984482084
12/31/2012 22:00,-0.2,-1.8,89,28,9.7,99.91,Snow,-0.261,1.77275866961795
12/31/2012 23:00,0.0,-2.1,86,30,11.3,99.89,Snow,-0.055999999999999966,1.7738241518879116
